{
  "type": "FeatureCollection",
  "features": [
    {
      "type": "Feature",
      "properties": {
        "dn": 1,
        "PRODUCT": "Day 1 Excessive Rainfall Potential Forecast",
        "VALID_TIME": "16Z 08/15/26 - 12Z 08/16/26",
        "OUTLOOK": "Marginal (At Least 5%)",
        "ISSUE_TIME": "2026-08-15 15:56:00",
        "START_TIME": "2026-08-15 16:00:00",
        "END_TIME": "2026-08-16 12:00:00",
        "Snippet": "16Z 08/15/26 - 12Z 08/16/26",
        "risk_norm": "MARGINAL"
      },
      "geometry": {
        "type": "Polygon",
        "coordinates": [
          [
            [
              -104.87761417462117,
              29.890359737728467
            ],
            [
              -104.90828457938767,
              30.253446935923108
            ],
            [
              -105.028860756658,
              30.4282232571379
            ],
            [
              -106.055277882567,
              31.224775584563876
            ],
            [
              -106.50210402882288,
              31.421674705201944
            ],
            [
              -106.57207952163469,
              31.597888069269302
            ],
            [
              -107.96578444528456,
              31.62688053767055
            ],
            [
              -108.06062585381395,
              31.52882876890281
            ],
            [
              -108.07866176117668,
              31.20713454245347
            ],
            [
              -108.97623571561925,
              31.13024758539512
            ],
            [
              -110.73956450880605,
              31.14696319042524
            ],
            [
              -111.8462491278468,
              31.399575276763745
            ],
            [
              -111.8132269956851,
              31.540322292866662
            ],
            [
              -111.43463811808564,
              31.900906034910292
            ],
            [
              -110.4220477286868,
              32.367254738839215
            ],
            [
              -109.92447833544209,
              32.68783246872945
            ],
            [
              -109.65111884456357,
              33.07620240052767
            ],
            [
              -109.4749219551358,
              33.81913352120804
            ],
            [
              -109.08692093410204,
              34.2169266589207
            ],
            [
              -108.55553229873814,
              34.352461398326525
            ],
            [
              -106.32149552696933,
              34.47678471414411
            ],
            [
              -105.89906330077753,
              34.64092344969856
            ],
            [
              -105.54805764829761,
              34.978861729615424
            ],
            [
              -105.32040961321844,
              35.48900697164195
            ],
            [
              -105.25631998719263,
              35.98788166088377
            ],
            [
              -105.3706228438374,
              37.19194388624319
            ],
            [
              -106.06931665866333,
              39.06553806306627
            ],
            [
              -106.19191671174636,
              39.67858401013112
            ],
            [
              -106.18159294715234,
              40.65106790473986
            ],
            [
              -106.37451387837847,
              41.34268542190671
            ],
            [
              -106.7352157976234,
              41.933373707142124
            ],
            [
              -107.31226588947553,
              42.33170806178533
            ],
            [
              -108.17190415799864,
              42.57757163196327
            ],
            [
              -109.11645781455873,
              42.55098440317499
            ],
            [
              -109.83900984478556,
              42.625016133203104
            ],
            [
              -111.04973883661079,
              43.134507874868774
            ],
            [
              -111.67466841859724,
              43.29720595651113
            ],
            [
              -113.98450727915959,
              43.467559287441205
            ],
            [
              -114.91971753068171,
              43.63139037604152
            ],
            [
              -115.47318941533574,
              43.96462825696249
            ],
            [
              -116.04402855096643,
              44.64062525178577
            ],
            [
              -116.38734894099152,
              44.81812396587992
            ],
            [
              -117.23055328693228,
              44.76440458310456
            ],
            [
              -117.85409505185987,
              44.559596289324894
            ],
            [
              -118.32836645651366,
              44.50144720302958
            ],
            [
              -118.79677350657924,
              44.66144072537599
            ],
            [
              -118.94075844055642,
              44.99113971021641
            ],
            [
              -118.64557725425303,
              45.28922897606702
            ],
            [
              -115.73284342014293,
              47.12564971503155
            ],
            [
              -114.67631833836842,
              47.44576518126609
            ],
            [
              -113.33211717679954,
              47.61619259557136
            ],
            [
              -112.12910619742962,
              47.55376146027135
            ],
            [
              -110.89152114249796,
              47.27555145656898
            ],
            [
              -109.74936612778782,
              46.7696177677134
            ],
            [
              -109.13744103087461,
              46.00596543064498
            ],
            [
              -108.15564804249959,
              45.56314864542389
            ],
            [
              -105.76052059810634,
              44.89802550791776
            ],
            [
              -104.89976031891261,
              44.77289252753847
            ],
            [
              -103.56804236944205,
              44.75153482263782
            ],
            [
              -102.70133521090355,
              44.4879470125647
            ],
            [
              -102.12176601511139,
              43.99324532302612
            ],
            [
              -101.8106563068466,
              42.96677485560795
            ],
            [
              -101.37289619515784,
              42.59233931979278
            ],
            [
              -100.70979477148202,
              42.3530881469505
            ],
            [
              -100.35936788738763,
              42.40718859260741
            ],
            [
              -99.66550208655622,
              42.68696051084931
            ],
            [
              -97.27300542759292,
              43.942710515204354
            ],
            [
              -96.02236585521399,
              44.42663443134037
            ],
            [
              -95.30182253109083,
              44.60075979697395
            ],
            [
              -94.63948322685818,
              44.643529453779436
            ],
            [
              -93.5574104680301,
              44.50974509943273
            ],
            [
              -91.00245706527605,
              43.74150626906693
            ],
            [
              -90.17611563346152,
              43.54934846782911
            ],
            [
              -89.17234235098168,
              43.39101664675233
            ],
            [
              -86.22477259266903,
              43.05856658629447
            ],
            [
              -82.6838010515934,
              42.376867993288826
            ],
            [
              -82.57091689136959,
              42.32467938934855
            ],
            [
              -82.88485609396244,
              42.170957840231544
            ],
            [
              -82.90579323105966,
              41.99738564827912
            ],
            [
              -82.74756275819861,
              41.85631426876429
            ],
            [
              -82.51436228639966,
              41.84042133809318
            ],
            [
              -81.82802203112522,
              42.14229435683887
            ],
            [
              -81.6527310542753,
              42.129540312791306
            ],
            [
              -79.18274752049702,
              41.31570624602878
            ],
            [
              -78.43032963029893,
              40.89468910568287
            ],
            [
              -77.8268867047974,
              40.305274442227606
            ],
            [
              -77.61469618109305,
              39.840415842500555
            ],
            [
              -77.68212767142488,
              39.08991656656931
            ],
            [
              -78.10664213844582,
              38.23801163237154
            ],
            [
              -78.30808813992934,
              36.95605925114719
            ],
            [
              -78.17625752115087,
              36.3571725946915
            ],
            [
              -77.6898027844054,
              35.901924623828016
            ],
            [
              -77.27256738584202,
              35.722270748090736
            ],
            [
              -76.4742282996467,
              35.49910811939525
            ],
            [
              -75.18031310519952,
              35.25725666309602
            ],
            [
              -75.2825951709062,
              34.9969144108118
            ],
            [
              -75.68750146652499,
              34.90775557746928
            ],
            [
              -76.33608762525729,
              34.3463842825895
            ],
            [
              -76.56711972978593,
              34.28166558949719
            ],
            [
              -76.76864650647587,
              34.395268525245044
            ],
            [
              -77.11486706439331,
              34.297165663611125
            ],
            [
              -77.5412988933626,
              34.025999103894556
            ],
            [
              -77.64390130445592,
              33.71848101879983
            ],
            [
              -77.77339189423618,
              33.594818203961296
            ],
            [
              -77.94830693276285,
              33.522282812135245
            ],
            [
              -77.99526709697264,
              33.572751840595316
            ],
            [
              -78.37836769065561,
              33.567026823234485
            ],
            [
              -78.85266302286722,
              33.29740433841915
            ],
            [
              -78.95741378027536,
              32.943546965180765
            ],
            [
              -80.49445341643577,
              31.950699855526654
            ],
            [
              -80.80478819113524,
              31.613784504858923
            ],
            [
              -81.12021116667621,
              30.77425779181026
            ],
            [
              -81.06926742590505,
              30.312625737486528
            ],
            [
              -81.8807734031109,
              29.695962495043723
            ],
            [
              -83.31928391511588,
              28.987522832929983
            ],
            [
              -83.98262333699651,
              29.721758924327382
            ],
            [
              -84.08710279402948,
              29.729113279407834
            ],
            [
              -84.58960571074063,
              29.39809269208807
            ],
            [
              -84.91399175906047,
              29.282449750682755
            ],
            [
              -85.17437984791225,
              29.29915663257841
            ],
            [
              -85.68460892611208,
              29.46759498758081
            ],
            [
              -85.72344750313837,
              29.653424985947463
            ],
            [
              -85.96634164550724,
              29.894930583775515
            ],
            [
              -86.47697752494051,
              30.10603567532834
            ],
            [
              -87.59390595034859,
              29.934966267913758
            ],
            [
              -87.77945441179372,
              30.3546532089378
            ],
            [
              -87.79286035845293,
              30.992621588333073
            ],
            [
              -87.66411955026778,
              31.350583374811848
            ],
            [
              -87.31261476526016,
              31.833931951990323
            ],
            [
              -86.74304161323018,
              32.305964449161344
            ],
            [
              -85.45698868283007,
              32.91537576393395
            ],
            [
              -84.82272355256985,
              33.37448104681135
            ],
            [
              -84.63197762926272,
              33.67951676878084
            ],
            [
              -84.63633391444893,
              34.22279068479682
            ],
            [
              -84.96226364329964,
              35.46129259635095
            ],
            [
              -84.93726815183615,
              36.94187221870333
            ],
            [
              -85.07169810308446,
              37.307823733816555
            ],
            [
              -85.47862693778019,
              37.77683946621414
            ],
            [
              -86.28880985355765,
              38.22099430643392
            ],
            [
              -87.34206514057473,
              38.53778254859031
            ],
            [
              -91.06843047360456,
              39.061233534249205
            ],
            [
              -92.83471868769968,
              39.09207063625895
            ],
            [
              -93.51991854482688,
              39.010688890557155
            ],
            [
              -96.86696757945602,
              38.252972244548666
            ],
            [
              -98.59990007622774,
              37.64702771076484
            ],
            [
              -99.97377196494783,
              36.943080974464024
            ],
            [
              -101.31060592008922,
              35.91378800948382
            ],
            [
              -102.13366923886633,
              34.9362148698498
            ],
            [
              -102.85654615951259,
              33.50347578262166
            ],
            [
              -103.15676656352741,
              32.40096239345612
            ],
            [
              -103.03647869843867,
              31.45305987079752
            ],
            [
              -102.49109613245676,
              29.612643791984574
            ],
            [
              -102.67353584704607,
              29.193135991427127
            ],
            [
              -102.96863089913445,
              28.90342939769026
            ],
            [
              -103.43615605750442,
              28.87863360121877
            ],
            [
              -104.64208958358151,
              29.585567873281928
            ],
            [
              -104.87761417462117,
              29.890359737728467
            ]
          ],
          [
            [
              -101.86514115608384,
              36.78797229726237
            ],
            [
              -101.04163640577899,
              37.04293859844028
            ],
            [
              -99.9444556464561,
              37.52474199109159
            ],
            [
              -98.5093312159521,
              38.31670559529397
            ],
            [
              -96.93726073675154,
              39.00665411680444
            ],
            [
              -96.54389003519489,
              39.40912476770848
            ],
            [
              -96.54911800126268,
              39.76231254572457
            ],
            [
              -96.78140304300163,
              39.89286956217938
            ],
            [
              -97.06943361633196,
              39.93381654674926
            ],
            [
              -100.37702774033042,
              39.42237171572138
            ],
            [
              -101.00285089779317,
              39.35782849489773
            ],
            [
              -101.63627636754174,
              39.4234752820343
            ],
            [
              -102.05323929034496,
              39.672082154066466
            ],
            [
              -102.1828918905616,
              39.88769752187524
            ],
            [
              -102.22882352150361,
              40.54695241416812
            ],
            [
              -102.1438358669315,
              40.98985095066087
            ],
            [
              -102.21725514430076,
              41.2062707806503
            ],
            [
              -102.46622956292168,
              41.41568305607003
            ],
            [
              -103.25103011186661,
              41.73175375210747
            ],
            [
              -103.88433735349889,
              42.26974445350941
            ],
            [
              -104.06817216348453,
              42.347939550757836
            ],
            [
              -104.35758800564449,
              42.28976766827841
            ],
            [
              -104.89738083225119,
              41.78023245074107
            ],
            [
              -105.18591320108153,
              41.150421741071085
            ],
            [
              -105.0821971023344,
              40.099303708448325
            ],
            [
              -104.79775061446712,
              38.91970751126984
            ],
            [
              -104.40733556364565,
              37.739409626598686
            ],
            [
              -104.07760674511445,
              37.176483540627146
            ],
            [
              -103.5980905027705,
              36.79827188223426
            ],
            [
              -102.91672821324232,
              36.6524340917882
            ],
            [
              -102.3604024851103,
              36.67760375704457
            ],
            [
              -101.86514115608384,
              36.78797229726237
            ]
          ],
          [
            [
              -81.3606974267775,
              37.72190215148513
            ],
            [
              -80.77752240858985,
              37.853371088123964
            ],
            [
              -79.97419206417533,
              38.321935800325704
            ],
            [
              -79.5031973925564,
              38.81603539065307
            ],
            [
              -79.17134621806598,
              39.49879072806874
            ],
            [
              -79.1413281268627,
              40.07342309182734
            ],
            [
              -79.41163320706745,
              40.58456437065854
            ],
            [
              -80.10858398004167,
              40.997852869851776
            ],
            [
              -82.92256304658095,
              41.86760248058068
            ],
            [
              -84.93599905701454,
              42.29590018078615
            ],
            [
              -87.15331671495623,
              42.57844405285848
            ],
            [
              -89.62594449933168,
              42.71067401800266
            ],
            [
              -90.99048890605532,
              42.57162808744334
            ],
            [
              -91.76388253071117,
              42.36946064041594
            ],
            [
              -92.65926777350352,
              41.859870469631936
            ],
            [
              -93.01823761257437,
              41.47105352696553
            ],
            [
              -93.0864399828698,
              40.94634704340229
            ],
            [
              -92.86168638954817,
              40.59267258402351
            ],
            [
              -92.57616581774522,
              40.41276251932267
            ],
            [
              -91.72029762488322,
              40.09091582883372
            ],
            [
              -90.35179880395067,
              39.79567156967763
            ],
            [
              -87.60754243175165,
              39.61350874630121
            ],
            [
              -86.36079072542303,
              39.42384660750393
            ],
            [
              -84.53675167393511,
              38.74715623521404
            ],
            [
              -83.18117016537157,
              38.12523947625496
            ],
            [
              -82.08888255954352,
              37.778461699491125
            ],
            [
              -81.3606974267775,
              37.72190215148513
            ]
          ]
        ]
      }
    },
    {
      "type": "Feature",
      "properties": {
        "dn": 1,
        "PRODUCT": "Day 1 Excessive Rainfall Potential Forecast",
        "VALID_TIME": "16Z 08/15/26 - 12Z 08/16/26",
        "OUTLOOK": "Marginal (At Least 5%)",
        "ISSUE_TIME": "2026-08-15 15:56:00",
        "START_TIME": "2026-08-15 16:00:00",
        "END_TIME": "2026-08-16 12:00:00",
        "Snippet": "16Z 08/15/26 - 12Z 08/16/26",
        "risk_norm": "MARGINAL"
      },
      "geometry": {
        "type": "Polygon",
        "coordinates": [
          [
            [
              -111.69585584405274,
              34.4230590591435
            ],
            [
              -114.36084369193489,
              35.17464869599914
            ],
            [
              -114.90462768738311,
              35.109801404640265
            ],
            [
              -115.31459092838959,
              34.92321680466462
            ],
            [
              -115.64321672955421,
              34.60987970208719
            ],
            [
              -115.70970012592036,
              34.37358322019552
            ],
            [
              -116.00045094507881,
              34.15295102627097
            ],
            [
              -116.6908174218692,
              34.01651091199296
            ],
            [
              -116.87938621010227,
              34.1291790025553
            ],
            [
              -117.03976680385716,
              34.38157161127479
            ],
            [
              -117.11958588702798,
              34.78150879445162
            ],
            [
              -117.06159991260718,
              36.15446506178849
            ],
            [
              -116.7655225322177,
              36.918449353674305
            ],
            [
              -116.6694580768823,
              37.56347303456583
            ],
            [
              -116.48073089547812,
              38.038199943003356
            ],
            [
              -116.13993525579075,
              38.620127576954545
            ],
            [
              -115.79848257646246,
              38.93166254593228
            ],
            [
              -114.93942183318347,
              39.25639163633726
            ],
            [
              -114.54394637019911,
              39.3012865419523
            ],
            [
              -114.06752557224674,
              39.2201555786269
            ],
            [
              -113.78495395422668,
              38.93723327218292
            ],
            [
              -113.43058674108825,
              37.90009168605803
            ],
            [
              -113.10952505475004,
              37.35022045759546
            ],
            [
              -112.6705531497667,
              37.08246475005249
            ],
            [
              -111.6719051741357,
              36.823895704629656
            ],
            [
              -111.22286329007045,
              36.461494353134185
            ],
            [
              -110.93018202670288,
              35.99350160782033
            ],
            [
              -110.83028591876337,
              34.91789641352086
            ],
            [
              -111.05815566578494,
              34.57760526760096
            ],
            [
              -111.26219551524748,
              34.4667442157473
            ],
            [
              -111.69585584405274,
              34.4230590591435
            ]
          ]
        ]
      }
    },
    {
      "type": "Feature",
      "properties": {
        "dn": 2,
        "PRODUCT": "Day 1 Excessive Rainfall Potential Forecast",
        "VALID_TIME": "16Z 08/15/26 - 12Z 08/16/26",
        "OUTLOOK": "Slight (At Least 15%)",
        "ISSUE_TIME": "2026-08-15 15:56:00",
        "START_TIME": "2026-08-15 16:00:00",
        "END_TIME": "2026-08-16 12:00:00",
        "Snippet": "16Z 08/15/26 - 12Z 08/16/26",
        "risk_norm": "SLIGHT"
      },
      "geometry": {
        "type": "Polygon",
        "coordinates": [
          [
            [
              -102.91672821324232,
              36.6524340917882
            ],
            [
              -103.5980905027705,
              36.79827188223426
            ],
            [
              -104.07760674511445,
              37.176483540627146
            ],
            [
              -104.40733556364565,
              37.739409626598686
            ],
            [
              -104.79775061446712,
              38.91970751126984
            ],
            [
              -105.0821971023344,
              40.099303708448325
            ],
            [
              -105.18591320108153,
              41.150421741071085
            ],
            [
              -104.89738083225119,
              41.78023245074107
            ],
            [
              -104.35758800564449,
              42.28976766827841
            ],
            [
              -104.06817216348453,
              42.347939550757836
            ],
            [
              -103.88433735349889,
              42.26974445350941
            ],
            [
              -103.25103011186661,
              41.73175375210747
            ],
            [
              -102.46622956292168,
              41.41568305607003
            ],
            [
              -102.21725514430076,
              41.2062707806503
            ],
            [
              -102.1438358669315,
              40.98985095066087
            ],
            [
              -102.22882352150361,
              40.54695241416812
            ],
            [
              -102.1828918905616,
              39.88769752187524
            ],
            [
              -102.05323929034496,
              39.672082154066466
            ],
            [
              -101.63627636754174,
              39.4234752820343
            ],
            [
              -101.00285089779317,
              39.35782849489773
            ],
            [
              -100.37702774033042,
              39.42237171572138
            ],
            [
              -97.06943361633196,
              39.93381654674926
            ],
            [
              -96.78140304300163,
              39.89286956217938
            ],
            [
              -96.54911800126268,
              39.76231254572457
            ],
            [
              -96.54389003519489,
              39.40912476770848
            ],
            [
              -96.93726073675154,
              39.00665411680444
            ],
            [
              -98.5093312159521,
              38.31670559529397
            ],
            [
              -99.9444556464561,
              37.52474199109159
            ],
            [
              -101.04163640577899,
              37.04293859844028
            ],
            [
              -101.86514115608384,
              36.78797229726237
            ],
            [
              -102.3604024851103,
              36.67760375704457
            ],
            [
              -102.91672821324232,
              36.6524340917882
            ]
          ]
        ]
      }
    },
    {
      "type": "Feature",
      "properties": {
        "dn": 2,
        "PRODUCT": "Day 1 Excessive Rainfall Potential Forecast",
        "VALID_TIME": "16Z 08/15/26 - 12Z 08/16/26",
        "OUTLOOK": "Slight (At Least 15%)",
        "ISSUE_TIME": "2026-08-15 15:56:00",
        "START_TIME": "2026-08-15 16:00:00",
        "END_TIME": "2026-08-16 12:00:00",
        "Snippet": "16Z 08/15/26 - 12Z 08/16/26",
        "risk_norm": "SLIGHT"
      },
      "geometry": {
        "type": "Polygon",
        "coordinates": [
          [
            [
              -83.18117016537157,
              38.12523947625496
            ],
            [
              -84.53675167393511,
              38.74715623521404
            ],
            [
              -86.36079072542303,
              39.42384660750393
            ],
            [
              -87.60754243175165,
              39.61350874630121
            ],
            [
              -90.35179880395067,
              39.79567156967763
            ],
            [
              -91.72029762488322,
              40.09091582883372
            ],
            [
              -92.57616581774522,
              40.41276251932267
            ],
            [
              -92.86168638954817,
              40.59267258402351
            ],
            [
              -93.0864399828698,
              40.94634704340229
            ],
            [
              -93.01823761257437,
              41.47105352696553
            ],
            [
              -92.65926777350352,
              41.859870469631936
            ],
            [
              -91.76388253071117,
              42.36946064041594
            ],
            [
              -90.99048890605532,
              42.57162808744334
            ],
            [
              -89.62594449933168,
              42.71067401800266
            ],
            [
              -87.15331671495623,
              42.57844405285848
            ],
            [
              -84.93599905701454,
              42.29590018078615
            ],
            [
              -82.92256304658095,
              41.86760248058068
            ],
            [
              -80.10858398004167,
              40.997852869851776
            ],
            [
              -79.41163320706745,
              40.58456437065854
            ],
            [
              -79.1413281268627,
              40.07342309182734
            ],
            [
              -79.17134621806598,
              39.49879072806874
            ],
            [
              -79.5031973925564,
              38.81603539065307
            ],
            [
              -79.97419206417533,
              38.321935800325704
            ],
            [
              -80.77752240858985,
              37.853371088123964
            ],
            [
              -81.3606974267775,
              37.72190215148513
            ],
            [
              -82.08888255954352,
              37.778461699491125
            ],
            [
              -83.18117016537157,
              38.12523947625496
            ]
          ],
          [
            [
              -81.71040283388452,
              38.99889501461097
            ],
            [
              -81.29654824157518,
              39.10024671687538
            ],
            [
              -81.10868526382508,
              39.21896328780287
            ],
            [
              -80.95974995821335,
              39.47368394600429
            ],
            [
              -80.9574801174483,
              39.91715635610943
            ],
            [
              -81.15700100160852,
              40.154535779346375
            ],
            [
              -81.7536717217305,
              40.46541919599662
            ],
            [
              -82.98352634955998,
              40.86131049176765
            ],
            [
              -84.06753361805161,
              41.06275621328361
            ],
            [
              -85.51632643210385,
              41.14511220589345
            ],
            [
              -87.92725975749863,
              40.81718477444685
            ],
            [
              -88.16462303140983,
              40.73852779299295
            ],
            [
              -88.41030224814364,
              40.52773063192172
            ],
            [
              -88.42431695541258,
              40.308152549213396
            ],
            [
              -88.09029606793926,
              40.119007314739676
            ],
            [
              -86.65393096993563,
              40.05711306102186
            ],
            [
              -85.80079159437392,
              39.92644821473627
            ],
            [
              -82.39613107774812,
              39.005462942224746
            ],
            [
              -81.71040283388452,
              38.99889501461097
            ]
          ]
        ]
      }
    },
    {
      "type": "Feature",
      "properties": {
        "dn": 3,
        "PRODUCT": "Day 1 Excessive Rainfall Potential Forecast",
        "VALID_TIME": "16Z 08/15/26 - 12Z 08/16/26",
        "OUTLOOK": "Moderate (At Least 40%)",
        "ISSUE_TIME": "2026-08-15 15:56:00",
        "START_TIME": "2026-08-15 16:00:00",
        "END_TIME": "2026-08-16 12:00:00",
        "Snippet": "16Z 08/15/26 - 12Z 08/16/26",
        "risk_norm": "MODERATE"
      },
      "geometry": {
        "type": "Polygon",
        "coordinates": [
          [
            [
              -82.39613107774812,
              39.005462942224746
            ],
            [
              -85.80079159437392,
              39.92644821473627
            ],
            [
              -86.65393096993563,
              40.05711306102186
            ],
            [
              -88.09029606793926,
              40.119007314739676
            ],
            [
              -88.42431695541258,
              40.308152549213396
            ],
            [
              -88.41030224814364,
              40.52773063192172
            ],
            [
              -88.16462303140983,
              40.73852779299295
            ],
            [
              -87.92725975749863,
              40.81718477444685
            ],
            [
              -85.51632643210385,
              41.14511220589345
            ],
            [
              -84.06753361805161,
              41.06275621328361
            ],
            [
              -82.98352634955998,
              40.86131049176765
            ],
            [
              -81.7536717217305,
              40.46541919599662
            ],
            [
              -81.15700100160852,
              40.154535779346375
            ],
            [
              -80.9574801174483,
              39.91715635610943
            ],
            [
              -80.95974995821335,
              39.47368394600429
            ],
            [
              -81.10868526382508,
              39.21896328780287
            ],
            [
              -81.29654824157518,
              39.10024671687538
            ],
            [
              -81.71040283388452,
              38.99889501461097
            ],
            [
              -82.39613107774812,
              39.005462942224746
            ]
          ]
        ]
      }
    }
  ]
}
