{
  "type": "FeatureCollection",
  "features": [
    {
      "type": "Feature",
      "properties": {
        "dn": 1,
        "PRODUCT": "Day 2 Excessive Rainfall Potential Forecast",
        "VALID_TIME": "12Z 08/16/26 - 12Z 08/17/26",
        "OUTLOOK": "Marginal (At Least 5%)",
        "ISSUE_TIME": "2026-08-15 08:24:00",
        "START_TIME": "2026-08-16 12:00:00",
        "END_TIME": "2026-08-17 12:00:00",
        "Snippet": "12Z 08/16/26 - 12Z 08/17/26",
        "risk_norm": "MARGINAL"
      },
      "geometry": {
        "type": "Polygon",
        "coordinates": [
          [
            [
              -106.50210402882288,
              31.421674705201944
            ],
            [
              -106.57207952163469,
              31.597888069269302
            ],
            [
              -106.78893953024682,
              31.62748502168065
            ],
            [
              -107.96578444528456,
              31.62688053767055
            ],
            [
              -108.06062585381395,
              31.52882876890281
            ],
            [
              -108.07866176117668,
              31.20713454245347
            ],
            [
              -108.97623571561925,
              31.13024758539512
            ],
            [
              -109.67324917365667,
              31.158332741328064
            ],
            [
              -109.90250368657979,
              31.68583614069193
            ],
            [
              -110.026247741974,
              32.22167911376648
            ],
            [
              -110.10405576118954,
              33.216379767363236
            ],
            [
              -110.05679368742186,
              34.08406199546275
            ],
            [
              -109.80263005635767,
              35.05868544830616
            ],
            [
              -107.34806249612348,
              37.77577918535117
            ],
            [
              -106.66932990701993,
              38.8040854014808
            ],
            [
              -106.08610400656796,
              40.30422712523311
            ],
            [
              -105.30186898725074,
              41.71393631591616
            ],
            [
              -105.20171600904251,
              42.4622977156165
            ],
            [
              -105.34090905207235,
              43.8004639110536
            ],
            [
              -105.26703033831498,
              44.23621683219326
            ],
            [
              -104.96101751173963,
              44.768842498096824
            ],
            [
              -104.4001076221793,
              45.22676076069725
            ],
            [
              -104.16648413702214,
              45.323588257498095
            ],
            [
              -103.37949113437323,
              45.35943361356907
            ],
            [
              -103.00890111717685,
              45.289723132519974
            ],
            [
              -102.32327187956975,
              45.06043298012101
            ],
            [
              -101.81137078505269,
              44.692813257306995
            ],
            [
              -101.50986753213898,
              43.7997544669401
            ],
            [
              -101.38888514429833,
              41.93738420463406
            ],
            [
              -101.17060899234389,
              41.24517060963656
            ],
            [
              -100.71939904458706,
              40.469805111120685
            ],
            [
              -99.19214410809856,
              38.43519470118091
            ],
            [
              -98.61044476193143,
              37.96026219345544
            ],
            [
              -98.32440787440214,
              37.832516965448505
            ],
            [
              -97.75781377041665,
              37.70898482014242
            ],
            [
              -96.63196156435018,
              37.67887311242284
            ],
            [
              -94.54965385464374,
              37.95309416749222
            ],
            [
              -93.41663559750283,
              38.30200487512445
            ],
            [
              -92.3875529932479,
              38.733317502034055
            ],
            [
              -91.63495037061772,
              39.20673552837437
            ],
            [
              -89.69873393835121,
              41.36041696281416
            ],
            [
              -88.22817637697787,
              42.40402383764086
            ],
            [
              -86.18489958508303,
              42.83950748602771
            ],
            [
              -83.99133428271996,
              43.37345298132967
            ],
            [
              -82.7482266268586,
              43.77264306591253
            ],
            [
              -82.04909336331045,
              44.07178412778829
            ],
            [
              -81.94610408423308,
              43.93404421381739
            ],
            [
              -81.94410209198836,
              43.50058694901688
            ],
            [
              -82.27046455317858,
              42.827620362908796
            ],
            [
              -82.30364670049526,
              42.5683173966887
            ],
            [
              -82.44289354405349,
              42.40329847652661
            ],
            [
              -82.88485609396244,
              42.170957840231544
            ],
            [
              -82.90579323105966,
              41.99738564827912
            ],
            [
              -82.74756275819861,
              41.85631426876429
            ],
            [
              -82.39235217823789,
              41.875798427322366
            ],
            [
              -81.26070402531013,
              42.406627481895526
            ],
            [
              -79.54933668946785,
              42.75106049076701
            ],
            [
              -79.21609475076576,
              42.983840967683406
            ],
            [
              -79.3035861977337,
              43.557386460125336
            ],
            [
              -78.91923204943369,
              43.69931718061865
            ],
            [
              -78.48307327097176,
              43.79156363369032
            ],
            [
              -76.9799881275183,
              43.78298999363961
            ],
            [
              -76.52916068956802,
              44.2594847389758
            ],
            [
              -75.62050702152317,
              44.86149209774918
            ],
            [
              -74.88210589198688,
              45.17468476094672
            ],
            [
              -71.88555073461235,
              45.137713181158034
            ],
            [
              -71.60681553461849,
              45.27615893875982
            ],
            [
              -71.56509177735084,
              45.444221266004
            ],
            [
              -71.05337252270442,
              45.51155953131959
            ],
            [
              -70.8092040369112,
              45.740409387866876
            ],
            [
              -69.50109787270033,
              45.31060687018125
            ],
            [
              -68.7496420304898,
              44.903517344101154
            ],
            [
              -68.13431223431925,
              44.467195379876586
            ],
            [
              -67.71146946284476,
              44.010303350476214
            ],
            [
              -69.72092454783335,
              43.327483995658945
            ],
            [
              -70.10930004617522,
              42.9850581797129
            ],
            [
              -69.85485072207551,
              42.33177992011856
            ],
            [
              -69.480651749618,
              41.92469703007804
            ],
            [
              -69.58985992783097,
              41.49577382473789
            ],
            [
              -69.51885318512674,
              41.30758668441631
            ],
            [
              -69.64106716384632,
              41.057617687804694
            ],
            [
              -69.97060606645945,
              40.92507989268513
            ],
            [
              -70.37002540716928,
              40.980953857927666
            ],
            [
              -71.02922283131235,
              40.937482386212295
            ],
            [
              -72.80244941169983,
              40.366731580764885
            ],
            [
              -73.57954567388487,
              40.28460982894157
            ],
            [
              -73.71015709341064,
              40.21221992322814
            ],
            [
              -73.81647979138202,
              39.510902480819595
            ],
            [
              -74.12171379232029,
              39.14513458047651
            ],
            [
              -74.66658562418245,
              38.71720153763917
            ],
            [
              -74.77636072974249,
              38.146593999733696
            ],
            [
              -75.02696035354602,
              37.72633511614775
            ],
            [
              -75.25535429070948,
              37.5525937450892
            ],
            [
              -74.8136051929531,
              38.150993755762
            ],
            [
              -74.70402617828958,
              38.72161382099384
            ],
            [
              -74.15928346740964,
              39.149655283597085
            ],
            [
              -73.8541674756455,
              39.51548077910362
            ],
            [
              -73.75588828760694,
              39.99482430964929
            ],
            [
              -74.59670287813925,
              40.45094835682547
            ],
            [
              -75.31307081953032,
              40.97566015515589
            ],
            [
              -76.06928192773454,
              41.32278232508421
            ],
            [
              -77.36730464978075,
              41.631198386593915
            ],
            [
              -79.04288700972009,
              41.830897064252234
            ],
            [
              -81.28545659094446,
              41.795046834485476
            ],
            [
              -83.24973175289364,
              41.58233537998752
            ],
            [
              -85.53658463830139,
              40.926790056463254
            ],
            [
              -85.96112461134898,
              40.72886833997927
            ],
            [
              -86.57921238606603,
              40.27429730295714
            ],
            [
              -86.84751556633708,
              39.80138251531931
            ],
            [
              -86.9057481771439,
              39.05158549943842
            ],
            [
              -86.7096140725645,
              38.64286447329689
            ],
            [
              -86.22870293635167,
              38.26290985093285
            ],
            [
              -85.68391328331839,
              38.01155784340195
            ],
            [
              -84.80068632688811,
              37.782877942226314
            ],
            [
              -82.32361017704363,
              37.70659052337148
            ],
            [
              -81.10961381125489,
              37.47774616123343
            ],
            [
              -80.64519234855413,
              37.573649781506774
            ],
            [
              -79.37602790537994,
              38.13400394676602
            ],
            [
              -78.05173445523474,
              38.23215302570832
            ],
            [
              -76.55462101338586,
              37.987841509473746
            ],
            [
              -75.28136923020018,
              37.53280394107226
            ],
            [
              -75.33487895241208,
              37.492098602666516
            ],
            [
              -75.36730145078597,
              37.31563663547625
            ],
            [
              -75.66100038532956,
              36.94365311235639
            ],
            [
              -75.40408814673185,
              36.1898124767505
            ],
            [
              -76.59086180670877,
              36.4603546704238
            ],
            [
              -77.69975742991723,
              36.89387101258901
            ],
            [
              -78.68597068987606,
              37.441504534000515
            ],
            [
              -79.29918256742563,
              37.499237247839105
            ],
            [
              -81.30069502957923,
              36.864854528783916
            ],
            [
              -83.974878246888,
              36.477284967449684
            ],
            [
              -88.60063325836367,
              36.49243024595973
            ],
            [
              -94.114035885834,
              36.07427022725535
            ],
            [
              -95.6641878075085,
              35.80630300620765
            ],
            [
              -96.76476888111534,
              35.484131568052305
            ],
            [
              -97.64336070147839,
              35.33773002602054
            ],
            [
              -100.77165239269624,
              35.12350215818539
            ],
            [
              -102.13182189615212,
              34.89034469901278
            ],
            [
              -102.61526809294153,
              34.73353185318976
            ],
            [
              -103.56426654190352,
              34.23552693172668
            ],
            [
              -104.37303956386646,
              33.46826583685705
            ],
            [
              -104.75828633317767,
              32.90158146797918
            ],
            [
              -105.6514625990801,
              30.88792781711799
            ],
            [
              -106.055277882567,
              31.224775584563876
            ],
            [
              -106.50210402882288,
              31.421674705201944
            ]
          ],
          [
            [
              -103.42115432810365,
              35.235550302741814
            ],
            [
              -102.25703204447285,
              35.96474119351202
            ],
            [
              -101.731025192961,
              36.43560069906622
            ],
            [
              -101.5806038532681,
              36.71022822539202
            ],
            [
              -101.49595279629176,
              37.16067302576826
            ],
            [
              -101.66001539655346,
              38.001808857869264
            ],
            [
              -102.2181012770517,
              38.73519896268804
            ],
            [
              -102.99274449024279,
              39.18968922453609
            ],
            [
              -103.64085928187085,
              39.42465078459143
            ],
            [
              -104.28010886505882,
              39.524805914004084
            ],
            [
              -104.83849994755707,
              39.36147393606639
            ],
            [
              -105.05004736472333,
              39.17164216919889
            ],
            [
              -105.33481383613623,
              38.57741345721207
            ],
            [
              -105.43033635414886,
              37.81404812462647
            ],
            [
              -105.85205815273447,
              36.39964751932687
            ],
            [
              -106.49094730137479,
              35.05131968663344
            ],
            [
              -106.44924797820046,
              34.647806471249204
            ],
            [
              -106.32194866363477,
              34.47584930474699
            ],
            [
              -106.14905887839583,
              34.396824391715626
            ],
            [
              -105.76815422825474,
              34.422281491094125
            ],
            [
              -103.42115432810365,
              35.235550302741814
            ]
          ]
        ]
      }
    },
    {
      "type": "Feature",
      "properties": {
        "dn": 2,
        "PRODUCT": "Day 2 Excessive Rainfall Potential Forecast",
        "VALID_TIME": "12Z 08/16/26 - 12Z 08/17/26",
        "OUTLOOK": "Slight (At Least 15%)",
        "ISSUE_TIME": "2026-08-15 08:24:00",
        "START_TIME": "2026-08-16 12:00:00",
        "END_TIME": "2026-08-17 12:00:00",
        "Snippet": "12Z 08/16/26 - 12Z 08/17/26",
        "risk_norm": "SLIGHT"
      },
      "geometry": {
        "type": "Polygon",
        "coordinates": [
          [
            [
              -106.14905887839583,
              34.396824391715626
            ],
            [
              -106.32194866363477,
              34.47584930474699
            ],
            [
              -106.44924797820046,
              34.647806471249204
            ],
            [
              -106.49094730137479,
              35.05131968663344
            ],
            [
              -105.85205815273447,
              36.39964751932687
            ],
            [
              -105.43033635414886,
              37.81404812462647
            ],
            [
              -105.33481383613623,
              38.57741345721207
            ],
            [
              -105.05004736472333,
              39.17164216919889
            ],
            [
              -104.83849994755707,
              39.36147393606639
            ],
            [
              -104.28010886505882,
              39.524805914004084
            ],
            [
              -103.64085928187085,
              39.42465078459143
            ],
            [
              -102.99274449024279,
              39.18968922453609
            ],
            [
              -102.2181012770517,
              38.73519896268804
            ],
            [
              -101.66001539655346,
              38.001808857869264
            ],
            [
              -101.49595279629176,
              37.16067302576826
            ],
            [
              -101.5806038532681,
              36.71022822539202
            ],
            [
              -101.731025192961,
              36.43560069906622
            ],
            [
              -102.25703204447285,
              35.96474119351202
            ],
            [
              -103.42115432810365,
              35.235550302741814
            ],
            [
              -105.76815422825474,
              34.422281491094125
            ],
            [
              -106.14905887839583,
              34.396824391715626
            ]
          ]
        ]
      }
    },
    {
      "type": "Feature",
      "properties": {
        "dn": 2,
        "PRODUCT": "Day 2 Excessive Rainfall Potential Forecast",
        "VALID_TIME": "12Z 08/16/26 - 12Z 08/17/26",
        "OUTLOOK": "Slight (At Least 15%)",
        "ISSUE_TIME": "2026-08-15 08:24:00",
        "START_TIME": "2026-08-16 12:00:00",
        "END_TIME": "2026-08-17 12:00:00",
        "Snippet": "12Z 08/16/26 - 12Z 08/17/26",
        "risk_norm": "SLIGHT"
      },
      "geometry": {
        "type": "Polygon",
        "coordinates": [
          [
            [
              -84.80068632688811,
              37.782877942226314
            ],
            [
              -85.68391328331839,
              38.01155784340195
            ],
            [
              -86.22870293635167,
              38.26290985093285
            ],
            [
              -86.7096140725645,
              38.64286447329689
            ],
            [
              -86.9057481771439,
              39.05158549943842
            ],
            [
              -86.84751556633708,
              39.80138251531931
            ],
            [
              -86.57921238606603,
              40.27429730295714
            ],
            [
              -85.96112461134898,
              40.72886833997927
            ],
            [
              -85.53658463830139,
              40.926790056463254
            ],
            [
              -83.24973175289364,
              41.58233537998752
            ],
            [
              -81.28545659094446,
              41.795046834485476
            ],
            [
              -79.04288700972009,
              41.830897064252234
            ],
            [
              -77.36730464978075,
              41.631198386593915
            ],
            [
              -76.06928192773454,
              41.32278232508421
            ],
            [
              -75.31307081953032,
              40.97566015515589
            ],
            [
              -74.59670287813925,
              40.45094835682547
            ],
            [
              -73.75588828760694,
              39.99482430964929
            ],
            [
              -73.8541674756455,
              39.51548077910362
            ],
            [
              -74.15928346740964,
              39.149655283597085
            ],
            [
              -74.70402617828958,
              38.72161382099384
            ],
            [
              -74.8136051929531,
              38.150993755762
            ],
            [
              -75.27234443442364,
              37.529578639384326
            ],
            [
              -76.55462101338586,
              37.987841509473746
            ],
            [
              -78.05173445523474,
              38.23215302570832
            ],
            [
              -79.37602790537994,
              38.13400394676602
            ],
            [
              -80.64519234855413,
              37.573649781506774
            ],
            [
              -81.10961381125489,
              37.47774616123343
            ],
            [
              -82.32361017704363,
              37.70659052337148
            ],
            [
              -84.80068632688811,
              37.782877942226314
            ]
          ],
          [
            [
              -80.33675341673144,
              38.1742897191069
            ],
            [
              -80.03102079303623,
              38.326709208924136
            ],
            [
              -79.38405270744039,
              38.849940743694596
            ],
            [
              -79.32498624948323,
              39.24567156287863
            ],
            [
              -79.46920355888633,
              39.43673412930874
            ],
            [
              -79.89842686072762,
              39.65206132177858
            ],
            [
              -80.18324147678406,
              39.676352019270205
            ],
            [
              -80.60044397692926,
              39.57791047097841
            ],
            [
              -81.22268709131325,
              39.228006683094385
            ],
            [
              -81.2746199861989,
              38.83164043098554
            ],
            [
              -81.1455512238187,
              38.50935341059617
            ],
            [
              -80.99957975639964,
              38.318873734223104
            ],
            [
              -80.67986929112006,
              38.15854009157732
            ],
            [
              -80.33675341673144,
              38.1742897191069
            ]
          ]
        ]
      }
    },
    {
      "type": "Feature",
      "properties": {
        "dn": 3,
        "PRODUCT": "Day 2 Excessive Rainfall Potential Forecast",
        "VALID_TIME": "12Z 08/16/26 - 12Z 08/17/26",
        "OUTLOOK": "Moderate (At Least 40%)",
        "ISSUE_TIME": "2026-08-15 08:24:00",
        "START_TIME": "2026-08-16 12:00:00",
        "END_TIME": "2026-08-17 12:00:00",
        "Snippet": "12Z 08/16/26 - 12Z 08/17/26",
        "risk_norm": "MODERATE"
      },
      "geometry": {
        "type": "Polygon",
        "coordinates": [
          [
            [
              -80.67986929112006,
              38.15854009157732
            ],
            [
              -80.99957975639964,
              38.318873734223104
            ],
            [
              -81.1455512238187,
              38.50935341059617
            ],
            [
              -81.2746199861989,
              38.83164043098554
            ],
            [
              -81.22268709131325,
              39.228006683094385
            ],
            [
              -80.60044397692926,
              39.57791047097841
            ],
            [
              -80.18324147678406,
              39.676352019270205
            ],
            [
              -79.89842686072762,
              39.65206132177858
            ],
            [
              -79.46920355888633,
              39.43673412930874
            ],
            [
              -79.32498624948323,
              39.24567156287863
            ],
            [
              -79.38405270744039,
              38.849940743694596
            ],
            [
              -80.03102079303623,
              38.326709208924136
            ],
            [
              -80.33675341673144,
              38.1742897191069
            ],
            [
              -80.67986929112006,
              38.15854009157732
            ]
          ]
        ]
      }
    }
  ]
}
