{
  "type": "FeatureCollection",
  "features": [
    {
      "type": "Feature",
      "properties": {
        "dn": 1,
        "PRODUCT": "Day 1 Excessive Rainfall Potential Forecast",
        "VALID_TIME": "16Z 07/26/26 - 12Z 07/27/26",
        "OUTLOOK": "Marginal (At Least 5%)",
        "ISSUE_TIME": "2026-07-26 15:59:00",
        "START_TIME": "2026-07-26 16:00:00",
        "END_TIME": "2026-07-27 12:00:00",
        "Snippet": "16Z 07/26/26 - 12Z 07/27/26",
        "risk_norm": "MARGINAL"
      },
      "geometry": {
        "type": "Polygon",
        "coordinates": [
          [
            [
              -78.92245450308135,
              32.94005331803102
            ],
            [
              -80.45975156681814,
              31.947531694041075
            ],
            [
              -80.70599437437926,
              31.696167121307326
            ],
            [
              -81.02235425786463,
              30.856971996742356
            ],
            [
              -81.12021116667621,
              30.77425779181026
            ],
            [
              -80.91979709382122,
              29.79593975750715
            ],
            [
              -80.22831009726261,
              28.585879083976433
            ],
            [
              -80.27895736516328,
              28.177831850492325
            ],
            [
              -79.72225018624539,
              26.83709996097543
            ],
            [
              -79.83705590772036,
              25.51566625853706
            ],
            [
              -79.98241638370557,
              25.162572825065823
            ],
            [
              -80.23981975038889,
              25.141379911743595
            ],
            [
              -80.52017712676214,
              25.353570690371516
            ],
            [
              -80.57623384182429,
              26.599389596092283
            ],
            [
              -80.73642515298647,
              26.981957697817766
            ],
            [
              -81.49070126305052,
              28.060160597348474
            ],
            [
              -81.70229787376695,
              28.491176572981185
            ],
            [
              -82.11765890070426,
              29.94531996558067
            ],
            [
              -82.28063099205743,
              30.87232980542139
            ],
            [
              -82.88085772088927,
              31.740202801975922
            ],
            [
              -82.91497568056796,
              31.924953374456692
            ],
            [
              -82.78936391203861,
              32.097474651700786
            ],
            [
              -82.20641095592043,
              32.50694307424082
            ],
            [
              -82.17597786861651,
              32.77737450022844
            ],
            [
              -82.3989007280886,
              33.20386730048383
            ],
            [
              -82.4226478138898,
              33.478049919638764
            ],
            [
              -82.23429619080243,
              33.691058685035586
            ],
            [
              -81.3647922243491,
              34.11929365062575
            ],
            [
              -79.57943793474675,
              33.960147442667925
            ],
            [
              -78.55164321658896,
              33.494623791967726
            ],
            [
              -78.85266302286722,
              33.29740433841915
            ],
            [
              -78.88643941535194,
              33.12446018703543
            ],
            [
              -79.16950471635474,
              33.374734183772595
            ],
            [
              -79.73644938786633,
              33.61108878459425
            ],
            [
              -80.27532349909336,
              33.660912099856176
            ],
            [
              -80.75289693995478,
              33.33970400932354
            ],
            [
              -81.34590473947434,
              32.48143031144628
            ],
            [
              -81.65452637530305,
              31.68751013298185
            ],
            [
              -81.64344074890077,
              31.321697180768954
            ],
            [
              -81.36314385153106,
              30.977751601054532
            ],
            [
              -81.0574474927278,
              30.86008695037852
            ],
            [
              -80.80549449720593,
              31.6138478307439
            ],
            [
              -80.49516161744837,
              31.950764511883545
            ],
            [
              -78.95812723491197,
              32.94361826410218
            ],
            [
              -78.89427531339338,
              33.084338296051406
            ],
            [
              -78.92245450308135,
              32.94005331803102
            ]
          ]
        ]
      }
    },
    {
      "type": "Feature",
      "properties": {
        "dn": 1,
        "PRODUCT": "Day 1 Excessive Rainfall Potential Forecast",
        "VALID_TIME": "16Z 07/26/26 - 12Z 07/27/26",
        "OUTLOOK": "Marginal (At Least 5%)",
        "ISSUE_TIME": "2026-07-26 15:59:00",
        "START_TIME": "2026-07-26 16:00:00",
        "END_TIME": "2026-07-27 12:00:00",
        "Snippet": "16Z 07/26/26 - 12Z 07/27/26",
        "risk_norm": "MARGINAL"
      },
      "geometry": {
        "type": "Polygon",
        "coordinates": [
          [
            [
              -108.97623571561925,
              31.13024758539512
            ],
            [
              -110.95653789383776,
              31.17089174187611
            ],
            [
              -112.57977855291632,
              31.64004639701405
            ],
            [
              -112.60979125988102,
              32.18553289697643
            ],
            [
              -112.53124348844702,
              32.3769705042657
            ],
            [
              -111.58542043585854,
              32.57012272515304
            ],
            [
              -111.20457662507626,
              32.92730121717449
            ],
            [
              -111.20249132231,
              33.291877869718626
            ],
            [
              -111.70353973154229,
              33.74059929081385
            ],
            [
              -112.9659121271028,
              34.106352601067684
            ],
            [
              -113.38894812491338,
              34.33302351853347
            ],
            [
              -113.56408651356617,
              34.722397934546166
            ],
            [
              -113.77446316563163,
              36.285107995520704
            ],
            [
              -113.5465036412049,
              37.57293898744944
            ],
            [
              -112.57255522280914,
              38.88571781767068
            ],
            [
              -112.07869844195173,
              39.381937981438064
            ],
            [
              -110.23179143864564,
              40.527933389571146
            ],
            [
              -108.26284144159183,
              41.478019877752914
            ],
            [
              -107.58211474536375,
              41.658396541304924
            ],
            [
              -106.8151791833259,
              41.62239722149837
            ],
            [
              -106.15080203625368,
              41.44531593643815
            ],
            [
              -105.65244603265614,
              41.16729839841368
            ],
            [
              -104.99537032263515,
              40.41309351407585
            ],
            [
              -104.6377368392408,
              39.682128634873926
            ],
            [
              -104.3900662469834,
              37.56177886409519
            ],
            [
              -104.12736390126582,
              36.45721096443535
            ],
            [
              -104.20325164700003,
              35.3745539865249
            ],
            [
              -104.53124864064833,
              33.413754969700186
            ],
            [
              -104.45579910141336,
              32.51122259155851
            ],
            [
              -104.49807377370338,
              32.37250541312392
            ],
            [
              -104.75105184822071,
              32.17467602430842
            ],
            [
              -105.07530319352993,
              32.2000183064888
            ],
            [
              -105.9535768983505,
              32.96001360844249
            ],
            [
              -106.60257476363472,
              32.96000478397698
            ],
            [
              -106.9641246406176,
              32.7972904718316
            ],
            [
              -107.26043437348719,
              32.54859742195635
            ],
            [
              -107.80571814193738,
              31.64078442363351
            ],
            [
              -107.96578444528456,
              31.62688053767055
            ],
            [
              -108.06062585381395,
              31.52882876890281
            ],
            [
              -108.07866176117668,
              31.20713454245347
            ],
            [
              -108.97623571561925,
              31.13024758539512
            ]
          ]
        ]
      }
    },
    {
      "type": "Feature",
      "properties": {
        "dn": 1,
        "PRODUCT": "Day 1 Excessive Rainfall Potential Forecast",
        "VALID_TIME": "16Z 07/26/26 - 12Z 07/27/26",
        "OUTLOOK": "Marginal (At Least 5%)",
        "ISSUE_TIME": "2026-07-26 15:59:00",
        "START_TIME": "2026-07-26 16:00:00",
        "END_TIME": "2026-07-27 12:00:00",
        "Snippet": "16Z 07/26/26 - 12Z 07/27/26",
        "risk_norm": "MARGINAL"
      },
      "geometry": {
        "type": "Polygon",
        "coordinates": [
          [
            [
              -85.36513318051828,
              33.36142212166396
            ],
            [
              -86.00557900963037,
              33.488785608692396
            ],
            [
              -86.3735155077996,
              33.644522764372994
            ],
            [
              -87.19384409768186,
              34.364595662755114
            ],
            [
              -89.73236861258651,
              37.29244666319476
            ],
            [
              -90.5449598036664,
              37.98405886419288
            ],
            [
              -91.40527075433559,
              39.24640973703538
            ],
            [
              -92.15147430852574,
              41.19690057422013
            ],
            [
              -92.58356559672778,
              42.59899654642564
            ],
            [
              -92.84942930725984,
              43.943287326585754
            ],
            [
              -92.79594919733061,
              46.29253264351668
            ],
            [
              -92.53975169419611,
              46.71245837479939
            ],
            [
              -92.09848386808821,
              47.002606750428505
            ],
            [
              -91.17262831283264,
              46.98693206464813
            ],
            [
              -87.83402932267532,
              45.40835299839283
            ],
            [
              -87.09457848439264,
              44.77929444921342
            ],
            [
              -86.2962984183462,
              43.581029091161604
            ],
            [
              -85.97143662274658,
              42.567295645136845
            ],
            [
              -85.95614656018844,
              40.77216516378575
            ],
            [
              -85.60300826867864,
              38.274910372819946
            ],
            [
              -85.34103113313341,
              37.41273005878675
            ],
            [
              -84.29367947453628,
              34.92355274487503
            ],
            [
              -84.09528022195713,
              34.14238366163806
            ],
            [
              -84.1972745899399,
              33.651210475005705
            ],
            [
              -84.48976126826214,
              33.442962154555225
            ],
            [
              -84.76778694671174,
              33.3701149633719
            ],
            [
              -85.36513318051828,
              33.36142212166396
            ]
          ]
        ]
      }
    },
    {
      "type": "Feature",
      "properties": {
        "dn": 1,
        "PRODUCT": "Day 1 Excessive Rainfall Potential Forecast",
        "VALID_TIME": "16Z 07/26/26 - 12Z 07/27/26",
        "OUTLOOK": "Marginal (At Least 5%)",
        "ISSUE_TIME": "2026-07-26 15:59:00",
        "START_TIME": "2026-07-26 16:00:00",
        "END_TIME": "2026-07-27 12:00:00",
        "Snippet": "16Z 07/26/26 - 12Z 07/27/26",
        "risk_norm": "MARGINAL"
      },
      "geometry": {
        "type": "Polygon",
        "coordinates": [
          [
            [
              -77.83583367849731,
              35.32707235324048
            ],
            [
              -78.45123585941509,
              35.661194406731966
            ],
            [
              -78.83821483562102,
              36.06149559081536
            ],
            [
              -79.15568908156087,
              36.94775687697984
            ],
            [
              -79.20820878123011,
              37.3570633051843
            ],
            [
              -79.0205827857699,
              38.23596049104854
            ],
            [
              -78.79145776870077,
              38.61689076756876
            ],
            [
              -78.42458191772954,
              38.76164529971009
            ],
            [
              -78.02994559299741,
              38.723369308180736
            ],
            [
              -77.67743917250878,
              38.777778221335105
            ],
            [
              -77.41038889469588,
              38.661398369215334
            ],
            [
              -77.375207629295,
              38.52271092865416
            ],
            [
              -77.5531613007272,
              38.137824390863265
            ],
            [
              -77.64693411545848,
              37.56407928942197
            ],
            [
              -77.59672728953802,
              36.478442058256796
            ],
            [
              -77.40977260745669,
              35.55492342839521
            ],
            [
              -77.50830620485485,
              35.29272411846533
            ],
            [
              -77.83583367849731,
              35.32707235324048
            ]
          ]
        ]
      }
    },
    {
      "type": "Feature",
      "properties": {
        "dn": 2,
        "PRODUCT": "Day 1 Excessive Rainfall Potential Forecast",
        "VALID_TIME": "16Z 07/26/26 - 12Z 07/27/26",
        "OUTLOOK": "Slight (At Least 15%)",
        "ISSUE_TIME": "2026-07-26 15:59:00",
        "START_TIME": "2026-07-26 16:00:00",
        "END_TIME": "2026-07-27 12:00:00",
        "Snippet": "16Z 07/26/26 - 12Z 07/27/26",
        "risk_norm": "SLIGHT"
      },
      "geometry": {
        "type": "Polygon",
        "coordinates": [
          [
            [
              -81.36314385153106,
              30.977751601054532
            ],
            [
              -81.64344074890077,
              31.321697180768954
            ],
            [
              -81.65452637530305,
              31.68751013298185
            ],
            [
              -81.34590473947434,
              32.48143031144628
            ],
            [
              -80.75289693995478,
              33.33970400932354
            ],
            [
              -80.27532349909336,
              33.660912099856176
            ],
            [
              -79.73644938786633,
              33.61108878459425
            ],
            [
              -79.16950471635474,
              33.374734183772595
            ],
            [
              -78.87903892772992,
              33.11791699856123
            ],
            [
              -78.95812723491197,
              32.94361826410218
            ],
            [
              -80.49516161744837,
              31.950764511883545
            ],
            [
              -80.80549449720593,
              31.6138478307439
            ],
            [
              -81.0574474927278,
              30.86008695037852
            ],
            [
              -81.36314385153106,
              30.977751601054532
            ]
          ]
        ]
      }
    }
  ]
}
