{
  "type": "FeatureCollection",
  "features": [
    {
      "type": "Feature",
      "properties": {
        "dn": 1,
        "PRODUCT": "Day 2 Excessive Rainfall Potential Forecast",
        "VALID_TIME": "12Z 07/27/26 - 12Z 07/28/26",
        "OUTLOOK": "Marginal (At Least 5%)",
        "ISSUE_TIME": "2026-07-26 08:11:00",
        "START_TIME": "2026-07-27 12:00:00",
        "END_TIME": "2026-07-28 12:00:00",
        "Snippet": "12Z 07/27/26 - 12Z 07/28/26",
        "risk_norm": "MARGINAL"
      },
      "geometry": {
        "type": "Polygon",
        "coordinates": [
          [
            [
              -108.97623571561925,
              31.13024758539512
            ],
            [
              -110.95653789383776,
              31.17089174187611
            ],
            [
              -113.03051667452813,
              31.772449740097063
            ],
            [
              -112.66806015988854,
              32.909823176634355
            ],
            [
              -112.61709053259204,
              33.28027765458102
            ],
            [
              -112.68743026379808,
              33.728191632809285
            ],
            [
              -114.12921695084293,
              34.7937775392282
            ],
            [
              -114.245517286994,
              35.461366215782355
            ],
            [
              -113.9852231896248,
              36.84854174277127
            ],
            [
              -113.73041889827078,
              37.32774349223359
            ],
            [
              -113.33895425098211,
              37.68535288632076
            ],
            [
              -112.5848004697329,
              38.616270519420254
            ],
            [
              -111.42355339901736,
              40.332122359165176
            ],
            [
              -110.97484625135807,
              40.81639652673328
            ],
            [
              -110.554088994794,
              41.1183356807312
            ],
            [
              -108.18639882069182,
              41.79082437790352
            ],
            [
              -106.60914415466955,
              42.37941413687891
            ],
            [
              -105.6301457599541,
              42.613182194502336
            ],
            [
              -103.71011621519025,
              42.97481403422008
            ],
            [
              -102.8234956098474,
              43.014405993640224
            ],
            [
              -102.58032402028184,
              42.93771596097954
            ],
            [
              -101.56853091790917,
              41.975516984148086
            ],
            [
              -99.83619853113625,
              41.330571998390376
            ],
            [
              -98.46450883959628,
              40.43997176711673
            ],
            [
              -98.16240711592184,
              40.005364063729694
            ],
            [
              -98.15037847380161,
              39.60854044169133
            ],
            [
              -98.36520946301371,
              39.1624825590471
            ],
            [
              -98.75436935483157,
              38.84363073931862
            ],
            [
              -99.48006057661682,
              38.51590087840306
            ],
            [
              -101.87731150161419,
              37.858730800479364
            ],
            [
              -103.43343666636102,
              36.851782620600346
            ],
            [
              -104.0459070175301,
              36.14750087263063
            ],
            [
              -104.63096274269193,
              35.215147600613214
            ],
            [
              -104.85723152844395,
              34.660599385464444
            ],
            [
              -105.10869991901974,
              33.1974698137236
            ],
            [
              -105.29133453460908,
              32.823039295057015
            ],
            [
              -105.58911647650797,
              32.53036327550735
            ],
            [
              -105.89729895992163,
              32.37340123083219
            ],
            [
              -107.15501103332014,
              32.05529420041173
            ],
            [
              -107.54142350906727,
              31.660966332169338
            ],
            [
              -107.96578444528456,
              31.62688053767055
            ],
            [
              -108.06062585381395,
              31.52882876890281
            ],
            [
              -108.07866176117668,
              31.20713454245347
            ],
            [
              -108.97623571561925,
              31.13024758539512
            ]
          ]
        ]
      }
    },
    {
      "type": "Feature",
      "properties": {
        "dn": 1,
        "PRODUCT": "Day 2 Excessive Rainfall Potential Forecast",
        "VALID_TIME": "12Z 07/27/26 - 12Z 07/28/26",
        "OUTLOOK": "Marginal (At Least 5%)",
        "ISSUE_TIME": "2026-07-26 08:11:00",
        "START_TIME": "2026-07-27 12:00:00",
        "END_TIME": "2026-07-28 12:00:00",
        "Snippet": "12Z 07/27/26 - 12Z 07/28/26",
        "risk_norm": "MARGINAL"
      },
      "geometry": {
        "type": "Polygon",
        "coordinates": [
          [
            [
              -82.7663607083737,
              36.79783906641121
            ],
            [
              -84.57199152358449,
              37.232285440159025
            ],
            [
              -85.93552913813872,
              37.712392943723046
            ],
            [
              -86.69763933001424,
              38.06306497816925
            ],
            [
              -87.17985159063868,
              38.442516488437434
            ],
            [
              -87.38701149001422,
              38.71833151367713
            ],
            [
              -88.0339473977669,
              40.116976445341244
            ],
            [
              -88.2120308275188,
              40.91586962317821
            ],
            [
              -89.01638255556134,
              43.03871094974238
            ],
            [
              -89.15049254077421,
              43.77834284497833
            ],
            [
              -89.04365211695486,
              44.54981267288509
            ],
            [
              -88.62362724094324,
              45.435201960206356
            ],
            [
              -87.81876076631167,
              46.42778977958427
            ],
            [
              -86.90489505171533,
              47.02755550750021
            ],
            [
              -85.75359732869984,
              47.398884032707535
            ],
            [
              -85.56800518406088,
              47.39021567873236
            ],
            [
              -84.73989015635206,
              47.01191955312738
            ],
            [
              -84.4656190618454,
              46.70142113603843
            ],
            [
              -84.03619341073075,
              46.678017196651
            ],
            [
              -83.9475002665983,
              46.37525121077926
            ],
            [
              -83.78046803989592,
              46.23911349639294
            ],
            [
              -83.41434701639541,
              46.217760887354615
            ],
            [
              -83.30178637194973,
              46.125093227664394
            ],
            [
              -83.28420977432239,
              45.78389575727251
            ],
            [
              -82.22531878468769,
              45.45950388465304
            ],
            [
              -81.94410209198836,
              43.50058694901688
            ],
            [
              -82.27046455317858,
              42.827620362908796
            ],
            [
              -82.30364670049526,
              42.5683173966887
            ],
            [
              -82.44289354405349,
              42.40329847652661
            ],
            [
              -82.88485609396244,
              42.170957840231544
            ],
            [
              -82.90579323105966,
              41.99738564827912
            ],
            [
              -82.74756275819861,
              41.85631426876429
            ],
            [
              -82.39235217823789,
              41.875798427322366
            ],
            [
              -81.26070402531013,
              42.406627481895526
            ],
            [
              -79.54933668946785,
              42.75106049076701
            ],
            [
              -79.21609475076576,
              42.983840967683406
            ],
            [
              -79.33106816917073,
              43.38574377884201
            ],
            [
              -79.23619839746056,
              43.59602844913372
            ],
            [
              -78.48307327097176,
              43.79156363369032
            ],
            [
              -76.9799881275183,
              43.78298999363961
            ],
            [
              -76.52916068956802,
              44.2594847389758
            ],
            [
              -75.61913990724284,
              44.86221753225528
            ],
            [
              -74.88210589198688,
              45.17468476094672
            ],
            [
              -73.96489517938559,
              45.16132429670344
            ],
            [
              -73.97091432561498,
              43.466226782377234
            ],
            [
              -74.19834334895177,
              42.39546538381088
            ],
            [
              -74.74045581740684,
              41.486646773692925
            ],
            [
              -75.8450841707143,
              40.3235395052433
            ],
            [
              -76.12160721903211,
              40.08664608505551
            ],
            [
              -77.34900771968557,
              39.367741683339545
            ],
            [
              -78.52950772048763,
              38.81541825809305
            ],
            [
              -79.68850335809812,
              37.53560762419192
            ],
            [
              -80.12978884295408,
              37.214980984363606
            ],
            [
              -80.61091501789497,
              36.98716147310757
            ],
            [
              -81.3063260207635,
              36.82040022415422
            ],
            [
              -82.26647065082841,
              36.76086700795931
            ],
            [
              -82.7663607083737,
              36.79783906641121
            ]
          ]
        ]
      }
    }
  ]
}
