{
  "type": "FeatureCollection",
  "features": [
    {
      "type": "Feature",
      "properties": {
        "dn": 1,
        "PRODUCT": "Day 1 Excessive Rainfall Potential Forecast",
        "VALID_TIME": "12Z 09/01/26 - 12Z 09/02/26",
        "OUTLOOK": "Marginal (At Least 5%)",
        "ISSUE_TIME": "2026-09-01 08:16:00",
        "START_TIME": "2026-09-01 12:00:00",
        "END_TIME": "2026-09-02 12:00:00",
        "Snippet": "12Z 09/01/26 - 12Z 09/02/26",
        "risk_norm": "MARGINAL"
      },
      "geometry": {
        "type": "Polygon",
        "coordinates": [
          [
            [
              -83.2556939417077,
              24.354047718331906
            ],
            [
              -83.14535551376402,
              24.988271877247925
            ],
            [
              -82.8888277808319,
              25.01445418621564
            ],
            [
              -82.38701590963649,
              24.972866704434747
            ],
            [
              -82.3238345877115,
              25.104258088866843
            ],
            [
              -82.59290722228265,
              25.448019724918527
            ],
            [
              -81.91407661823771,
              25.619706401004528
            ],
            [
              -82.1181065867413,
              26.09627964729339
            ],
            [
              -82.2642860577806,
              26.15368335589894
            ],
            [
              -82.53643912279504,
              26.498454800815157
            ],
            [
              -82.69804041945062,
              26.92440830933655
            ],
            [
              -83.05644772549002,
              27.45720815714832
            ],
            [
              -83.16527802103366,
              27.923817764581393
            ],
            [
              -82.83716342523138,
              28.08224547122148
            ],
            [
              -82.20013973466205,
              28.213640620416026
            ],
            [
              -81.97537238186416,
              28.3770972252143
            ],
            [
              -81.65129194526014,
              28.944889238750193
            ],
            [
              -81.36498849604823,
              29.14981401716463
            ],
            [
              -80.89270171480425,
              29.153271786446965
            ],
            [
              -80.69622054871743,
              29.043573246551148
            ],
            [
              -80.56201653601812,
              28.84681557830148
            ],
            [
              -80.27241647147002,
              27.810034255128624
            ],
            [
              -79.91993734290484,
              26.9028782466346
            ],
            [
              -79.98789043437644,
              25.94457210681492
            ],
            [
              -80.20021688010902,
              25.46010489532127
            ],
            [
              -80.76271462154261,
              25.008419777737274
            ],
            [
              -81.32441405180221,
              24.96915286040453
            ],
            [
              -81.72552777775317,
              25.005408640394506
            ],
            [
              -81.78059165936503,
              24.964393554121084
            ],
            [
              -82.23198973436183,
              25.003728950635935
            ],
            [
              -82.28688342973173,
              24.96252773003593
            ],
            [
              -82.43736828097097,
              24.975281498311038
            ],
            [
              -83.2556939417077,
              24.354047718331906
            ]
          ]
        ]
      }
    },
    {
      "type": "Feature",
      "properties": {
        "dn": 1,
        "PRODUCT": "Day 1 Excessive Rainfall Potential Forecast",
        "VALID_TIME": "12Z 09/01/26 - 12Z 09/02/26",
        "OUTLOOK": "Marginal (At Least 5%)",
        "ISSUE_TIME": "2026-09-01 08:16:00",
        "START_TIME": "2026-09-01 12:00:00",
        "END_TIME": "2026-09-02 12:00:00",
        "Snippet": "12Z 09/01/26 - 12Z 09/02/26",
        "risk_norm": "MARGINAL"
      },
      "geometry": {
        "type": "Polygon",
        "coordinates": [
          [
            [
              -96.50387642426472,
              28.32688567774896
            ],
            [
              -96.93075010197913,
              29.097258644509203
            ],
            [
              -97.260022614864,
              29.958264115416565
            ],
            [
              -97.26528913075104,
              30.231258422699216
            ],
            [
              -97.16844990869576,
              30.687463980667328
            ],
            [
              -96.8593952938612,
              31.191286409345455
            ],
            [
              -96.17209369487765,
              31.561984643805136
            ],
            [
              -95.74674317261051,
              31.655309113982725
            ],
            [
              -95.00073608682098,
              31.61168285801072
            ],
            [
              -93.7780572950788,
              31.38003381695641
            ],
            [
              -89.79547114329294,
              30.071088355202377
            ],
            [
              -89.12996242372151,
              29.6821233944032
            ],
            [
              -88.9346689482121,
              29.4011154993585
            ],
            [
              -88.84684821194782,
              29.078402263564197
            ],
            [
              -88.91871418833526,
              28.715305866724048
            ],
            [
              -89.44432342502064,
              28.59820281254282
            ],
            [
              -89.69963740594949,
              28.698441485691408
            ],
            [
              -89.84552074321768,
              28.931472836935967
            ],
            [
              -90.11316001993794,
              28.757695011491165
            ],
            [
              -91.04999807871151,
              28.73885912208155
            ],
            [
              -91.66412278893853,
              29.088295613862396
            ],
            [
              -91.8216895110885,
              29.046019635820244
            ],
            [
              -92.0810594143861,
              29.096701578446154
            ],
            [
              -92.1831354597989,
              29.1897436649
            ],
            [
              -92.54829248195097,
              29.195938487684906
            ],
            [
              -93.22311093711535,
              29.432931229325646
            ],
            [
              -93.58905993623173,
              29.436678434281284
            ],
            [
              -94.27013791489944,
              29.21357498217139
            ],
            [
              -95.20825818103633,
              28.53140800517508
            ],
            [
              -95.98412972350866,
              28.2389437172858
            ],
            [
              -96.24101422784115,
              28.054602611382496
            ],
            [
              -96.50387642426472,
              28.32688567774896
            ]
          ],
          [
            [
              -95.20831134266892,
              28.561808315490502
            ],
            [
              -94.26995053158775,
              29.24394994505671
            ],
            [
              -93.58869701467026,
              29.467043067817485
            ],
            [
              -93.22265390561033,
              29.463295056287976
            ],
            [
              -92.54766316062334,
              29.226309624325175
            ],
            [
              -92.18241245789686,
              29.22011345715848
            ],
            [
              -92.08031080523949,
              29.1270745291044
            ],
            [
              -91.82087474267676,
              29.076393228492897
            ],
            [
              -91.66326733065392,
              29.11866673416964
            ],
            [
              -91.56034366729605,
              29.070681853586546
            ],
            [
              -91.55848595749269,
              29.11668172808936
            ],
            [
              -91.75450694893303,
              29.576589013350496
            ],
            [
              -92.2152699570193,
              30.041304458882536
            ],
            [
              -93.62934592761871,
              30.469520477043176
            ],
            [
              -94.25881237910919,
              31.019214446468062
            ],
            [
              -94.62918958729028,
              31.202214314888614
            ],
            [
              -95.58527368286309,
              31.337799947503374
            ],
            [
              -96.06226839790027,
              31.19908834640334
            ],
            [
              -96.37799677877376,
              30.923616560891265
            ],
            [
              -96.53204942639395,
              30.558529965106914
            ],
            [
              -96.5243313602365,
              29.96716042946954
            ],
            [
              -96.30767763670181,
              29.37714557363948
            ],
            [
              -95.88587641726865,
              28.878856163614728
            ],
            [
              -95.41574477671593,
              28.515636217652215
            ],
            [
              -95.20831134266892,
              28.561808315490502
            ]
          ]
        ]
      }
    },
    {
      "type": "Feature",
      "properties": {
        "dn": 1,
        "PRODUCT": "Day 1 Excessive Rainfall Potential Forecast",
        "VALID_TIME": "12Z 09/01/26 - 12Z 09/02/26",
        "OUTLOOK": "Marginal (At Least 5%)",
        "ISSUE_TIME": "2026-09-01 08:16:00",
        "START_TIME": "2026-09-01 12:00:00",
        "END_TIME": "2026-09-02 12:00:00",
        "Snippet": "12Z 09/01/26 - 12Z 09/02/26",
        "risk_norm": "MARGINAL"
      },
      "geometry": {
        "type": "Polygon",
        "coordinates": [
          [
            [
              -104.14267331873411,
              29.249555816492244
            ],
            [
              -104.75781402954834,
              29.71531876159247
            ],
            [
              -105.028860756658,
              30.4282232571379
            ],
            [
              -106.055277882567,
              31.224775584563876
            ],
            [
              -106.50210402882288,
              31.421674705201944
            ],
            [
              -106.57207952163469,
              31.597888069269302
            ],
            [
              -107.96578444528456,
              31.62688053767055
            ],
            [
              -108.06062585381395,
              31.52882876890281
            ],
            [
              -108.07866176117668,
              31.20713454245347
            ],
            [
              -108.97623571561925,
              31.13024758539512
            ],
            [
              -110.73956450880605,
              31.14696319042524
            ],
            [
              -111.28534598770817,
              31.228769081486856
            ],
            [
              -113.48228641857975,
              31.903539135474162
            ],
            [
              -112.85337809961975,
              32.706714392014554
            ],
            [
              -112.505027980531,
              33.61139641806548
            ],
            [
              -112.58216928086415,
              34.10367148046421
            ],
            [
              -113.4489086992005,
              35.68800343955125
            ],
            [
              -113.48970714638045,
              36.58785319396756
            ],
            [
              -113.25482527088704,
              38.188178017932344
            ],
            [
              -112.40894023626154,
              39.971418406734436
            ],
            [
              -111.72251650627398,
              40.74779370702095
            ],
            [
              -111.18890561426176,
              41.06206689398174
            ],
            [
              -110.68970233934643,
              41.23876851423008
            ],
            [
              -109.55123632358303,
              41.46654469028246
            ],
            [
              -108.97109543485271,
              41.51242722634083
            ],
            [
              -108.36744647174046,
              41.382410464906584
            ],
            [
              -107.55918669263923,
              41.00086811045368
            ],
            [
              -106.5483670417229,
              40.31887892371572
            ],
            [
              -106.20857275359128,
              39.854577160376635
            ],
            [
              -105.95344640238343,
              39.07286079628611
            ],
            [
              -105.50277378588305,
              38.567301937226674
            ],
            [
              -104.90519708069623,
              38.247346417113285
            ],
            [
              -103.93481231782515,
              38.16679223931472
            ],
            [
              -103.47307423179342,
              38.05652018375031
            ],
            [
              -102.99779968087063,
              37.76643551173718
            ],
            [
              -102.87233240010518,
              37.59381927430209
            ],
            [
              -102.839838528391,
              37.148680769734746
            ],
            [
              -103.7620332322489,
              36.07278218102867
            ],
            [
              -104.09336126214149,
              35.380609240074754
            ],
            [
              -104.42949676493632,
              34.14367897759421
            ],
            [
              -104.48105131883365,
              33.461990248646046
            ],
            [
              -104.28254616326572,
              31.703489029582656
            ],
            [
              -103.65741545014255,
              29.780305130748125
            ],
            [
              -103.74178879580057,
              29.50180917640574
            ],
            [
              -104.14267331873411,
              29.249555816492244
            ]
          ]
        ]
      }
    },
    {
      "type": "Feature",
      "properties": {
        "dn": 1,
        "PRODUCT": "Day 1 Excessive Rainfall Potential Forecast",
        "VALID_TIME": "12Z 09/01/26 - 12Z 09/02/26",
        "OUTLOOK": "Marginal (At Least 5%)",
        "ISSUE_TIME": "2026-09-01 08:16:00",
        "START_TIME": "2026-09-01 12:00:00",
        "END_TIME": "2026-09-02 12:00:00",
        "Snippet": "12Z 09/01/26 - 12Z 09/02/26",
        "risk_norm": "MARGINAL"
      },
      "geometry": {
        "type": "Polygon",
        "coordinates": [
          [
            [
              -74.8057580934069,
              38.19410609007743
            ],
            [
              -76.06415374669682,
              39.4559474159495
            ],
            [
              -76.28289190127487,
              39.52414213580558
            ],
            [
              -77.76627429681075,
              39.63208508507782
            ],
            [
              -79.17871267621273,
              39.454090477661616
            ],
            [
              -79.80392657291334,
              39.50953385333402
            ],
            [
              -80.13269360652903,
              39.62660538030392
            ],
            [
              -81.04850498584453,
              40.10067447890947
            ],
            [
              -82.1646232545632,
              40.89143508203702
            ],
            [
              -82.57992326441953,
              41.31753092902898
            ],
            [
              -82.74883474344713,
              41.85552398081221
            ],
            [
              -82.39235217823789,
              41.875798427322366
            ],
            [
              -81.26070402531013,
              42.406627481895526
            ],
            [
              -79.54933668946785,
              42.75106049076701
            ],
            [
              -79.21609475076576,
              42.983840967683406
            ],
            [
              -79.3035861977337,
              43.557386460125336
            ],
            [
              -78.48307327097176,
              43.79156363369032
            ],
            [
              -77.1061960975453,
              43.75163479203706
            ],
            [
              -76.84706810951901,
              43.856227075879474
            ],
            [
              -76.68037598142598,
              44.10069432840577
            ],
            [
              -76.48472070372401,
              44.16919421735198
            ],
            [
              -74.97378269487918,
              44.44847690463701
            ],
            [
              -73.22596366096428,
              44.6455951567476
            ],
            [
              -72.17620487079584,
              44.69545990240175
            ],
            [
              -71.3454068616815,
              44.593132750873785
            ],
            [
              -70.95191468032796,
              44.456116357171275
            ],
            [
              -69.32464264658024,
              43.449586740932865
            ],
            [
              -69.85825503310913,
              43.25915466357398
            ],
            [
              -70.13090977604622,
              42.89982771004321
            ],
            [
              -69.85485072207551,
              42.33177992011856
            ],
            [
              -69.480651749618,
              41.92469703007804
            ],
            [
              -69.58985992783097,
              41.49577382473789
            ],
            [
              -69.56231779786224,
              41.13554721821157
            ],
            [
              -69.97060606645945,
              40.92507989268513
            ],
            [
              -70.37002540716928,
              40.980953857927666
            ],
            [
              -71.02922283131235,
              40.937482386212295
            ],
            [
              -72.80244941169983,
              40.366731580764885
            ],
            [
              -73.57954567388487,
              40.28460982894157
            ],
            [
              -73.71015709341064,
              40.21221992322814
            ],
            [
              -73.85341372196022,
              39.51538921313792
            ],
            [
              -74.15853207390785,
              39.14956486953465
            ],
            [
              -74.70327736720743,
              38.72152557532674
            ],
            [
              -74.8057580934069,
              38.19410609007743
            ]
          ]
        ]
      }
    },
    {
      "type": "Feature",
      "properties": {
        "dn": 1,
        "PRODUCT": "Day 1 Excessive Rainfall Potential Forecast",
        "VALID_TIME": "12Z 09/01/26 - 12Z 09/02/26",
        "OUTLOOK": "Marginal (At Least 5%)",
        "ISSUE_TIME": "2026-09-01 08:16:00",
        "START_TIME": "2026-09-01 12:00:00",
        "END_TIME": "2026-09-02 12:00:00",
        "Snippet": "12Z 09/01/26 - 12Z 09/02/26",
        "risk_norm": "MARGINAL"
      },
      "geometry": {
        "type": "Polygon",
        "coordinates": [
          [
            [
              -82.63719539812632,
              42.285481085797194
            ],
            [
              -82.63591708876953,
              42.28626861890959
            ],
            [
              -82.63485323739583,
              42.2853226247037
            ],
            [
              -82.63719539812632,
              42.285481085797194
            ]
          ]
        ]
      }
    },
    {
      "type": "Feature",
      "properties": {
        "dn": 1,
        "PRODUCT": "Day 1 Excessive Rainfall Potential Forecast",
        "VALID_TIME": "12Z 09/01/26 - 12Z 09/02/26",
        "OUTLOOK": "Marginal (At Least 5%)",
        "ISSUE_TIME": "2026-09-01 08:16:00",
        "START_TIME": "2026-09-01 12:00:00",
        "END_TIME": "2026-09-02 12:00:00",
        "Snippet": "12Z 09/01/26 - 12Z 09/02/26",
        "risk_norm": "MARGINAL"
      },
      "geometry": {
        "type": "Polygon",
        "coordinates": [
          [
            [
              -82.56787148473045,
              42.368155461167234
            ],
            [
              -82.36890785207936,
              42.53005703254157
            ],
            [
              -82.44289354405349,
              42.40329847652661
            ],
            [
              -82.56787148473045,
              42.368155461167234
            ]
          ]
        ]
      }
    },
    {
      "type": "Feature",
      "properties": {
        "dn": 1,
        "PRODUCT": "Day 1 Excessive Rainfall Potential Forecast",
        "VALID_TIME": "12Z 09/01/26 - 12Z 09/02/26",
        "OUTLOOK": "Marginal (At Least 5%)",
        "ISSUE_TIME": "2026-09-01 08:16:00",
        "START_TIME": "2026-09-01 12:00:00",
        "END_TIME": "2026-09-02 12:00:00",
        "Snippet": "12Z 09/01/26 - 12Z 09/02/26",
        "risk_norm": "MARGINAL"
      },
      "geometry": {
        "type": "Polygon",
        "coordinates": [
          [
            [
              -82.3059949623289,
              42.56847981620627
            ],
            [
              -82.30471042625848,
              42.569263712230885
            ],
            [
              -82.30364670049526,
              42.5683173966887
            ],
            [
              -82.3059949623289,
              42.56847981620627
            ]
          ]
        ]
      }
    },
    {
      "type": "Feature",
      "properties": {
        "dn": 2,
        "PRODUCT": "Day 1 Excessive Rainfall Potential Forecast",
        "VALID_TIME": "12Z 09/01/26 - 12Z 09/02/26",
        "OUTLOOK": "Slight (At Least 15%)",
        "ISSUE_TIME": "2026-09-01 08:16:00",
        "START_TIME": "2026-09-01 12:00:00",
        "END_TIME": "2026-09-02 12:00:00",
        "Snippet": "12Z 09/01/26 - 12Z 09/02/26",
        "risk_norm": "SLIGHT"
      },
      "geometry": {
        "type": "Polygon",
        "coordinates": [
          [
            [
              -95.41574477671593,
              28.515636217652215
            ],
            [
              -95.88587641726865,
              28.878856163614728
            ],
            [
              -96.30767763670181,
              29.37714557363948
            ],
            [
              -96.5243313602365,
              29.96716042946954
            ],
            [
              -96.53204942639395,
              30.558529965106914
            ],
            [
              -96.37799677877376,
              30.923616560891265
            ],
            [
              -96.06226839790027,
              31.19908834640334
            ],
            [
              -95.58527368286309,
              31.337799947503374
            ],
            [
              -94.62918958729028,
              31.202214314888614
            ],
            [
              -94.25881237910919,
              31.019214446468062
            ],
            [
              -93.62934592761871,
              30.469520477043176
            ],
            [
              -92.2152699570193,
              30.041304458882536
            ],
            [
              -91.75450694893303,
              29.576589013350496
            ],
            [
              -91.55848595749269,
              29.11668172808936
            ],
            [
              -91.56034366729605,
              29.070681853586546
            ],
            [
              -91.66326733065392,
              29.11866673416964
            ],
            [
              -91.82087474267676,
              29.076393228492897
            ],
            [
              -92.08031080523949,
              29.1270745291044
            ],
            [
              -92.18241245789686,
              29.22011345715848
            ],
            [
              -92.54766316062334,
              29.226309624325175
            ],
            [
              -93.22265390561033,
              29.463295056287976
            ],
            [
              -93.58869701467026,
              29.467043067817485
            ],
            [
              -94.26995053158775,
              29.24394994505671
            ],
            [
              -95.20831134266892,
              28.561808315490502
            ],
            [
              -95.41574477671593,
              28.515636217652215
            ]
          ]
        ]
      }
    }
  ]
}
