{"type": "FeatureCollection", "features": [{"type": "Feature", "properties": {"dn": 1, "PRODUCT": "Day 2 Excessive Rainfall Potential Forecast", "VALID_TIME": "12Z 09/02/26 - 12Z 09/03/26", "OUTLOOK": "Marginal (At Least 5%)", "ISSUE_TIME": "2026-09-01 08:16:00", "START_TIME": "2026-09-02 12:00:00", "END_TIME": "2026-09-03 12:00:00", "Snippet": "12Z 09/02/26 - 12Z 09/03/26"}, "geometry": {"type": "Polygon", "coordinates": [[[-82.50523668022976, 25.30216433290168], [-82.59290722228265, 25.448019724918527], [-81.91407661823771, 25.619706401004528], [-82.1181065867413, 26.09627964729339], [-82.2642860577806, 26.15368335589894], [-82.53643912279504, 26.498454800815157], [-83.17876934092348, 27.78744444256655], [-83.12008427084714, 28.378261282360956], [-82.94683193937682, 28.547912441074573], [-82.98013486242392, 28.7336168061601], [-83.28088857068678, 28.847362681859316], [-83.32023214938555, 28.98850924755592], [-83.98262333699651, 29.721758924327382], [-84.08710279402948, 29.729113279407834], [-84.4813360692646, 29.436485842805258], [-84.91399175906047, 29.282449750682755], [-85.58389861099434, 29.415868001418172], [-85.6855806141147, 29.468566171687318], [-85.77214147636657, 29.701957276018025], [-85.49129561569329, 29.914176515646336], [-84.62572199188247, 30.17855732223599], [-83.20592726802845, 30.123612442973972], [-81.91251645196745, 29.883424156962818], [-80.74971419132984, 29.4599249517783], [-80.22831009726261, 28.585879083976433], [-80.27895736516328, 28.177831850492325], [-79.72225018624539, 26.83709996097543], [-79.82008651795032, 25.65186736984973], [-79.91545384251842, 25.293733558916493], [-79.98353090989373, 25.161765790746692], [-80.5515465791846, 25.079994778819174], [-82.50523668022976, 25.30216433290168]]]}}, {"type": "Feature", "properties": {"dn": 1, "PRODUCT": "Day 2 Excessive Rainfall Potential Forecast", "VALID_TIME": "12Z 09/02/26 - 12Z 09/03/26", "OUTLOOK": "Marginal (At Least 5%)", "ISSUE_TIME": "2026-09-01 08:16:00", "START_TIME": "2026-09-02 12:00:00", "END_TIME": "2026-09-03 12:00:00", "Snippet": "12Z 09/02/26 - 12Z 09/03/26"}, "geometry": {"type": "Polygon", "coordinates": [[[-96.19893856796006, 29.012579379154225], [-96.82895461248859, 29.325419804390577], [-97.150007429124, 29.686633140485867], [-97.36870773832989, 30.138719486258537], [-97.43452180874144, 30.774507130689834], [-97.0814419436835, 31.733303921338475], [-96.71564265017327, 32.236466457464324], [-96.3428935567582, 32.51275708808976], [-96.12860722673953, 32.559691079979814], [-95.32235743450833, 32.33685371382845], [-94.52096936542006, 31.701712161477683], [-92.566078632047, 30.866338529634074], [-92.04745313289087, 30.401830590347195], [-91.69910464503354, 29.666528560542165], [-91.70927954058514, 29.302261669500513], [-91.92392837537177, 29.12344550391372], [-92.08032577742242, 29.126467070091238], [-92.1824269179349, 29.21950606131329], [-92.5476757470499, 29.225702201592362], [-93.22266304624043, 29.462687779748723], [-93.58870427310148, 29.466435775146778], [-94.26995427925398, 29.24334244579901], [-95.00071828968217, 28.743719877458012], [-95.20862985601916, 28.743579132050638], [-96.19893856796006, 29.012579379154225]], [[-95.42024917440538, 29.79148220517468], [-95.0002007447045, 30.065605730903673], [-94.73626102779554, 30.565763131392725], [-94.73553995410039, 30.883960874093926], [-94.94704212491509, 31.38381819572002], [-95.26705477407903, 31.837392870868978], [-95.64295075433206, 32.15416939510623], [-95.85769354589564, 32.243807051162676], [-96.12548064306274, 32.24215044903076], [-96.39215864302471, 32.14940843639185], [-96.76100363614164, 31.737166300268363], [-97.014908838435, 31.00766349712929], [-97.00628028379408, 30.507723035531942], [-96.95124500300956, 30.371962311761543], [-96.52439103138262, 30.012220593248582], [-95.89185910994134, 29.74397223844185], [-95.42024917440538, 29.79148220517468]]]}}, {"type": "Feature", "properties": {"dn": 1, "PRODUCT": "Day 2 Excessive Rainfall Potential Forecast", "VALID_TIME": "12Z 09/02/26 - 12Z 09/03/26", "OUTLOOK": "Marginal (At Least 5%)", "ISSUE_TIME": "2026-09-01 08:16:00", "START_TIME": "2026-09-02 12:00:00", "END_TIME": "2026-09-03 12:00:00", "Snippet": "12Z 09/02/26 - 12Z 09/03/26"}, "geometry": {"type": "Polygon", "coordinates": [[[-76.31273818149882, 39.03630760455422], [-77.74444847981658, 39.76339746738338], [-79.99980101803301, 40.545870784312335], [-82.36153089197708, 41.652714255132175], [-84.30057493868256, 42.17117935305131], [-87.79490878104532, 42.69035189360479], [-92.81259452487585, 42.861419082962335], [-94.64671135053808, 42.65706474559488], [-95.76770058644216, 42.612379330014186], [-96.06357198202915, 42.69775012842115], [-96.48320058303105, 43.042642137971704], [-96.66602551982913, 43.344042421930546], [-96.67336311168329, 43.77575798374075], [-96.38223693351968, 44.29464459981856], [-95.9664704564921, 44.726271252612555], [-95.48478436403065, 45.07127469806173], [-94.7581051728255, 45.37058170447557], [-91.88841490601348, 45.89918318592185], [-89.73993226549321, 46.107918871952904], [-87.88519376312618, 46.346283642397346], [-84.62618830664711, 46.921484114613385], [-84.4656190618454, 46.70142113603843], [-84.03506634054312, 46.67710704005402], [-83.9475002665983, 46.37525121077926], [-83.78046803989592, 46.23911349639294], [-83.41434701639541, 46.217760887354615], [-83.30178637194973, 46.125093227664394], [-83.28420977432239, 45.78389575727251], [-82.22531878468769, 45.45950388465304], [-81.91541276032169, 43.71539282780478], [-82.30364670049526, 42.5683173966887], [-82.44289354405349, 42.40329847652661], [-82.88485609396244, 42.170957840231544], [-82.90579323105966, 41.99738564827912], [-82.74756275819861, 41.85631426876429], [-82.51436228639966, 41.84042133809318], [-81.26070402531013, 42.406627481895526], [-79.54933668946785, 42.75106049076701], [-79.21609475076576, 42.983840967683406], [-79.33106816917073, 43.38574377884201], [-79.23619839746056, 43.59602844913372], [-78.48307327097176, 43.79156363369032], [-76.9799881275183, 43.78298999363961], [-76.52916068956802, 44.2594847389758], [-75.62050702152317, 44.86149209774918], [-74.88210589198688, 45.17468476094672], [-71.75592308532418, 45.16527476571578], [-71.60681553461849, 45.27615893875982], [-71.56509177735084, 45.444221266004], [-71.05337252270442, 45.51155953131959], [-70.83223225334282, 45.65598115258359], [-70.57622010939406, 45.92610409675092], [-70.3380186864586, 46.585985746738395], [-70.28302321204485, 46.32004495738775], [-69.88760486418047, 45.70775157829262], [-69.06904294788323, 44.86041775931537], [-67.9816129705708, 43.917956566531025], [-68.19409450383115, 43.81603555294271], [-68.3697914904479, 43.84134327804543], [-68.8602961015326, 43.603499387071416], [-69.72092454783335, 43.327483995658945], [-70.10930004617522, 42.9850581797129], [-69.85485072207551, 42.33177992011856], [-69.480651749618, 41.92469703007804], [-69.58985992783097, 41.49577382473789], [-69.56231779786224, 41.13554721821157], [-69.97060606645945, 40.92507989268513], [-70.37002540716928, 40.980953857927666], [-71.02922283131235, 40.937482386212295], [-72.80244941169983, 40.366731580764885], [-73.57954567388487, 40.28460982894157], [-73.71015709341064, 40.21221992322814], [-73.85341372196022, 39.51538921313792], [-74.50915531776555, 38.83306578316856], [-74.71304076861175, 38.67694113972348], [-75.55593655091964, 38.77399301300566], [-76.31273818149882, 39.03630760455422]], [[-75.1523058116718, 41.79702306679631], [-74.78772761349437, 41.844814273410385], [-74.32865409439954, 42.057985524836795], [-73.398742523877, 42.78634904895195], [-73.27437605101305, 43.07900855567669], [-73.36562180684084, 43.48445320155299], [-73.73990659148944, 43.702543735154], [-74.19321446617637, 43.84101940358442], [-74.70694674477146, 43.984702306761996], [-75.35804392995344, 44.05416378698886], [-76.0857282610761, 43.73711601025832], [-76.8048102881996, 43.11111907042802], [-76.9852028035173, 42.779005709141714], [-76.91524417258829, 42.50925544430791], [-76.72078044409334, 42.27002642407858], [-76.30343895047865, 41.963747980731185], [-75.97163788430721, 41.8410895389339], [-75.1523058116718, 41.79702306679631]]]}}, {"type": "Feature", "properties": {"dn": 2, "PRODUCT": "Day 2 Excessive Rainfall Potential Forecast", "VALID_TIME": "12Z 09/02/26 - 12Z 09/03/26", "OUTLOOK": "Slight (At Least 15%)", "ISSUE_TIME": "2026-09-01 08:16:00", "START_TIME": "2026-09-02 12:00:00", "END_TIME": "2026-09-03 12:00:00", "Snippet": "12Z 09/02/26 - 12Z 09/03/26"}, "geometry": {"type": "Polygon", "coordinates": [[[-95.89185910994134, 29.74397223844185], [-96.52439103138262, 30.012220593248582], [-96.95124500300956, 30.371962311761543], [-97.00628028379408, 30.507723035531942], [-97.014908838435, 31.00766349712929], [-96.76100363614164, 31.737166300268363], [-96.39215864302471, 32.14940843639185], [-96.12548064306274, 32.24215044903076], [-95.85769354589564, 32.243807051162676], [-95.64295075433206, 32.15416939510623], [-95.26705477407903, 31.837392870868978], [-94.94704212491509, 31.38381819572002], [-94.73553995410039, 30.883960874093926], [-94.73626102779554, 30.565763131392725], [-95.0002007447045, 30.065605730903673], [-95.42024917440538, 29.79148220517468], [-95.89185910994134, 29.74397223844185]]]}}, {"type": "Feature", "properties": {"dn": 2, "PRODUCT": "Day 2 Excessive Rainfall Potential Forecast", "VALID_TIME": "12Z 09/02/26 - 12Z 09/03/26", "OUTLOOK": "Slight (At Least 15%)", "ISSUE_TIME": "2026-09-01 08:16:00", "START_TIME": "2026-09-02 12:00:00", "END_TIME": "2026-09-03 12:00:00", "Snippet": "12Z 09/02/26 - 12Z 09/03/26"}, "geometry": {"type": "Polygon", "coordinates": [[[-75.97163788430721, 41.8410895389339], [-76.30343895047865, 41.963747980731185], [-76.72078044409334, 42.27002642407858], [-76.91524417258829, 42.50925544430791], [-76.9852028035173, 42.779005709141714], [-76.8048102881996, 43.11111907042802], [-76.0857282610761, 43.73711601025832], [-75.35804392995344, 44.05416378698886], [-74.70694674477146, 43.984702306761996], [-74.19321446617637, 43.84101940358442], [-73.73990659148944, 43.702543735154], [-73.36562180684084, 43.48445320155299], [-73.27437605101305, 43.07900855567669], [-73.398742523877, 42.78634904895195], [-74.32865409439954, 42.057985524836795], [-74.78772761349437, 41.844814273410385], [-75.1523058116718, 41.79702306679631], [-75.97163788430721, 41.8410895389339]]]}}]}