{
  "type": "FeatureCollection",
  "features": [
    {
      "type": "Feature",
      "properties": {
        "dn": 1,
        "PRODUCT": "Day 1 Excessive Rainfall Potential Forecast",
        "VALID_TIME": "16Z 09/06/26 - 12Z 09/07/26",
        "OUTLOOK": "Marginal (At Least 5%)",
        "ISSUE_TIME": "2026-09-06 15:56:00",
        "START_TIME": "2026-09-06 16:00:00",
        "END_TIME": "2026-09-07 12:00:00",
        "Snippet": "16Z 09/06/26 - 12Z 09/07/26",
        "risk_norm": "MARGINAL"
      },
      "geometry": {
        "type": "Polygon",
        "coordinates": [
          [
            [
              -78.49681870193751,
              33.50390661667525
            ],
            [
              -78.81759787441108,
              33.29389121380424
            ],
            [
              -78.92245450308135,
              32.94005331803102
            ],
            [
              -80.45975156681814,
              31.947531694041075
            ],
            [
              -80.77017919367151,
              31.61068153649363
            ],
            [
              -81.08584345729689,
              30.77121848707945
            ],
            [
              -81.0350366494311,
              30.30957291686179
            ],
            [
              -80.75520059408946,
              29.414626373216457
            ],
            [
              -80.22831009726261,
              28.585879083976433
            ],
            [
              -80.27895736516328,
              28.177831850492325
            ],
            [
              -79.90823562421039,
              27.407054738561218
            ],
            [
              -80.52814098462595,
              27.420454426493574
            ],
            [
              -80.9670664198119,
              27.645110788465097
            ],
            [
              -81.24932908944834,
              27.90108486840682
            ],
            [
              -81.54231847741424,
              28.52308438304634
            ],
            [
              -81.9512954442869,
              29.06118394621505
            ],
            [
              -82.58306529693613,
              29.52492819178265
            ],
            [
              -83.58177378565358,
              30.058346886069646
            ],
            [
              -84.61379838353807,
              30.31282604103817
            ],
            [
              -86.18043345600432,
              30.545456104845414
            ],
            [
              -87.38948973354867,
              30.654145139717446
            ],
            [
              -88.34444418951111,
              30.60636290717412
            ],
            [
              -89.3447000595997,
              30.690970848520283
            ],
            [
              -90.2313574267908,
              30.993138187095592
            ],
            [
              -90.49083418391598,
              31.137111348154498
            ],
            [
              -90.90161630118213,
              31.557996267581306
            ],
            [
              -91.0488555604768,
              31.92480678733302
            ],
            [
              -91.03008337954827,
              32.468427161560854
            ],
            [
              -90.86097164876912,
              32.69066888239031
            ],
            [
              -90.52855456704475,
              32.909094585453545
            ],
            [
              -89.92427227213732,
              33.162796225111684
            ],
            [
              -89.54228345284152,
              33.240861934580685
            ],
            [
              -88.79160677355272,
              33.123304719794504
            ],
            [
              -86.85002458768297,
              32.311442395636334
            ],
            [
              -86.47899622939413,
              32.246732967836266
            ],
            [
              -85.8232423244071,
              32.39213213086464
            ],
            [
              -85.25480934812116,
              32.766264664609096
            ],
            [
              -85.01641418038079,
              33.02386837666056
            ],
            [
              -84.58206353779698,
              33.631037215928615
            ],
            [
              -84.04909468459782,
              34.63657528733991
            ],
            [
              -83.17650959394342,
              35.61412739189285
            ],
            [
              -82.9380161275477,
              36.27215507419085
            ],
            [
              -82.3473367699085,
              37.03704971615511
            ],
            [
              -81.88469969614863,
              37.137293906032916
            ],
            [
              -80.99980721743881,
              37.02159326066061
            ],
            [
              -80.6898158941378,
              36.815968335297605
            ],
            [
              -80.34868092336356,
              36.42590276175666
            ],
            [
              -79.48437823135899,
              35.039300705019755
            ],
            [
              -79.03239986839012,
              34.72427777540256
            ],
            [
              -77.9193337855029,
              34.430536539685114
            ],
            [
              -77.47331294437737,
              34.10965326296123
            ],
            [
              -77.7115248092838,
              33.63466331486307
            ],
            [
              -77.94830693276285,
              33.522282812135245
            ],
            [
              -78.21036025873504,
              33.59520142264277
            ],
            [
              -78.28526970597713,
              33.57132765102464
            ],
            [
              -78.84530690752499,
              34.115599453976444
            ],
            [
              -79.57795426691447,
              34.368001508414046
            ],
            [
              -80.70872083531481,
              34.96855123918745
            ],
            [
              -80.95271401394324,
              35.21507868593051
            ],
            [
              -81.16458712066193,
              35.72945335247093
            ],
            [
              -81.36275063629078,
              35.9265609709349
            ],
            [
              -81.90829194156599,
              36.015271469583105
            ],
            [
              -82.45136936347238,
              35.65113196987925
            ],
            [
              -82.78591233309538,
              35.134858810291846
            ],
            [
              -82.76586246415673,
              34.81724573824805
            ],
            [
              -82.27172986249663,
              34.32741999339052
            ],
            [
              -82.2583888477208,
              33.96404414966814
            ],
            [
              -82.53490996980085,
              33.44135193423386
            ],
            [
              -83.4817084523119,
              32.148919741271285
            ],
            [
              -83.70850078909086,
              31.48236828227987
            ],
            [
              -83.58079303598626,
              31.15424885916239
            ],
            [
              -82.95452884764806,
              30.514099569479846
            ],
            [
              -81.85026565335775,
              29.968278115347584
            ],
            [
              -80.83259656305054,
              29.650683542995996
            ],
            [
              -80.9977750457727,
              30.031782563073183
            ],
            [
              -81.13171677267133,
              30.683882193388488
            ],
            [
              -80.80549449720593,
              31.6138478307439
            ],
            [
              -80.49516161744837,
              31.950764511883545
            ],
            [
              -78.95812723491197,
              32.94361826410218
            ],
            [
              -78.85337863814183,
              33.29747603483985
            ],
            [
              -78.49243248898624,
              33.53379906716586
            ],
            [
              -78.35996691347151,
              33.54752152058465
            ],
            [
              -78.49681870193751,
              33.50390661667525
            ]
          ]
        ]
      }
    },
    {
      "type": "Feature",
      "properties": {
        "dn": 1,
        "PRODUCT": "Day 1 Excessive Rainfall Potential Forecast",
        "VALID_TIME": "16Z 09/06/26 - 12Z 09/07/26",
        "OUTLOOK": "Marginal (At Least 5%)",
        "ISSUE_TIME": "2026-09-06 15:56:00",
        "START_TIME": "2026-09-06 16:00:00",
        "END_TIME": "2026-09-07 12:00:00",
        "Snippet": "16Z 09/06/26 - 12Z 09/07/26",
        "risk_norm": "MARGINAL"
      },
      "geometry": {
        "type": "Polygon",
        "coordinates": [
          [
            [
              -95.46744214551754,
              28.469429097707604
            ],
            [
              -95.93774477860433,
              28.923221714419757
            ],
            [
              -96.88190852428006,
              29.370347762428512
            ],
            [
              -97.09680930240023,
              29.641816383876158
            ],
            [
              -97.10249673804593,
              29.96046010742854
            ],
            [
              -96.9517719515553,
              30.37195568139207
            ],
            [
              -96.63837253572008,
              30.64930898585723
            ],
            [
              -95.84764718056272,
              30.882817001355082
            ],
            [
              -95.21246299765478,
              30.884948291346873
            ],
            [
              -94.26140879514962,
              30.61062979999605
            ],
            [
              -93.57997613323842,
              30.104677967568612
            ],
            [
              -93.22160353497067,
              29.463586581070203
            ],
            [
              -93.58870427310148,
              29.466435775146778
            ],
            [
              -94.26995427925398,
              29.24334244579901
            ],
            [
              -95.20831027943626,
              28.561200309284196
            ],
            [
              -95.46744214551754,
              28.469429097707604
            ]
          ]
        ]
      }
    },
    {
      "type": "Feature",
      "properties": {
        "dn": 1,
        "PRODUCT": "Day 1 Excessive Rainfall Potential Forecast",
        "VALID_TIME": "16Z 09/06/26 - 12Z 09/07/26",
        "OUTLOOK": "Marginal (At Least 5%)",
        "ISSUE_TIME": "2026-09-06 15:56:00",
        "START_TIME": "2026-09-06 16:00:00",
        "END_TIME": "2026-09-07 12:00:00",
        "Snippet": "16Z 09/06/26 - 12Z 09/07/26",
        "risk_norm": "MARGINAL"
      },
      "geometry": {
        "type": "Polygon",
        "coordinates": [
          [
            [
              -111.1811023900453,
              31.240407704969968
            ],
            [
              -111.05177148169628,
              31.847772038073018
            ],
            [
              -110.73274313561694,
              32.65522588010871
            ],
            [
              -110.27115664660569,
              33.24614764775028
            ],
            [
              -110.23651699137703,
              33.79492047843831
            ],
            [
              -110.11694985618499,
              34.1238745297744
            ],
            [
              -109.73017676525764,
              34.52283016971506
            ],
            [
              -107.43579202016885,
              35.61543714588218
            ],
            [
              -106.9355800256022,
              36.10133598141889
            ],
            [
              -106.7723911282419,
              36.652040973636105
            ],
            [
              -106.87665487807476,
              37.09322067133886
            ],
            [
              -107.33782622046415,
              37.68710235530857
            ],
            [
              -107.94482865342316,
              38.04362366745523
            ],
            [
              -108.46706871368416,
              38.13746011700282
            ],
            [
              -108.91659503045774,
              38.1016219806136
            ],
            [
              -110.77117150934606,
              37.582452700701786
            ],
            [
              -111.13506152182121,
              37.3687918486566
            ],
            [
              -111.4274331000226,
              37.07195845907914
            ],
            [
              -112.16677693693134,
              36.051430390527194
            ],
            [
              -112.9368430691121,
              35.29029501943704
            ],
            [
              -113.49907647270557,
              35.001333016235535
            ],
            [
              -114.97888800840433,
              34.60042594679935
            ],
            [
              -115.40715918095525,
              34.229395530021144
            ],
            [
              -115.69306980979218,
              33.6911351799319
            ],
            [
              -115.96541197807512,
              33.380816804960524
            ],
            [
              -116.52731699619014,
              33.169299503524726
            ],
            [
              -117.21105266946834,
              33.03027800447996
            ],
            [
              -117.7239613850249,
              32.59110684659928
            ],
            [
              -117.79715530039311,
              32.94883466042036
            ],
            [
              -117.99290583161597,
              33.10438561459955
            ],
            [
              -118.23197248410614,
              33.206655649842304
            ],
            [
              -118.62942288815674,
              33.010823593008205
            ],
            [
              -118.87498286466361,
              33.38858892893066
            ],
            [
              -119.43660457457403,
              33.946733392781056
            ],
            [
              -119.56189580812905,
              34.01855591577729
            ],
            [
              -119.77715188807969,
              33.986638411942806
            ],
            [
              -119.23074282479357,
              34.52832071853838
            ],
            [
              -118.23037471893225,
              35.31295015703792
            ],
            [
              -117.38892631973852,
              36.11164211403614
            ],
            [
              -114.39829929916407,
              39.13884864455016
            ],
            [
              -113.9943681246335,
              39.451369349965745
            ],
            [
              -113.45877569504079,
              39.68708173898704
            ],
            [
              -113.14625867971861,
              40.207984384829004
            ],
            [
              -113.04378245403328,
              40.61772820737053
            ],
            [
              -113.19400625438522,
              41.13353031569683
            ],
            [
              -113.91526398094688,
              41.85339724510299
            ],
            [
              -113.96425955754664,
              42.11240210525249
            ],
            [
              -113.8887756068414,
              42.340046569074836
            ],
            [
              -114.00389152373876,
              42.9420364013093
            ],
            [
              -114.1544350847248,
              43.10146182836266
            ],
            [
              -114.87616745846883,
              43.417788214922
            ],
            [
              -116.00730813553797,
              43.64262182508016
            ],
            [
              -116.71345660524858,
              43.56138118219108
            ],
            [
              -117.57371560814579,
              42.844049644490354
            ],
            [
              -119.48213431500757,
              42.06759439941789
            ],
            [
              -120.88158363272831,
              41.248998463677744
            ],
            [
              -121.36175414029375,
              41.044585779917384
            ],
            [
              -122.14710692690252,
              40.88129970687211
            ],
            [
              -122.54779109109033,
              41.044062054391944
            ],
            [
              -123.14925434343706,
              41.70960920217891
            ],
            [
              -123.35569135433713,
              42.43426277782746
            ],
            [
              -122.81472843479601,
              44.765811147334524
            ],
            [
              -122.3597144342089,
              45.747083074443275
            ],
            [
              -122.23145278778497,
              46.37153997608449
            ],
            [
              -121.79770097122328,
              46.82060091596232
            ],
            [
              -121.47084916939639,
              46.99399429788951
            ],
            [
              -121.16787124862881,
              47.03460902252447
            ],
            [
              -120.9374969356247,
              46.89262636273021
            ],
            [
              -120.89065319836998,
              46.7269427854755
            ],
            [
              -121.02829997208572,
              46.105072549158294
            ],
            [
              -120.43495789554025,
              45.75272101847777
            ],
            [
              -120.11307694518456,
              45.70852810204638
            ],
            [
              -119.05558917638709,
              45.93008886738006
            ],
            [
              -118.37584373117201,
              46.18581522001832
            ],
            [
              -117.7231325027119,
              46.563777040724204
            ],
            [
              -117.37047877362212,
              46.903127498892935
            ],
            [
              -117.2889178763497,
              47.33898256416259
            ],
            [
              -117.6795292172612,
              48.39783467259615
            ],
            [
              -117.97069946115423,
              48.78681667684381
            ],
            [
              -118.01402794383938,
              49.203111614643845
            ],
            [
              -114.9980886059723,
              49.18334626790042
            ],
            [
              -111.2947108417315,
              49.17543712777201
            ],
            [
              -105.56873875913875,
              49.131896152874084
            ],
            [
              -99.61715085507376,
              49.142976536466
            ],
            [
              -96.70883423563654,
              49.187353689745954
            ],
            [
              -96.25134924972875,
              48.234529711780226
            ],
            [
              -95.79850441446581,
              46.55717034405984
            ],
            [
              -95.54921067451068,
              45.96487513567654
            ],
            [
              -94.0420127007211,
              44.03923872453154
            ],
            [
              -93.34865075553492,
              42.56400502499105
            ],
            [
              -93.37132507098246,
              41.168266113294386
            ],
            [
              -93.50557819058517,
              39.939170915730955
            ],
            [
              -93.68852426875883,
              39.101452636980525
            ],
            [
              -93.97826616128665,
              38.61604085439834
            ],
            [
              -94.49157973332518,
              38.30673598418136
            ],
            [
              -95.11403360743168,
              38.396255339334736
            ],
            [
              -95.5700775897115,
              38.751129311219294
            ],
            [
              -96.61161096154378,
              39.98221469781663
            ],
            [
              -97.19548034535009,
              40.45925382745938
            ],
            [
              -97.95489928250188,
              40.75582580448561
            ],
            [
              -98.59639610901716,
              40.87575915668071
            ],
            [
              -99.18972941954442,
              41.17069332981658
            ],
            [
              -99.26248490276977,
              41.51915819614531
            ],
            [
              -98.99665315594802,
              42.17987607854987
            ],
            [
              -99.00881348258375,
              42.484265501859845
            ],
            [
              -99.25731159076527,
              42.782805315843994
            ],
            [
              -100.3692948457987,
              43.663209115974716
            ],
            [
              -100.84797921545636,
              44.68191530379565
            ],
            [
              -101.1516047607315,
              45.65567316181231
            ],
            [
              -101.28449123802267,
              45.8217276922614
            ],
            [
              -101.85593101380287,
              46.14167177532597
            ],
            [
              -103.41669416710033,
              46.462674723549135
            ],
            [
              -104.64140885142471,
              46.406378025488905
            ],
            [
              -106.62714687845421,
              46.04332913328333
            ],
            [
              -108.91057573318916,
              45.29416034578733
            ],
            [
              -109.2331637319251,
              45.01365785622663
            ],
            [
              -109.42865231101301,
              44.69765608420535
            ],
            [
              -109.50984415459656,
              44.43265683365983
            ],
            [
              -109.44590952743519,
              44.00521849148756
            ],
            [
              -109.17797426666789,
              43.80994501445164
            ],
            [
              -108.29924305503845,
              43.527639964583194
            ],
            [
              -108.03230546510075,
              43.32857749305031
            ],
            [
              -107.95048072076376,
              43.160462819710006
            ],
            [
              -107.99474408447406,
              42.591071512288934
            ],
            [
              -108.27297352558865,
              41.56423082606422
            ],
            [
              -108.18789347866888,
              40.910723676898286
            ],
            [
              -107.25885851492184,
              38.985834612251736
            ],
            [
              -106.86375186379753,
              38.52381562689413
            ],
            [
              -106.5020097828841,
              38.3264117195336
            ],
            [
              -105.12653047032643,
              38.189924345722446
            ],
            [
              -103.32919459985538,
              37.662309273723984
            ],
            [
              -102.85280387066835,
              37.3268330720508
            ],
            [
              -102.77433346721544,
              37.01755041670771
            ],
            [
              -103.27433010438148,
              36.232215836420444
            ],
            [
              -104.89982157952409,
              34.52258449325328
            ],
            [
              -105.22770875523115,
              33.91473037336813
            ],
            [
              -105.61754600496712,
              32.84724848759854
            ],
            [
              -106.19040776542157,
              32.08125462593699
            ],
            [
              -106.67820345651589,
              31.590117875959166
            ],
            [
              -107.96578444528456,
              31.62688053767055
            ],
            [
              -108.06062585381395,
              31.52882876890281
            ],
            [
              -108.07866176117668,
              31.20713454245347
            ],
            [
              -108.97623571561925,
              31.13024758539512
            ],
            [
              -110.73956450880605,
              31.14696319042524
            ],
            [
              -111.1811023900453,
              31.240407704969968
            ]
          ],
          [
            [
              -114.82514312770776,
              36.20844768620482
            ],
            [
              -113.90736345120236,
              36.08874060739301
            ],
            [
              -113.63283883149889,
              36.11964667838308
            ],
            [
              -113.06521198094092,
              36.40793550601709
            ],
            [
              -112.20520497123002,
              36.994097224939736
            ],
            [
              -111.66999889896456,
              37.54257041543274
            ],
            [
              -111.360815450585,
              38.110513853397144
            ],
            [
              -111.24458928308697,
              38.836756025579284
            ],
            [
              -110.81222259498912,
              39.76693517543568
            ],
            [
              -110.92974392242158,
              40.15570185957865
            ],
            [
              -111.12241544971297,
              40.27164005273596
            ],
            [
              -111.63028909669825,
              40.18023765403653
            ],
            [
              -113.25089275546517,
              38.50272207555532
            ],
            [
              -113.70938269731106,
              38.184468523707444
            ],
            [
              -114.8012530925483,
              37.61182462705977
            ],
            [
              -115.78350207757012,
              36.817039368084025
            ],
            [
              -116.42365862545078,
              36.05629026303559
            ],
            [
              -116.36276947628218,
              35.74632583791928
            ],
            [
              -115.76545645774502,
              35.5493511602117
            ],
            [
              -115.26409996006839,
              36.15567878134444
            ],
            [
              -114.82514312770776,
              36.20844768620482
            ]
          ],
          [
            [
              -94.08329273223062,
              39.72217417149174
            ],
            [
              -93.79294451610531,
              39.98543726802782
            ],
            [
              -93.72245237874121,
              41.0396714366827
            ],
            [
              -93.88425315511982,
              42.17658300310091
            ],
            [
              -94.582371974367,
              43.78275007318293
            ],
            [
              -95.00022929161707,
              44.34264738374149
            ],
            [
              -95.5428517614682,
              44.64266863757752
            ],
            [
              -96.5077279788875,
              44.72319060729886
            ],
            [
              -97.28813711977244,
              44.58681964106519
            ],
            [
              -97.82345613471298,
              44.365007455508085
            ],
            [
              -98.23282515829828,
              44.01395582949502
            ],
            [
              -98.28539068370213,
              43.797592270556024
            ],
            [
              -98.15489991566885,
              43.454486594863084
            ],
            [
              -97.66383487285694,
              42.89940613879719
            ],
            [
              -96.69147771715772,
              41.38653518944186
            ],
            [
              -96.04237413205207,
              40.60243457506733
            ],
            [
              -95.11557944717092,
              39.81274392409854
            ],
            [
              -94.82883115375212,
              39.68034851466178
            ],
            [
              -94.48512919774384,
              39.63554295258664
            ],
            [
              -94.08329273223062,
              39.72217417149174
            ]
          ]
        ]
      }
    },
    {
      "type": "Feature",
      "properties": {
        "dn": 2,
        "PRODUCT": "Day 1 Excessive Rainfall Potential Forecast",
        "VALID_TIME": "16Z 09/06/26 - 12Z 09/07/26",
        "OUTLOOK": "Slight (At Least 15%)",
        "ISSUE_TIME": "2026-09-06 15:56:00",
        "START_TIME": "2026-09-06 16:00:00",
        "END_TIME": "2026-09-07 12:00:00",
        "Snippet": "16Z 09/06/26 - 12Z 09/07/26",
        "risk_norm": "SLIGHT"
      },
      "geometry": {
        "type": "Polygon",
        "coordinates": [
          [
            [
              -81.85026565335775,
              29.968278115347584
            ],
            [
              -82.95452884764806,
              30.514099569479846
            ],
            [
              -83.58079303598626,
              31.15424885916239
            ],
            [
              -83.70850078909086,
              31.48236828227987
            ],
            [
              -83.4817084523119,
              32.148919741271285
            ],
            [
              -82.53490996980085,
              33.44135193423386
            ],
            [
              -82.2583888477208,
              33.96404414966814
            ],
            [
              -82.27172986249663,
              34.32741999339052
            ],
            [
              -82.76586246415673,
              34.81724573824805
            ],
            [
              -82.78591233309538,
              35.134858810291846
            ],
            [
              -82.45136936347238,
              35.65113196987925
            ],
            [
              -81.90829194156599,
              36.015271469583105
            ],
            [
              -81.36275063629078,
              35.9265609709349
            ],
            [
              -81.16458712066193,
              35.72945335247093
            ],
            [
              -80.95271401394324,
              35.21507868593051
            ],
            [
              -80.70872083531481,
              34.96855123918745
            ],
            [
              -79.57795426691447,
              34.368001508414046
            ],
            [
              -78.84530690752499,
              34.115599453976444
            ],
            [
              -78.27032882317279,
              33.55680736344529
            ],
            [
              -78.49243248898624,
              33.53379906716586
            ],
            [
              -78.85337863814183,
              33.29747603483985
            ],
            [
              -78.95812723491197,
              32.94361826410218
            ],
            [
              -80.49516161744837,
              31.950764511883545
            ],
            [
              -80.80549449720593,
              31.6138478307439
            ],
            [
              -81.13171677267133,
              30.683882193388488
            ],
            [
              -80.9977750457727,
              30.031782563073183
            ],
            [
              -80.83259656305054,
              29.650683542995996
            ],
            [
              -81.85026565335775,
              29.968278115347584
            ]
          ]
        ]
      }
    },
    {
      "type": "Feature",
      "properties": {
        "dn": 2,
        "PRODUCT": "Day 1 Excessive Rainfall Potential Forecast",
        "VALID_TIME": "16Z 09/06/26 - 12Z 09/07/26",
        "OUTLOOK": "Slight (At Least 15%)",
        "ISSUE_TIME": "2026-09-06 15:56:00",
        "START_TIME": "2026-09-06 16:00:00",
        "END_TIME": "2026-09-07 12:00:00",
        "Snippet": "16Z 09/06/26 - 12Z 09/07/26",
        "risk_norm": "SLIGHT"
      },
      "geometry": {
        "type": "Polygon",
        "coordinates": [
          [
            [
              -115.76545645774502,
              35.5493511602117
            ],
            [
              -116.36276947628218,
              35.74632583791928
            ],
            [
              -116.42365862545078,
              36.05629026303559
            ],
            [
              -115.78350207757012,
              36.817039368084025
            ],
            [
              -114.8012530925483,
              37.61182462705977
            ],
            [
              -113.70938269731106,
              38.184468523707444
            ],
            [
              -113.25089275546517,
              38.50272207555532
            ],
            [
              -111.63028909669825,
              40.18023765403653
            ],
            [
              -111.12241544971297,
              40.27164005273596
            ],
            [
              -110.92974392242158,
              40.15570185957865
            ],
            [
              -110.81222259498912,
              39.76693517543568
            ],
            [
              -111.24458928308697,
              38.836756025579284
            ],
            [
              -111.360815450585,
              38.110513853397144
            ],
            [
              -111.66999889896456,
              37.54257041543274
            ],
            [
              -112.20520497123002,
              36.994097224939736
            ],
            [
              -113.06521198094092,
              36.40793550601709
            ],
            [
              -113.63283883149889,
              36.11964667838308
            ],
            [
              -113.90736345120236,
              36.08874060739301
            ],
            [
              -114.82514312770776,
              36.20844768620482
            ],
            [
              -115.26409996006839,
              36.15567878134444
            ],
            [
              -115.76545645774502,
              35.5493511602117
            ]
          ]
        ]
      }
    },
    {
      "type": "Feature",
      "properties": {
        "dn": 2,
        "PRODUCT": "Day 1 Excessive Rainfall Potential Forecast",
        "VALID_TIME": "16Z 09/06/26 - 12Z 09/07/26",
        "OUTLOOK": "Slight (At Least 15%)",
        "ISSUE_TIME": "2026-09-06 15:56:00",
        "START_TIME": "2026-09-06 16:00:00",
        "END_TIME": "2026-09-07 12:00:00",
        "Snippet": "16Z 09/06/26 - 12Z 09/07/26",
        "risk_norm": "SLIGHT"
      },
      "geometry": {
        "type": "Polygon",
        "coordinates": [
          [
            [
              -94.82883115375212,
              39.68034851466178
            ],
            [
              -95.11557944717092,
              39.81274392409854
            ],
            [
              -96.04237413205207,
              40.60243457506733
            ],
            [
              -96.69147771715772,
              41.38653518944186
            ],
            [
              -97.66383487285694,
              42.89940613879719
            ],
            [
              -98.15489991566885,
              43.454486594863084
            ],
            [
              -98.28539068370213,
              43.797592270556024
            ],
            [
              -98.23282515829828,
              44.01395582949502
            ],
            [
              -97.82345613471298,
              44.365007455508085
            ],
            [
              -97.28813711977244,
              44.58681964106519
            ],
            [
              -96.5077279788875,
              44.72319060729886
            ],
            [
              -95.5428517614682,
              44.64266863757752
            ],
            [
              -95.00022929161707,
              44.34264738374149
            ],
            [
              -94.582371974367,
              43.78275007318293
            ],
            [
              -93.88425315511982,
              42.17658300310091
            ],
            [
              -93.72245237874121,
              41.0396714366827
            ],
            [
              -93.79294451610531,
              39.98543726802782
            ],
            [
              -94.08329273223062,
              39.72217417149174
            ],
            [
              -94.48512919774384,
              39.63554295258664
            ],
            [
              -94.82883115375212,
              39.68034851466178
            ]
          ],
          [
            [
              -95.11741962065996,
              41.4379711613844
            ],
            [
              -94.94216594897047,
              41.61299825292588
            ],
            [
              -94.94143396970948,
              42.87521109014582
            ],
            [
              -95.17887983759033,
              43.351401063748995
            ],
            [
              -95.47732377919964,
              43.56706418786381
            ],
            [
              -95.89464578421503,
              43.60870252893512
            ],
            [
              -96.19152534759569,
              43.52069750525859
            ],
            [
              -96.42737724372783,
              43.34602265215404
            ],
            [
              -96.54284450110167,
              43.12877070707506
            ],
            [
              -96.53679281547087,
              42.738688545220825
            ],
            [
              -95.93675810357975,
              41.74159732966444
            ],
            [
              -95.46725949641856,
              41.43740562963758
            ],
            [
              -95.11741962065996,
              41.4379711613844
            ]
          ]
        ]
      }
    },
    {
      "type": "Feature",
      "properties": {
        "dn": 3,
        "PRODUCT": "Day 1 Excessive Rainfall Potential Forecast",
        "VALID_TIME": "16Z 09/06/26 - 12Z 09/07/26",
        "OUTLOOK": "Moderate (At Least 40%)",
        "ISSUE_TIME": "2026-09-06 15:56:00",
        "START_TIME": "2026-09-06 16:00:00",
        "END_TIME": "2026-09-07 12:00:00",
        "Snippet": "16Z 09/06/26 - 12Z 09/07/26",
        "risk_norm": "MODERATE"
      },
      "geometry": {
        "type": "Polygon",
        "coordinates": [
          [
            [
              -95.46725949641856,
              41.43740562963758
            ],
            [
              -95.93675810357975,
              41.74159732966444
            ],
            [
              -96.53679281547087,
              42.738688545220825
            ],
            [
              -96.54284450110167,
              43.12877070707506
            ],
            [
              -96.42737724372783,
              43.34602265215404
            ],
            [
              -96.19152534759569,
              43.52069750525859
            ],
            [
              -95.89464578421503,
              43.60870252893512
            ],
            [
              -95.47732377919964,
              43.56706418786381
            ],
            [
              -95.17887983759033,
              43.351401063748995
            ],
            [
              -94.94143396970948,
              42.87521109014582
            ],
            [
              -94.94216594897047,
              41.61299825292588
            ],
            [
              -95.11741962065996,
              41.4379711613844
            ],
            [
              -95.46725949641856,
              41.43740562963758
            ]
          ]
        ]
      }
    }
  ]
}
