{
  "type": "FeatureCollection",
  "features": [
    {
      "type": "Feature",
      "properties": {
        "dn": 1,
        "PRODUCT": "Day 2 Excessive Rainfall Potential Forecast",
        "VALID_TIME": "12Z 09/07/26 - 12Z 09/08/26",
        "OUTLOOK": "Marginal (At Least 5%)",
        "ISSUE_TIME": "2026-09-06 08:04:00",
        "START_TIME": "2026-09-07 12:00:00",
        "END_TIME": "2026-09-08 12:00:00",
        "Snippet": "12Z 09/07/26 - 12Z 09/08/26",
        "risk_norm": "MARGINAL"
      },
      "geometry": {
        "type": "Polygon",
        "coordinates": [
          [
            [
              -81.1483527118356,
              28.762191293204584
            ],
            [
              -81.80581577698061,
              28.957252092709993
            ],
            [
              -82.55495341037233,
              29.2939576785915
            ],
            [
              -83.4591531475761,
              30.232008242232595
            ],
            [
              -84.12013648980937,
              30.507477063732168
            ],
            [
              -86.06815274451886,
              30.6302503470816
            ],
            [
              -86.44380275258831,
              30.56001017822452
            ],
            [
              -87.15025729906539,
              30.2779629690121
            ],
            [
              -87.573776521952,
              30.253027793823
            ],
            [
              -87.99166984768276,
              30.317812446833457
            ],
            [
              -88.3930446508955,
              30.700354138142664
            ],
            [
              -88.5841962198505,
              31.072207079097907
            ],
            [
              -88.60715520413815,
              31.61858341499845
            ],
            [
              -88.48538225215465,
              31.8861521873989
            ],
            [
              -87.97671149812804,
              32.319401890392236
            ],
            [
              -86.81768839686478,
              32.76347238953352
            ],
            [
              -86.49212880702589,
              32.79194708273245
            ],
            [
              -86.23056796170711,
              32.687198911571066
            ],
            [
              -85.69416023719836,
              32.65705391213
            ],
            [
              -83.72994478505647,
              32.89461381022155
            ],
            [
              -83.27387054584452,
              33.13356481571316
            ],
            [
              -83.01111079689579,
              33.56797695873968
            ],
            [
              -82.83345636182842,
              33.691685805642386
            ],
            [
              -82.4993732350883,
              33.75700588480648
            ],
            [
              -82.01312023436354,
              33.71888395250284
            ],
            [
              -81.43552501923034,
              33.535509390236975
            ],
            [
              -80.5237575412034,
              33.00193839319777
            ],
            [
              -80.05925188069554,
              32.822931157222456
            ],
            [
              -79.67292783223624,
              32.466656196771744
            ],
            [
              -80.49445341643577,
              31.950699855526654
            ],
            [
              -80.7406272890233,
              31.699283483611605
            ],
            [
              -81.12021116667621,
              30.77425779181026
            ],
            [
              -80.91979709382122,
              29.79593975750715
            ],
            [
              -80.75520059408946,
              29.414626373216457
            ],
            [
              -80.35513713473935,
              28.82730269845023
            ],
            [
              -80.7347641243936,
              28.724452825430703
            ],
            [
              -81.1483527118356,
              28.762191293204584
            ]
          ]
        ]
      }
    },
    {
      "type": "Feature",
      "properties": {
        "dn": 1,
        "PRODUCT": "Day 2 Excessive Rainfall Potential Forecast",
        "VALID_TIME": "12Z 09/07/26 - 12Z 09/08/26",
        "OUTLOOK": "Marginal (At Least 5%)",
        "ISSUE_TIME": "2026-09-06 08:04:00",
        "START_TIME": "2026-09-07 12:00:00",
        "END_TIME": "2026-09-08 12:00:00",
        "Snippet": "12Z 09/07/26 - 12Z 09/08/26",
        "risk_norm": "MARGINAL"
      },
      "geometry": {
        "type": "Polygon",
        "coordinates": [
          [
            [
              -105.82242754296216,
              31.01303479686328
            ],
            [
              -106.055277882567,
              31.224775584563876
            ],
            [
              -106.50210402882288,
              31.421674705201944
            ],
            [
              -106.57207952163469,
              31.597888069269302
            ],
            [
              -106.78893953024682,
              31.62748502168065
            ],
            [
              -107.96578444528456,
              31.62688053767055
            ],
            [
              -108.06062585381395,
              31.52882876890281
            ],
            [
              -108.07866176117668,
              31.20713454245347
            ],
            [
              -108.97623571561925,
              31.13024758539512
            ],
            [
              -110.73956450880605,
              31.14696319042524
            ],
            [
              -111.28534598770817,
              31.228769081486856
            ],
            [
              -111.68142265881059,
              31.37131416856984
            ],
            [
              -111.52650860631203,
              32.529680926319074
            ],
            [
              -111.09269914323616,
              33.66683061740143
            ],
            [
              -110.35444361052897,
              35.05348364914701
            ],
            [
              -109.75221430204913,
              35.921391007947946
            ],
            [
              -108.91746477259981,
              36.80388885483287
            ],
            [
              -108.5122159622697,
              37.15096870847338
            ],
            [
              -107.45916409623003,
              37.7686161359363
            ],
            [
              -106.56804110995606,
              38.41112090564241
            ],
            [
              -106.0507506978762,
              38.889010655199534
            ],
            [
              -105.33461780325014,
              39.73105736305426
            ],
            [
              -104.31741362194182,
              40.58294003995583
            ],
            [
              -103.69751516055042,
              40.79022863501006
            ],
            [
              -102.83658267546998,
              40.91788390761162
            ],
            [
              -102.04058775423381,
              41.1702970428742
            ],
            [
              -101.63399722249714,
              41.185743858638695
            ],
            [
              -101.39216109758681,
              41.062064544474396
            ],
            [
              -101.20212076295289,
              40.805365833497085
            ],
            [
              -101.19153497196692,
              40.62995503172151
            ],
            [
              -102.94799365587866,
              39.36845705561331
            ],
            [
              -103.78642094103014,
              38.44057641807286
            ],
            [
              -104.38229305880955,
              37.4728677974762
            ],
            [
              -104.98835088832521,
              35.50929304421113
            ],
            [
              -105.13822610398954,
              34.733811805702
            ],
            [
              -105.19095876880992,
              33.50954954741415
            ],
            [
              -105.82242754296216,
              31.01303479686328
            ]
          ]
        ]
      }
    },
    {
      "type": "Feature",
      "properties": {
        "dn": 1,
        "PRODUCT": "Day 2 Excessive Rainfall Potential Forecast",
        "VALID_TIME": "12Z 09/07/26 - 12Z 09/08/26",
        "OUTLOOK": "Marginal (At Least 5%)",
        "ISSUE_TIME": "2026-09-06 08:04:00",
        "START_TIME": "2026-09-07 12:00:00",
        "END_TIME": "2026-09-08 12:00:00",
        "Snippet": "12Z 09/07/26 - 12Z 09/08/26",
        "risk_norm": "MARGINAL"
      },
      "geometry": {
        "type": "Polygon",
        "coordinates": [
          [
            [
              -94.14786310620384,
              45.75045311943914
            ],
            [
              -94.69592975845111,
              45.83711522280285
            ],
            [
              -95.18412210665524,
              46.00716770244978
            ],
            [
              -95.92095642899427,
              46.386587191193634
            ],
            [
              -96.48092901283994,
              46.80663181705818
            ],
            [
              -96.86245320428705,
              47.39277246589712
            ],
            [
              -97.42807983745004,
              47.72144132146644
            ],
            [
              -98.05727363282077,
              47.92217272704468
            ],
            [
              -99.75999473792271,
              48.265309402105466
            ],
            [
              -100.706185471359,
              48.36612489453713
            ],
            [
              -102.02066500843772,
              48.32508779850947
            ],
            [
              -102.61660946286798,
              48.67959906270536
            ],
            [
              -102.72238831886659,
              49.17390915688602
            ],
            [
              -99.61715085507376,
              49.142976536466
            ],
            [
              -95.50672436238419,
              49.15240911350793
            ],
            [
              -95.44536366674684,
              49.524275311148095
            ],
            [
              -94.61988896219992,
              49.52440426284683
            ],
            [
              -94.43159410122591,
              48.98581077106259
            ],
            [
              -94.24421805023145,
              48.903142092357385
            ],
            [
              -93.61563975877733,
              48.77541400180068
            ],
            [
              -93.11109855296515,
              48.81290701903468
            ],
            [
              -92.67239385498338,
              48.725376907788096
            ],
            [
              -91.55442826900217,
              48.33514599289284
            ],
            [
              -90.79708811286235,
              48.44594878423832
            ],
            [
              -90.49402351705132,
              48.23103866548584
            ],
            [
              -89.4923049061971,
              48.205543459463655
            ],
            [
              -90.13457804235645,
              47.92858906100845
            ],
            [
              -90.77617775349408,
              47.524864234558514
            ],
            [
              -92.31069516178162,
              46.07362265791781
            ],
            [
              -93.11135125016564,
              45.78567068609522
            ],
            [
              -94.14786310620384,
              45.75045311943914
            ]
          ]
        ]
      }
    },
    {
      "type": "Feature",
      "properties": {
        "dn": 1,
        "PRODUCT": "Day 2 Excessive Rainfall Potential Forecast",
        "VALID_TIME": "12Z 09/07/26 - 12Z 09/08/26",
        "OUTLOOK": "Marginal (At Least 5%)",
        "ISSUE_TIME": "2026-09-06 08:04:00",
        "START_TIME": "2026-09-07 12:00:00",
        "END_TIME": "2026-09-08 12:00:00",
        "Snippet": "12Z 09/07/26 - 12Z 09/08/26",
        "risk_norm": "MARGINAL"
      },
      "geometry": {
        "type": "Polygon",
        "coordinates": [
          [
            [
              -106.13959628272761,
              49.14261050445817
            ],
            [
              -106.5108453060656,
              48.58106395442817
            ],
            [
              -106.96718286161727,
              48.220361405960745
            ],
            [
              -107.79329683958554,
              47.83332444157165
            ],
            [
              -109.52331618615227,
              47.29381430535827
            ],
            [
              -112.71888002480594,
              46.395475034490275
            ],
            [
              -114.61602320200727,
              45.69890973991891
            ],
            [
              -115.39500239334659,
              45.316252244512796
            ],
            [
              -115.86515773752545,
              45.222332825735606
            ],
            [
              -116.10249050063776,
              45.45620274691893
            ],
            [
              -116.13341747240682,
              46.141375150595564
            ],
            [
              -116.51054405204697,
              47.764535610989356
            ],
            [
              -116.32012855361252,
              48.292439301953166
            ],
            [
              -115.6425002441469,
              49.2033997510856
            ],
            [
              -111.29966943560888,
              49.20226123789611
            ],
            [
              -107.97136944992303,
              49.16378590443368
            ],
            [
              -114.48809505269793,
              49.18987546027497
            ],
            [
              -114.94054486404538,
              48.64325293936009
            ],
            [
              -114.8923972068698,
              48.14278550343483
            ],
            [
              -114.50143685649834,
              47.50452431115696
            ],
            [
              -114.34320177727525,
              47.35029797315776
            ],
            [
              -114.00098716921146,
              47.2131016765611
            ],
            [
              -113.2119678024993,
              47.329477167158345
            ],
            [
              -111.31773373412854,
              47.9155390984924
            ],
            [
              -107.92158935106293,
              49.16321044371449
            ],
            [
              -106.13959628272761,
              49.14261050445817
            ]
          ]
        ]
      }
    },
    {
      "type": "Feature",
      "properties": {
        "dn": 2,
        "PRODUCT": "Day 2 Excessive Rainfall Potential Forecast",
        "VALID_TIME": "12Z 09/07/26 - 12Z 09/08/26",
        "OUTLOOK": "Slight (At Least 15%)",
        "ISSUE_TIME": "2026-09-06 08:04:00",
        "START_TIME": "2026-09-07 12:00:00",
        "END_TIME": "2026-09-08 12:00:00",
        "Snippet": "12Z 09/07/26 - 12Z 09/08/26",
        "risk_norm": "SLIGHT"
      },
      "geometry": {
        "type": "Polygon",
        "coordinates": [
          [
            [
              -114.00098716921146,
              47.2131016765611
            ],
            [
              -114.34320177727525,
              47.35029797315776
            ],
            [
              -114.50143685649834,
              47.50452431115696
            ],
            [
              -114.8923972068698,
              48.14278550343483
            ],
            [
              -114.94054486404538,
              48.64325293936009
            ],
            [
              -114.48809505269793,
              49.18987546027497
            ],
            [
              -107.92057646667658,
              49.16358255593421
            ],
            [
              -111.31773373412854,
              47.9155390984924
            ],
            [
              -113.2119678024993,
              47.329477167158345
            ],
            [
              -114.00098716921146,
              47.2131016765611
            ]
          ]
        ]
      }
    }
  ]
}
