{"type": "FeatureCollection", "features": [{"type": "Feature", "properties": {"dn": 1, "PRODUCT": "Day 1 Excessive Rainfall Potential Forecast", "VALID_TIME": "12Z 10/05/26 - 12Z 10/06/26", "OUTLOOK": "Marginal (At Least 5%)", "ISSUE_TIME": "2026-10-05 07:42:00", "START_TIME": "2026-10-05 12:00:00", "END_TIME": "2026-10-06 12:00:00", "Snippet": "12Z 10/05/26 - 12Z 10/06/26"}, "geometry": {"type": "Polygon", "coordinates": [[[-97.79269223383596, 25.887804272618506], [-98.14909531772862, 25.92647175917468], [-98.30489419908213, 26.015440717089703], [-97.46050625995194, 27.037428723888198], [-97.25726959472934, 27.13190748355264], [-97.00088184277044, 27.135491028589083], [-97.04956838052047, 27.042603917847618], [-96.85605385798928, 26.634063688698795], [-96.7440589533017, 25.950187690062577], [-97.03011835869816, 25.82446924839117], [-97.22968651911765, 25.638882983859123], [-97.79269223383596, 25.887804272618506]], [[-97.03062505912973, 25.854921623729904], [-96.77824743387478, 25.949485628636292], [-96.77991427583602, 26.08682610783239], [-96.89009887454026, 26.6336450427625], [-97.35180241339658, 26.71899617294284], [-97.75485196377231, 26.437674534456825], [-97.79426715415948, 25.934381275185544], [-97.23024218066091, 25.66933593201249], [-97.03062505912973, 25.854921623729904]]]}}, {"type": "Feature", "properties": {"dn": 1, "PRODUCT": "Day 1 Excessive Rainfall Potential Forecast", "VALID_TIME": "12Z 10/05/26 - 12Z 10/06/26", "OUTLOOK": "Marginal (At Least 5%)", "ISSUE_TIME": "2026-10-05 07:42:00", "START_TIME": "2026-10-05 12:00:00", "END_TIME": "2026-10-06 12:00:00", "Snippet": "12Z 10/05/26 - 12Z 10/06/26"}, "geometry": {"type": "Polygon", "coordinates": [[[-82.92017110790711, 27.262223138778925], [-83.17876934092348, 27.78744444256655], [-83.12008427084714, 28.378261282360956], [-82.94683193937682, 28.547912441074573], [-82.98013486242392, 28.7336168061601], [-83.28183536671474, 28.848349498711404], [-83.32023214938555, 28.98850924755592], [-83.88245127110501, 29.66895422242978], [-84.08710279402948, 29.729113279407834], [-84.4813360692646, 29.436485842805258], [-84.91399175906047, 29.282449750682755], [-85.17437984791225, 29.29915663257841], [-85.68460892611208, 29.46759498758081], [-85.72344750313837, 29.653424985947463], [-85.96634164550724, 29.894930583775515], [-86.47697752494051, 30.10603567532834], [-87.80740680642366, 29.90026657453665], [-87.05548747981648, 30.911738713585535], [-86.37089753319964, 31.558390046962693], [-85.57809872569086, 32.10535298815492], [-84.43310720141983, 32.306466393512856], [-82.167025512771, 32.36820513582251], [-81.04149702448254, 32.31946883823954], [-80.32357521631766, 32.02625368888956], [-80.49445341643577, 31.950699855526654], [-80.80478819113524, 31.613784504858923], [-81.13101592915555, 30.68382020482289], [-80.9970781692306, 30.03171991136292], [-80.75520059408946, 29.414626373216457], [-80.22831009726261, 28.585879083976433], [-80.27895736516328, 28.177831850492325], [-80.19303293918604, 28.0318670189515], [-82.92017110790711, 27.262223138778925]]]}}, {"type": "Feature", "properties": {"dn": 2, "PRODUCT": "Day 1 Excessive Rainfall Potential Forecast", "VALID_TIME": "12Z 10/05/26 - 12Z 10/06/26", "OUTLOOK": "Slight (At Least 15%)", "ISSUE_TIME": "2026-10-05 07:42:00", "START_TIME": "2026-10-05 12:00:00", "END_TIME": "2026-10-06 12:00:00", "Snippet": "12Z 10/05/26 - 12Z 10/06/26"}, "geometry": {"type": "Polygon", "coordinates": [[[-97.23024218066091, 25.66933593201249], [-97.79426715415948, 25.934381275185544], [-97.75485196377231, 26.437674534456825], [-97.35180241339658, 26.71899617294284], [-96.89009887454026, 26.6336450427625], [-96.77991427583602, 26.08682610783239], [-96.77824743387478, 25.949485628636292], [-97.03062505912973, 25.854921623729904], [-97.23024218066091, 25.66933593201249]]]}}]}