{
  "type": "FeatureCollection",
  "features": [
    {
      "type": "Feature",
      "properties": {
        "dn": 1,
        "PRODUCT": "Day 2 Excessive Rainfall Potential Forecast",
        "VALID_TIME": "12Z 10/06/26 - 12Z 10/07/26",
        "OUTLOOK": "Marginal (At Least 5%)",
        "ISSUE_TIME": "2026-10-05 07:42:00",
        "START_TIME": "2026-10-06 12:00:00",
        "END_TIME": "2026-10-07 12:00:00",
        "Snippet": "12Z 10/06/26 - 12Z 10/07/26",
        "risk_norm": "MARGINAL"
      },
      "geometry": {
        "type": "Polygon",
        "coordinates": [
          [
            [
              -97.23023106743004,
              25.668726873049444
            ],
            [
              -97.74194273594556,
              25.888736343436992
            ],
            [
              -97.94493597420053,
              25.88490551689082
            ],
            [
              -97.9481812129961,
              25.97714229568775
            ],
            [
              -97.50039601597267,
              26.488685977788755
            ],
            [
              -96.94225286945984,
              26.679573632812858
            ],
            [
              -96.77723624327665,
              25.949801960648816
            ],
            [
              -97.03061492512109,
              25.854312576223087
            ],
            [
              -97.23023106743004,
              25.668726873049444
            ]
          ]
        ]
      }
    },
    {
      "type": "Feature",
      "properties": {
        "dn": 1,
        "PRODUCT": "Day 2 Excessive Rainfall Potential Forecast",
        "VALID_TIME": "12Z 10/06/26 - 12Z 10/07/26",
        "OUTLOOK": "Marginal (At Least 5%)",
        "ISSUE_TIME": "2026-10-05 07:42:00",
        "START_TIME": "2026-10-06 12:00:00",
        "END_TIME": "2026-10-07 12:00:00",
        "Snippet": "12Z 10/06/26 - 12Z 10/07/26",
        "risk_norm": "MARGINAL"
      },
      "geometry": {
        "type": "Polygon",
        "coordinates": [
          [
            [
              -80.24694354647694,
              25.92337111390389
            ],
            [
              -80.53904521607616,
              26.04366813274581
            ],
            [
              -81.43896938281463,
              26.678345867593098
            ],
            [
              -81.69319537014447,
              26.700926941215904
            ],
            [
              -81.90650406787005,
              26.6277729474514
            ],
            [
              -82.40207392594002,
              26.302899555543483
            ],
            [
              -83.17876934092348,
              27.78744444256655
            ],
            [
              -83.12008427084714,
              28.378261282360956
            ],
            [
              -82.94683193937682,
              28.547912441074573
            ],
            [
              -82.98013486242392,
              28.7336168061601
            ],
            [
              -83.28088857068678,
              28.847362681859316
            ],
            [
              -83.32023214938555,
              28.98850924755592
            ],
            [
              -83.98262333699651,
              29.721758924327382
            ],
            [
              -84.08710279402948,
              29.729113279407834
            ],
            [
              -84.4813360692646,
              29.436485842805258
            ],
            [
              -84.91399175906047,
              29.282449750682755
            ],
            [
              -85.58389861099434,
              29.415868001418172
            ],
            [
              -85.96731918863988,
              29.895899406152306
            ],
            [
              -85.7852592035426,
              30.20456098318379
            ],
            [
              -85.44692753733752,
              30.458810561572903
            ],
            [
              -85.11980394730972,
              30.575350374327485
            ],
            [
              -84.58532933156056,
              30.632042599877533
            ],
            [
              -82.79709277317448,
              31.005337472317056
            ],
            [
              -81.74337626668598,
              31.376636295737963
            ],
            [
              -80.88087275114782,
              31.4389522896998
            ],
            [
              -81.13101592915555,
              30.68382020482289
            ],
            [
              -80.9970781692306,
              30.03171991136292
            ],
            [
              -80.75520059408946,
              29.414626373216457
            ],
            [
              -80.22831009726261,
              28.585879083976433
            ],
            [
              -80.27895736516328,
              28.177831850492325
            ],
            [
              -79.72225018624539,
              26.83709996097543
            ],
            [
              -79.7917199942816,
              25.878856364606552
            ],
            [
              -80.24694354647694,
              25.92337111390389
            ]
          ]
        ]
      }
    }
  ]
}
