{"type": "FeatureCollection", "features": [{"type": "Feature", "properties": {"dn": 1, "PRODUCT": "Day 1 Excessive Rainfall Potential Forecast", "VALID_TIME": "16Z 09/10/26 - 12Z 09/11/26", "OUTLOOK": "Marginal (At Least 5%)", "ISSUE_TIME": "2026-09-10 15:51:00", "START_TIME": "2026-09-10 16:00:00", "END_TIME": "2026-09-11 12:00:00", "Snippet": "16Z 09/10/26 - 12Z 09/11/26"}, "geometry": {"type": "Polygon", "coordinates": [[[-89.44432342502064, 28.59820281254282], [-89.69963740594949, 28.698441485691408], [-89.84552074321768, 28.931472836935967], [-90.11316001993794, 28.757695011491165], [-91.04999807871151, 28.73885912208155], [-91.6632844398196, 29.11805931176347], [-91.820891038045, 29.075785756639466], [-92.2867797840993, 29.221364022211226], [-92.11460795205046, 29.902452808747448], [-91.8375321574164, 30.443240028687047], [-91.45641733113031, 30.79987021076713], [-91.02413585453998, 31.062328482726354], [-90.00191286882372, 31.39690132594884], [-88.51491233235525, 31.343099017824386], [-87.47140010333995, 31.024043989478237], [-87.07503334262562, 30.593994869200763], [-86.90204428668832, 30.03833900286008], [-87.70158905530097, 29.894447696549744], [-88.38566408006709, 29.879326641562674], [-88.44712950193036, 29.700508416265503], [-88.72582426544463, 29.392829315223135], [-88.6263269559462, 29.297570372466986], [-88.64102342874018, 29.024471877489752], [-88.91871418833526, 28.715305866724048], [-89.44432342502064, 28.59820281254282]]]}}, {"type": "Feature", "properties": {"dn": 1, "PRODUCT": "Day 1 Excessive Rainfall Potential Forecast", "VALID_TIME": "16Z 09/10/26 - 12Z 09/11/26", "OUTLOOK": "Marginal (At Least 5%)", "ISSUE_TIME": "2026-09-10 15:51:00", "START_TIME": "2026-09-10 16:00:00", "END_TIME": "2026-09-11 12:00:00", "Snippet": "16Z 09/10/26 - 12Z 09/11/26"}, "geometry": {"type": "Polygon", "coordinates": [[[-100.56852468859617, 31.05792353957048], [-100.84587174018077, 31.276135396125667], [-101.14002250841963, 31.810202213911467], [-101.27378461724803, 32.30421972224119], [-101.35670011227924, 33.79507733605037], [-101.2986780029605, 34.699867175826874], [-101.11700507943078, 35.38191100116292], [-100.81047701691719, 35.842142720326756], [-100.11812697901978, 36.44844116783595], [-98.9769069036334, 37.19447083153246], [-95.62236946862909, 38.174860464662395], [-91.01140536318783, 39.06171102984191], [-89.87039218296876, 39.07619504652823], [-89.0782564306297, 38.96248227950643], [-87.19936322617696, 38.93280878811259], [-86.04853817746253, 39.05492062994323], [-84.75983733937358, 39.38320040929296], [-83.53482132880744, 39.57324706476833], [-81.07953751361042, 39.439728651220086], [-78.48211480267429, 39.124077962672025], [-77.73240719415655, 39.1404251502707], [-76.4838672143476, 39.368968443655994], [-74.96362483669297, 39.46867775838629], [-74.62426768102532, 39.42932988701535], [-74.08464549583852, 39.23020531948707], [-74.70327736720743, 38.72152557532674], [-74.8603685548507, 38.20143617863563], [-75.24644613598929, 37.97592430782206], [-75.78882643851367, 37.81307996167765], [-77.55641104038364, 37.778451341098], [-78.450492644488, 37.86745870877797], [-78.82869373540358, 37.99325601917085], [-79.2274578991365, 37.98566838319636], [-80.92124725106225, 37.19279232391078], [-83.31942866823613, 36.34318336963357], [-84.6785382131498, 36.11780728134166], [-85.63030460623493, 36.03898406172874], [-86.57721796018343, 35.99948132599023], [-87.90459765051283, 36.06098495339829], [-88.68729102925528, 35.95769211368751], [-93.9084315997642, 34.45539016481098], [-95.05512771095266, 33.96308510514312], [-96.29689629730258, 33.19011009082839], [-97.09331026578043, 32.50383081745184], [-97.77017368540602, 31.632056639635916], [-98.24036467797684, 31.259010427223345], [-99.02868026738345, 31.013723583019928], [-100.08578748817592, 30.937783405090173], [-100.56852468859617, 31.05792353957048]], [[-84.49063275947535, 36.91428369750493], [-83.12604874955419, 37.09296209848058], [-81.17557763164268, 37.84126027984197], [-80.49868640596397, 38.232899988241385], [-80.29946219991922, 38.4393363230829], [-80.27489030036055, 38.615771554706804], [-80.69692654606345, 38.874499733313826], [-81.14960944960941, 38.911214905507634], [-83.57424954663198, 38.687288340908324], [-84.61939626081222, 38.486118929227054], [-85.55948395171468, 38.13935600629048], [-86.33625191696413, 37.64479526519031], [-86.48027948949964, 37.25007008956354], [-86.27415262490368, 37.01554769408259], [-84.49063275947535, 36.91428369750493]]]}}, {"type": "Feature", "properties": {"dn": 1, "PRODUCT": "Day 1 Excessive Rainfall Potential Forecast", "VALID_TIME": "16Z 09/10/26 - 12Z 09/11/26", "OUTLOOK": "Marginal (At Least 5%)", "ISSUE_TIME": "2026-09-10 15:51:00", "START_TIME": "2026-09-10 16:00:00", "END_TIME": "2026-09-11 12:00:00", "Snippet": "16Z 09/10/26 - 12Z 09/11/26"}, "geometry": {"type": "Polygon", "coordinates": [[[-105.9980610061019, 31.183197901284572], [-106.44348064514372, 31.379446531079445], [-106.57207952163469, 31.597888069269302], [-107.59448227822585, 31.656767587471624], [-107.96578444528456, 31.62688053767055], [-108.06062585381395, 31.52882876890281], [-108.07866176117668, 31.20713454245347], [-108.97623571561925, 31.13024758539512], [-110.73956450880605, 31.14696319042524], [-111.28534598770817, 31.228769081486856], [-112.51888179786205, 31.60012057653653], [-112.48781807337431, 31.74173026052174], [-112.19650368458298, 31.957391103113093], [-111.32050485013114, 32.23231784098011], [-111.04665036586911, 32.5785048691932], [-111.09119099571183, 32.893126216873775], [-111.8931554952775, 33.53982465186816], [-112.85918667248629, 34.11900551059349], [-113.00319273757292, 34.33056008983232], [-113.06118481100805, 34.687724371760716], [-112.81765518312535, 34.896855052103064], [-112.04230238999504, 34.8883428876596], [-111.64795890690797, 34.83806751548717], [-110.31515582890029, 34.37849920326197], [-109.47205417891585, 34.2285941974868], [-108.37650137295553, 34.23131283777517], [-107.07351289493802, 34.332664365852196], [-106.39887451446097, 34.697390453294716], [-105.79742336891529, 35.27843922467851], [-104.77479881677738, 36.82526313434225], [-104.05469672549965, 36.91012009247047], [-103.82451440700987, 36.83273096843331], [-103.64202305508122, 36.66210210893003], [-103.4993735154563, 36.265841989168436], [-103.50256959124118, 35.59185874008695], [-103.57780310277673, 35.13789276149547], [-104.1504486107318, 34.06912896654502], [-104.1350991390445, 33.21005945054018], [-104.04876982646029, 32.80691091943896], [-104.12358694568161, 32.39425872944332], [-104.57198369454647, 31.95825933428527], [-105.9980610061019, 31.183197901284572]]]}}, {"type": "Feature", "properties": {"dn": 1, "PRODUCT": "Day 1 Excessive Rainfall Potential Forecast", "VALID_TIME": "16Z 09/10/26 - 12Z 09/11/26", "OUTLOOK": "Marginal (At Least 5%)", "ISSUE_TIME": "2026-09-10 15:51:00", "START_TIME": "2026-09-10 16:00:00", "END_TIME": "2026-09-11 12:00:00", "Snippet": "16Z 09/10/26 - 12Z 09/11/26"}, "geometry": {"type": "Polygon", "coordinates": [[[-115.79180706434614, 32.441952570601686], [-116.55046021284866, 32.432852670739805], [-116.63023480055982, 32.56057356361362], [-116.83101733460268, 33.037571553697305], [-117.06708116080374, 34.240849069362994], [-117.03976680385716, 34.38157161127479], [-116.80446257835177, 34.596687954161595], [-116.42643986453182, 34.64671078979161], [-116.09557553195317, 34.36968753006999], [-115.83274126244397, 33.26174233065457], [-115.79180706434614, 32.441952570601686]]]}}, {"type": "Feature", "properties": {"dn": 2, "PRODUCT": "Day 1 Excessive Rainfall Potential Forecast", "VALID_TIME": "16Z 09/10/26 - 12Z 09/11/26", "OUTLOOK": "Slight (At Least 15%)", "ISSUE_TIME": "2026-09-10 15:51:00", "START_TIME": "2026-09-10 16:00:00", "END_TIME": "2026-09-11 12:00:00", "Snippet": "16Z 09/10/26 - 12Z 09/11/26"}, "geometry": {"type": "Polygon", "coordinates": [[[-86.27415262490368, 37.01554769408259], [-86.48027948949964, 37.25007008956354], [-86.33625191696413, 37.64479526519031], [-85.55948395171468, 38.13935600629048], [-84.61939626081222, 38.486118929227054], [-83.57424954663198, 38.687288340908324], [-81.14960944960941, 38.911214905507634], [-80.69692654606345, 38.874499733313826], [-80.27489030036055, 38.615771554706804], [-80.29946219991922, 38.4393363230829], [-80.49868640596397, 38.232899988241385], [-81.17557763164268, 37.84126027984197], [-83.12604874955419, 37.09296209848058], [-84.49063275947535, 36.91428369750493], [-86.27415262490368, 37.01554769408259]]]}}]}