{
  "type": "FeatureCollection",
  "features": [
    {
      "type": "Feature",
      "properties": {
        "dn": 1,
        "PRODUCT": "Day 2 Excessive Rainfall Potential Forecast",
        "VALID_TIME": "12Z 09/11/26 - 12Z 09/12/26",
        "OUTLOOK": "Marginal (At Least 5%)",
        "ISSUE_TIME": "2026-09-10 07:50:00",
        "START_TIME": "2026-09-11 12:00:00",
        "END_TIME": "2026-09-12 12:00:00",
        "Snippet": "12Z 09/11/26 - 12Z 09/12/26",
        "risk_norm": "MARGINAL"
      },
      "geometry": {
        "type": "Polygon",
        "coordinates": [
          [
            [
              -89.44432342502064,
              28.59820281254282
            ],
            [
              -89.69963740594949,
              28.698441485691408
            ],
            [
              -89.84552074321768,
              28.931472836935967
            ],
            [
              -90.11316001993794,
              28.757695011491165
            ],
            [
              -91.04999807871151,
              28.73885912208155
            ],
            [
              -91.6632844398196,
              29.11805931176347
            ],
            [
              -91.820891038045,
              29.075785756639466
            ],
            [
              -92.12573951143314,
              29.44721139676588
            ],
            [
              -92.42849559640828,
              29.953454808510898
            ],
            [
              -92.52679581349396,
              30.27362026491616
            ],
            [
              -92.44335649409226,
              31.68101133506178
            ],
            [
              -92.63887350449156,
              32.54541358332774
            ],
            [
              -93.00525238190045,
              33.09347898766444
            ],
            [
              -93.53909640910487,
              33.459903586574534
            ],
            [
              -94.72875859993117,
              34.45969074969594
            ],
            [
              -94.89235128957395,
              34.73006874071664
            ],
            [
              -94.83674377549389,
              35.314643868337065
            ],
            [
              -94.44856074756437,
              35.89730160401037
            ],
            [
              -93.94560706710992,
              36.29905479523705
            ],
            [
              -92.31559297977584,
              37.08585610394345
            ],
            [
              -90.9418480702541,
              37.90576969051667
            ],
            [
              -90.01989123288007,
              38.3263316060866
            ],
            [
              -89.50413107426874,
              38.443997545817126
            ],
            [
              -87.05226693270322,
              38.6153735477055
            ],
            [
              -86.29792315997284,
              38.80127029540252
            ],
            [
              -85.35435767247941,
              39.150988173746335
            ],
            [
              -84.65457271305169,
              39.28834276297406
            ],
            [
              -84.19917319049081,
              39.260793322571814
            ],
            [
              -83.98083680462628,
              39.15840047306092
            ],
            [
              -83.38091087635487,
              38.362239028581016
            ],
            [
              -82.9198434732484,
              37.92982638494828
            ],
            [
              -82.75648420339444,
              37.873561424204865
            ],
            [
              -81.96583048357272,
              37.85989514647139
            ],
            [
              -79.86216098067453,
              38.313010813560346
            ],
            [
              -79.36282650221042,
              38.223614260163984
            ],
            [
              -78.23293094253047,
              37.08449674366927
            ],
            [
              -77.70657914448712,
              36.85132973001184
            ],
            [
              -77.5129331008891,
              36.65014332169618
            ],
            [
              -77.41208837119208,
              36.23344743260639
            ],
            [
              -77.4907455101092,
              35.744511675852934
            ],
            [
              -77.63564972881524,
              35.53347952739414
            ],
            [
              -78.0065584293585,
              35.29942848397065
            ],
            [
              -79.24381524252767,
              34.78819931801691
            ],
            [
              -81.54914281942956,
              33.95146088048612
            ],
            [
              -83.6719501952116,
              32.934131838265856
            ],
            [
              -84.70742281763461,
              32.23254013272509
            ],
            [
              -85.40528963611162,
              31.593986936278647
            ],
            [
              -85.96514690697595,
              30.579711719323146
            ],
            [
              -86.42450159034608,
              30.103169105930018
            ],
            [
              -87.70158905530097,
              29.894447696549744
            ],
            [
              -88.38566408006709,
              29.879326641562674
            ],
            [
              -88.44712950193036,
              29.700508416265503
            ],
            [
              -88.72582426544463,
              29.392829315223135
            ],
            [
              -88.6263269559462,
              29.297570372466986
            ],
            [
              -88.64102342874018,
              29.024471877489752
            ],
            [
              -88.91871418833526,
              28.715305866724048
            ],
            [
              -89.44432342502064,
              28.59820281254282
            ]
          ]
        ]
      }
    },
    {
      "type": "Feature",
      "properties": {
        "dn": 1,
        "PRODUCT": "Day 2 Excessive Rainfall Potential Forecast",
        "VALID_TIME": "12Z 09/11/26 - 12Z 09/12/26",
        "OUTLOOK": "Marginal (At Least 5%)",
        "ISSUE_TIME": "2026-09-10 07:50:00",
        "START_TIME": "2026-09-11 12:00:00",
        "END_TIME": "2026-09-12 12:00:00",
        "Snippet": "12Z 09/11/26 - 12Z 09/12/26",
        "risk_norm": "MARGINAL"
      },
      "geometry": {
        "type": "Polygon",
        "coordinates": [
          [
            [
              -110.73554955973741,
              31.117486416569804
            ],
            [
              -111.28118954581055,
              31.199311046051452
            ],
            [
              -112.07059694016749,
              31.467011108288855
            ],
            [
              -111.96538609385568,
              31.844188790738887
            ],
            [
              -112.06593651450486,
              32.51867875178629
            ],
            [
              -112.43041060390311,
              33.48281513375221
            ],
            [
              -113.22100976416267,
              34.9878890678098
            ],
            [
              -113.44665022546192,
              36.00510736586401
            ],
            [
              -113.15982894824205,
              37.299838392395664
            ],
            [
              -112.72397776731728,
              38.423008811516674
            ],
            [
              -112.53487382231107,
              38.66696611247969
            ],
            [
              -110.50176588657733,
              39.617838341581624
            ],
            [
              -109.43165942349076,
              39.79788388366818
            ],
            [
              -108.3980959811161,
              39.83531795387021
            ],
            [
              -107.80493307522738,
              39.70224011624009
            ],
            [
              -107.6574378043652,
              39.44596495065245
            ],
            [
              -107.52025814710868,
              38.29913739767686
            ],
            [
              -107.60517592244676,
              37.57810989866866
            ],
            [
              -108.20648371107993,
              36.500725161635636
            ],
            [
              -108.29629473941796,
              35.86351494859877
            ],
            [
              -108.1251374491328,
              34.43189476250201
            ],
            [
              -107.83298684484511,
              33.32183378884806
            ],
            [
              -107.73154884358789,
              32.42089615199637
            ],
            [
              -107.93718366158966,
              31.85799387634932
            ],
            [
              -108.34182505131244,
              31.18604284158873
            ],
            [
              -108.97623571561925,
              31.13024758539512
            ],
            [
              -109.99550825996032,
              31.173732418290946
            ],
            [
              -110.04837452980216,
              31.169714377263492
            ],
            [
              -110.05960510308891,
              31.259936262596547
            ],
            [
              -110.32459467590999,
              31.64562046685352
            ],
            [
              -110.62046476267588,
              31.845553187091273
            ],
            [
              -111.20975711324861,
              31.83218433782093
            ],
            [
              -111.40280238570533,
              31.67480149173746
            ],
            [
              -111.50912128867196,
              31.29762095167506
            ],
            [
              -110.9566209730521,
              31.171493167955166
            ],
            [
              -110.05348097039527,
              31.16932626802354
            ],
            [
              -110.73554955973741,
              31.117486416569804
            ]
          ]
        ]
      }
    },
    {
      "type": "Feature",
      "properties": {
        "dn": 1,
        "PRODUCT": "Day 2 Excessive Rainfall Potential Forecast",
        "VALID_TIME": "12Z 09/11/26 - 12Z 09/12/26",
        "OUTLOOK": "Marginal (At Least 5%)",
        "ISSUE_TIME": "2026-09-10 07:50:00",
        "START_TIME": "2026-09-11 12:00:00",
        "END_TIME": "2026-09-12 12:00:00",
        "Snippet": "12Z 09/11/26 - 12Z 09/12/26",
        "risk_norm": "MARGINAL"
      },
      "geometry": {
        "type": "Polygon",
        "coordinates": [
          [
            [
              -94.70353374333152,
              43.39361330807232
            ],
            [
              -95.35803812331001,
              43.523114876944256
            ],
            [
              -96.13547269216208,
              43.822028444319145
            ],
            [
              -96.68076561929966,
              44.206263787983474
            ],
            [
              -96.9273759891993,
              44.547493793551524
            ],
            [
              -97.05499009520257,
              44.888944039613065
            ],
            [
              -97.07346482474117,
              45.74210735490064
            ],
            [
              -96.89925623049,
              46.16857645213868
            ],
            [
              -96.59979100672678,
              46.552296480383106
            ],
            [
              -95.86831945363154,
              47.18940832275113
            ],
            [
              -94.05987164182474,
              48.445369247137926
            ],
            [
              -93.23706864058313,
              48.81402430496058
            ],
            [
              -92.1730104281621,
              48.59442962865147
            ],
            [
              -91.55442826900217,
              48.33514599289284
            ],
            [
              -90.79708811286235,
              48.44594878423832
            ],
            [
              -90.49402351705132,
              48.23103866548584
            ],
            [
              -89.43099065589388,
              48.20470819346374
            ],
            [
              -89.17558428241236,
              48.28103016335936
            ],
            [
              -89.25287598384344,
              48.031786557005354
            ],
            [
              -89.71401586193421,
              47.625596947118154
            ],
            [
              -90.18206100590528,
              47.00668949710885
            ],
            [
              -91.08264686625469,
              44.68849112976769
            ],
            [
              -91.70986496329911,
              43.969897429241264
            ],
            [
              -92.2577196645242,
              43.67604503465127
            ],
            [
              -92.97763601072594,
              43.46932018360595
            ],
            [
              -93.6333413883051,
              43.38884314585769
            ],
            [
              -94.70353374333152,
              43.39361330807232
            ]
          ]
        ]
      }
    },
    {
      "type": "Feature",
      "properties": {
        "dn": 2,
        "PRODUCT": "Day 2 Excessive Rainfall Potential Forecast",
        "VALID_TIME": "12Z 09/11/26 - 12Z 09/12/26",
        "OUTLOOK": "Slight (At Least 15%)",
        "ISSUE_TIME": "2026-09-10 07:50:00",
        "START_TIME": "2026-09-11 12:00:00",
        "END_TIME": "2026-09-12 12:00:00",
        "Snippet": "12Z 09/11/26 - 12Z 09/12/26",
        "risk_norm": "SLIGHT"
      },
      "geometry": {
        "type": "Polygon",
        "coordinates": [
          [
            [
              -110.9566209730521,
              31.171493167955166
            ],
            [
              -111.50912128867196,
              31.29762095167506
            ],
            [
              -111.40280238570533,
              31.67480149173746
            ],
            [
              -111.20975711324861,
              31.83218433782093
            ],
            [
              -110.62046476267588,
              31.845553187091273
            ],
            [
              -110.32459467590999,
              31.64562046685352
            ],
            [
              -110.05960510308891,
              31.259936262596547
            ],
            [
              -110.04832467906007,
              31.169313896555874
            ],
            [
              -110.9566209730521,
              31.171493167955166
            ]
          ]
        ]
      }
    }
  ]
}
