{
  "type": "FeatureCollection",
  "features": [
    {
      "type": "Feature",
      "properties": {
        "dn": 1,
        "PRODUCT": "Day 1 Excessive Rainfall Potential Forecast",
        "VALID_TIME": "16Z 09/17/26 - 12Z 09/18/26",
        "OUTLOOK": "Marginal (At Least 5%)",
        "ISSUE_TIME": "2026-09-17 15:57:00",
        "START_TIME": "2026-09-17 16:00:00",
        "END_TIME": "2026-09-18 12:00:00",
        "Snippet": "16Z 09/17/26 - 12Z 09/18/26",
        "risk_norm": "MARGINAL"
      },
      "geometry": {
        "type": "Polygon",
        "coordinates": [
          [
            [
              -82.65662886034497,
              24.305427313913565
            ],
            [
              -83.04712327168725,
              24.429126003216957
            ],
            [
              -83.23487382246444,
              24.582611480672643
            ],
            [
              -83.14535551376402,
              24.988271877247925
            ],
            [
              -82.38701590963649,
              24.972866704434747
            ],
            [
              -82.3238345877115,
              25.104258088866843
            ],
            [
              -82.59290722228265,
              25.448019724918527
            ],
            [
              -81.9682485450342,
              25.579446157547775
            ],
            [
              -81.91407661823771,
              25.619706401004528
            ],
            [
              -81.954755231267,
              25.715047630521667
            ],
            [
              -81.7370061604568,
              25.834581206685716
            ],
            [
              -81.12615144435297,
              25.825282776973808
            ],
            [
              -80.84984241881212,
              25.569806656408893
            ],
            [
              -80.74914552429645,
              25.560256935744924
            ],
            [
              -80.42942304016374,
              26.53936123749504
            ],
            [
              -79.97171320090624,
              26.90894538866015
            ],
            [
              -79.76824996210796,
              26.888611037320256
            ],
            [
              -79.80875256297016,
              25.742665040834684
            ],
            [
              -80.03812877915196,
              25.12220283521161
            ],
            [
              -80.27699841081598,
              24.824258585643474
            ],
            [
              -80.82061013924512,
              24.508609543785425
            ],
            [
              -81.39510148089246,
              24.33276333809124
            ],
            [
              -82.10790958185841,
              24.258741381609166
            ],
            [
              -82.65662886034497,
              24.305427313913565
            ]
          ]
        ]
      }
    },
    {
      "type": "Feature",
      "properties": {
        "dn": 1,
        "PRODUCT": "Day 1 Excessive Rainfall Potential Forecast",
        "VALID_TIME": "16Z 09/17/26 - 12Z 09/18/26",
        "OUTLOOK": "Marginal (At Least 5%)",
        "ISSUE_TIME": "2026-09-17 15:57:00",
        "START_TIME": "2026-09-17 16:00:00",
        "END_TIME": "2026-09-18 12:00:00",
        "Snippet": "16Z 09/17/26 - 12Z 09/18/26",
        "risk_norm": "MARGINAL"
      },
      "geometry": {
        "type": "Polygon",
        "coordinates": [
          [
            [
              -110.86466744768266,
              32.04919573512824
            ],
            [
              -111.01230419902016,
              32.71871448788693
            ],
            [
              -111.67810306496644,
              33.562128788959676
            ],
            [
              -112.57512850933614,
              34.05894923650846
            ],
            [
              -112.72563227037301,
              34.315478648446415
            ],
            [
              -112.90563659356407,
              34.7501972380749
            ],
            [
              -113.03643156503279,
              35.55223121597913
            ],
            [
              -112.9671953792596,
              36.14789756886052
            ],
            [
              -113.06638771381243,
              36.408260073042996
            ],
            [
              -113.31542913437355,
              36.56092287814806
            ],
            [
              -114.08008545746137,
              36.74753956233352
            ],
            [
              -114.22202389294412,
              36.91191900105973
            ],
            [
              -114.27744499236145,
              37.221275589132226
            ],
            [
              -114.1505355147068,
              37.460901058844655
            ],
            [
              -113.84715876056634,
              37.67569751491398
            ],
            [
              -113.12249689678997,
              37.754346208776475
            ],
            [
              -112.91415263186072,
              37.866160431405625
            ],
            [
              -112.67242272119938,
              38.11471065165596
            ],
            [
              -112.46496233677692,
              38.58371620820943
            ],
            [
              -112.46912016441273,
              39.297799172184305
            ],
            [
              -113.46618575559633,
              41.017182495892776
            ],
            [
              -113.68329807618098,
              41.87750611163111
            ],
            [
              -113.5772923956619,
              42.898077206919865
            ],
            [
              -113.39629287930879,
              43.52763159541633
            ],
            [
              -113.08621372267694,
              44.12333139314848
            ],
            [
              -112.82754354575319,
              44.36569326824843
            ],
            [
              -112.60491607251947,
              44.47319109379415
            ],
            [
              -112.06057690631081,
              44.479852920618924
            ],
            [
              -110.10128260208339,
              43.95448997313451
            ],
            [
              -107.69335236822464,
              43.00514802620114
            ],
            [
              -106.71350251536263,
              42.765205167459975
            ],
            [
              -106.07059105204935,
              42.848465542397115
            ],
            [
              -105.80049598376901,
              43.08096534040222
            ],
            [
              -105.05893314927216,
              44.54880156531902
            ],
            [
              -104.33132181498232,
              45.14450456414408
            ],
            [
              -102.56859780129382,
              45.861948465610894
            ],
            [
              -101.2448902710313,
              46.16383770771616
            ],
            [
              -100.33249065336014,
              46.27564842006277
            ],
            [
              -98.31119253895163,
              46.32018333934604
            ],
            [
              -96.83851744063354,
              46.25477887253934
            ],
            [
              -95.49025522112382,
              46.13562190507353
            ],
            [
              -94.45174488102356,
              45.88077611414551
            ],
            [
              -93.1873635649243,
              44.934182525965696
            ],
            [
              -92.89568202485582,
              44.459795103851384
            ],
            [
              -92.73645862599706,
              43.553806553663286
            ],
            [
              -92.50485958199192,
              43.2915372592381
            ],
            [
              -91.62864351620038,
              42.88873430363456
            ],
            [
              -90.34221427977148,
              42.55679506074682
            ],
            [
              -87.46407012129428,
              42.374216386377604
            ],
            [
              -84.85386218227433,
              41.94235611468761
            ],
            [
              -82.81113318686079,
              41.816788418731534
            ],
            [
              -81.80952483403419,
              41.83437008579297
            ],
            [
              -80.43327137642153,
              41.992198439744435
            ],
            [
              -79.4611394282222,
              42.17478207879501
            ],
            [
              -78.57387648574705,
              42.53514058220825
            ],
            [
              -77.26506528986368,
              42.54438878163308
            ],
            [
              -76.46566650956389,
              42.684331018951205
            ],
            [
              -75.93133191622225,
              42.67333548785117
            ],
            [
              -74.83968237697891,
              42.468404256418495
            ],
            [
              -74.61554391851496,
              42.39951431017996
            ],
            [
              -74.47550526238756,
              42.20684569132251
            ],
            [
              -74.89034175969351,
              41.32661256738131
            ],
            [
              -75.4445634740964,
              40.590605898073164
            ],
            [
              -75.9506746897969,
              40.068230591203225
            ],
            [
              -76.05574641675913,
              39.81252989044531
            ],
            [
              -76.42953287153884,
              39.673487238457305
            ],
            [
              -77.14363204013806,
              39.21391134102159
            ],
            [
              -77.53659247270464,
              38.58387364313048
            ],
            [
              -77.73422112993285,
              38.4248277606631
            ],
            [
              -77.86215243544692,
              38.34720984442297
            ],
            [
              -78.1499858475214,
              38.330899970355986
            ],
            [
              -79.10543213858587,
              38.421797014846945
            ],
            [
              -80.31852232031338,
              38.306081757760225
            ],
            [
              -80.80291714405277,
              38.0795446411709
            ],
            [
              -81.3375159297429,
              37.451836126895024
            ],
            [
              -81.62907564220315,
              37.384498190176245
            ],
            [
              -82.00918573326736,
              37.50350612670974
            ],
            [
              -82.68011111053596,
              38.044957518558675
            ],
            [
              -84.24461518822733,
              38.81776396659922
            ],
            [
              -85.89725979824577,
              38.823372496037386
            ],
            [
              -89.28498861594198,
              38.301797574449694
            ],
            [
              -90.81007439060288,
              38.389946514663414
            ],
            [
              -91.5369020346862,
              38.71755800420988
            ],
            [
              -91.86445589483661,
              39.16675255382028
            ],
            [
              -92.1852992423046,
              39.96716277510045
            ],
            [
              -92.86295007601096,
              40.503922590164564
            ],
            [
              -93.8996334273757,
              40.82071576131709
            ],
            [
              -96.98308693867348,
              41.426435116159865
            ],
            [
              -98.67796401949442,
              41.53110274907752
            ],
            [
              -100.13595578130946,
              41.495601507168
            ],
            [
              -101.40424348342945,
              41.236140928757216
            ],
            [
              -102.3088661967628,
              40.85057883058549
            ],
            [
              -103.19619354262986,
              40.3280028449892
            ],
            [
              -103.89792162719615,
              39.765312759051426
            ],
            [
              -104.26329135701417,
              39.34810538933008
            ],
            [
              -104.50025692263448,
              38.802976315478496
            ],
            [
              -104.54565371474729,
              38.043978709357965
            ],
            [
              -104.3492941253851,
              36.445027770043886
            ],
            [
              -104.0568002517954,
              35.60761327636039
            ],
            [
              -103.93321051532185,
              34.08114751767894
            ],
            [
              -103.98056317704324,
              33.309314715831945
            ],
            [
              -104.10247228220435,
              32.80388476347642
            ],
            [
              -104.2452196999828,
              32.56887864485612
            ],
            [
              -105.394656998519,
              31.589166527393292
            ],
            [
              -105.5614262465007,
              31.077189896171628
            ],
            [
              -105.53769023063707,
              30.804404455106397
            ],
            [
              -106.055277882567,
              31.224775584563876
            ],
            [
              -106.50210402882288,
              31.421674705201944
            ],
            [
              -106.57207952163469,
              31.597888069269302
            ],
            [
              -106.78893953024682,
              31.62748502168065
            ],
            [
              -107.96246091385268,
              31.597367977657036
            ],
            [
              -108.07532152085008,
              31.177599435261552
            ],
            [
              -109.5056158029096,
              31.09829811405745
            ],
            [
              -109.80186344572574,
              31.14391472744886
            ],
            [
              -108.97630849782487,
              31.130850032815246
            ],
            [
              -108.07872992934661,
              31.207737299743084
            ],
            [
              -108.06133229003933,
              31.528770695221137
            ],
            [
              -107.96585227245663,
              31.627482834813662
            ],
            [
              -107.43047824338186,
              31.624728225883075
            ],
            [
              -107.1018002466886,
              32.05979457159817
            ],
            [
              -105.65111758398002,
              32.61755743132903
            ],
            [
              -105.1353471170334,
              32.877855881770124
            ],
            [
              -104.88590436753809,
              33.12057168439836
            ],
            [
              -104.66286759716554,
              33.67766987270822
            ],
            [
              -104.56173358862961,
              34.40712838502784
            ],
            [
              -104.49388994758827,
              35.53825807786047
            ],
            [
              -104.56780663158109,
              36.387876518776594
            ],
            [
              -104.85007869937155,
              37.04392179111467
            ],
            [
              -105.74112923473986,
              38.107185934878586
            ],
            [
              -106.67457720881114,
              39.381189346180435
            ],
            [
              -107.45724864789025,
              40.16893737620453
            ],
            [
              -107.82363912575488,
              40.32002337952419
            ],
            [
              -108.41466312606241,
              40.40886909032985
            ],
            [
              -110.44824310863221,
              40.42030551361104
            ],
            [
              -110.89340814553806,
              40.2923646447732
            ],
            [
              -111.19615439523166,
              39.99837023112673
            ],
            [
              -111.26900543694575,
              39.72518562324211
            ],
            [
              -111.16663786900078,
              39.06704982026223
            ],
            [
              -110.86703029661152,
              38.60394184544155
            ],
            [
              -110.22690210682438,
              38.1254065754049
            ],
            [
              -109.69822186949207,
              37.58963258974419
            ],
            [
              -109.0095448756927,
              36.21063523127947
            ],
            [
              -108.92983633788747,
              35.58623324467984
            ],
            [
              -109.02200875201734,
              35.44351080335404
            ],
            [
              -109.33333220977923,
              35.281360416048294
            ],
            [
              -111.07523031377991,
              35.075780628320274
            ],
            [
              -111.46524540103292,
              34.71954889223725
            ],
            [
              -111.58148340103884,
              34.390207536014465
            ],
            [
              -111.34013666854239,
              33.869438787252946
            ],
            [
              -110.29388530738086,
              33.01645662624774
            ],
            [
              -109.91308520897539,
              32.596882738281145
            ],
            [
              -109.76040149082766,
              31.836019534590456
            ],
            [
              -109.8316869864751,
              31.1485069966578
            ],
            [
              -109.99550825996032,
              31.173732418290946
            ],
            [
              -110.95653789383776,
              31.17089174187611
            ],
            [
              -110.86466744768266,
              32.04919573512824
            ]
          ],
          [
            [
              -84.32816250252729,
              40.24091875670819
            ],
            [
              -83.55732991525657,
              40.41355818200321
            ],
            [
              -83.35940174717788,
              40.62168075098353
            ],
            [
              -83.34449589289713,
              40.75291171326691
            ],
            [
              -83.488138932539,
              41.02632615909636
            ],
            [
              -83.80717097608253,
              41.31060025977391
            ],
            [
              -84.30669784329709,
              41.56024790362045
            ],
            [
              -85.3924167876104,
              41.839983748336714
            ],
            [
              -87.24591338440278,
              42.1467117884398
            ],
            [
              -89.0005570829522,
              42.29985412806777
            ],
            [
              -90.23682217851265,
              42.292622881357
            ],
            [
              -91.06654311996603,
              42.138116145904064
            ],
            [
              -91.54566910720168,
              41.88577549615164
            ],
            [
              -91.49771655889496,
              41.5791731221073
            ],
            [
              -91.10036072180334,
              41.26436754680074
            ],
            [
              -90.01868126865983,
              40.75523253847421
            ],
            [
              -88.70678820451741,
              40.405997653284366
            ],
            [
              -87.39419062506705,
              40.17841387042195
            ],
            [
              -86.01490761034489,
              40.11382058232108
            ],
            [
              -84.32816250252729,
              40.24091875670819
            ]
          ],
          [
            [
              -103.98645567609262,
              40.77462015763242
            ],
            [
              -103.60327334406466,
              41.05753775795583
            ],
            [
              -102.92750402440576,
              42.09519774785574
            ],
            [
              -102.37396970066925,
              42.5536266051667
            ],
            [
              -101.79993237072775,
              42.79307807311542
            ],
            [
              -100.57448874306336,
              43.09437536387281
            ],
            [
              -98.33125735982958,
              43.40776729446224
            ],
            [
              -97.20153776399195,
              43.42451433978435
            ],
            [
              -96.0691660285979,
              43.218231594601896
            ],
            [
              -94.52826453169739,
              42.74404888734712
            ],
            [
              -93.81997628045522,
              42.697476088996524
            ],
            [
              -93.69960363803752,
              42.82727970003557
            ],
            [
              -93.63632435575599,
              43.13017236190192
            ],
            [
              -93.92196161051176,
              44.12464993804798
            ],
            [
              -94.21801591154815,
              44.55565014595731
            ],
            [
              -94.69904047385407,
              44.85737332190426
            ],
            [
              -97.2549953455533,
              45.74051026112902
            ],
            [
              -97.9912421564919,
              45.90064359932021
            ],
            [
              -99.94276694412073,
              45.86087877210055
            ],
            [
              -101.26920362070815,
              45.60971908101631
            ],
            [
              -102.638821166163,
              45.218839730841395
            ],
            [
              -103.57562947789961,
              44.83657793689089
            ],
            [
              -104.31737920252182,
              44.37154371428296
            ],
            [
              -104.91041169716335,
              43.69400427050975
            ],
            [
              -105.35907135945673,
              42.84540631577144
            ],
            [
              -105.60643432877302,
              41.82771222875782
            ],
            [
              -105.50276286970718,
              41.39558584377928
            ],
            [
              -105.11430352215919,
              41.02222600312074
            ],
            [
              -104.68811423722913,
              40.82594798902654
            ],
            [
              -103.98645567609262,
              40.77462015763242
            ]
          ]
        ]
      }
    },
    {
      "type": "Feature",
      "properties": {
        "dn": 2,
        "PRODUCT": "Day 1 Excessive Rainfall Potential Forecast",
        "VALID_TIME": "16Z 09/17/26 - 12Z 09/18/26",
        "OUTLOOK": "Slight (At Least 15%)",
        "ISSUE_TIME": "2026-09-17 15:57:00",
        "START_TIME": "2026-09-17 16:00:00",
        "END_TIME": "2026-09-18 12:00:00",
        "Snippet": "16Z 09/17/26 - 12Z 09/18/26",
        "risk_norm": "SLIGHT"
      },
      "geometry": {
        "type": "Polygon",
        "coordinates": [
          [
            [
              -108.97630849782487,
              31.130850032815246
            ],
            [
              -109.83211350459752,
              31.14439344516815
            ],
            [
              -109.76040149082766,
              31.836019534590456
            ],
            [
              -109.91308520897539,
              32.596882738281145
            ],
            [
              -110.29388530738086,
              33.01645662624774
            ],
            [
              -111.34013666854239,
              33.869438787252946
            ],
            [
              -111.58148340103884,
              34.390207536014465
            ],
            [
              -111.46524540103292,
              34.71954889223725
            ],
            [
              -111.07523031377991,
              35.075780628320274
            ],
            [
              -109.33333220977923,
              35.281360416048294
            ],
            [
              -109.02200875201734,
              35.44351080335404
            ],
            [
              -108.92983633788747,
              35.58623324467984
            ],
            [
              -109.0095448756927,
              36.21063523127947
            ],
            [
              -109.69822186949207,
              37.58963258974419
            ],
            [
              -110.22690210682438,
              38.1254065754049
            ],
            [
              -110.86703029661152,
              38.60394184544155
            ],
            [
              -111.16663786900078,
              39.06704982026223
            ],
            [
              -111.26900543694575,
              39.72518562324211
            ],
            [
              -111.19615439523166,
              39.99837023112673
            ],
            [
              -110.89340814553806,
              40.2923646447732
            ],
            [
              -110.44824310863221,
              40.42030551361104
            ],
            [
              -108.41466312606241,
              40.40886909032985
            ],
            [
              -107.82363912575488,
              40.32002337952419
            ],
            [
              -107.45724864789025,
              40.16893737620453
            ],
            [
              -106.67457720881114,
              39.381189346180435
            ],
            [
              -105.74112923473986,
              38.107185934878586
            ],
            [
              -104.85007869937155,
              37.04392179111467
            ],
            [
              -104.56780663158109,
              36.387876518776594
            ],
            [
              -104.49388994758827,
              35.53825807786047
            ],
            [
              -104.56173358862961,
              34.40712838502784
            ],
            [
              -104.66286759716554,
              33.67766987270822
            ],
            [
              -104.88590436753809,
              33.12057168439836
            ],
            [
              -105.1353471170334,
              32.877855881770124
            ],
            [
              -105.65111758398002,
              32.61755743132903
            ],
            [
              -107.1018002466886,
              32.05979457159817
            ],
            [
              -107.43047824338186,
              31.624728225883075
            ],
            [
              -107.96585227245663,
              31.627482834813662
            ],
            [
              -108.06133229003933,
              31.528770695221137
            ],
            [
              -108.07872992934661,
              31.207737299743084
            ],
            [
              -108.97630849782487,
              31.130850032815246
            ]
          ]
        ]
      }
    },
    {
      "type": "Feature",
      "properties": {
        "dn": 2,
        "PRODUCT": "Day 1 Excessive Rainfall Potential Forecast",
        "VALID_TIME": "16Z 09/17/26 - 12Z 09/18/26",
        "OUTLOOK": "Slight (At Least 15%)",
        "ISSUE_TIME": "2026-09-17 15:57:00",
        "START_TIME": "2026-09-17 16:00:00",
        "END_TIME": "2026-09-18 12:00:00",
        "Snippet": "16Z 09/17/26 - 12Z 09/18/26",
        "risk_norm": "SLIGHT"
      },
      "geometry": {
        "type": "Polygon",
        "coordinates": [
          [
            [
              -87.39419062506705,
              40.17841387042195
            ],
            [
              -88.70678820451741,
              40.405997653284366
            ],
            [
              -90.01868126865983,
              40.75523253847421
            ],
            [
              -91.10036072180334,
              41.26436754680074
            ],
            [
              -91.49771655889496,
              41.5791731221073
            ],
            [
              -91.54566910720168,
              41.88577549615164
            ],
            [
              -91.06654311996603,
              42.138116145904064
            ],
            [
              -90.23682217851265,
              42.292622881357
            ],
            [
              -89.0005570829522,
              42.29985412806777
            ],
            [
              -87.24591338440278,
              42.1467117884398
            ],
            [
              -85.3924167876104,
              41.839983748336714
            ],
            [
              -84.30669784329709,
              41.56024790362045
            ],
            [
              -83.80717097608253,
              41.31060025977391
            ],
            [
              -83.488138932539,
              41.02632615909636
            ],
            [
              -83.34449589289713,
              40.75291171326691
            ],
            [
              -83.35940174717788,
              40.62168075098353
            ],
            [
              -83.55732991525657,
              40.41355818200321
            ],
            [
              -84.32816250252729,
              40.24091875670819
            ],
            [
              -86.01490761034489,
              40.11382058232108
            ],
            [
              -87.39419062506705,
              40.17841387042195
            ]
          ]
        ]
      }
    },
    {
      "type": "Feature",
      "properties": {
        "dn": 2,
        "PRODUCT": "Day 1 Excessive Rainfall Potential Forecast",
        "VALID_TIME": "16Z 09/17/26 - 12Z 09/18/26",
        "OUTLOOK": "Slight (At Least 15%)",
        "ISSUE_TIME": "2026-09-17 15:57:00",
        "START_TIME": "2026-09-17 16:00:00",
        "END_TIME": "2026-09-18 12:00:00",
        "Snippet": "16Z 09/17/26 - 12Z 09/18/26",
        "risk_norm": "SLIGHT"
      },
      "geometry": {
        "type": "Polygon",
        "coordinates": [
          [
            [
              -104.68811423722913,
              40.82594798902654
            ],
            [
              -105.11430352215919,
              41.02222600312074
            ],
            [
              -105.50276286970718,
              41.39558584377928
            ],
            [
              -105.60643432877302,
              41.82771222875782
            ],
            [
              -105.35907135945673,
              42.84540631577144
            ],
            [
              -104.91041169716335,
              43.69400427050975
            ],
            [
              -104.31737920252182,
              44.37154371428296
            ],
            [
              -103.57562947789961,
              44.83657793689089
            ],
            [
              -102.638821166163,
              45.218839730841395
            ],
            [
              -101.26920362070815,
              45.60971908101631
            ],
            [
              -99.94276694412073,
              45.86087877210055
            ],
            [
              -97.9912421564919,
              45.90064359932021
            ],
            [
              -97.2549953455533,
              45.74051026112902
            ],
            [
              -94.69904047385407,
              44.85737332190426
            ],
            [
              -94.21801591154815,
              44.55565014595731
            ],
            [
              -93.92196161051176,
              44.12464993804798
            ],
            [
              -93.63632435575599,
              43.13017236190192
            ],
            [
              -93.69960363803752,
              42.82727970003557
            ],
            [
              -93.81997628045522,
              42.697476088996524
            ],
            [
              -94.52826453169739,
              42.74404888734712
            ],
            [
              -96.0691660285979,
              43.218231594601896
            ],
            [
              -97.20153776399195,
              43.42451433978435
            ],
            [
              -98.33125735982958,
              43.40776729446224
            ],
            [
              -100.57448874306336,
              43.09437536387281
            ],
            [
              -101.79993237072775,
              42.79307807311542
            ],
            [
              -102.37396970066925,
              42.5536266051667
            ],
            [
              -102.92750402440576,
              42.09519774785574
            ],
            [
              -103.60327334406466,
              41.05753775795583
            ],
            [
              -103.98645567609262,
              40.77462015763242
            ],
            [
              -104.68811423722913,
              40.82594798902654
            ]
          ]
        ]
      }
    }
  ]
}
