{
  "type": "FeatureCollection",
  "features": [
    {
      "type": "Feature",
      "properties": {
        "dn": 1,
        "PRODUCT": "Day 2 Excessive Rainfall Potential Forecast",
        "VALID_TIME": "12Z 09/18/26 - 12Z 09/19/26",
        "OUTLOOK": "Marginal (At Least 5%)",
        "ISSUE_TIME": "2026-09-17 07:17:00",
        "START_TIME": "2026-09-18 12:00:00",
        "END_TIME": "2026-09-19 12:00:00",
        "Snippet": "12Z 09/18/26 - 12Z 09/19/26",
        "risk_norm": "MARGINAL"
      },
      "geometry": {
        "type": "Polygon",
        "coordinates": [
          [
            [
              -105.42408104776881,
              30.72078650336161
            ],
            [
              -106.055277882567,
              31.224775584563876
            ],
            [
              -106.50210402882288,
              31.421674705201944
            ],
            [
              -106.57207952163469,
              31.597888069269302
            ],
            [
              -106.78893953024682,
              31.62748502168065
            ],
            [
              -107.96578444528456,
              31.62688053767055
            ],
            [
              -108.06062585381395,
              31.52882876890281
            ],
            [
              -108.07866176117668,
              31.20713454245347
            ],
            [
              -108.97623571561925,
              31.13024758539512
            ],
            [
              -109.93809972925625,
              31.13439321906201
            ],
            [
              -109.8414865353498,
              33.28621079916785
            ],
            [
              -110.0815923634366,
              35.078657672494735
            ],
            [
              -110.86764217092644,
              37.08044642822826
            ],
            [
              -111.36413990223608,
              37.75170580907299
            ],
            [
              -111.90194180325935,
              38.28193680668626
            ],
            [
              -112.23398166246118,
              38.91972753720301
            ],
            [
              -112.32422763412161,
              40.15741209311784
            ],
            [
              -112.25803239652898,
              41.49078604137211
            ],
            [
              -111.97764862899605,
              42.96509931248951
            ],
            [
              -112.06687598225959,
              43.48021993471392
            ],
            [
              -112.22264836299061,
              43.68345538701129
            ],
            [
              -112.68952725131125,
              43.943214806727006
            ],
            [
              -114.20307148963933,
              44.27207583739175
            ],
            [
              -114.74026255251538,
              44.521123444572304
            ],
            [
              -115.30020958054213,
              45.154516246400576
            ],
            [
              -115.43664491102372,
              45.78655345118017
            ],
            [
              -115.18351588280959,
              46.32802472593358
            ],
            [
              -114.72550433590021,
              46.8028773066472
            ],
            [
              -113.95721913317367,
              47.30347127138679
            ],
            [
              -113.37690182916863,
              47.52743580767861
            ],
            [
              -110.53878752940926,
              47.76785729146512
            ],
            [
              -109.87162677947546,
              47.90251109109213
            ],
            [
              -107.75731499323183,
              48.46604479993286
            ],
            [
              -106.55500689049543,
              48.912775960230924
            ],
            [
              -106.20396937782554,
              49.139962756268545
            ],
            [
              -100.18817576676453,
              49.17086302554872
            ],
            [
              -101.75358802471948,
              48.126170339492894
            ],
            [
              -102.5611546670644,
              47.30054800478627
            ],
            [
              -103.03693187183308,
              46.35223594805613
            ],
            [
              -103.34088511804879,
              44.93229385358575
            ],
            [
              -103.68165304649965,
              44.01402379015954
            ],
            [
              -104.01711545670372,
              43.738282918780996
            ],
            [
              -105.01987155762104,
              43.60077150629833
            ],
            [
              -105.29322479203965,
              43.37016664842117
            ],
            [
              -105.48434703074408,
              42.9253095583817
            ],
            [
              -105.42975076022742,
              42.4058638480995
            ],
            [
              -104.91398676979729,
              41.95515335324301
            ],
            [
              -104.36351692052037,
              41.72192627998061
            ],
            [
              -102.3246500670739,
              41.071218732829806
            ],
            [
              -101.72013114715396,
              40.74272081353543
            ],
            [
              -101.3378463257954,
              40.18463593163461
            ],
            [
              -101.3083645321652,
              39.7003522674397
            ],
            [
              -101.45831478963832,
              39.341187983409526
            ],
            [
              -101.67360031559882,
              39.11082160418692
            ],
            [
              -102.06025213682217,
              38.91827846397986
            ],
            [
              -103.34909803094237,
              38.639158122702085
            ],
            [
              -103.95705347154147,
              38.430927983877126
            ],
            [
              -104.9586534124425,
              37.61889915902318
            ],
            [
              -105.15342911658091,
              37.29453636899598
            ],
            [
              -105.22296505913768,
              36.842669155420275
            ],
            [
              -105.13395235106732,
              36.48933103883843
            ],
            [
              -104.81225711146658,
              36.014519692869364
            ],
            [
              -103.65242253208991,
              34.683219228740406
            ],
            [
              -103.38991665849497,
              34.1099303562681
            ],
            [
              -103.35970869390037,
              33.70459536198809
            ],
            [
              -103.53191433774464,
              33.10707310678817
            ],
            [
              -103.95950638455712,
              32.35811071389884
            ],
            [
              -104.97977866090388,
              31.11499419459845
            ],
            [
              -105.42408104776881,
              30.72078650336161
            ]
          ]
        ]
      }
    },
    {
      "type": "Feature",
      "properties": {
        "dn": 1,
        "PRODUCT": "Day 2 Excessive Rainfall Potential Forecast",
        "VALID_TIME": "12Z 09/18/26 - 12Z 09/19/26",
        "OUTLOOK": "Marginal (At Least 5%)",
        "ISSUE_TIME": "2026-09-17 07:17:00",
        "START_TIME": "2026-09-18 12:00:00",
        "END_TIME": "2026-09-19 12:00:00",
        "Snippet": "12Z 09/18/26 - 12Z 09/19/26",
        "risk_norm": "MARGINAL"
      },
      "geometry": {
        "type": "Polygon",
        "coordinates": [
          [
            [
              -90.3143055305792,
              39.352434805302664
            ],
            [
              -93.03793675694212,
              40.418010101979625
            ],
            [
              -95.35064425310735,
              41.436969617252615
            ],
            [
              -96.52590285414632,
              42.04206020564826
            ],
            [
              -96.94353231971405,
              42.343768971933216
            ],
            [
              -97.42676002979657,
              42.85930047079956
            ],
            [
              -98.54973412297112,
              44.48120922885102
            ],
            [
              -98.95417275259851,
              45.54257401556373
            ],
            [
              -98.79398654832107,
              46.09858394057832
            ],
            [
              -98.5546872022322,
              46.27355257083258
            ],
            [
              -97.82603770071218,
              46.497080747526816
            ],
            [
              -96.5385261258647,
              46.63815402210748
            ],
            [
              -95.0623596923973,
              46.644137899088875
            ],
            [
              -92.97485785236911,
              46.46464499172504
            ],
            [
              -91.32949554560206,
              46.14421784412546
            ],
            [
              -88.6280650600174,
              45.35082801465618
            ],
            [
              -86.9258752186983,
              44.644320307431684
            ],
            [
              -86.18652586699268,
              44.13726374524657
            ],
            [
              -85.86821391996646,
              43.69036262543477
            ],
            [
              -85.69974517576382,
              42.94521616014928
            ],
            [
              -85.77622564709621,
              42.121582126094786
            ],
            [
              -85.99482040684069,
              41.651674115442475
            ],
            [
              -86.8409288676742,
              40.59481484211948
            ],
            [
              -87.17961680615636,
              39.94890969239334
            ],
            [
              -87.62195256111997,
              39.39338414136487
            ],
            [
              -88.16003834038993,
              39.06006869867597
            ],
            [
              -88.9620766180026,
              39.00104471147865
            ],
            [
              -90.3143055305792,
              39.352434805302664
            ]
          ],
          [
            [
              -90.29767010899761,
              42.24977900172813
            ],
            [
              -88.9418615014211,
              42.297051178899274
            ],
            [
              -88.16947204609563,
              42.40054122509466
            ],
            [
              -87.92756865488758,
              42.47888012003629
            ],
            [
              -87.67316366866811,
              42.72988936590948
            ],
            [
              -87.66826619551365,
              43.596623410562046
            ],
            [
              -87.774557668909,
              43.77356358064941
            ],
            [
              -88.4617665088015,
              44.230172717162056
            ],
            [
              -90.46753397173458,
              44.97513364228311
            ],
            [
              -92.68993020103446,
              45.56960156058377
            ],
            [
              -95.06185408710465,
              45.881113200690706
            ],
            [
              -95.79397668979509,
              45.87950448746963
            ],
            [
              -96.88696416203175,
              45.61676818325165
            ],
            [
              -97.24449650156122,
              45.27148572025928
            ],
            [
              -97.23450191388345,
              44.84412664813908
            ],
            [
              -96.79608972497346,
              43.99006682241191
            ],
            [
              -96.18898474452234,
              43.26120164136816
            ],
            [
              -95.53266857826267,
              42.78727353272882
            ],
            [
              -94.94187375588943,
              42.52752167818222
            ],
            [
              -93.35413337413513,
              42.302738240994415
            ],
            [
              -90.29767010899761,
              42.24977900172813
            ]
          ]
        ]
      }
    },
    {
      "type": "Feature",
      "properties": {
        "dn": 2,
        "PRODUCT": "Day 2 Excessive Rainfall Potential Forecast",
        "VALID_TIME": "12Z 09/18/26 - 12Z 09/19/26",
        "OUTLOOK": "Slight (At Least 15%)",
        "ISSUE_TIME": "2026-09-17 07:17:00",
        "START_TIME": "2026-09-18 12:00:00",
        "END_TIME": "2026-09-19 12:00:00",
        "Snippet": "12Z 09/18/26 - 12Z 09/19/26",
        "risk_norm": "SLIGHT"
      },
      "geometry": {
        "type": "Polygon",
        "coordinates": [
          [
            [
              -93.35413337413513,
              42.302738240994415
            ],
            [
              -94.94187375588943,
              42.52752167818222
            ],
            [
              -95.53266857826267,
              42.78727353272882
            ],
            [
              -96.18898474452234,
              43.26120164136816
            ],
            [
              -96.79608972497346,
              43.99006682241191
            ],
            [
              -97.23450191388345,
              44.84412664813908
            ],
            [
              -97.24449650156122,
              45.27148572025928
            ],
            [
              -96.88696416203175,
              45.61676818325165
            ],
            [
              -95.79397668979509,
              45.87950448746963
            ],
            [
              -95.06185408710465,
              45.881113200690706
            ],
            [
              -92.68993020103446,
              45.56960156058377
            ],
            [
              -90.46753397173458,
              44.97513364228311
            ],
            [
              -88.4617665088015,
              44.230172717162056
            ],
            [
              -87.774557668909,
              43.77356358064941
            ],
            [
              -87.66826619551365,
              43.596623410562046
            ],
            [
              -87.67316366866811,
              42.72988936590948
            ],
            [
              -87.92756865488758,
              42.47888012003629
            ],
            [
              -88.16947204609563,
              42.40054122509466
            ],
            [
              -88.9418615014211,
              42.297051178899274
            ],
            [
              -90.29767010899761,
              42.24977900172813
            ],
            [
              -93.35413337413513,
              42.302738240994415
            ]
          ]
        ]
      }
    }
  ]
}
