{"type": "FeatureCollection", "features": [{"type": "Feature", "properties": {"dn": 1, "PRODUCT": "Day 1 Excessive Rainfall Potential Forecast", "VALID_TIME": "16Z 08/25/26 - 12Z 08/26/26", "OUTLOOK": "Marginal (At Least 5%)", "ISSUE_TIME": "2026-08-25 15:19:00", "START_TIME": "2026-08-25 16:00:00", "END_TIME": "2026-08-26 12:00:00", "Snippet": "16Z 08/25/26 - 12Z 08/26/26"}, "geometry": {"type": "Polygon", "coordinates": [[[-81.70737710500498, 28.445791661939626], [-81.79545036933337, 28.590838772655815], [-81.8118104213499, 28.912883712308734], [-81.99818076336229, 29.110914761692566], [-82.47986333360127, 29.013337237463073], [-83.1271709272356, 29.338825075997597], [-83.56483786068743, 29.69164165559162], [-84.02213891254252, 29.86157754066735], [-84.39652123557755, 29.796145066456216], [-84.94671393175618, 29.51296241793462], [-85.20761532125066, 29.529608800239885], [-85.85806905961537, 29.934251029700903], [-86.145980056757, 30.316543220353488], [-86.21356995402056, 30.82155776282505], [-86.16532119848185, 31.456119713019877], [-85.97778246688735, 31.809392663438643], [-85.69584532712078, 31.97592080164352], [-85.09402381426946, 32.121522238587026], [-83.68547539850942, 32.25534686405557], [-83.3119151424405, 32.22847816938038], [-81.7244087224846, 32.46864278529721], [-80.65377362563261, 32.83158397460566], [-80.07726436672384, 33.097686319978216], [-79.59474207072164, 33.05227173687297], [-79.18499578913301, 32.875894094837314], [-79.13685339832426, 32.82467471510552], [-80.49445341643577, 31.950699855526654], [-80.7406272890233, 31.699283483611605], [-81.08584345729689, 30.77121848707945], [-80.88572061207606, 29.792851868791843], [-80.22831009726261, 28.585879083976433], [-80.27334698084903, 28.22317971793407], [-80.53177125596174, 28.246871692199424], [-81.17604088889716, 28.07701472780866], [-81.38175129293168, 28.095445526933215], [-81.70737710500498, 28.445791661939626]], [[-80.62209679967712, 29.21908031239788], [-80.92049253222417, 29.796002775644208], [-81.13171677267133, 30.683882193388488], [-80.8975017014235, 31.303034062653065], [-81.52657159367148, 31.403497005886283], [-81.93460395759077, 31.574488094337003], [-82.94233869133072, 31.65423153899698], [-83.01951601948639, 31.43180063320236], [-82.83097630144519, 30.687628971487047], [-82.12957510939378, 30.31197306892829], [-81.69268629648202, 29.497402625569983], [-81.08970735736459, 29.261346086833484], [-80.62209679967712, 29.21908031239788]]]}}, {"type": "Feature", "properties": {"dn": 1, "PRODUCT": "Day 1 Excessive Rainfall Potential Forecast", "VALID_TIME": "16Z 08/25/26 - 12Z 08/26/26", "OUTLOOK": "Marginal (At Least 5%)", "ISSUE_TIME": "2026-08-25 15:19:00", "START_TIME": "2026-08-25 16:00:00", "END_TIME": "2026-08-26 12:00:00", "Snippet": "16Z 08/25/26 - 12Z 08/26/26"}, "geometry": {"type": "Polygon", "coordinates": [[[-109.05626495546022, 33.53719599027832], [-110.58385353402414, 33.94277467366347], [-111.29797920799707, 34.3279323982946], [-111.92762067720966, 34.853937422447316], [-112.20756851462345, 35.2328693369571], [-112.58225240106246, 36.18887559660819], [-113.05216983724749, 36.996159716866835], [-113.23501653437586, 37.741445731691094], [-113.07175682202839, 38.1178911346964], [-111.90955143530591, 39.39751975655124], [-111.04987129710602, 40.54346898010161], [-111.00317045708779, 40.989624687999374], [-111.11334458246984, 41.68474135480215], [-111.1522453978996, 43.38785486018903], [-110.884928694758, 44.32201847646141], [-110.3362663009047, 45.058182412499704], [-109.86853658441133, 45.18108047606176], [-109.30735573676778, 45.094941923293966], [-108.84764467842432, 44.869990936944774], [-108.62504670126577, 44.584640196312705], [-108.55293808200925, 44.071741910627225], [-108.67660028029864, 43.238764964103524], [-109.58754560125352, 41.72638780803394], [-109.56414839685769, 41.15653970102594], [-109.36121678063371, 40.95345866845064], [-108.9392720206743, 40.85458057825208], [-108.47776361129809, 40.88998840747622], [-106.94346784003442, 41.218848386945076], [-106.24768739172534, 41.26370590822759], [-106.0308920343811, 41.407933200990065], [-105.88464547569421, 41.67986616582202], [-105.71622460783344, 42.30205970394277], [-105.51360241586347, 42.61901234229873], [-104.96315387049792, 43.04189727017933], [-104.73528407130594, 43.14084290918227], [-104.43947485960848, 43.15613044139186], [-103.0529622697133, 42.91774060753453], [-102.22132577566035, 42.90779951505794], [-102.15087935722381, 42.73592764946718], [-102.72934931633131, 42.58297730131307], [-102.71592610771812, 42.40941638577094], [-102.9613847586806, 41.78797658770966], [-102.95109263930473, 41.65723019629907], [-102.70900508097701, 41.537289442502285], [-100.40194456407178, 41.00772011083362], [-100.2379797473022, 41.18706631999658], [-100.2469850313899, 41.362002688122914], [-100.37034496184945, 41.48967014053835], [-100.3177986476812, 41.62329232547122], [-98.91812392799042, 41.702621889254594], [-98.5120753711585, 41.798258872894266], [-98.09856651425741, 41.67478271341149], [-97.21058978243457, 41.16293890791332], [-96.21206116715467, 40.42557368383125], [-95.97863199739797, 40.16303089667767], [-95.68603614391768, 39.458759371133006], [-95.3412591357223, 38.97324254861284], [-95.39686020018061, 38.61859523868411], [-95.6239199564369, 38.439559803913525], [-95.96380349782878, 38.438000901644195], [-96.53216822741727, 38.56703669226163], [-97.53803028118283, 37.93316828415242], [-98.52650134237517, 37.15887066476399], [-98.74258963650519, 36.930930960462035], [-99.10802015015987, 36.25128083644056], [-99.45623168432245, 35.2549305564854], [-99.76481484595459, 34.75133475081733], [-99.97873006413586, 34.60896334162959], [-100.3023452847488, 34.508715104428276], [-100.79367208553627, 34.49213574652257], [-102.33006894242263, 34.56610688562102], [-102.55870348579026, 34.69195247717278], [-102.76651586158256, 35.31295944402665], [-102.99810778891288, 35.48103799932397], [-103.22487733591088, 35.55993666866287], [-103.88539738492838, 35.5259764830693], [-105.18032624431576, 35.181387667117285], [-106.5622934945415, 34.68417738021296], [-108.1988915127134, 33.65461679244775], [-109.05626495546022, 33.53719599027832]]]}}, {"type": "Feature", "properties": {"dn": 2, "PRODUCT": "Day 1 Excessive Rainfall Potential Forecast", "VALID_TIME": "16Z 08/25/26 - 12Z 08/26/26", "OUTLOOK": "Slight (At Least 15%)", "ISSUE_TIME": "2026-08-25 15:19:00", "START_TIME": "2026-08-25 16:00:00", "END_TIME": "2026-08-26 12:00:00", "Snippet": "16Z 08/25/26 - 12Z 08/26/26"}, "geometry": {"type": "Polygon", "coordinates": [[[-81.08970735736459, 29.261346086833484], [-81.69268629648202, 29.497402625569983], [-82.12957510939378, 30.31197306892829], [-82.83097630144519, 30.687628971487047], [-83.01951601948639, 31.43180063320236], [-82.94233869133072, 31.65423153899698], [-81.93460395759077, 31.574488094337003], [-81.52657159367148, 31.403497005886283], [-80.8975017014235, 31.303034062653065], [-81.13171677267133, 30.683882193388488], [-80.92049253222417, 29.796002775644208], [-80.62209679967712, 29.21908031239788], [-81.08970735736459, 29.261346086833484]]]}}]}