{"type": "FeatureCollection", "features": [{"type": "Feature", "properties": {"dn": 1, "PRODUCT": "Day 2 Excessive Rainfall Potential Forecast", "VALID_TIME": "12Z 08/26/26 - 12Z 08/27/26", "OUTLOOK": "Marginal (At Least 5%)", "ISSUE_TIME": "2026-08-25 08:17:00", "START_TIME": "2026-08-26 12:00:00", "END_TIME": "2026-08-27 12:00:00", "Snippet": "12Z 08/26/26 - 12Z 08/27/26"}, "geometry": {"type": "Polygon", "coordinates": [[[-90.85875487729733, 31.2380378931237], [-91.80793820303782, 31.487058138923793], [-92.2269383020549, 31.81351780053282], [-92.38079863944671, 32.088244516004345], [-92.37523205098904, 34.66419087347944], [-92.74454508377795, 35.34434600646192], [-93.50493313003308, 36.11565286086398], [-93.6657905958361, 36.564696804460496], [-93.49197816404146, 37.05482906543052], [-92.80901946848783, 37.58353892595808], [-92.01254603892406, 37.92772327302304], [-91.33015885695593, 38.092455540972345], [-90.42723875682904, 38.070843658062685], [-90.04059480838112, 37.88210765102104], [-89.49931182872047, 37.41896613253788], [-88.14162394801818, 35.802414061916195], [-87.77685146428982, 35.47332678486699], [-87.40397949490152, 35.276749176760056], [-86.63515630563116, 35.239751969398704], [-83.69328576447306, 35.425691658952694], [-83.15886249107322, 35.253118069377734], [-82.90842206246005, 35.00843543210224], [-82.81879733052769, 34.821169360723104], [-82.80852744660622, 34.41350924409061], [-83.19186720470469, 33.89844301008357], [-83.83799285814237, 33.44472624553881], [-84.97359722251008, 32.884217755504395], [-87.45959506016756, 32.02171668599493], [-89.47077124054985, 31.37747105122553], [-90.22201972963687, 31.22012125178645], [-90.85875487729733, 31.2380378931237]]]}}, {"type": "Feature", "properties": {"dn": 1, "PRODUCT": "Day 2 Excessive Rainfall Potential Forecast", "VALID_TIME": "12Z 08/26/26 - 12Z 08/27/26", "OUTLOOK": "Marginal (At Least 5%)", "ISSUE_TIME": "2026-08-25 08:17:00", "START_TIME": "2026-08-26 12:00:00", "END_TIME": "2026-08-27 12:00:00", "Snippet": "12Z 08/26/26 - 12Z 08/27/26"}, "geometry": {"type": "Polygon", "coordinates": [[[-104.8471822864254, 32.6683778424553], [-105.5374262867029, 33.12474224462638], [-106.01600448348363, 33.59158223578164], [-106.60116149258445, 34.00296975707561], [-106.87209737963701, 33.98347439154982], [-107.37402526096105, 33.583509002469725], [-108.33415375852044, 33.416612821482666], [-109.42181287832115, 33.414197952629564], [-110.31871684263359, 33.60452110455316], [-110.83482034174725, 33.78221696209614], [-111.43404183720712, 34.13263956848356], [-111.77147577399118, 34.55240933129772], [-111.93445185586648, 34.89857906846809], [-112.07844287942508, 35.47267672680693], [-111.94091018526042, 35.66867098404451], [-111.55054779261741, 35.66282508659294], [-110.68961908581078, 35.47523333968551], [-109.25283235526429, 35.51458703420332], [-108.40759219547189, 35.85550397241253], [-108.16015084020013, 36.09949473988207], [-108.07650206586672, 36.33103450694332], [-108.1410383926954, 36.86521155510807], [-108.51199311282022, 37.14919243218904], [-109.0919154511964, 37.281409183017665], [-112.17903902328797, 37.535928066548706], [-112.62116504316457, 37.80598623696256], [-112.80659927156972, 38.23529533865273], [-112.8172542424046, 38.637155287967566], [-112.70018034564072, 38.962063070391494], [-112.00203240410089, 39.61113125425913], [-111.67438574399546, 40.08690029211572], [-111.58028997558273, 40.58325036393328], [-111.59262157498502, 41.37710673197847], [-111.74342291340189, 42.28641051838196], [-111.65554375445365, 42.46974104103173], [-111.33196376133534, 42.67480824249108], [-110.30949052299124, 42.98106906219185], [-109.9311295018278, 43.228985217192076], [-110.10944165636771, 44.38568034646709], [-109.91575651105165, 44.70400175381804], [-109.40842681904984, 44.95837183908394], [-109.10167256955899, 44.938271656155194], [-108.89533725869677, 44.78044462333805], [-108.38122332774755, 43.26030597840935], [-108.15788301912863, 42.92823621277035], [-107.70795424356886, 42.6556312939301], [-107.21648612955093, 42.51450075387999], [-106.5605330384028, 42.46976495929086], [-106.1592716457433, 42.58181399449485], [-105.6036110163023, 42.9193732299042], [-105.37213517728222, 42.9759784937101], [-104.72253116686613, 43.01125573567913], [-103.81673108767937, 42.839429622946554], [-102.88539409990909, 42.315068377417305], [-102.06664428943098, 41.562636496571024], [-101.49707663611106, 40.882742323479654], [-101.16522780791355, 40.19072098162912], [-100.9941040165276, 39.22491381281168], [-100.72026536243003, 38.39140246722181], [-100.50592177247783, 36.43531570379369], [-100.7133896014155, 35.08142253935817], [-101.0857652697834, 33.85059501155292], [-101.2826806965562, 33.481507119206846], [-101.80273952370757, 33.097586462765285], [-103.55953243707145, 32.74204519788714], [-104.8471822864254, 32.6683778424553]]]}}]}