{"type": "FeatureCollection", "features": [{"type": "Feature", "properties": {"dn": 1, "PRODUCT": "Day 1 Excessive Rainfall Potential Forecast", "VALID_TIME": "16Z 08/14/26 - 12Z 08/15/26", "OUTLOOK": "Marginal (At Least 5%)", "ISSUE_TIME": "2026-08-14 15:49:00", "START_TIME": "2026-08-14 16:00:00", "END_TIME": "2026-08-15 12:00:00", "Snippet": "16Z 08/14/26 - 12Z 08/15/26"}, "geometry": {"type": "Polygon", "coordinates": [[[-82.39158139430072, 28.86974517804704], [-82.69771218842634, 29.443492620764708], [-83.4591531475761, 30.232008242232595], [-84.6098361112861, 30.950936641165494], [-84.99821903299957, 31.386819294000563], [-85.2706121358237, 31.949645439228846], [-85.43479323093574, 32.550138804186496], [-85.30409412729104, 34.71531790106977], [-85.51974520272863, 35.4039925326021], [-85.85990909287659, 35.96272934109926], [-86.58437730594376, 36.62784426153991], [-87.49285774371855, 37.207501612459836], [-88.20029321573857, 37.549738918260054], [-89.41668432053133, 37.950222906152796], [-90.70406510565564, 38.209596619557225], [-92.96071192470836, 38.47305980024259], [-96.36259681231063, 38.61281175798924], [-98.5107822100241, 38.36065376801916], [-100.58487285247232, 37.950172301816536], [-101.69180968797474, 37.59860453522448], [-102.66692155235283, 37.06626383565281], [-103.6101843207496, 36.26019657687758], [-104.16319064028295, 35.556801321917725], [-104.54129472865394, 34.814587015190256], [-104.65455312822796, 34.22095242946312], [-104.51606272016988, 33.23341787101711], [-104.24155985604226, 32.523699557389214], [-104.05933008826644, 32.261676469116914], [-103.43125841458469, 31.750859707944958], [-103.13947967131979, 31.402333300693265], [-102.84638786183334, 31.007673817537977], [-102.59617478811785, 30.428032663384307], [-102.6824040664668, 29.329598956379193], [-102.77173413051736, 29.09696195788168], [-102.96863089913445, 28.90342939769026], [-103.43615605750442, 28.87863360121877], [-104.64208958358151, 29.585567873281928], [-104.87761417462117, 29.890359737728467], [-104.90828457938767, 30.253446935923108], [-105.028860756658, 30.4282232571379], [-106.055277882567, 31.224775584563876], [-106.50210402882288, 31.421674705201944], [-106.57207952163469, 31.597888069269302], [-107.96578444528456, 31.62688053767055], [-108.06062585381395, 31.52882876890281], [-108.07866176117668, 31.20713454245347], [-108.97623571561925, 31.13024758539512], [-110.5814573891953, 31.162662445640983], [-110.73367558655298, 31.879587806092104], [-110.72651955592512, 32.61025537591609], [-110.60342882414746, 32.89566277863329], [-110.65309067098137, 33.255060977562266], [-110.98498531241628, 33.677485359105205], [-111.57505209512092, 33.98111716374581], [-112.02033324216691, 34.02606389954612], [-113.26037231940553, 33.89147270417834], [-114.33588302316728, 33.447421454825175], [-114.94464184743353, 32.87044036682972], [-115.37061834705467, 32.81683271380875], [-115.82089019103132, 32.8962573653033], [-116.24502261668707, 33.11624230951723], [-116.4559636487593, 33.3628588916963], [-116.63153830021805, 33.70537714334028], [-116.73550409741718, 34.23984504013824], [-116.50081118045648, 35.592126431568296], [-116.39450820458163, 37.32757574675126], [-116.49189697516458, 37.81153667466971], [-117.09959859487851, 39.08329189988537], [-117.44695551015229, 40.157577142168456], [-117.41908849903679, 41.62838335755349], [-116.98093191328054, 43.1364352511357], [-117.11581724015228, 43.733382032941456], [-117.67748416402168, 44.58179416437735], [-117.76805918562833, 44.96183822496525], [-117.66979847769959, 45.320151276746024], [-117.3004252950404, 45.83835040087486], [-116.22464720864889, 46.81743049925966], [-115.24698633365765, 47.4734027377216], [-114.37857442253022, 47.813683250371646], [-112.84278561634946, 47.99812052536426], [-110.15990200701617, 47.374887457718465], [-109.4003908492053, 47.30443146703428], [-108.84574163056655, 47.34373961779299], [-108.06764573732178, 47.56485887633223], [-107.3705303821878, 47.94539906204719], [-106.51868286876022, 48.62234507481579], [-106.01492807733192, 49.15011877441284], [-99.61715085507376, 49.142976536466], [-96.39192041623198, 49.148354816030746], [-95.50672436238419, 49.15240911350793], [-95.44536366674684, 49.524275311148095], [-94.61988896219992, 49.52440426284683], [-94.43159410122591, 48.98581077106259], [-94.11685964560105, 48.90180674030673], [-94.4985420569841, 48.528478029029976], [-95.99856555967784, 47.90099349424983], [-97.850526959781, 47.29625929990493], [-99.72650985600873, 46.416588133799344], [-100.89799569634513, 45.53570543895174], [-101.68803387285381, 44.65427391439421], [-101.90105600744724, 44.25988346702895], [-102.04028015276947, 43.69423647971686], [-102.02567018035585, 42.65467669067407], [-101.68728564687456, 42.01396719747893], [-101.07903411681244, 41.64308195345], [-100.30864841609113, 41.448613404538506], [-99.4344147047501, 41.47216545655332], [-99.14648668856023, 41.566448770378145], [-98.52233878988314, 42.05891132087394], [-97.31760404323542, 43.25057076495047], [-96.19626328188599, 43.9095572845389], [-95.59987916889601, 44.12763423424919], [-94.94084387511494, 44.257566492039835], [-92.89966009764487, 44.33186944949691], [-91.46564016863255, 44.13853858122138], [-90.51945181773301, 43.859989281569106], [-87.52283113361105, 42.37662237551326], [-85.08060834283128, 41.42947766212575], [-83.10911738031515, 40.782325970405196], [-79.41002227479085, 39.83208957876099], [-79.14506470898613, 39.67511946535829], [-78.50979714924102, 38.948320377353284], [-76.93075953566603, 38.11905363908928], [-76.55439136407836, 37.9891633719575], [-76.26725883369606, 38.00283602649872], [-76.00567118763087, 38.19754470556233], [-75.84598797747609, 38.448921299676876], [-75.4757658579694, 38.58752359142155], [-74.76338133284723, 38.41546675209531], [-74.9828207642301, 37.8561554664126], [-75.33487895241208, 37.492098602666516], [-75.36730145078597, 37.31563663547625], [-75.67687689907939, 36.85521520589135], [-75.1544672557628, 35.70802908591141], [-75.2825951709062, 34.9969144108118], [-75.68750146652499, 34.90775557746928], [-76.21169746698526, 34.4240113310797], [-76.51309507796557, 34.27554934724023], [-76.76864650647587, 34.395268525245044], [-77.11486706439331, 34.297165663611125], [-77.5412988933626, 34.025999103894556], [-77.64390130445592, 33.71848101879983], [-77.77339189423618, 33.594818203961296], [-77.94830693276285, 33.522282812135245], [-78.21036025873504, 33.59520142264277], [-78.49252021324526, 33.53320121815604], [-78.85266302286722, 33.29740433841915], [-78.95741378027536, 32.943546965180765], [-80.49445341643577, 31.950699855526654], [-80.7406272890233, 31.699283483611605], [-80.98225014605393, 31.036137076722902], [-81.2726989112161, 30.83332659291148], [-81.58301761273073, 30.448912376691823], [-81.68721881319473, 30.000639476110116], [-81.61374628779699, 29.71988373741129], [-81.26027927865427, 29.139633416298757], [-81.05980282513326, 28.617617834480768], [-80.98526410867407, 27.922975763120075], [-81.04892023797812, 27.378216880842235], [-81.11693150536509, 27.245846345714842], [-81.33155201945227, 27.17352581618979], [-81.73999759715359, 27.209725966290623], [-82.18039322083085, 27.43092728952433], [-82.35733577700124, 27.721679466320772], [-82.39158139430072, 28.86974517804704]], [[-81.49991857387907, 35.71189798929615], [-80.71551541229263, 37.04182804813516], [-79.92453505484727, 37.87028804374242], [-79.77464911366411, 38.12554420357925], [-79.70467723809935, 38.61086523617633], [-79.77290999319284, 38.92910407231326], [-80.0185629343567, 39.2180969683537], [-85.18940198410967, 40.908109862756504], [-86.03457336709725, 41.21584724709576], [-90.20353066659636, 42.98695648909021], [-91.3185335094828, 43.27229330657247], [-92.20666943301022, 43.37423037653453], [-94.22787004604571, 43.39354781141662], [-95.00082094367883, 43.3086809896645], [-95.83031538209433, 43.04714667406822], [-96.24237247522119, 42.78429758971475], [-96.5913539340961, 42.434144872984014], [-96.93371040646541, 41.86464950646295], [-96.98027946891115, 41.252317741653734], [-96.563501159764, 40.64255576202125], [-95.86497586894674, 40.207202249412454], [-95.11572647514178, 39.94500741961536], [-93.6830225005016, 39.63136950135532], [-89.81132714326857, 39.11740783674291], [-88.51785982161265, 38.80814971595525], [-87.46156525991243, 38.454582540230284], [-86.69414735042164, 38.107881366191755], [-86.10392089121073, 37.72167553468793], [-84.60247961943858, 36.33858962227568], [-84.28501732442354, 35.599136395675686], [-83.9310441750244, 35.260071547460825], [-83.03826457592967, 34.83680101538283], [-82.48246147271162, 34.885872128603836], [-81.82840623515813, 35.28710757136672], [-81.49991857387907, 35.71189798929615]], [[-112.0964880952006, 34.88135633934197], [-111.84486882516545, 35.043307926297075], [-111.31734877156575, 35.594586223938705], [-110.92117094709286, 36.31011961067121], [-110.83988454680795, 36.90319785277173], [-110.9579720850379, 37.70049964340185], [-111.16340181524232, 38.30822505015242], [-111.47035903176855, 38.81543102567288], [-111.79522959795854, 39.05245793552831], [-112.09936666504748, 39.156603854421284], [-112.4533913070077, 39.21064053383086], [-112.96246480219983, 39.15880602790591], [-113.39140894401545, 38.97990327027793], [-113.74691963424492, 38.71812094093059], [-114.50826450294409, 37.870166438644624], [-114.94993810952325, 37.188329892609644], [-115.14388949731361, 36.71368284151863], [-115.34629257817039, 35.69267215326607], [-115.24764518466489, 35.159767987951284], [-114.89538969118314, 34.74804332161393], [-114.64638663427199, 34.59565042632394], [-113.85028330225005, 34.46190534685105], [-112.92986583203435, 34.565417954623726], [-112.0964880952006, 34.88135633934197]], [[-103.28208438319692, 38.509487752918915], [-102.95252654535493, 38.65824549492903], [-102.37169700538098, 39.30511718867298], [-102.07417253856657, 39.98035840504283], [-101.93428168850308, 40.47064692672131], [-101.96991204711817, 40.996690284246455], [-102.16531064433461, 41.296012469082946], [-102.77393177828527, 41.62160347719819], [-103.71036297208305, 41.62275645568194], [-104.85857098005269, 41.38852153511282], [-105.30132725396273, 41.14428183005082], [-105.71958212535007, 40.67943634776209], [-105.79811483470955, 40.32198950358737], [-105.70256417864168, 39.39898243691369], [-105.54857168831897, 39.00903916920896], [-105.11217599039165, 38.63459412682055], [-104.69968748222679, 38.480274016939035], [-104.00984704186153, 38.384136482923395], [-103.28208438319692, 38.509487752918915]]]}}, {"type": "Feature", "properties": {"dn": 2, "PRODUCT": "Day 1 Excessive Rainfall Potential Forecast", "VALID_TIME": "16Z 08/14/26 - 12Z 08/15/26", "OUTLOOK": "Slight (At Least 15%)", "ISSUE_TIME": "2026-08-14 15:49:00", "START_TIME": "2026-08-14 16:00:00", "END_TIME": "2026-08-15 12:00:00", "Snippet": "16Z 08/14/26 - 12Z 08/15/26"}, "geometry": {"type": "Polygon", "coordinates": [[[-83.9310441750244, 35.260071547460825], [-84.28501732442354, 35.599136395675686], [-84.60247961943858, 36.33858962227568], [-86.10392089121073, 37.72167553468793], [-86.69414735042164, 38.107881366191755], [-87.46156525991243, 38.454582540230284], [-88.51785982161265, 38.80814971595525], [-89.81132714326857, 39.11740783674291], [-93.6830225005016, 39.63136950135532], [-95.11572647514178, 39.94500741961536], [-95.86497586894674, 40.207202249412454], [-96.563501159764, 40.64255576202125], [-96.98027946891115, 41.252317741653734], [-96.93371040646541, 41.86464950646295], [-96.5913539340961, 42.434144872984014], [-96.24237247522119, 42.78429758971475], [-95.83031538209433, 43.04714667406822], [-95.00082094367883, 43.3086809896645], [-94.22787004604571, 43.39354781141662], [-92.20666943301022, 43.37423037653453], [-91.3185335094828, 43.27229330657247], [-90.20353066659636, 42.98695648909021], [-86.03457336709725, 41.21584724709576], [-85.18940198410967, 40.908109862756504], [-80.0185629343567, 39.2180969683537], [-79.77290999319284, 38.92910407231326], [-79.70467723809935, 38.61086523617633], [-79.77464911366411, 38.12554420357925], [-79.92453505484727, 37.87028804374242], [-80.71551541229263, 37.04182804813516], [-81.49991857387907, 35.71189798929615], [-81.82840623515813, 35.28710757136672], [-82.48246147271162, 34.885872128603836], [-83.03826457592967, 34.83680101538283], [-83.9310441750244, 35.260071547460825]], [[-88.05639264750323, 39.76462585340031], [-87.76053765555724, 39.88538654810685], [-87.56961261496063, 40.14220354067591], [-87.4159983034958, 40.66417698723866], [-87.46090626883611, 40.84191107682669], [-87.78994412948643, 41.119023428607974], [-88.64177946844056, 41.45780863906856], [-90.07975284055621, 41.89587160993651], [-90.59710382138984, 42.12714805404128], [-92.29341467277824, 42.377774945329904], [-93.118093759648, 42.344585811151276], [-93.82559701131274, 42.21992932010405], [-94.29689117041724, 42.04812931241361], [-94.5914848007147, 41.78719974436364], [-94.70950417691336, 41.43795085640645], [-94.59411323969618, 41.13137688206264], [-94.24703457615036, 40.867084314926764], [-93.67065556014634, 40.600353061750596], [-92.80703514755838, 40.41601965253215], [-90.16336467804605, 40.143640879745014], [-88.62942764418, 39.78626885967398], [-88.05639264750323, 39.76462585340031]]]}}, {"type": "Feature", "properties": {"dn": 2, "PRODUCT": "Day 1 Excessive Rainfall Potential Forecast", "VALID_TIME": "16Z 08/14/26 - 12Z 08/15/26", "OUTLOOK": "Slight (At Least 15%)", "ISSUE_TIME": "2026-08-14 15:49:00", "START_TIME": "2026-08-14 16:00:00", "END_TIME": "2026-08-15 12:00:00", "Snippet": "16Z 08/14/26 - 12Z 08/15/26"}, "geometry": {"type": "Polygon", "coordinates": [[[-113.85028330225005, 34.46190534685105], [-114.64638663427199, 34.59565042632394], [-114.89538969118314, 34.74804332161393], [-115.24764518466489, 35.159767987951284], [-115.34629257817039, 35.69267215326607], [-115.14388949731361, 36.71368284151863], [-114.94993810952325, 37.188329892609644], [-114.50826450294409, 37.870166438644624], [-113.74691963424492, 38.71812094093059], [-113.39140894401545, 38.97990327027793], [-112.96246480219983, 39.15880602790591], [-112.4533913070077, 39.21064053383086], [-112.09936666504748, 39.156603854421284], [-111.79522959795854, 39.05245793552831], [-111.47035903176855, 38.81543102567288], [-111.16340181524232, 38.30822505015242], [-110.9579720850379, 37.70049964340185], [-110.83988454680795, 36.90319785277173], [-110.92117094709286, 36.31011961067121], [-111.31734877156575, 35.594586223938705], [-111.84486882516545, 35.043307926297075], [-112.0964880952006, 34.88135633934197], [-112.92986583203435, 34.565417954623726], [-113.85028330225005, 34.46190534685105]]]}}, {"type": "Feature", "properties": {"dn": 2, "PRODUCT": "Day 1 Excessive Rainfall Potential Forecast", "VALID_TIME": "16Z 08/14/26 - 12Z 08/15/26", "OUTLOOK": "Slight (At Least 15%)", "ISSUE_TIME": "2026-08-14 15:49:00", "START_TIME": "2026-08-14 16:00:00", "END_TIME": "2026-08-15 12:00:00", "Snippet": "16Z 08/14/26 - 12Z 08/15/26"}, "geometry": {"type": "Polygon", "coordinates": [[[-104.00984704186153, 38.384136482923395], [-104.69968748222679, 38.480274016939035], [-105.11217599039165, 38.63459412682055], [-105.54857168831897, 39.00903916920896], [-105.70256417864168, 39.39898243691369], [-105.79811483470955, 40.32198950358737], [-105.71958212535007, 40.67943634776209], [-105.30132725396273, 41.14428183005082], [-104.85857098005269, 41.38852153511282], [-103.71036297208305, 41.62275645568194], [-102.77393177828527, 41.62160347719819], [-102.16531064433461, 41.296012469082946], [-101.96991204711817, 40.996690284246455], [-101.93428168850308, 40.47064692672131], [-102.07417253856657, 39.98035840504283], [-102.37169700538098, 39.30511718867298], [-102.95252654535493, 38.65824549492903], [-103.28208438319692, 38.509487752918915], [-104.00984704186153, 38.384136482923395]]]}}, {"type": "Feature", "properties": {"dn": 3, "PRODUCT": "Day 1 Excessive Rainfall Potential Forecast", "VALID_TIME": "16Z 08/14/26 - 12Z 08/15/26", "OUTLOOK": "Moderate (At Least 40%)", "ISSUE_TIME": "2026-08-14 15:49:00", "START_TIME": "2026-08-14 16:00:00", "END_TIME": "2026-08-15 12:00:00", "Snippet": "16Z 08/14/26 - 12Z 08/15/26"}, "geometry": {"type": "Polygon", "coordinates": [[[-88.62942764418, 39.78626885967398], [-90.16336467804605, 40.143640879745014], [-92.80703514755838, 40.41601965253215], [-93.67065556014634, 40.600353061750596], [-94.24703457615036, 40.867084314926764], [-94.59411323969618, 41.13137688206264], [-94.70950417691336, 41.43795085640645], [-94.5914848007147, 41.78719974436364], [-94.29689117041724, 42.04812931241361], [-93.82559701131274, 42.21992932010405], [-93.118093759648, 42.344585811151276], [-92.29341467277824, 42.377774945329904], [-90.59710382138984, 42.12714805404128], [-90.07975284055621, 41.89587160993651], [-88.64177946844056, 41.45780863906856], [-87.78994412948643, 41.119023428607974], [-87.46090626883611, 40.84191107682669], [-87.4159983034958, 40.66417698723866], [-87.56961261496063, 40.14220354067591], [-87.76053765555724, 39.88538654810685], [-88.05639264750323, 39.76462585340031], [-88.62942764418, 39.78626885967398]]]}}]}