{
  "type": "FeatureCollection",
  "features": [
    {
      "type": "Feature",
      "properties": {
        "dn": 1,
        "PRODUCT": "Day 2 Excessive Rainfall Potential Forecast",
        "VALID_TIME": "12Z 08/15/26 - 12Z 08/16/26",
        "OUTLOOK": "Marginal (At Least 5%)",
        "ISSUE_TIME": "2026-08-14 08:17:00",
        "START_TIME": "2026-08-15 12:00:00",
        "END_TIME": "2026-08-16 12:00:00",
        "Snippet": "12Z 08/15/26 - 12Z 08/16/26",
        "risk_norm": "MARGINAL"
      },
      "geometry": {
        "type": "Polygon",
        "coordinates": [
          [
            [
              -84.08710279402948,
              29.729113279407834
            ],
            [
              -84.58960571074063,
              29.39809269208807
            ],
            [
              -84.91399175906047,
              29.282449750682755
            ],
            [
              -85.17437984791225,
              29.29915663257841
            ],
            [
              -85.68460892611208,
              29.46759498758081
            ],
            [
              -85.72344750313837,
              29.653424985947463
            ],
            [
              -85.96634164550724,
              29.894930583775515
            ],
            [
              -86.32292148983578,
              30.051969542572788
            ],
            [
              -86.47697752494051,
              30.10603567532834
            ],
            [
              -87.06460032930859,
              30.001080968030358
            ],
            [
              -86.63926007764944,
              30.79916867337978
            ],
            [
              -86.0591641855581,
              31.45017443015584
            ],
            [
              -85.30480525665439,
              32.178981223345126
            ],
            [
              -84.4418076776098,
              32.80575981159095
            ],
            [
              -83.77608540649865,
              33.53202085954355
            ],
            [
              -83.38269851452041,
              34.18378794211193
            ],
            [
              -83.27663998305874,
              34.673678035921455
            ],
            [
              -83.5241057919909,
              35.99856071401458
            ],
            [
              -84.07053299021405,
              37.201660533702025
            ],
            [
              -84.31879045481085,
              37.53054148080546
            ],
            [
              -85.1130130000606,
              38.068368119367626
            ],
            [
              -86.42231032999719,
              38.67243069411036
            ],
            [
              -87.98047085511986,
              39.185862726313424
            ],
            [
              -89.33897672418495,
              39.4121085599192
            ],
            [
              -90.99632420560737,
              39.45775417419745
            ],
            [
              -92.83015583785163,
              39.31320471687369
            ],
            [
              -94.82991097331832,
              39.01688358542299
            ],
            [
              -97.54756821447899,
              38.33311851947711
            ],
            [
              -98.88576929948387,
              37.77441354783348
            ],
            [
              -100.25721458582582,
              37.023912730873306
            ],
            [
              -103.22972244420225,
              34.88433121396377
            ],
            [
              -104.09614345486577,
              34.07216067388132
            ],
            [
              -104.53885976086892,
              33.503890462703225
            ],
            [
              -104.76216329378782,
              32.94670665101044
            ],
            [
              -104.71968513521017,
              32.45004864039838
            ],
            [
              -104.06596382178947,
              30.987906367649586
            ],
            [
              -104.27589229337003,
              30.292153255544104
            ],
            [
              -104.70067319197192,
              29.672323400435804
            ],
            [
              -104.87761417462117,
              29.890359737728467
            ],
            [
              -104.90828457938767,
              30.253446935923108
            ],
            [
              -105.028860756658,
              30.4282232571379
            ],
            [
              -106.055277882567,
              31.224775584563876
            ],
            [
              -106.50210402882288,
              31.421674705201944
            ],
            [
              -106.57207952163469,
              31.597888069269302
            ],
            [
              -107.96578444528456,
              31.62688053767055
            ],
            [
              -108.06062585381395,
              31.52882876890281
            ],
            [
              -108.07866176117668,
              31.20713454245347
            ],
            [
              -108.97623571561925,
              31.13024758539512
            ],
            [
              -109.62166905717022,
              31.1640336645938
            ],
            [
              -109.3972462833532,
              31.504288416296763
            ],
            [
              -109.20500424331608,
              32.11455890670836
            ],
            [
              -109.13758332130777,
              32.439469668574624
            ],
            [
              -109.19367044924728,
              32.88971340049273
            ],
            [
              -109.32352436116577,
              33.06016558768008
            ],
            [
              -110.15831981512355,
              33.62050779347851
            ],
            [
              -110.2426108244052,
              33.83977049705316
            ],
            [
              -110.09782706756191,
              33.99039869917459
            ],
            [
              -109.06093610103586,
              34.44571993963591
            ],
            [
              -108.23925860531251,
              34.921216778600716
            ],
            [
              -107.43579202016885,
              35.61543714588218
            ],
            [
              -106.7939975482823,
              36.33615203929883
            ],
            [
              -106.6249551543773,
              36.84172251385016
            ],
            [
              -106.59481614197591,
              37.6050264833233
            ],
            [
              -106.41406824777557,
              38.55408640110747
            ],
            [
              -106.09641368066177,
              39.86167567131835
            ],
            [
              -105.65019971368733,
              41.1234982378909
            ],
            [
              -105.25962935730207,
              43.02483555577148
            ],
            [
              -104.80065732811985,
              43.78625671587607
            ],
            [
              -104.07717620262923,
              44.38406942020079
            ],
            [
              -103.66142594789613,
              44.44654897030479
            ],
            [
              -103.35038224444044,
              44.3314396484773
            ],
            [
              -102.50346666257185,
              43.50332166856831
            ],
            [
              -101.64030490133679,
              43.06058132310427
            ],
            [
              -100.13744403736082,
              42.67441170335459
            ],
            [
              -98.71481676689174,
              42.53478507949733
            ],
            [
              -96.76972952460467,
              42.56377389043644
            ],
            [
              -96.00411225632755,
              42.65640539065224
            ],
            [
              -91.54690154338122,
              43.536489055881404
            ],
            [
              -88.84567879737237,
              43.855753570934866
            ],
            [
              -87.89117359934579,
              43.822049771587835
            ],
            [
              -87.1826356826739,
              43.707486345343355
            ],
            [
              -84.91590982231888,
              43.078782498636116
            ],
            [
              -82.49172341305133,
              42.49483079181453
            ],
            [
              -82.44289354405349,
              42.40329847652661
            ],
            [
              -82.88485609396244,
              42.170957840231544
            ],
            [
              -82.90579323105966,
              41.99738564827912
            ],
            [
              -82.76076327036054,
              41.89630392242959
            ],
            [
              -84.12951118762413,
              42.11868958017261
            ],
            [
              -86.43590288408804,
              42.676976021616305
            ],
            [
              -87.83817790165426,
              42.910547806790646
            ],
            [
              -88.96126478613935,
              42.95061275364693
            ],
            [
              -90.7473374659747,
              42.73993416546461
            ],
            [
              -91.40623901040762,
              42.49328428380722
            ],
            [
              -91.77149370831224,
              42.15148972246974
            ],
            [
              -91.96862310256572,
              41.45650946361527
            ],
            [
              -91.92091943309349,
              41.10549108388752
            ],
            [
              -91.58494049594876,
              40.704163497597264
            ],
            [
              -91.07253671174324,
              40.47390149980229
            ],
            [
              -89.98863807212378,
              40.18257868566154
            ],
            [
              -88.39461134281629,
              39.865667119045376
            ],
            [
              -81.60133714190053,
              37.60668776957684
            ],
            [
              -81.09236019146223,
              37.61071638100741
            ],
            [
              -80.47875081481577,
              37.962957782199645
            ],
            [
              -79.64188441089071,
              38.649930286461526
            ],
            [
              -79.4141038147887,
              39.03096834282442
            ],
            [
              -79.43806024848415,
              39.25580387544517
            ],
            [
              -79.96085625463883,
              40.41078549445838
            ],
            [
              -80.15250434126585,
              40.69213226107777
            ],
            [
              -80.83496941209185,
              41.23295366493112
            ],
            [
              -82.3395650907946,
              41.82787025906358
            ],
            [
              -82.67921281091596,
              41.8830541104415
            ],
            [
              -82.39235217823789,
              41.875798427322366
            ],
            [
              -81.64117599033031,
              42.216206314651565
            ],
            [
              -81.1795343817997,
              42.138035747014776
            ],
            [
              -80.29651277048116,
              41.71788137516362
            ],
            [
              -79.18134130870891,
              40.56421200723604
            ],
            [
              -78.61122790818493,
              39.75847935799878
            ],
            [
              -78.34630589983024,
              38.88717666092782
            ],
            [
              -77.95962815038159,
              38.089095817586596
            ],
            [
              -77.42504354623999,
              37.54219147155028
            ],
            [
              -76.77666452300932,
              37.023720792299464
            ],
            [
              -76.01653445999351,
              36.53359374061899
            ],
            [
              -75.39483256502876,
              36.23489034359577
            ],
            [
              -75.1544672557628,
              35.70802908591141
            ],
            [
              -75.18832632580406,
              35.21279599680805
            ],
            [
              -75.2825951709062,
              34.9969144108118
            ],
            [
              -75.68750146652499,
              34.90775557746928
            ],
            [
              -76.33608762525729,
              34.3463842825895
            ],
            [
              -76.56711972978593,
              34.28166558949719
            ],
            [
              -76.76864650647587,
              34.395268525245044
            ],
            [
              -77.11486706439331,
              34.297165663611125
            ],
            [
              -77.5412988933626,
              34.025999103894556
            ],
            [
              -77.64390130445592,
              33.71848101879983
            ],
            [
              -77.77339189423618,
              33.594818203961296
            ],
            [
              -77.94830693276285,
              33.522282812135245
            ],
            [
              -77.99526709697264,
              33.572751840595316
            ],
            [
              -78.37836769065561,
              33.567026823234485
            ],
            [
              -78.85266302286722,
              33.29740433841915
            ],
            [
              -78.95741378027536,
              32.943546965180765
            ],
            [
              -80.49445341643577,
              31.950699855526654
            ],
            [
              -80.7406272890233,
              31.699283483611605
            ],
            [
              -81.12021116667621,
              30.77425779181026
            ],
            [
              -81.0892810732894,
              30.588720690538118
            ],
            [
              -83.31928391511588,
              28.987522832929983
            ],
            [
              -83.98262333699651,
              29.721758924327382
            ],
            [
              -84.08710279402948,
              29.729113279407834
            ]
          ],
          [
            [
              -101.83756084968265,
              37.23618248884494
            ],
            [
              -101.40581670312558,
              37.520797217299574
            ],
            [
              -99.30649394895022,
              38.43194228427849
            ],
            [
              -98.07733726708982,
              39.0345492936188
            ],
            [
              -97.51565146252712,
              39.39788196601138
            ],
            [
              -97.40539644483032,
              39.576145652281454
            ],
            [
              -97.46577555329779,
              39.7077496546152
            ],
            [
              -97.70137019453355,
              39.92528932110959
            ],
            [
              -98.34310856244113,
              40.222731158631895
            ],
            [
              -98.69184108823303,
              40.30385992321734
            ],
            [
              -99.78681341737166,
              40.27773442943678
            ],
            [
              -100.54508464756331,
              40.43176110442425
            ],
            [
              -102.42078428248318,
              41.59266168294545
            ],
            [
              -102.78063523022348,
              41.70880280617775
            ],
            [
              -103.07243159773523,
              41.69605081437615
            ],
            [
              -103.46986933234709,
              41.54661096340408
            ],
            [
              -104.13333874584659,
              41.11961706989818
            ],
            [
              -104.77094955618608,
              40.46964607223372
            ],
            [
              -105.30842795887855,
              38.890184929208914
            ],
            [
              -105.13417034907694,
              37.07194832385185
            ],
            [
              -104.7586193631136,
              36.64558735047112
            ],
            [
              -104.30251603776762,
              36.536866300768146
            ],
            [
              -103.46930849297368,
              36.58079548189181
            ],
            [
              -101.83756084968265,
              37.23618248884494
            ]
          ]
        ]
      }
    },
    {
      "type": "Feature",
      "properties": {
        "dn": 1,
        "PRODUCT": "Day 2 Excessive Rainfall Potential Forecast",
        "VALID_TIME": "12Z 08/15/26 - 12Z 08/16/26",
        "OUTLOOK": "Marginal (At Least 5%)",
        "ISSUE_TIME": "2026-08-14 08:17:00",
        "START_TIME": "2026-08-15 12:00:00",
        "END_TIME": "2026-08-16 12:00:00",
        "Snippet": "12Z 08/15/26 - 12Z 08/16/26",
        "risk_norm": "MARGINAL"
      },
      "geometry": {
        "type": "Polygon",
        "coordinates": [
          [
            [
              -114.05838066801098,
              34.71020042245763
            ],
            [
              -114.84051463951498,
              34.75378857124901
            ],
            [
              -115.18983349052674,
              34.84762416355671
            ],
            [
              -115.44076803407091,
              34.99945110950582
            ],
            [
              -115.9641184416684,
              35.706424971975714
            ],
            [
              -116.35568200041422,
              36.563687030430096
            ],
            [
              -116.4145854643234,
              37.1443310983165
            ],
            [
              -116.26342444375976,
              37.52463467019238
            ],
            [
              -115.82311703364412,
              37.895521719004904
            ],
            [
              -114.98687877795047,
              37.99553201364832
            ],
            [
              -113.7371894975047,
              37.37291728767145
            ],
            [
              -112.27506526446564,
              37.07834137603993
            ],
            [
              -111.67066050219738,
              36.82311822402959
            ],
            [
              -111.6296795514641,
              36.556889295705105
            ],
            [
              -111.71277662107347,
              36.36828152545301
            ],
            [
              -112.75161334428878,
              35.17432784548221
            ],
            [
              -113.25205013543786,
              34.84734818848437
            ],
            [
              -114.05838066801098,
              34.71020042245763
            ]
          ]
        ]
      }
    },
    {
      "type": "Feature",
      "properties": {
        "dn": 2,
        "PRODUCT": "Day 2 Excessive Rainfall Potential Forecast",
        "VALID_TIME": "12Z 08/15/26 - 12Z 08/16/26",
        "OUTLOOK": "Slight (At Least 15%)",
        "ISSUE_TIME": "2026-08-14 08:17:00",
        "START_TIME": "2026-08-15 12:00:00",
        "END_TIME": "2026-08-16 12:00:00",
        "Snippet": "12Z 08/15/26 - 12Z 08/16/26",
        "risk_norm": "SLIGHT"
      },
      "geometry": {
        "type": "Polygon",
        "coordinates": [
          [
            [
              -104.30251603776762,
              36.536866300768146
            ],
            [
              -104.7586193631136,
              36.64558735047112
            ],
            [
              -105.13417034907694,
              37.07194832385185
            ],
            [
              -105.30842795887855,
              38.890184929208914
            ],
            [
              -104.77094955618608,
              40.46964607223372
            ],
            [
              -104.13333874584659,
              41.11961706989818
            ],
            [
              -103.46986933234709,
              41.54661096340408
            ],
            [
              -103.07243159773523,
              41.69605081437615
            ],
            [
              -102.78063523022348,
              41.70880280617775
            ],
            [
              -102.42078428248318,
              41.59266168294545
            ],
            [
              -100.54508464756331,
              40.43176110442425
            ],
            [
              -99.78681341737166,
              40.27773442943678
            ],
            [
              -98.69184108823303,
              40.30385992321734
            ],
            [
              -98.34310856244113,
              40.222731158631895
            ],
            [
              -97.70137019453355,
              39.92528932110959
            ],
            [
              -97.46577555329779,
              39.7077496546152
            ],
            [
              -97.40539644483032,
              39.576145652281454
            ],
            [
              -97.51565146252712,
              39.39788196601138
            ],
            [
              -98.07733726708982,
              39.0345492936188
            ],
            [
              -99.30649394895022,
              38.43194228427849
            ],
            [
              -101.40581670312558,
              37.520797217299574
            ],
            [
              -101.83756084968265,
              37.23618248884494
            ],
            [
              -103.46930849297368,
              36.58079548189181
            ],
            [
              -104.30251603776762,
              36.536866300768146
            ]
          ]
        ]
      }
    },
    {
      "type": "Feature",
      "properties": {
        "dn": 2,
        "PRODUCT": "Day 2 Excessive Rainfall Potential Forecast",
        "VALID_TIME": "12Z 08/15/26 - 12Z 08/16/26",
        "OUTLOOK": "Slight (At Least 15%)",
        "ISSUE_TIME": "2026-08-14 08:17:00",
        "START_TIME": "2026-08-15 12:00:00",
        "END_TIME": "2026-08-16 12:00:00",
        "Snippet": "12Z 08/15/26 - 12Z 08/16/26",
        "risk_norm": "SLIGHT"
      },
      "geometry": {
        "type": "Polygon",
        "coordinates": [
          [
            [
              -81.60133714190053,
              37.60668776957684
            ],
            [
              -88.39461134281629,
              39.865667119045376
            ],
            [
              -89.98863807212378,
              40.18257868566154
            ],
            [
              -91.07253671174324,
              40.47390149980229
            ],
            [
              -91.58494049594876,
              40.704163497597264
            ],
            [
              -91.92091943309349,
              41.10549108388752
            ],
            [
              -91.96862310256572,
              41.45650946361527
            ],
            [
              -91.77149370831224,
              42.15148972246974
            ],
            [
              -91.40623901040762,
              42.49328428380722
            ],
            [
              -90.7473374659747,
              42.73993416546461
            ],
            [
              -88.96126478613935,
              42.95061275364693
            ],
            [
              -87.83817790165426,
              42.910547806790646
            ],
            [
              -86.43590288408804,
              42.676976021616305
            ],
            [
              -84.12951118762413,
              42.11868958017261
            ],
            [
              -82.3395650907946,
              41.82787025906358
            ],
            [
              -80.83496941209185,
              41.23295366493112
            ],
            [
              -80.15250434126585,
              40.69213226107777
            ],
            [
              -79.96085625463883,
              40.41078549445838
            ],
            [
              -79.43806024848415,
              39.25580387544517
            ],
            [
              -79.4141038147887,
              39.03096834282442
            ],
            [
              -79.64188441089071,
              38.649930286461526
            ],
            [
              -80.47875081481577,
              37.962957782199645
            ],
            [
              -81.09236019146223,
              37.61071638100741
            ],
            [
              -81.60133714190053,
              37.60668776957684
            ]
          ]
        ]
      }
    }
  ]
}
