{
  "type": "FeatureCollection",
  "features": [
    {
      "type": "Feature",
      "properties": {
        "dn": 1,
        "PRODUCT": "Day 1 Excessive Rainfall Potential Forecast",
        "VALID_TIME": "12Z 10/03/26 - 12Z 10/04/26",
        "OUTLOOK": "Marginal (At Least 5%)",
        "ISSUE_TIME": "2026-10-03 07:35:00",
        "START_TIME": "2026-10-03 12:00:00",
        "END_TIME": "2026-10-04 12:00:00",
        "Snippet": "12Z 10/03/26 - 12Z 10/04/26",
        "risk_norm": "MARGINAL"
      },
      "geometry": {
        "type": "Polygon",
        "coordinates": [
          [
            [
              -97.01609184229048,
              27.043049299901167
            ],
            [
              -96.85605385798928,
              26.634063688698795
            ],
            [
              -96.7440589533017,
              25.950187690062577
            ],
            [
              -97.03011835869816,
              25.82446924839117
            ],
            [
              -97.22968651911765,
              25.638882983859123
            ],
            [
              -97.74127205292228,
              25.858896037653125
            ],
            [
              -97.94421566889561,
              25.855066117760185
            ],
            [
              -97.99680457323113,
              25.92957671125458
            ],
            [
              -98.30261533604323,
              25.968881684410864
            ],
            [
              -99.02246103525674,
              26.22559474752472
            ],
            [
              -99.28593535644875,
              26.447758383796
            ],
            [
              -99.61603427988923,
              27.07775546575369
            ],
            [
              -99.68320292614735,
              27.486816625138623
            ],
            [
              -100.33027817840626,
              28.15062950457799
            ],
            [
              -100.89421356313895,
              29.08846319137612
            ],
            [
              -101.49335118859003,
              29.56531773165455
            ],
            [
              -102.0241837393526,
              29.679077841975136
            ],
            [
              -102.49208393197327,
              29.611684267347027
            ],
            [
              -102.67353584704607,
              29.193135991427127
            ],
            [
              -102.8228544884547,
              29.048742156995417
            ],
            [
              -102.40578112860007,
              29.890306314738684
            ],
            [
              -101.52019991863762,
              30.97696846520747
            ],
            [
              -100.98717529025133,
              31.952206129463924
            ],
            [
              -100.47609028088685,
              32.470367500537044
            ],
            [
              -99.16807647223811,
              33.41480424071324
            ],
            [
              -97.99461303737509,
              34.072827360353685
            ],
            [
              -97.4543494173552,
              34.26220641917145
            ],
            [
              -96.85466844474311,
              34.270083007145466
            ],
            [
              -96.58078877479126,
              34.182781670006335
            ],
            [
              -95.54256081149792,
              33.55771812509005
            ],
            [
              -95.32410300598863,
              33.33149008178082
            ],
            [
              -94.99966777026447,
              32.6532997721415
            ],
            [
              -94.99966895196683,
              32.245648393292214
            ],
            [
              -94.892887449229,
              31.88293534346984
            ],
            [
              -94.57461111924785,
              31.611114509767862
            ],
            [
              -94.04121406256026,
              31.699547681253065
            ],
            [
              -92.58981834777794,
              32.273755495642796
            ],
            [
              -91.83498956161031,
              32.44189980235995
            ],
            [
              -90.33359438036797,
              32.40528524643157
            ],
            [
              -89.7564992393771,
              32.1153716903307
            ],
            [
              -89.48922344514658,
              32.10638792050649
            ],
            [
              -88.82224842325273,
              32.58000355922232
            ],
            [
              -88.0798406294273,
              33.27549950248246
            ],
            [
              -87.29369693566031,
              33.69251871341001
            ],
            [
              -85.73984979989139,
              34.74129858554918
            ],
            [
              -83.2974271271431,
              36.02873262367475
            ],
            [
              -82.60000481716409,
              36.29336500469411
            ],
            [
              -82.10248184052364,
              36.25583423103337
            ],
            [
              -81.18750810321302,
              35.5518104228469
            ],
            [
              -80.86983982187853,
              35.43478068417719
            ],
            [
              -80.21257799119756,
              35.37742973639027
            ],
            [
              -78.197502331948,
              35.50180458499415
            ],
            [
              -76.31196393708214,
              35.79801943517153
            ],
            [
              -75.36605658104463,
              35.77946134827434
            ],
            [
              -75.1544672557628,
              35.70802908591141
            ],
            [
              -75.2825951709062,
              34.9969144108118
            ],
            [
              -75.68750146652499,
              34.90775557746928
            ],
            [
              -76.33608762525729,
              34.3463842825895
            ],
            [
              -76.51309507796557,
              34.27554934724023
            ],
            [
              -76.76864650647587,
              34.395268525245044
            ],
            [
              -76.93820750877394,
              34.36864437523582
            ],
            [
              -77.5412988933626,
              34.025999103894556
            ],
            [
              -77.64390130445592,
              33.71848101879983
            ],
            [
              -77.77339189423618,
              33.594818203961296
            ],
            [
              -77.94830693276285,
              33.522282812135245
            ],
            [
              -78.21036025873504,
              33.59520142264277
            ],
            [
              -78.49252021324526,
              33.53320121815604
            ],
            [
              -78.85266302286722,
              33.29740433841915
            ],
            [
              -78.95741378027536,
              32.943546965180765
            ],
            [
              -80.56011211164852,
              31.864540579879215
            ],
            [
              -80.99040519096658,
              31.85742136200569
            ],
            [
              -81.48968814907438,
              31.718256178867147
            ],
            [
              -82.39352464747165,
              31.291106061634412
            ],
            [
              -82.91112670648766,
              30.92196866767011
            ],
            [
              -83.46249054986329,
              30.187505105738328
            ],
            [
              -83.79102083665028,
              29.525309861416336
            ],
            [
              -83.88245127110501,
              29.66895422242978
            ],
            [
              -84.08710279402948,
              29.729113279407834
            ],
            [
              -84.48398361684634,
              29.40681516021565
            ],
            [
              -84.91652730596495,
              29.252765696468288
            ],
            [
              -85.1768504001735,
              29.269469043122005
            ],
            [
              -85.6869547348701,
              29.437906280103434
            ],
            [
              -85.75758924982256,
              29.655452795826765
            ],
            [
              -85.96862488042487,
              29.86525609796954
            ],
            [
              -86.47913574849645,
              30.076363671681225
            ],
            [
              -87.70343417682017,
              29.864750282439278
            ],
            [
              -88.38733618876296,
              29.84962085241296
            ],
            [
              -88.41293545579818,
              29.69906613997842
            ],
            [
              -88.6917159591019,
              29.39144751268868
            ],
            [
              -88.59224730851146,
              29.296166584286254
            ],
            [
              -88.60702212882808,
              29.023070829575545
            ],
            [
              -88.9202365787722,
              28.685548620119405
            ],
            [
              -89.34200050171046,
              28.564667981052875
            ],
            [
              -89.70096421861717,
              28.668676468493437
            ],
            [
              -89.84681358832135,
              28.90171473828922
            ],
            [
              -90.11438397393817,
              28.727928607887605
            ],
            [
              -91.05098731048433,
              28.709085366504713
            ],
            [
              -91.7154113149914,
              29.11917157318283
            ],
            [
              -91.820891038045,
              29.075785756639466
            ],
            [
              -92.08032577742242,
              29.126467070091238
            ],
            [
              -92.1824269179349,
              29.21950606131329
            ],
            [
              -92.5476757470499,
              29.225702201592362
            ],
            [
              -93.22266304624043,
              29.462687779748723
            ],
            [
              -93.58870427310148,
              29.466435775146778
            ],
            [
              -93.74655305788035,
              29.376680902494464
            ],
            [
              -93.95557214162247,
              29.378224519021607
            ],
            [
              -94.84460576202483,
              28.880400943529136
            ],
            [
              -95.20831027943626,
              28.561200309284196
            ],
            [
              -96.44661309104285,
              27.961548732883163
            ],
            [
              -96.55917688207877,
              27.83636308754757
            ],
            [
              -96.81013909098486,
              28.095945632102865
            ],
            [
              -96.96596165808262,
              28.139656306199868
            ],
            [
              -97.17279602469392,
              28.136872120470663
            ],
            [
              -97.53086866068458,
              27.948867462198905
            ],
            [
              -97.88393294280232,
              27.57701861110693
            ],
            [
              -98.07924717008204,
              27.16226208414935
            ],
            [
              -98.06071291187371,
              26.4317994268565
            ],
            [
              -97.94529633543888,
              25.885812298291704
            ],
            [
              -97.7419564233542,
              25.889345329269325
            ],
            [
              -97.23024218066091,
              25.66933593201249
            ],
            [
              -97.03062505912973,
              25.854921623729904
            ],
            [
              -96.77791333082716,
              25.94979408861993
            ],
            [
              -96.89009887454026,
              26.6336450427625
            ],
            [
              -97.05102709647191,
              27.088248272121515
            ],
            [
              -96.85299709369487,
              27.547336942150984
            ],
            [
              -96.66780724666661,
              27.71555192643778
            ],
            [
              -96.81869324753524,
              27.54774697586698
            ],
            [
              -97.01609184229048,
              27.043049299901167
            ]
          ],
          [
            [
              -88.91868311914267,
              28.715913157471075
            ],
            [
              -88.64171733282002,
              29.024500470304336
            ],
            [
              -88.62702245895507,
              29.297599021205357
            ],
            [
              -88.72652035332919,
              29.392857515274873
            ],
            [
              -88.44782733960653,
              29.700537850475445
            ],
            [
              -88.38562995539984,
              29.879932882157583
            ],
            [
              -87.70155139975977,
              29.89505376622549
            ],
            [
              -86.47693347956182,
              30.106641226423196
            ],
            [
              -85.96629504887629,
              29.895536185526645
            ],
            [
              -85.72275073279788,
              29.653383602072367
            ],
            [
              -85.68456105246398,
              29.468200879570126
            ],
            [
              -85.17432942847834,
              29.299762501751
            ],
            [
              -84.91394001320526,
              29.28305554770757
            ],
            [
              -84.4812820376813,
              29.43709136693973
            ],
            [
              -84.19950920726282,
              29.646503397297007
            ],
            [
              -84.26646404840403,
              30.062121085829414
            ],
            [
              -84.605605233564,
              30.40489122415474
            ],
            [
              -85.21372528432448,
              30.717515037136234
            ],
            [
              -87.60996250994228,
              31.348523899509104
            ],
            [
              -88.51493776192812,
              31.34264551906142
            ],
            [
              -89.42633505578269,
              31.195490720521352
            ],
            [
              -90.76583723250107,
              30.873335414310006
            ],
            [
              -91.19503500344308,
              30.7023830555699
            ],
            [
              -91.35833009974647,
              30.56934390466496
            ],
            [
              -91.58273163103482,
              30.11936434143219
            ],
            [
              -91.66378004882888,
              29.11898156805956
            ],
            [
              -91.04997789030799,
              28.739466749746384
            ],
            [
              -90.11313504128486,
              28.758302489115707
            ],
            [
              -89.84549435862372,
              28.932080145071627
            ],
            [
              -89.69961032813994,
              28.699048935021988
            ],
            [
              -89.4442950675013,
              28.598810284445943
            ],
            [
              -88.91868311914267,
              28.715913157471075
            ]
          ]
        ]
      }
    },
    {
      "type": "Feature",
      "properties": {
        "dn": 2,
        "PRODUCT": "Day 1 Excessive Rainfall Potential Forecast",
        "VALID_TIME": "12Z 10/03/26 - 12Z 10/04/26",
        "OUTLOOK": "Slight (At Least 15%)",
        "ISSUE_TIME": "2026-10-03 07:35:00",
        "START_TIME": "2026-10-03 12:00:00",
        "END_TIME": "2026-10-04 12:00:00",
        "Snippet": "12Z 10/03/26 - 12Z 10/04/26",
        "risk_norm": "SLIGHT"
      },
      "geometry": {
        "type": "Polygon",
        "coordinates": [
          [
            [
              -97.23024218066091,
              25.66933593201249
            ],
            [
              -97.7419564233542,
              25.889345329269325
            ],
            [
              -97.94529633543888,
              25.885812298291704
            ],
            [
              -98.06071291187371,
              26.4317994268565
            ],
            [
              -98.07924717008204,
              27.16226208414935
            ],
            [
              -97.88393294280232,
              27.57701861110693
            ],
            [
              -97.53086866068458,
              27.948867462198905
            ],
            [
              -97.17279602469392,
              28.136872120470663
            ],
            [
              -96.96596165808262,
              28.139656306199868
            ],
            [
              -96.81013909098486,
              28.095945632102865
            ],
            [
              -96.547781291549,
              27.824576068301436
            ],
            [
              -96.85299709369487,
              27.547336942150984
            ],
            [
              -97.05102709647191,
              27.088248272121515
            ],
            [
              -96.89009887454026,
              26.6336450427625
            ],
            [
              -96.77791333082716,
              25.94979408861993
            ],
            [
              -97.03062505912973,
              25.854921623729904
            ],
            [
              -97.23024218066091,
              25.66933593201249
            ]
          ]
        ]
      }
    },
    {
      "type": "Feature",
      "properties": {
        "dn": 2,
        "PRODUCT": "Day 1 Excessive Rainfall Potential Forecast",
        "VALID_TIME": "12Z 10/03/26 - 12Z 10/04/26",
        "OUTLOOK": "Slight (At Least 15%)",
        "ISSUE_TIME": "2026-10-03 07:35:00",
        "START_TIME": "2026-10-03 12:00:00",
        "END_TIME": "2026-10-04 12:00:00",
        "Snippet": "12Z 10/03/26 - 12Z 10/04/26",
        "risk_norm": "SLIGHT"
      },
      "geometry": {
        "type": "Polygon",
        "coordinates": [
          [
            [
              -89.4442950675013,
              28.598810284445943
            ],
            [
              -89.69961032813994,
              28.699048935021988
            ],
            [
              -89.84549435862372,
              28.932080145071627
            ],
            [
              -90.11313504128486,
              28.758302489115707
            ],
            [
              -91.04997789030799,
              28.739466749746384
            ],
            [
              -91.66378004882888,
              29.11898156805956
            ],
            [
              -91.58273163103482,
              30.11936434143219
            ],
            [
              -91.35833009974647,
              30.56934390466496
            ],
            [
              -91.19503500344308,
              30.7023830555699
            ],
            [
              -90.76583723250107,
              30.873335414310006
            ],
            [
              -89.42633505578269,
              31.195490720521352
            ],
            [
              -88.51493776192812,
              31.34264551906142
            ],
            [
              -87.60996250994228,
              31.348523899509104
            ],
            [
              -85.21372528432448,
              30.717515037136234
            ],
            [
              -84.605605233564,
              30.40489122415474
            ],
            [
              -84.26646404840403,
              30.062121085829414
            ],
            [
              -84.19950920726282,
              29.646503397297007
            ],
            [
              -84.4812820376813,
              29.43709136693973
            ],
            [
              -84.91394001320526,
              29.28305554770757
            ],
            [
              -85.17432942847834,
              29.299762501751
            ],
            [
              -85.68456105246398,
              29.468200879570126
            ],
            [
              -85.72275073279788,
              29.653383602072367
            ],
            [
              -85.96629504887629,
              29.895536185526645
            ],
            [
              -86.47693347956182,
              30.106641226423196
            ],
            [
              -87.70155139975977,
              29.89505376622549
            ],
            [
              -88.38562995539984,
              29.879932882157583
            ],
            [
              -88.44782733960653,
              29.700537850475445
            ],
            [
              -88.72652035332919,
              29.392857515274873
            ],
            [
              -88.62702245895507,
              29.297599021205357
            ],
            [
              -88.64171733282002,
              29.024500470304336
            ],
            [
              -88.91868311914267,
              28.715913157471075
            ],
            [
              -89.4442950675013,
              28.598810284445943
            ]
          ]
        ]
      }
    }
  ]
}
