{"type": "FeatureCollection", "features": [{"type": "Feature", "properties": {"dn": 1, "PRODUCT": "Day 2 Excessive Rainfall Potential Forecast", "VALID_TIME": "12Z 10/04/26 - 12Z 10/05/26", "OUTLOOK": "Marginal (At Least 5%)", "ISSUE_TIME": "2026-10-03 10:27:00", "START_TIME": "2026-10-04 12:00:00", "END_TIME": "2026-10-05 12:00:00", "Snippet": "12Z 10/04/26 - 12Z 10/05/26"}, "geometry": {"type": "Polygon", "coordinates": [[[-97.74127205292228, 25.858896037653125], [-98.1483248230526, 25.896633704885833], [-98.20105635674018, 25.971072102357255], [-98.86836788368359, 26.18392161812387], [-98.92912676735051, 26.457439938005933], [-98.83727800928546, 26.779614788164192], [-98.63868516714979, 27.013816494522338], [-97.8287550714081, 27.44199943948744], [-97.11223070234418, 27.63618250224101], [-96.85231101677168, 27.547345142825293], [-97.01609184229048, 27.043049299901167], [-96.85605385798928, 26.634063688698795], [-96.7440589533017, 25.950187690062577], [-97.03011835869816, 25.82446924839117], [-97.22968651911765, 25.638882983859123], [-97.74127205292228, 25.858896037653125]], [[-97.03062505912973, 25.854921623729904], [-96.77824743387478, 25.949485628636292], [-96.77991427583602, 26.08682610783239], [-97.05102709647191, 27.088248272121515], [-97.46235893851502, 27.128273485132336], [-97.6137110108429, 26.988292537447364], [-98.14945731906101, 25.92737804112899], [-97.7419564233542, 25.889345329269325], [-97.23024218066091, 25.66933593201249], [-97.03062505912973, 25.854921623729904]]]}}, {"type": "Feature", "properties": {"dn": 1, "PRODUCT": "Day 2 Excessive Rainfall Potential Forecast", "VALID_TIME": "12Z 10/04/26 - 12Z 10/05/26", "OUTLOOK": "Marginal (At Least 5%)", "ISSUE_TIME": "2026-10-03 10:27:00", "START_TIME": "2026-10-04 12:00:00", "END_TIME": "2026-10-05 12:00:00", "Snippet": "12Z 10/04/26 - 12Z 10/05/26"}, "geometry": {"type": "MultiPolygon", "coordinates": [[[[-85.96862488042487, 29.86525609796954], [-86.47913574849645, 30.076363671681225], [-87.70343417682017, 29.864750282439278], [-88.38733618876296, 29.84962085241296], [-88.41293545579818, 29.69906613997842], [-88.6917159591019, 29.39144751268868], [-88.59224730851146, 29.296166584286254], [-88.60702212882808, 29.023070829575545], [-88.9202365787722, 28.685548620119405], [-89.44571294346852, 28.56843668929012], [-89.70096421861717, 28.668676468493437], [-89.84681358832135, 28.90171473828922], [-90.11438397393817, 28.727928607887605], [-90.55185463567653, 28.733039453537717], [-90.11313504128486, 28.758302489115707], [-89.84549435862372, 28.932080145071627], [-89.69961032813994, 28.699048935021988], [-89.4442950675013, 28.598810284445943], [-88.91868311914267, 28.715913157471075], [-88.64171733282002, 29.024500470304336], [-88.62702245895507, 29.297599021205357], [-88.72652035332919, 29.392857515274873], [-88.44782733960653, 29.700537850475445], [-88.38562995539984, 29.879932882157583], [-87.70155139975977, 29.89505376622549], [-86.47693347956182, 30.106641226423196], [-85.96629504887629, 29.895536185526645], [-85.84018277233928, 29.7375640189892], [-85.96862488042487, 29.86525609796954]]], [[[-78.95741378027536, 32.943546965180765], [-80.49445341643577, 31.950699855526654], [-80.74179939617778, 31.698476438778012], [-80.78923335455, 31.74834785655971], [-81.27212902741228, 31.745202686101457], [-82.22987809896799, 31.323588762673776], [-83.03528844851054, 30.74894196045354], [-83.21625965804655, 30.534421078781662], [-83.74321992383061, 29.476152268722203], [-83.88245127110501, 29.66895422242978], [-84.08710279402948, 29.729113279407834], [-84.48398361684634, 29.40681516021565], [-84.91652730596495, 29.252765696468288], [-85.1768504001735, 29.269469043122005], [-85.6869547348701, 29.437906280103434], [-85.74590617616415, 29.619470217493284], [-85.58385024179147, 29.416473905349235], [-84.91394001320526, 29.28305554770757], [-84.4812820376813, 29.43709136693973], [-84.08227826793747, 29.77536613678073], [-84.02714907041393, 30.365030162483876], [-83.77347746518247, 30.803320849327253], [-83.1912850333859, 31.307971068244957], [-81.8040611174536, 32.2462609736949], [-80.54115384645324, 32.86563716721749], [-80.08929224279343, 33.006429288907384], [-79.64851947509902, 33.05604102054312], [-79.05925588253447, 32.998770270553436], [-78.89097526370543, 33.11002553586602], [-78.95741378027536, 32.943546965180765]]], [[[-76.17636920109427, 34.41994090223707], [-76.51793781172255, 34.24637167594707], [-76.77342781215607, 34.36609377873327], [-77.11955399511409, 34.26797238615109], [-77.50604924338721, 34.02221024179338], [-77.60874437314557, 33.71471100202884], [-77.7778791007044, 33.565547930438235], [-77.95274596875981, 33.49300196525466], [-78.21473424746615, 33.5659192832868], [-78.49681870193751, 33.50390661667525], [-78.81759787441108, 33.29389121380424], [-78.87413708436405, 33.152217869085014], [-78.85337863814183, 33.29747603483985], [-78.49243248898624, 33.53379906716586], [-78.2102709936589, 33.595799017323515], [-77.9482163401915, 33.52288038043892], [-77.71224181094408, 33.63473997397105], [-77.54201827397435, 34.02607642761089], [-77.11477141274594, 34.29776144478377], [-76.76854892880894, 34.39586392823509], [-76.56702118014071, 34.28226107388718], [-76.33598779051458, 34.346979512730535], [-75.81104066050455, 34.83225366983636], [-75.6928323123274, 34.87842744828396], [-76.17636920109427, 34.41994090223707]]], [[[-91.04999807871151, 28.73885912208155], [-91.6632844398196, 29.11805931176347], [-91.820891038045, 29.075785756639466], [-91.92376382067627, 29.169932946397306], [-91.02988514769615, 30.925201633216723], [-90.66320936814641, 32.232296853451075], [-90.6494583311893, 32.5944985604048], [-89.10921275529064, 34.309181993145195], [-88.12669611489937, 35.173267377654625], [-86.53217972109881, 35.86424332709359], [-84.75544254166778, 36.48353251197619], [-84.1276653713826, 36.62364833565379], [-83.39668908420644, 36.66466115428468], [-82.70048630372473, 36.8845824298674], [-82.24529687228639, 36.940580156074034], [-81.57822560477693, 36.88893057194955], [-81.49388414560687, 36.65672361625225], [-82.11997082330568, 35.625799195472425], [-81.98789005912863, 35.345754223286946], [-81.28140071107028, 35.24357237136138], [-79.83564261800916, 35.298124721926015], [-79.4887607388506, 35.40161426846679], [-77.59056192371779, 36.523816027821525], [-76.15988363557638, 37.00105045783522], [-75.5897601920629, 37.025699682903294], [-75.67687689907939, 36.85521520589135], [-75.1544672557628, 35.70802908591141], [-75.24711970735581, 34.99265195274225], [-75.69157558359025, 34.87891834351406], [-75.27535959645425, 35.041497933472996], [-76.59847676507745, 35.42187192845191], [-77.53437757526139, 35.47801164620165], [-77.99257568942063, 35.38990718166864], [-79.40058469980127, 34.849811029617186], [-82.5577588328826, 34.21406613093669], [-83.0559330776412, 34.1606892078957], [-84.68955021651085, 34.22660444761675], [-85.69449886724759, 33.970393092595856], [-86.57641455410271, 33.83743894300622], [-87.02296905350808, 33.67902209853467], [-88.55598431151601, 32.5242159543922], [-89.56897167363478, 31.563483995618988], [-90.64340645070706, 29.913919069964777], [-90.81701713475746, 29.463109539766435], [-90.8314914234332, 29.053256815477567], [-90.73551354748156, 28.822636187302336], [-90.64058924225253, 28.734076114776283], [-91.04999807871151, 28.73885912208155]]]]}}, {"type": "Feature", "properties": {"dn": 2, "PRODUCT": "Day 2 Excessive Rainfall Potential Forecast", "VALID_TIME": "12Z 10/04/26 - 12Z 10/05/26", "OUTLOOK": "Slight (At Least 15%)", "ISSUE_TIME": "2026-10-03 10:27:00", "START_TIME": "2026-10-04 12:00:00", "END_TIME": "2026-10-05 12:00:00", "Snippet": "12Z 10/04/26 - 12Z 10/05/26"}, "geometry": {"type": "Polygon", "coordinates": [[[-97.23024218066091, 25.66933593201249], [-97.7419564233542, 25.889345329269325], [-98.14945731906101, 25.92737804112899], [-97.6137110108429, 26.988292537447364], [-97.46235893851502, 27.128273485132336], [-97.05102709647191, 27.088248272121515], [-96.77991427583602, 26.08682610783239], [-96.77824743387478, 25.949485628636292], [-97.03062505912973, 25.854921623729904], [-97.23024218066091, 25.66933593201249]]]}}, {"type": "Feature", "properties": {"dn": 2, "PRODUCT": "Day 2 Excessive Rainfall Potential Forecast", "VALID_TIME": "12Z 10/04/26 - 12Z 10/05/26", "OUTLOOK": "Slight (At Least 15%)", "ISSUE_TIME": "2026-10-03 10:27:00", "START_TIME": "2026-10-04 12:00:00", "END_TIME": "2026-10-05 12:00:00", "Snippet": "12Z 10/04/26 - 12Z 10/05/26"}, "geometry": {"type": "Polygon", "coordinates": [[[-89.4442950675013, 28.598810284445943], [-89.69961032813994, 28.699048935021988], [-89.84549435862372, 28.932080145071627], [-90.11313504128486, 28.758302489115707], [-90.63438421594891, 28.72828710659605], [-90.73551354748156, 28.822636187302336], [-90.8314914234332, 29.053256815477567], [-90.81701713475746, 29.463109539766435], [-90.64340645070706, 29.913919069964777], [-89.56897167363478, 31.563483995618988], [-88.55598431151601, 32.5242159543922], [-87.02296905350808, 33.67902209853467], [-86.57641455410271, 33.83743894300622], [-85.69449886724759, 33.970393092595856], [-84.68955021651085, 34.22660444761675], [-83.0559330776412, 34.1606892078957], [-82.5577588328826, 34.21406613093669], [-79.40058469980127, 34.849811029617186], [-77.99257568942063, 35.38990718166864], [-77.53437757526139, 35.47801164620165], [-76.59847676507745, 35.42187192845191], [-75.27535959645425, 35.041497933472996], [-75.81104066050455, 34.83225366983636], [-76.33598779051458, 34.346979512730535], [-76.56702118014071, 34.28226107388718], [-76.76854892880894, 34.39586392823509], [-77.11477141274594, 34.29776144478377], [-77.54201827397435, 34.02607642761089], [-77.71224181094408, 33.63473997397105], [-77.9482163401915, 33.52288038043892], [-78.2102709936589, 33.595799017323515], [-78.49243248898624, 33.53379906716586], [-78.85337863814183, 33.29747603483985], [-78.87903892772992, 33.11791699856123], [-79.05925588253447, 32.998770270553436], [-79.64851947509902, 33.05604102054312], [-80.08929224279343, 33.006429288907384], [-80.54115384645324, 32.86563716721749], [-81.8040611174536, 32.2462609736949], [-83.1912850333859, 31.307971068244957], [-83.77347746518247, 30.803320849327253], [-84.02714907041393, 30.365030162483876], [-84.08227826793747, 29.77536613678073], [-84.4812820376813, 29.43709136693973], [-84.91394001320526, 29.28305554770757], [-85.58385024179147, 29.416473905349235], [-85.96629504887629, 29.895536185526645], [-86.47693347956182, 30.106641226423196], [-87.70155139975977, 29.89505376622549], [-88.38562995539984, 29.879932882157583], [-88.44782733960653, 29.700537850475445], [-88.72652035332919, 29.392857515274873], [-88.62702245895507, 29.297599021205357], [-88.64171733282002, 29.024500470304336], [-88.91868311914267, 28.715913157471075], [-89.4442950675013, 28.598810284445943]]]}}]}