{
  "type": "FeatureCollection",
  "features": [
    {
      "type": "Feature",
      "properties": {
        "dn": 1,
        "PRODUCT": "Day 1 Excessive Rainfall Potential Forecast",
        "VALID_TIME": "16Z 09/03/26 - 12Z 09/04/26",
        "OUTLOOK": "Marginal (At Least 5%)",
        "ISSUE_TIME": "2026-09-03 15:57:00",
        "START_TIME": "2026-09-03 16:00:00",
        "END_TIME": "2026-09-04 12:00:00",
        "Snippet": "16Z 09/03/26 - 12Z 09/04/26",
        "risk_norm": "MARGINAL"
      },
      "geometry": {
        "type": "Polygon",
        "coordinates": [
          [
            [
              -82.17575861196727,
              25.550538029270413
            ],
            [
              -81.91407661823771,
              25.619706401004528
            ],
            [
              -82.1181065867413,
              26.09627964729339
            ],
            [
              -82.4489989551686,
              26.353602289152548
            ],
            [
              -83.17876934092348,
              27.78744444256655
            ],
            [
              -83.12008427084714,
              28.378261282360956
            ],
            [
              -82.94683193937682,
              28.547912441074573
            ],
            [
              -82.98013486242392,
              28.7336168061601
            ],
            [
              -83.28088857068678,
              28.847362681859316
            ],
            [
              -83.32023214938555,
              28.98850924755592
            ],
            [
              -83.98262333699651,
              29.721758924327382
            ],
            [
              -84.08710279402948,
              29.729113279407834
            ],
            [
              -84.4813360692646,
              29.436485842805258
            ],
            [
              -84.91399175906047,
              29.282449750682755
            ],
            [
              -85.17437984791225,
              29.29915663257841
            ],
            [
              -85.68460892611208,
              29.46759498758081
            ],
            [
              -85.72344750313837,
              29.653424985947463
            ],
            [
              -85.96634164550724,
              29.894930583775515
            ],
            [
              -86.47697752494051,
              30.10603567532834
            ],
            [
              -87.70158905530097,
              29.894447696549744
            ],
            [
              -88.38566408006709,
              29.879326641562674
            ],
            [
              -88.44712950193036,
              29.700508416265503
            ],
            [
              -88.72582426544463,
              29.392829315223135
            ],
            [
              -88.6263269559462,
              29.297570372466986
            ],
            [
              -88.64102342874018,
              29.024471877489752
            ],
            [
              -88.91871418833526,
              28.715305866724048
            ],
            [
              -89.34058509721433,
              28.594433286198434
            ],
            [
              -89.69963740594949,
              28.698441485691408
            ],
            [
              -89.84552074321768,
              28.931472836935967
            ],
            [
              -90.11316001993794,
              28.757695011491165
            ],
            [
              -91.04999807871151,
              28.73885912208155
            ],
            [
              -91.6632844398196,
              29.11805931176347
            ],
            [
              -91.820891038045,
              29.075785756639466
            ],
            [
              -92.08032577742242,
              29.126467070091238
            ],
            [
              -92.1824269179349,
              29.21950606131329
            ],
            [
              -92.5476757470499,
              29.225702201592362
            ],
            [
              -93.22266304624043,
              29.462687779748723
            ],
            [
              -93.58870427310148,
              29.466435775146778
            ],
            [
              -94.26995427925398,
              29.24334244579901
            ],
            [
              -95.31198704475828,
              28.515424881878275
            ],
            [
              -95.67590734294224,
              28.651056502194095
            ],
            [
              -96.30362644093665,
              29.057310506302567
            ],
            [
              -97.68839357640492,
              30.315581786578758
            ],
            [
              -98.07135001840264,
              30.85431794827374
            ],
            [
              -98.2414518280515,
              31.259896558472946
            ],
            [
              -98.30360069934547,
              31.57648701854567
            ],
            [
              -98.26318697243471,
              32.03105633507169
            ],
            [
              -97.85134608768674,
              32.67333188908472
            ],
            [
              -97.32197041540242,
              33.135246152143786
            ],
            [
              -96.83986421841887,
              33.36748357697336
            ],
            [
              -96.40772859289417,
              33.41699598655948
            ],
            [
              -95.97405178443609,
              33.32979420290432
            ],
            [
              -95.43247024911007,
              33.10609957557778
            ],
            [
              -94.99966763844321,
              32.69856992411716
            ],
            [
              -94.51933981501003,
              31.836892364425594
            ],
            [
              -94.14916336097227,
              31.518640432823695
            ],
            [
              -93.19547990667864,
              31.23824857800945
            ],
            [
              -91.7118279688617,
              31.123551175063287
            ],
            [
              -89.06211981973792,
              31.046306392998414
            ],
            [
              -88.01158622223565,
              30.866856556868573
            ],
            [
              -87.2190194387052,
              30.82975606838076
            ],
            [
              -84.06468118788386,
              31.09823251278241
            ],
            [
              -82.69155383242708,
              30.99713733920269
            ],
            [
              -81.8053836683334,
              30.834131299203477
            ],
            [
              -81.24245450446168,
              30.648835905121825
            ],
            [
              -81.05303378292803,
              30.448357650015634
            ],
            [
              -80.9970781692306,
              30.03171991136292
            ],
            [
              -80.75520059408946,
              29.414626373216457
            ],
            [
              -80.22831009726261,
              28.585879083976433
            ],
            [
              -80.27895736516328,
              28.177831850492325
            ],
            [
              -79.72225018624539,
              26.83709996097543
            ],
            [
              -79.82574718223478,
              25.60646758451003
            ],
            [
              -80.49602254844459,
              25.120555570381438
            ],
            [
              -80.75742802648358,
              25.053856494965718
            ],
            [
              -81.20882002733501,
              25.096278613472297
            ],
            [
              -82.17575861196727,
              25.550538029270413
            ]
          ],
          [
            [
              -94.68494569821057,
              30.019779597725638
            ],
            [
              -94.57937206641074,
              30.156050015113802
            ],
            [
              -94.57822608440713,
              30.474471948380174
            ],
            [
              -94.84109438059194,
              31.11127328452225
            ],
            [
              -94.9468963103176,
              31.7015158830331
            ],
            [
              -95.26874813508982,
              32.56252018182528
            ],
            [
              -95.59294612166443,
              32.833713437048736
            ],
            [
              -96.07874488256641,
              32.96693669404076
            ],
            [
              -96.88267069743291,
              32.688021312341505
            ],
            [
              -97.09492050653766,
              32.503809926502626
            ],
            [
              -97.19617930191674,
              32.18527590667813
            ],
            [
              -97.08172781847311,
              31.778670810055583
            ],
            [
              -96.536237767984,
              30.87671206672236
            ],
            [
              -96.05564528860546,
              30.471040454322818
            ],
            [
              -95.00072552735625,
              29.92861342058069
            ],
            [
              -94.68494569821057,
              30.019779597725638
            ]
          ]
        ]
      }
    },
    {
      "type": "Feature",
      "properties": {
        "dn": 1,
        "PRODUCT": "Day 1 Excessive Rainfall Potential Forecast",
        "VALID_TIME": "16Z 09/03/26 - 12Z 09/04/26",
        "OUTLOOK": "Marginal (At Least 5%)",
        "ISSUE_TIME": "2026-09-03 15:57:00",
        "START_TIME": "2026-09-03 16:00:00",
        "END_TIME": "2026-09-04 12:00:00",
        "Snippet": "16Z 09/03/26 - 12Z 09/04/26",
        "risk_norm": "MARGINAL"
      },
      "geometry": {
        "type": "Polygon",
        "coordinates": [
          [
            [
              -106.055277882567,
              31.224775584563876
            ],
            [
              -106.50210402882288,
              31.421674705201944
            ],
            [
              -106.57207952163469,
              31.597888069269302
            ],
            [
              -107.59448227822585,
              31.656767587471624
            ],
            [
              -107.96578444528456,
              31.62688053767055
            ],
            [
              -108.06062585381395,
              31.52882876890281
            ],
            [
              -108.07866176117668,
              31.20713454245347
            ],
            [
              -108.97266938754481,
              31.100727661809906
            ],
            [
              -110.73554955973741,
              31.117486416569804
            ],
            [
              -111.28118954581055,
              31.199311046051452
            ],
            [
              -112.0650433642808,
              31.43680144237538
            ],
            [
              -112.46725596625197,
              31.60674073141942
            ],
            [
              -112.4946828114153,
              31.786717621994544
            ],
            [
              -112.27212410960627,
              32.450877630064184
            ],
            [
              -111.91970892185975,
              32.99036586403886
            ],
            [
              -111.44889858946874,
              33.49547902320539
            ],
            [
              -109.88714393735425,
              34.463326734694604
            ],
            [
              -108.81962323936746,
              35.596340104516585
            ],
            [
              -108.18739852874022,
              35.87306295703562
            ],
            [
              -107.64176610012044,
              35.9603245784484
            ],
            [
              -107.12076644829499,
              35.77383581689519
            ],
            [
              -105.81498671873081,
              34.91646577592049
            ],
            [
              -105.17758691752141,
              33.9631130166043
            ],
            [
              -105.08294223543722,
              33.51629599802072
            ],
            [
              -105.1839754480373,
              32.82986479384922
            ],
            [
              -105.56223135301914,
              31.66914296527274
            ],
            [
              -105.87949765733052,
              31.054689478599595
            ],
            [
              -106.055277882567,
              31.224775584563876
            ]
          ],
          [
            [
              -108.65916002413223,
              31.1589154393873
            ],
            [
              -108.80789777126722,
              31.511109261684858
            ],
            [
              -109.36300528640146,
              32.10040571384007
            ],
            [
              -109.76932836725547,
              32.74681260995811
            ],
            [
              -109.95402329552637,
              32.912291969921995
            ],
            [
              -110.29341027450579,
              33.01695702852089
            ],
            [
              -110.77543782199432,
              32.97042820923625
            ],
            [
              -111.07743490396986,
              32.80381707217314
            ],
            [
              -111.49942476739999,
              32.35040025292516
            ],
            [
              -111.89830203489275,
              32.12598076163249
            ],
            [
              -112.07075813239157,
              31.832892644647764
            ],
            [
              -112.06989326705514,
              31.467087198970518
            ],
            [
              -111.28543081305303,
              31.22937026588354
            ],
            [
              -110.73964644654218,
              31.1475647572386
            ],
            [
              -108.65916002413223,
              31.1589154393873
            ]
          ]
        ]
      }
    },
    {
      "type": "Feature",
      "properties": {
        "dn": 1,
        "PRODUCT": "Day 1 Excessive Rainfall Potential Forecast",
        "VALID_TIME": "16Z 09/03/26 - 12Z 09/04/26",
        "OUTLOOK": "Marginal (At Least 5%)",
        "ISSUE_TIME": "2026-09-03 15:57:00",
        "START_TIME": "2026-09-03 16:00:00",
        "END_TIME": "2026-09-04 12:00:00",
        "Snippet": "16Z 09/03/26 - 12Z 09/04/26",
        "risk_norm": "MARGINAL"
      },
      "geometry": {
        "type": "Polygon",
        "coordinates": [
          [
            [
              -78.10790467096622,
              38.237240467723815
            ],
            [
              -79.45600039285246,
              38.36440556040602
            ],
            [
              -79.94979532964908,
              38.497583551258415
            ],
            [
              -84.81946756134441,
              40.533942100283184
            ],
            [
              -89.60228115722398,
              42.0558129678097
            ],
            [
              -90.70892570797054,
              42.25944342488232
            ],
            [
              -91.69792677467204,
              42.58437481641866
            ],
            [
              -93.15730318135216,
              43.47204295450353
            ],
            [
              -94.7587576203717,
              45.112757550462355
            ],
            [
              -97.39075493411447,
              46.28949899273098
            ],
            [
              -99.06842915485174,
              46.81173696205638
            ],
            [
              -100.51968528555776,
              47.36650665976315
            ],
            [
              -102.40758453524818,
              48.43736421538344
            ],
            [
              -102.68296875898208,
              48.71872821578611
            ],
            [
              -102.69725654455088,
              48.88446043888193
            ],
            [
              -101.89039845789284,
              49.079783970198996
            ],
            [
              -99.55396207040185,
              49.144375190398485
            ],
            [
              -97.085406449121,
              49.05974614567815
            ],
            [
              -95.69382571924535,
              48.82040288812688
            ],
            [
              -94.93804687528927,
              48.572336724541444
            ],
            [
              -94.24980265786124,
              48.23782789733067
            ],
            [
              -91.38085347297913,
              46.39944978363557
            ],
            [
              -90.06555698096022,
              45.73388686861597
            ],
            [
              -88.87050015748379,
              45.358688298722406
            ],
            [
              -87.20226045191411,
              44.95605963095495
            ],
            [
              -83.76438311245425,
              43.793076395988074
            ],
            [
              -82.09198243944682,
              43.29468287720708
            ],
            [
              -82.30364670049526,
              42.5683173966887
            ],
            [
              -82.44289354405349,
              42.40329847652661
            ],
            [
              -82.88485609396244,
              42.170957840231544
            ],
            [
              -82.90579323105966,
              41.99738564827912
            ],
            [
              -82.74756275819861,
              41.85631426876429
            ],
            [
              -82.39235217823789,
              41.875798427322366
            ],
            [
              -81.26070402531013,
              42.406627481895526
            ],
            [
              -80.35104918680098,
              42.554652486825134
            ],
            [
              -79.4839016061051,
              42.78922399461822
            ],
            [
              -76.44746601668942,
              42.463236240475965
            ],
            [
              -74.82799882461694,
              41.93884228199683
            ],
            [
              -73.91651261460783,
              41.48113863638041
            ],
            [
              -73.31742597303352,
              40.96529362308044
            ],
            [
              -73.35243834535062,
              40.524983976330226
            ],
            [
              -73.45524115974946,
              40.31490387208691
            ],
            [
              -73.71015709341064,
              40.21221992322814
            ],
            [
              -73.79991713565609,
              39.77699632105729
            ],
            [
              -74.12353006726003,
              39.32437642493304
            ],
            [
              -74.50915531776555,
              38.83306578316856
            ],
            [
              -74.70327736720743,
              38.72152557532674
            ],
            [
              -74.88544351659758,
              38.06956374211528
            ],
            [
              -75.1595302231814,
              37.830930555153
            ],
            [
              -75.46251850828878,
              37.73099313185512
            ],
            [
              -76.36212436618139,
              37.78683230679099
            ],
            [
              -78.10790467096622,
              38.237240467723815
            ]
          ],
          [
            [
              -77.41786901884248,
              40.66357866919422
            ],
            [
              -77.28738916570799,
              40.73962581971405
            ],
            [
              -77.19204040065077,
              40.951361721700295
            ],
            [
              -77.34681791192476,
              41.40835023262204
            ],
            [
              -77.4982151623491,
              41.5558389880841
            ],
            [
              -78.51287172294016,
              41.82735917794441
            ],
            [
              -79.09416400479334,
              41.879333200724034
            ],
            [
              -79.76619804998316,
              42.11245809032655
            ],
            [
              -80.47280775300578,
              42.12639686176855
            ],
            [
              -81.29200626202241,
              41.75123489787777
            ],
            [
              -81.46670694559137,
              41.32517567672518
            ],
            [
              -81.43204093113708,
              41.146578607596446
            ],
            [
              -81.2756264256675,
              41.00211643693365
            ],
            [
              -79.78857962248705,
              40.79348978706191
            ],
            [
              -77.41786901884248,
              40.66357866919422
            ]
          ]
        ]
      }
    },
    {
      "type": "Feature",
      "properties": {
        "dn": 1,
        "PRODUCT": "Day 1 Excessive Rainfall Potential Forecast",
        "VALID_TIME": "16Z 09/03/26 - 12Z 09/04/26",
        "OUTLOOK": "Marginal (At Least 5%)",
        "ISSUE_TIME": "2026-09-03 15:57:00",
        "START_TIME": "2026-09-03 16:00:00",
        "END_TIME": "2026-09-04 12:00:00",
        "Snippet": "16Z 09/03/26 - 12Z 09/04/26",
        "risk_norm": "MARGINAL"
      },
      "geometry": {
        "type": "Polygon",
        "coordinates": [
          [
            [
              -120.66577513900931,
              38.99399788751348
            ],
            [
              -121.40236214297963,
              39.153347001672294
            ],
            [
              -122.33578694152726,
              39.82055684941334
            ],
            [
              -122.67902561861749,
              40.44087886631346
            ],
            [
              -122.68104403455486,
              40.6649039398298
            ],
            [
              -122.42379035792911,
              41.242114111528785
            ],
            [
              -121.04253951161255,
              42.78137270260002
            ],
            [
              -118.26401504729705,
              44.98934608394527
            ],
            [
              -117.73054899644822,
              45.572316488485065
            ],
            [
              -117.09776970169762,
              46.54894499131944
            ],
            [
              -116.50457504323204,
              47.21359759807462
            ],
            [
              -116.10538695888285,
              47.38414524035595
            ],
            [
              -115.5631272707503,
              47.48344344881164
            ],
            [
              -114.44843139063077,
              47.55293340751926
            ],
            [
              -113.93037342563123,
              47.47566221110778
            ],
            [
              -113.70185469457988,
              47.28439708964399
            ],
            [
              -113.68658601724813,
              46.90335568919384
            ],
            [
              -114.0638167303336,
              45.71217686602994
            ],
            [
              -114.71172877338813,
              44.39397351730384
            ],
            [
              -114.78515967576529,
              43.86454363262233
            ],
            [
              -115.48202470602142,
              43.43919933697643
            ],
            [
              -117.80576477697764,
              42.55109945546661
            ],
            [
              -119.49706628497599,
              41.39991616520004
            ],
            [
              -120.10135285214943,
              40.737258821445224
            ],
            [
              -120.21851277277595,
              40.49711663671916
            ],
            [
              -120.28056137865323,
              39.32189753639848
            ],
            [
              -120.39663382909805,
              39.078902848454895
            ],
            [
              -120.66577513900931,
              38.99399788751348
            ]
          ]
        ]
      }
    },
    {
      "type": "Feature",
      "properties": {
        "dn": 2,
        "PRODUCT": "Day 1 Excessive Rainfall Potential Forecast",
        "VALID_TIME": "16Z 09/03/26 - 12Z 09/04/26",
        "OUTLOOK": "Slight (At Least 15%)",
        "ISSUE_TIME": "2026-09-03 15:57:00",
        "START_TIME": "2026-09-03 16:00:00",
        "END_TIME": "2026-09-04 12:00:00",
        "Snippet": "16Z 09/03/26 - 12Z 09/04/26",
        "risk_norm": "SLIGHT"
      },
      "geometry": {
        "type": "Polygon",
        "coordinates": [
          [
            [
              -96.05564528860546,
              30.471040454322818
            ],
            [
              -96.536237767984,
              30.87671206672236
            ],
            [
              -97.08172781847311,
              31.778670810055583
            ],
            [
              -97.19617930191674,
              32.18527590667813
            ],
            [
              -97.09492050653766,
              32.503809926502626
            ],
            [
              -96.88267069743291,
              32.688021312341505
            ],
            [
              -96.07874488256641,
              32.96693669404076
            ],
            [
              -95.59294612166443,
              32.833713437048736
            ],
            [
              -95.26874813508982,
              32.56252018182528
            ],
            [
              -94.9468963103176,
              31.7015158830331
            ],
            [
              -94.84109438059194,
              31.11127328452225
            ],
            [
              -94.57822608440713,
              30.474471948380174
            ],
            [
              -94.57937206641074,
              30.156050015113802
            ],
            [
              -94.68494569821057,
              30.019779597725638
            ],
            [
              -95.00072552735625,
              29.92861342058069
            ],
            [
              -96.05564528860546,
              30.471040454322818
            ]
          ],
          [
            [
              -95.37206361266847,
              31.20175719661181
            ],
            [
              -95.2665352855982,
              31.474395522966024
            ],
            [
              -95.26790250485256,
              32.064122310944946
            ],
            [
              -95.53718830626008,
              32.42615811200559
            ],
            [
              -96.02038057249374,
              32.46911148974415
            ],
            [
              -96.39401855741316,
              32.28490349144173
            ],
            [
              -96.43962604101108,
              31.649645554656114
            ],
            [
              -96.2224413661092,
              31.28812733626406
            ],
            [
              -95.74293870494796,
              31.064001316446305
            ],
            [
              -95.37206361266847,
              31.20175719661181
            ]
          ]
        ]
      }
    },
    {
      "type": "Feature",
      "properties": {
        "dn": 2,
        "PRODUCT": "Day 1 Excessive Rainfall Potential Forecast",
        "VALID_TIME": "16Z 09/03/26 - 12Z 09/04/26",
        "OUTLOOK": "Slight (At Least 15%)",
        "ISSUE_TIME": "2026-09-03 15:57:00",
        "START_TIME": "2026-09-03 16:00:00",
        "END_TIME": "2026-09-04 12:00:00",
        "Snippet": "16Z 09/03/26 - 12Z 09/04/26",
        "risk_norm": "SLIGHT"
      },
      "geometry": {
        "type": "Polygon",
        "coordinates": [
          [
            [
              -110.73964644654218,
              31.1475647572386
            ],
            [
              -111.28543081305303,
              31.22937026588354
            ],
            [
              -112.06989326705514,
              31.467087198970518
            ],
            [
              -112.07075813239157,
              31.832892644647764
            ],
            [
              -111.89830203489275,
              32.12598076163249
            ],
            [
              -111.49942476739999,
              32.35040025292516
            ],
            [
              -111.07743490396986,
              32.80381707217314
            ],
            [
              -110.77543782199432,
              32.97042820923625
            ],
            [
              -110.29341027450579,
              33.01695702852089
            ],
            [
              -109.95402329552637,
              32.912291969921995
            ],
            [
              -109.76932836725547,
              32.74681260995811
            ],
            [
              -109.36300528640146,
              32.10040571384007
            ],
            [
              -108.80789777126722,
              31.511109261684858
            ],
            [
              -108.65916002413223,
              31.1589154393873
            ],
            [
              -110.73964644654218,
              31.1475647572386
            ]
          ]
        ]
      }
    },
    {
      "type": "Feature",
      "properties": {
        "dn": 2,
        "PRODUCT": "Day 1 Excessive Rainfall Potential Forecast",
        "VALID_TIME": "16Z 09/03/26 - 12Z 09/04/26",
        "OUTLOOK": "Slight (At Least 15%)",
        "ISSUE_TIME": "2026-09-03 15:57:00",
        "START_TIME": "2026-09-03 16:00:00",
        "END_TIME": "2026-09-04 12:00:00",
        "Snippet": "16Z 09/03/26 - 12Z 09/04/26",
        "risk_norm": "SLIGHT"
      },
      "geometry": {
        "type": "Polygon",
        "coordinates": [
          [
            [
              -79.78857962248705,
              40.79348978706191
            ],
            [
              -81.2756264256675,
              41.00211643693365
            ],
            [
              -81.43204093113708,
              41.146578607596446
            ],
            [
              -81.46670694559137,
              41.32517567672518
            ],
            [
              -81.29200626202241,
              41.75123489787777
            ],
            [
              -80.47280775300578,
              42.12639686176855
            ],
            [
              -79.76619804998316,
              42.11245809032655
            ],
            [
              -79.09416400479334,
              41.879333200724034
            ],
            [
              -78.51287172294016,
              41.82735917794441
            ],
            [
              -77.4982151623491,
              41.5558389880841
            ],
            [
              -77.34681791192476,
              41.40835023262204
            ],
            [
              -77.19204040065077,
              40.951361721700295
            ],
            [
              -77.28738916570799,
              40.73962581971405
            ],
            [
              -77.41786901884248,
              40.66357866919422
            ],
            [
              -79.78857962248705,
              40.79348978706191
            ]
          ]
        ]
      }
    },
    {
      "type": "Feature",
      "properties": {
        "dn": 3,
        "PRODUCT": "Day 1 Excessive Rainfall Potential Forecast",
        "VALID_TIME": "16Z 09/03/26 - 12Z 09/04/26",
        "OUTLOOK": "Moderate (At Least 40%)",
        "ISSUE_TIME": "2026-09-03 15:57:00",
        "START_TIME": "2026-09-03 16:00:00",
        "END_TIME": "2026-09-04 12:00:00",
        "Snippet": "16Z 09/03/26 - 12Z 09/04/26",
        "risk_norm": "MODERATE"
      },
      "geometry": {
        "type": "Polygon",
        "coordinates": [
          [
            [
              -95.74293870494796,
              31.064001316446305
            ],
            [
              -96.2224413661092,
              31.28812733626406
            ],
            [
              -96.43962604101108,
              31.649645554656114
            ],
            [
              -96.39401855741316,
              32.28490349144173
            ],
            [
              -96.02038057249374,
              32.46911148974415
            ],
            [
              -95.53718830626008,
              32.42615811200559
            ],
            [
              -95.26790250485256,
              32.064122310944946
            ],
            [
              -95.2665352855982,
              31.474395522966024
            ],
            [
              -95.37206361266847,
              31.20175719661181
            ],
            [
              -95.74293870494796,
              31.064001316446305
            ]
          ]
        ]
      }
    }
  ]
}
