{
  "type": "FeatureCollection",
  "features": [
    {
      "type": "Feature",
      "properties": {
        "dn": 1,
        "PRODUCT": "Day 2 Excessive Rainfall Potential Forecast",
        "VALID_TIME": "12Z 09/04/26 - 12Z 09/05/26",
        "OUTLOOK": "Marginal (At Least 5%)",
        "ISSUE_TIME": "2026-09-03 08:05:00",
        "START_TIME": "2026-09-04 12:00:00",
        "END_TIME": "2026-09-05 12:00:00",
        "Snippet": "12Z 09/04/26 - 12Z 09/05/26",
        "risk_norm": "MARGINAL"
      },
      "geometry": {
        "type": "Polygon",
        "coordinates": [
          [
            [
              -81.25388701851584,
              25.146361984146296
            ],
            [
              -82.18053973226463,
              25.505055620772374
            ],
            [
              -81.91407661823771,
              25.619706401004528
            ],
            [
              -82.1181065867413,
              26.09627964729339
            ],
            [
              -82.2642860577806,
              26.15368335589894
            ],
            [
              -82.53643912279504,
              26.498454800815157
            ],
            [
              -83.17876934092348,
              27.78744444256655
            ],
            [
              -83.12008427084714,
              28.378261282360956
            ],
            [
              -82.94683193937682,
              28.547912441074573
            ],
            [
              -82.98013486242392,
              28.7336168061601
            ],
            [
              -83.28088857068678,
              28.847362681859316
            ],
            [
              -83.32023214938555,
              28.98850924755592
            ],
            [
              -83.98262333699651,
              29.721758924327382
            ],
            [
              -84.08710279402948,
              29.729113279407834
            ],
            [
              -84.4813360692646,
              29.436485842805258
            ],
            [
              -84.91399175906047,
              29.282449750682755
            ],
            [
              -85.17437984791225,
              29.29915663257841
            ],
            [
              -85.68460892611208,
              29.46759498758081
            ],
            [
              -85.72344750313837,
              29.653424985947463
            ],
            [
              -85.96634164550724,
              29.894930583775515
            ],
            [
              -86.47697752494051,
              30.10603567532834
            ],
            [
              -87.70158905530097,
              29.894447696549744
            ],
            [
              -88.38566408006709,
              29.879326641562674
            ],
            [
              -88.44712950193036,
              29.700508416265503
            ],
            [
              -88.72582426544463,
              29.392829315223135
            ],
            [
              -88.6263269559462,
              29.297570372466986
            ],
            [
              -88.64102342874018,
              29.024471877489752
            ],
            [
              -88.91871418833526,
              28.715305866724048
            ],
            [
              -89.34058509721433,
              28.594433286198434
            ],
            [
              -89.69963740594949,
              28.698441485691408
            ],
            [
              -89.84552074321768,
              28.931472836935967
            ],
            [
              -90.11316001993794,
              28.757695011491165
            ],
            [
              -91.04999807871151,
              28.73885912208155
            ],
            [
              -91.6632844398196,
              29.11805931176347
            ],
            [
              -91.820891038045,
              29.075785756639466
            ],
            [
              -92.08032577742242,
              29.126467070091238
            ],
            [
              -92.1824269179349,
              29.21950606131329
            ],
            [
              -92.5476757470499,
              29.225702201592362
            ],
            [
              -93.22266304624043,
              29.462687779748723
            ],
            [
              -93.58870427310148,
              29.466435775146778
            ],
            [
              -94.26995427925398,
              29.24334244579901
            ],
            [
              -95.20831027943626,
              28.561200309284196
            ],
            [
              -95.98412972350866,
              28.2389437172858
            ],
            [
              -96.24101422784115,
              28.054602611382496
            ],
            [
              -97.33591011656054,
              28.543663747626653
            ],
            [
              -98.17932648304885,
              29.030195797114388
            ],
            [
              -98.5009874017314,
              29.297667704429426
            ],
            [
              -98.82894318048288,
              29.745562053699597
            ],
            [
              -98.94441717759888,
              30.061455173567637
            ],
            [
              -99.00939345608882,
              30.42392069972527
            ],
            [
              -98.92383165857345,
              31.017268714522164
            ],
            [
              -98.56451885517359,
              31.435548939639432
            ],
            [
              -97.98431165817232,
              31.629094450618222
            ],
            [
              -95.5873487171908,
              31.746718411053802
            ],
            [
              -92.96880388657058,
              32.05235724828691
            ],
            [
              -88.00711775854703,
              31.821394529343603
            ],
            [
              -85.59664262016115,
              31.87918950338973
            ],
            [
              -83.46869429408582,
              31.739289966791024
            ],
            [
              -82.31561807163527,
              31.514692310977725
            ],
            [
              -81.44195139041676,
              31.214187938995302
            ],
            [
              -81.04042096837763,
              30.995623840139615
            ],
            [
              -81.13101592915555,
              30.68382020482289
            ],
            [
              -80.91979709382122,
              29.79593975750715
            ],
            [
              -80.22831009726261,
              28.585879083976433
            ],
            [
              -80.27895736516328,
              28.177831850492325
            ],
            [
              -79.72225018624539,
              26.83709996097543
            ],
            [
              -79.81442164641959,
              25.69726653158766
            ],
            [
              -79.90422372981932,
              25.3845435405142
            ],
            [
              -80.54617874009614,
              25.12542391220126
            ],
            [
              -81.25388701851584,
              25.146361984146296
            ]
          ]
        ]
      }
    },
    {
      "type": "Feature",
      "properties": {
        "dn": 1,
        "PRODUCT": "Day 2 Excessive Rainfall Potential Forecast",
        "VALID_TIME": "12Z 09/04/26 - 12Z 09/05/26",
        "OUTLOOK": "Marginal (At Least 5%)",
        "ISSUE_TIME": "2026-09-03 08:05:00",
        "START_TIME": "2026-09-04 12:00:00",
        "END_TIME": "2026-09-05 12:00:00",
        "Snippet": "12Z 09/04/26 - 12Z 09/05/26",
        "risk_norm": "MARGINAL"
      },
      "geometry": {
        "type": "Polygon",
        "coordinates": [
          [
            [
              -106.055277882567,
              31.224775584563876
            ],
            [
              -106.50210402882288,
              31.421674705201944
            ],
            [
              -106.57207952163469,
              31.597888069269302
            ],
            [
              -107.96578444528456,
              31.62688053767055
            ],
            [
              -108.06062585381395,
              31.52882876890281
            ],
            [
              -108.07866176117668,
              31.20713454245347
            ],
            [
              -108.49775087832342,
              31.14205917005428
            ],
            [
              -110.73554955973741,
              31.117486416569804
            ],
            [
              -111.28118954581055,
              31.199311046051452
            ],
            [
              -113.03051667452813,
              31.772449740097063
            ],
            [
              -112.97420993409152,
              32.78452798473622
            ],
            [
              -112.63362565058247,
              33.73405378495005
            ],
            [
              -112.2455945047269,
              34.41231199493121
            ],
            [
              -111.83242277189747,
              34.95438673458497
            ],
            [
              -111.10540949781037,
              35.66139146925808
            ],
            [
              -110.04482186425281,
              36.437011357880586
            ],
            [
              -109.26208903350815,
              36.86497115180742
            ],
            [
              -108.72363875342973,
              37.04424526391978
            ],
            [
              -108.00542611073692,
              37.14575762315039
            ],
            [
              -106.19738729403326,
              37.050740561089384
            ],
            [
              -105.61802169424986,
              36.864032914596855
            ],
            [
              -105.19779046557224,
              36.57519944895787
            ],
            [
              -104.88768807825234,
              36.23468790403752
            ],
            [
              -104.61509259668897,
              35.66628968735002
            ],
            [
              -104.53744194619154,
              34.7696943747832
            ],
            [
              -104.89459741763595,
              31.984947546844797
            ],
            [
              -105.17144833194531,
              30.874960199216062
            ],
            [
              -105.31063485885349,
              30.63707428624866
            ],
            [
              -106.055277882567,
              31.224775584563876
            ]
          ],
          [
            [
              -108.50077510648961,
              31.172536234400326
            ],
            [
              -108.52729222642223,
              31.854489948967686
            ],
            [
              -108.37266126172888,
              32.368617849288846
            ],
            [
              -107.34892765656346,
              33.359498879225306
            ],
            [
              -107.07381826528966,
              33.8336575927701
            ],
            [
              -107.01370133785488,
              34.29091097275464
            ],
            [
              -107.14244551655878,
              34.46283548984709
            ],
            [
              -107.60287319158375,
              34.654258611975905
            ],
            [
              -108.6915680358972,
              34.56709236311269
            ],
            [
              -109.32089076583982,
              34.33211424431574
            ],
            [
              -109.77928739769702,
              34.064535508230776
            ],
            [
              -110.37275631157979,
              33.60076818145996
            ],
            [
              -110.99001616229476,
              32.94878317223766
            ],
            [
              -111.3805279523817,
              32.27090002522721
            ],
            [
              -111.62106523795933,
              31.331624484388357
            ],
            [
              -110.73964644654218,
              31.1475647572386
            ],
            [
              -108.50077510648961,
              31.172536234400326
            ]
          ]
        ]
      }
    },
    {
      "type": "Feature",
      "properties": {
        "dn": 1,
        "PRODUCT": "Day 2 Excessive Rainfall Potential Forecast",
        "VALID_TIME": "12Z 09/04/26 - 12Z 09/05/26",
        "OUTLOOK": "Marginal (At Least 5%)",
        "ISSUE_TIME": "2026-09-03 08:05:00",
        "START_TIME": "2026-09-04 12:00:00",
        "END_TIME": "2026-09-05 12:00:00",
        "Snippet": "12Z 09/04/26 - 12Z 09/05/26",
        "risk_norm": "MARGINAL"
      },
      "geometry": {
        "type": "Polygon",
        "coordinates": [
          [
            [
              -76.80531559473448,
              35.85095905994323
            ],
            [
              -77.63351572372135,
              36.255694278840096
            ],
            [
              -79.11551177703053,
              37.212778369426424
            ],
            [
              -82.58777517306187,
              38.35065889483271
            ],
            [
              -85.28947004321,
              39.234313241955896
            ],
            [
              -86.39976094581306,
              39.64657567099822
            ],
            [
              -87.6211288524288,
              40.2316440988038
            ],
            [
              -88.7324531989497,
              40.93393936278322
            ],
            [
              -89.68044329918277,
              41.709776205031964
            ],
            [
              -90.2927010217049,
              42.38068795028199
            ],
            [
              -90.5104451487179,
              42.77730461307087
            ],
            [
              -90.54815451845344,
              43.25502770502907
            ],
            [
              -90.15820430143742,
              43.936385624194365
            ],
            [
              -89.78470194866262,
              44.18566950630128
            ],
            [
              -89.35799562900657,
              44.30247129958261
            ],
            [
              -88.27908054842223,
              44.26723047261695
            ],
            [
              -86.56504953823206,
              43.93982071165745
            ],
            [
              -83.78874965714634,
              43.05742119088053
            ],
            [
              -82.37439108925312,
              42.48678786658539
            ],
            [
              -82.88485609396244,
              42.170957840231544
            ],
            [
              -82.90579323105966,
              41.99738564827912
            ],
            [
              -82.74756275819861,
              41.85631426876429
            ],
            [
              -82.39235217823789,
              41.875798427322366
            ],
            [
              -81.70540634804448,
              42.1771497914391
            ],
            [
              -80.47716516663804,
              41.68855886629563
            ],
            [
              -78.61866753745815,
              41.17693547729415
            ],
            [
              -76.81004980947817,
              40.4706814955754
            ],
            [
              -76.0005839768904,
              40.118990978398564
            ],
            [
              -74.95519472877486,
              39.51236782897238
            ],
            [
              -74.6916031572102,
              39.07852444771008
            ],
            [
              -74.78476995222543,
              38.596575050399636
            ],
            [
              -75.30234994418745,
              37.66842706747044
            ],
            [
              -75.81115007392692,
              37.051028067495146
            ],
            [
              -75.81102903484036,
              36.735142186163785
            ],
            [
              -75.64581977589631,
              36.399859850924706
            ],
            [
              -75.63828612562763,
              36.127547901700154
            ],
            [
              -75.89807788278384,
              35.93028678209893
            ],
            [
              -76.19512370120533,
              35.828306348017236
            ],
            [
              -76.80531559473448,
              35.85095905994323
            ]
          ]
        ]
      }
    },
    {
      "type": "Feature",
      "properties": {
        "dn": 2,
        "PRODUCT": "Day 2 Excessive Rainfall Potential Forecast",
        "VALID_TIME": "12Z 09/04/26 - 12Z 09/05/26",
        "OUTLOOK": "Slight (At Least 15%)",
        "ISSUE_TIME": "2026-09-03 08:05:00",
        "START_TIME": "2026-09-04 12:00:00",
        "END_TIME": "2026-09-05 12:00:00",
        "Snippet": "12Z 09/04/26 - 12Z 09/05/26",
        "risk_norm": "SLIGHT"
      },
      "geometry": {
        "type": "Polygon",
        "coordinates": [
          [
            [
              -110.73964644654218,
              31.1475647572386
            ],
            [
              -111.62106523795933,
              31.331624484388357
            ],
            [
              -111.3805279523817,
              32.27090002522721
            ],
            [
              -110.99001616229476,
              32.94878317223766
            ],
            [
              -110.37275631157979,
              33.60076818145996
            ],
            [
              -109.77928739769702,
              34.064535508230776
            ],
            [
              -109.32089076583982,
              34.33211424431574
            ],
            [
              -108.6915680358972,
              34.56709236311269
            ],
            [
              -107.60287319158375,
              34.654258611975905
            ],
            [
              -107.14244551655878,
              34.46283548984709
            ],
            [
              -107.01370133785488,
              34.29091097275464
            ],
            [
              -107.07381826528966,
              33.8336575927701
            ],
            [
              -107.34892765656346,
              33.359498879225306
            ],
            [
              -108.37266126172888,
              32.368617849288846
            ],
            [
              -108.52729222642223,
              31.854489948967686
            ],
            [
              -108.50077510648961,
              31.172536234400326
            ],
            [
              -110.73964644654218,
              31.1475647572386
            ]
          ]
        ]
      }
    }
  ]
}
