{
  "type": "FeatureCollection",
  "features": [
    {
      "type": "Feature",
      "properties": {
        "dn": 1,
        "PRODUCT": "Day 1 Excessive Rainfall Potential Forecast",
        "VALID_TIME": "16Z 08/03/26 - 12Z 08/04/26",
        "OUTLOOK": "Marginal (At Least 5%)",
        "ISSUE_TIME": "2026-08-03 15:48:00",
        "START_TIME": "2026-08-03 16:00:00",
        "END_TIME": "2026-08-04 12:00:00",
        "Snippet": "16Z 08/03/26 - 12Z 08/04/26",
        "risk_norm": "MARGINAL"
      },
      "geometry": {
        "type": "Polygon",
        "coordinates": [
          [
            [
              -80.98443982807837,
              26.178610391422133
            ],
            [
              -81.14927047463914,
              26.974335611733007
            ],
            [
              -81.35256671392203,
              27.451632752423077
            ],
            [
              -81.77715622319214,
              27.809171109034803
            ],
            [
              -82.28094996257255,
              27.943589144806666
            ],
            [
              -82.7577055132312,
              27.84501747346695
            ],
            [
              -83.04191969067091,
              27.59261850344331
            ],
            [
              -83.17876934092348,
              27.78744444256655
            ],
            [
              -83.12008427084714,
              28.378261282360956
            ],
            [
              -82.98060221557084,
              28.55055120976211
            ],
            [
              -83.01395862465998,
              28.736247728165278
            ],
            [
              -83.28382292732888,
              28.817691227550913
            ],
            [
              -83.35413602401009,
              28.991064967947402
            ],
            [
              -83.98540285520308,
              29.692108922093063
            ],
            [
              -84.08985618273041,
              29.69946174504495
            ],
            [
              -84.48398361684634,
              29.40681516021565
            ],
            [
              -84.53346310981372,
              29.44000631923761
            ],
            [
              -84.91399175906047,
              29.282449750682755
            ],
            [
              -85.17437984791225,
              29.29915663257841
            ],
            [
              -85.68460892611208,
              29.46759498758081
            ],
            [
              -85.72344750313837,
              29.653424985947463
            ],
            [
              -85.96634164550724,
              29.894930583775515
            ],
            [
              -86.47697752494051,
              30.10603567532834
            ],
            [
              -86.58618399956752,
              30.067262556321264
            ],
            [
              -85.96613006536494,
              30.580679741563028
            ],
            [
              -84.68710958718218,
              31.276717942492755
            ],
            [
              -84.00133872738417,
              31.776098198412814
            ],
            [
              -83.320332778948,
              32.68280882437714
            ],
            [
              -82.85405453580711,
              33.51094488151168
            ],
            [
              -82.61316470009896,
              34.21782045967588
            ],
            [
              -82.799896736943,
              34.502429511080905
            ],
            [
              -83.33956877605036,
              34.58686154990658
            ],
            [
              -83.8435123475914,
              34.48627832226021
            ],
            [
              -84.44688172159168,
              34.48099263660855
            ],
            [
              -84.6490904482752,
              34.67542918050131
            ],
            [
              -84.59452254686927,
              35.258441299492866
            ],
            [
              -84.14465179791848,
              35.90507942446747
            ],
            [
              -83.28566328301189,
              36.65698310678222
            ],
            [
              -82.69542394605097,
              36.929069674262294
            ],
            [
              -81.11518333584655,
              37.43473653933597
            ],
            [
              -79.0289411311103,
              38.55057418878816
            ],
            [
              -78.31877519211851,
              38.70680704957597
            ],
            [
              -76.96026431145663,
              38.614930197418694
            ],
            [
              -76.39353547185988,
              38.91179011977811
            ],
            [
              -76.09693638627004,
              39.28187396606822
            ],
            [
              -75.67609321184118,
              40.305129511126275
            ],
            [
              -73.75372412304537,
              43.09110588407874
            ],
            [
              -73.5244108276462,
              43.58993878286269
            ],
            [
              -73.29043404851089,
              45.17222380564415
            ],
            [
              -71.88555073461235,
              45.137713181158034
            ],
            [
              -71.68729886891155,
              45.19936157449628
            ],
            [
              -71.56368609436876,
              45.4449145239306
            ],
            [
              -70.91366164768066,
              45.579717800497654
            ],
            [
              -70.57622010939406,
              45.92610409675092
            ],
            [
              -70.223124011811,
              46.78530386514592
            ],
            [
              -69.36321849579707,
              47.61692557619974
            ],
            [
              -68.52010158572003,
              47.46428406925875
            ],
            [
              -68.22797322951953,
              47.59611889672744
            ],
            [
              -67.65686742395188,
              47.17427021222508
            ],
            [
              -67.4804491690983,
              46.50364932003513
            ],
            [
              -67.55774921842674,
              45.82209336517042
            ],
            [
              -67.24914242920676,
              45.60386279836561
            ],
            [
              -67.18057241058808,
              45.42068924624156
            ],
            [
              -66.95442564786461,
              45.343055660791535
            ],
            [
              -66.6899599487325,
              44.77949309545812
            ],
            [
              -67.23826018804331,
              44.379432096049186
            ],
            [
              -67.29921538641231,
              44.1690468673581
            ],
            [
              -68.19409450383115,
              43.81603555294271
            ],
            [
              -68.3697914904479,
              43.84134327804543
            ],
            [
              -68.8602961015326,
              43.603499387071416
            ],
            [
              -69.72092454783335,
              43.327483995658945
            ],
            [
              -70.10930004617522,
              42.9850581797129
            ],
            [
              -69.85485072207551,
              42.33177992011856
            ],
            [
              -69.480651749618,
              41.92469703007804
            ],
            [
              -69.58985992783097,
              41.49577382473789
            ],
            [
              -69.51885318512674,
              41.30758668441631
            ],
            [
              -69.64106716384632,
              41.057617687804694
            ],
            [
              -69.97060606645945,
              40.92507989268513
            ],
            [
              -70.37002540716928,
              40.980953857927666
            ],
            [
              -71.02922283131235,
              40.937482386212295
            ],
            [
              -72.80244941169983,
              40.366731580764885
            ],
            [
              -73.67298123944643,
              40.20771864327401
            ],
            [
              -73.85341372196022,
              39.51538921313792
            ],
            [
              -74.15853207390785,
              39.14956486953465
            ],
            [
              -74.70327736720743,
              38.72152557532674
            ],
            [
              -74.81286030368888,
              38.15090576064143
            ],
            [
              -75.66100038532956,
              36.94365311235639
            ],
            [
              -75.1544672557628,
              35.70802908591141
            ],
            [
              -75.2825951709062,
              34.9969144108118
            ],
            [
              -75.68750146652499,
              34.90775557746928
            ],
            [
              -76.21169746698526,
              34.4240113310797
            ],
            [
              -76.51309507796557,
              34.27554934724023
            ],
            [
              -76.76864650647587,
              34.395268525245044
            ],
            [
              -77.11486706439331,
              34.297165663611125
            ],
            [
              -77.5412988933626,
              34.025999103894556
            ],
            [
              -77.64390130445592,
              33.71848101879983
            ],
            [
              -77.77339189423618,
              33.594818203961296
            ],
            [
              -77.94830693276285,
              33.522282812135245
            ],
            [
              -78.21036025873504,
              33.59520142264277
            ],
            [
              -78.49252021324526,
              33.53320121815604
            ],
            [
              -78.85266302286722,
              33.29740433841915
            ],
            [
              -78.95741378027536,
              32.943546965180765
            ],
            [
              -80.49445341643577,
              31.950699855526654
            ],
            [
              -80.80478819113524,
              31.613784504858923
            ],
            [
              -81.12021116667621,
              30.77425779181026
            ],
            [
              -81.06926742590505,
              30.312625737486528
            ],
            [
              -80.75520059408946,
              29.414626373216457
            ],
            [
              -80.22831009726261,
              28.585879083976433
            ],
            [
              -80.27895736516328,
              28.177831850492325
            ],
            [
              -79.78954500432337,
              27.119579459547793
            ],
            [
              -79.72225018624539,
              26.83709996097543
            ],
            [
              -79.7917199942816,
              25.878856364606552
            ],
            [
              -79.91545384251842,
              25.293733558916493
            ],
            [
              -80.17146254650426,
              24.859740330306195
            ],
            [
              -80.670873277322,
              24.494230782657368
            ],
            [
              -81.34523456764205,
              24.32817979336928
            ],
            [
              -81.33545752185424,
              24.879240944397786
            ],
            [
              -81.0523945929316,
              25.587888356771096
            ],
            [
              -80.98443982807837,
              26.178610391422133
            ]
          ],
          [
            [
              -82.00754372010257,
              29.021052440114033
            ],
            [
              -81.95748140613857,
              29.474567829914154
            ],
            [
              -82.02660978492538,
              29.80058197622313
            ],
            [
              -82.11110437820432,
              29.990499583776536
            ],
            [
              -82.45343033371378,
              30.2473385029158
            ],
            [
              -83.29260934400165,
              30.312335576737812
            ],
            [
              -83.67323176896801,
              30.20335779198461
            ],
            [
              -84.07065173413095,
              29.91156576568421
            ],
            [
              -84.42149836220058,
              29.524709022238454
            ],
            [
              -84.4250824477186,
              29.47896364412235
            ],
            [
              -84.08704660242334,
              29.72971841276218
            ],
            [
              -83.88239405729021,
              29.66955933444502
            ],
            [
              -83.31954023357689,
              28.988457089996903
            ],
            [
              -83.28114428453334,
              28.84829716069387
            ],
            [
              -82.97944458156196,
              28.733563113874293
            ],
            [
              -82.94614275006674,
              28.54785858865237
            ],
            [
              -83.06292116735086,
              28.419159271639067
            ],
            [
              -82.69685947930883,
              28.43609180289416
            ],
            [
              -82.18773543876488,
              28.807169050188325
            ],
            [
              -82.00754372010257,
              29.021052440114033
            ]
          ],
          [
            [
              -84.4812144670172,
              29.437848242594523
            ],
            [
              -84.48177629627955,
              29.437429333998146
            ],
            [
              -84.48090752640435,
              29.437370542537654
            ],
            [
              -84.4812144670172,
              29.437848242594523
            ]
          ],
          [
            [
              -74.45494431590946,
              39.40809679504254
            ],
            [
              -73.80960715862403,
              39.7335111780798
            ],
            [
              -73.71091578430789,
              40.212311786084356
            ],
            [
              -73.27580691752536,
              40.33744159252187
            ],
            [
              -72.94531012147365,
              40.78619422801263
            ],
            [
              -72.07466341093526,
              41.52013962316488
            ],
            [
              -71.59940291106233,
              42.03473924523488
            ],
            [
              -71.422954418685,
              42.277108343589894
            ],
            [
              -71.33100920526596,
              42.66239208799479
            ],
            [
              -71.48551477390504,
              42.77092548156891
            ],
            [
              -72.02959836096917,
              42.75201334394371
            ],
            [
              -72.85460834343526,
              42.54571879935869
            ],
            [
              -73.59767312390778,
              42.149515216668604
            ],
            [
              -74.43622475576815,
              41.54050488828219
            ],
            [
              -74.96926492479109,
              40.93690956359008
            ],
            [
              -75.54555022433225,
              40.06840058514022
            ],
            [
              -75.58716424514657,
              39.53828059949777
            ],
            [
              -75.1670217499257,
              39.311918645605914
            ],
            [
              -74.45494431590946,
              39.40809679504254
            ]
          ]
        ]
      }
    },
    {
      "type": "Feature",
      "properties": {
        "dn": 1,
        "PRODUCT": "Day 1 Excessive Rainfall Potential Forecast",
        "VALID_TIME": "16Z 08/03/26 - 12Z 08/04/26",
        "OUTLOOK": "Marginal (At Least 5%)",
        "ISSUE_TIME": "2026-08-03 15:48:00",
        "START_TIME": "2026-08-03 16:00:00",
        "END_TIME": "2026-08-04 12:00:00",
        "Snippet": "16Z 08/03/26 - 12Z 08/04/26",
        "risk_norm": "MARGINAL"
      },
      "geometry": {
        "type": "MultiPolygon",
        "coordinates": [
          [
            [
              [
                -112.17728432569791,
                31.47040305005916
              ],
              [
                -113.03051667452813,
                31.772449740097063
              ],
              [
                -113.012990810649,
                32.00321941767805
              ],
              [
                -112.78910545311166,
                32.30364990534523
              ],
              [
                -111.5310782437368,
                32.94054011513504
              ],
              [
                -111.29685022431394,
                33.1913088338888
              ],
              [
                -111.18746881927974,
                33.56642648100458
              ],
              [
                -111.35213625113317,
                34.32252058611504
              ],
              [
                -111.26899847384509,
                34.51325537335465
              ],
              [
                -110.58840212920225,
                34.760705797149264
              ],
              [
                -109.77775437137548,
                34.88083282758308
              ],
              [
                -109.28130252930502,
                34.87939648941786
              ],
              [
                -108.37057928237547,
                34.63925809463568
              ],
              [
                -107.22641720231174,
                34.728342242476266
              ],
              [
                -105.32819261544742,
                34.99366040742465
              ],
              [
                -105.050479700038,
                34.96568986455178
              ],
              [
                -104.81850150360344,
                34.84342622653597
              ],
              [
                -104.68178497845216,
                34.535579350267646
              ],
              [
                -104.69722570538846,
                34.08280789555245
              ],
              [
                -105.13833843076208,
                32.92349311645695
              ],
              [
                -105.42851238134618,
                32.540879602890044
              ],
              [
                -105.58492705686676,
                32.48521284121631
              ],
              [
                -105.74969079625028,
                32.51968630387142
              ],
              [
                -105.99099282653319,
                32.77678336852254
              ],
              [
                -106.39227602400133,
                33.02039774624512
              ],
              [
                -106.65627183194395,
                32.956130432123224
              ],
              [
                -106.9641246406176,
                32.7972904718316
              ],
              [
                -107.30417754090735,
                32.4542947581317
              ],
              [
                -107.41538872167663,
                31.990619647819912
              ],
              [
                -107.37736352839907,
                31.628270072508826
              ],
              [
                -107.96578444528456,
                31.62688053767055
              ],
              [
                -108.06062585381395,
                31.52882876890281
              ],
              [
                -108.07866176117668,
                31.20713454245347
              ],
              [
                -108.97623571561925,
                31.13024758539512
              ],
              [
                -109.93434617983108,
                31.13566506526245
              ],
              [
                -109.83685519201138,
                31.189640490627436
              ],
              [
                -109.76018377143978,
                31.425213723975133
              ],
              [
                -109.77676329903966,
                31.971363930901795
              ],
              [
                -110.13764295441936,
                32.25720879301182
              ],
              [
                -110.36264904936765,
                32.326921593118804
              ],
              [
                -110.74773606946341,
                32.380641977353996
              ],
              [
                -111.48641380243306,
                32.26045014806921
              ],
              [
                -111.93804983000075,
                32.03037878750907
              ],
              [
                -112.24863470978315,
                31.58495861120094
              ],
              [
                -112.18176829486549,
                31.500421410696195
              ],
              [
                -111.32934440259473,
                31.242649671196414
              ],
              [
                -112.17728432569791,
                31.47040305005916
              ]
            ]
          ],
          [
            [
              [
                -110.95246701233582,
                31.141421864001877
              ],
              [
                -111.27292651389465,
                31.227496044825433
              ],
              [
                -110.73964644654218,
                31.1475647572386
              ],
              [
                -110.07218834017998,
                31.13644447135022
              ],
              [
                -110.95246701233582,
                31.141421864001877
              ]
            ]
          ]
        ]
      }
    },
    {
      "type": "Feature",
      "properties": {
        "dn": 1,
        "PRODUCT": "Day 1 Excessive Rainfall Potential Forecast",
        "VALID_TIME": "16Z 08/03/26 - 12Z 08/04/26",
        "OUTLOOK": "Marginal (At Least 5%)",
        "ISSUE_TIME": "2026-08-03 15:48:00",
        "START_TIME": "2026-08-03 16:00:00",
        "END_TIME": "2026-08-04 12:00:00",
        "Snippet": "16Z 08/03/26 - 12Z 08/04/26",
        "risk_norm": "MARGINAL"
      },
      "geometry": {
        "type": "Polygon",
        "coordinates": [
          [
            [
              -98.894898866511,
              42.61623847077888
            ],
            [
              -99.31261335284957,
              42.69468345554022
            ],
            [
              -99.67886777136769,
              42.94616811019713
            ],
            [
              -99.75046641790324,
              43.20434997745345
            ],
            [
              -97.368443392772,
              45.35534371232512
            ],
            [
              -97.01708377338129,
              45.955217017880095
            ],
            [
              -97.2111943435746,
              46.41948081725865
            ],
            [
              -98.02927427701313,
              47.04198773271106
            ],
            [
              -98.485379176605,
              47.66485403207695
            ],
            [
              -98.51115779783977,
              48.33319343006318
            ],
            [
              -98.09991824641219,
              49.12901383938982
            ],
            [
              -95.50672436238419,
              49.15240911350793
            ],
            [
              -95.44536366674684,
              49.524275311148095
            ],
            [
              -94.61988896219992,
              49.52440426284683
            ],
            [
              -94.43159410122591,
              48.98581077106259
            ],
            [
              -94.24421805023145,
              48.903142092357385
            ],
            [
              -93.61563975877733,
              48.77541400180068
            ],
            [
              -93.11109855296515,
              48.81290701903468
            ],
            [
              -92.67239385498338,
              48.725376907788096
            ],
            [
              -91.55442826900217,
              48.33514599289284
            ],
            [
              -90.795873008094,
              48.44509078294555
            ],
            [
              -91.86747785598924,
              46.49159725748592
            ],
            [
              -92.37294330702852,
              45.99042115676876
            ],
            [
              -96.48459878576125,
              43.214947275007276
            ],
            [
              -97.71880861297211,
              42.76759628421394
            ],
            [
              -98.894898866511,
              42.61623847077888
            ]
          ]
        ]
      }
    },
    {
      "type": "Feature",
      "properties": {
        "dn": 2,
        "PRODUCT": "Day 1 Excessive Rainfall Potential Forecast",
        "VALID_TIME": "16Z 08/03/26 - 12Z 08/04/26",
        "OUTLOOK": "Slight (At Least 15%)",
        "ISSUE_TIME": "2026-08-03 15:48:00",
        "START_TIME": "2026-08-03 16:00:00",
        "END_TIME": "2026-08-04 12:00:00",
        "Snippet": "16Z 08/03/26 - 12Z 08/04/26",
        "risk_norm": "SLIGHT"
      },
      "geometry": {
        "type": "Polygon",
        "coordinates": [
          [
            [
              -83.06292116735086,
              28.419159271639067
            ],
            [
              -82.94614275006674,
              28.54785858865237
            ],
            [
              -82.97944458156196,
              28.733563113874293
            ],
            [
              -83.28114428453334,
              28.84829716069387
            ],
            [
              -83.31954023357689,
              28.988457089996903
            ],
            [
              -83.88239405729021,
              29.66955933444502
            ],
            [
              -84.08704660242334,
              29.72971841276218
            ],
            [
              -84.4250824477186,
              29.47896364412235
            ],
            [
              -84.42149836220058,
              29.524709022238454
            ],
            [
              -84.07065173413095,
              29.91156576568421
            ],
            [
              -83.67323176896801,
              30.20335779198461
            ],
            [
              -83.29260934400165,
              30.312335576737812
            ],
            [
              -82.45343033371378,
              30.2473385029158
            ],
            [
              -82.11110437820432,
              29.990499583776536
            ],
            [
              -82.02660978492538,
              29.80058197622313
            ],
            [
              -81.95748140613857,
              29.474567829914154
            ],
            [
              -82.00754372010257,
              29.021052440114033
            ],
            [
              -82.18773543876488,
              28.807169050188325
            ],
            [
              -82.69685947930883,
              28.43609180289416
            ],
            [
              -83.06292116735086,
              28.419159271639067
            ]
          ]
        ]
      }
    },
    {
      "type": "Feature",
      "properties": {
        "dn": 2,
        "PRODUCT": "Day 1 Excessive Rainfall Potential Forecast",
        "VALID_TIME": "16Z 08/03/26 - 12Z 08/04/26",
        "OUTLOOK": "Slight (At Least 15%)",
        "ISSUE_TIME": "2026-08-03 15:48:00",
        "START_TIME": "2026-08-03 16:00:00",
        "END_TIME": "2026-08-04 12:00:00",
        "Snippet": "16Z 08/03/26 - 12Z 08/04/26",
        "risk_norm": "SLIGHT"
      },
      "geometry": {
        "type": "Polygon",
        "coordinates": [
          [
            [
              -84.48177629627955,
              29.437429333998146
            ],
            [
              -84.4812144670172,
              29.437848242594523
            ],
            [
              -84.48090752640435,
              29.437370542537654
            ],
            [
              -84.48177629627955,
              29.437429333998146
            ]
          ]
        ]
      }
    },
    {
      "type": "Feature",
      "properties": {
        "dn": 2,
        "PRODUCT": "Day 1 Excessive Rainfall Potential Forecast",
        "VALID_TIME": "16Z 08/03/26 - 12Z 08/04/26",
        "OUTLOOK": "Slight (At Least 15%)",
        "ISSUE_TIME": "2026-08-03 15:48:00",
        "START_TIME": "2026-08-03 16:00:00",
        "END_TIME": "2026-08-04 12:00:00",
        "Snippet": "16Z 08/03/26 - 12Z 08/04/26",
        "risk_norm": "SLIGHT"
      },
      "geometry": {
        "type": "Polygon",
        "coordinates": [
          [
            [
              -109.937006390458,
              31.13419225220189
            ],
            [
              -110.73964644654218,
              31.1475647572386
            ],
            [
              -111.28543081305303,
              31.22937026588354
            ],
            [
              -112.18176829486549,
              31.500421410696195
            ],
            [
              -112.24863470978315,
              31.58495861120094
            ],
            [
              -111.93804983000075,
              32.03037878750907
            ],
            [
              -111.48641380243306,
              32.26045014806921
            ],
            [
              -110.74773606946341,
              32.380641977353996
            ],
            [
              -110.36264904936765,
              32.326921593118804
            ],
            [
              -110.13764295441936,
              32.25720879301182
            ],
            [
              -109.77676329903966,
              31.971363930901795
            ],
            [
              -109.76018377143978,
              31.425213723975133
            ],
            [
              -109.83685519201138,
              31.189640490627436
            ],
            [
              -109.937006390458,
              31.13419225220189
            ]
          ]
        ]
      }
    },
    {
      "type": "Feature",
      "properties": {
        "dn": 2,
        "PRODUCT": "Day 1 Excessive Rainfall Potential Forecast",
        "VALID_TIME": "16Z 08/03/26 - 12Z 08/04/26",
        "OUTLOOK": "Slight (At Least 15%)",
        "ISSUE_TIME": "2026-08-03 15:48:00",
        "START_TIME": "2026-08-03 16:00:00",
        "END_TIME": "2026-08-04 12:00:00",
        "Snippet": "16Z 08/03/26 - 12Z 08/04/26",
        "risk_norm": "SLIGHT"
      },
      "geometry": {
        "type": "Polygon",
        "coordinates": [
          [
            [
              -75.1670217499257,
              39.311918645605914
            ],
            [
              -75.58716424514657,
              39.53828059949777
            ],
            [
              -75.54555022433225,
              40.06840058514022
            ],
            [
              -74.96926492479109,
              40.93690956359008
            ],
            [
              -74.43622475576815,
              41.54050488828219
            ],
            [
              -73.59767312390778,
              42.149515216668604
            ],
            [
              -72.85460834343526,
              42.54571879935869
            ],
            [
              -72.02959836096917,
              42.75201334394371
            ],
            [
              -71.48551477390504,
              42.77092548156891
            ],
            [
              -71.33100920526596,
              42.66239208799479
            ],
            [
              -71.422954418685,
              42.277108343589894
            ],
            [
              -71.59940291106233,
              42.03473924523488
            ],
            [
              -72.07466341093526,
              41.52013962316488
            ],
            [
              -72.94531012147365,
              40.78619422801263
            ],
            [
              -73.27580691752536,
              40.33744159252187
            ],
            [
              -73.71091578430789,
              40.212311786084356
            ],
            [
              -73.80960715862403,
              39.7335111780798
            ],
            [
              -74.45494431590946,
              39.40809679504254
            ],
            [
              -75.1670217499257,
              39.311918645605914
            ]
          ]
        ]
      }
    }
  ]
}
