{
  "type": "FeatureCollection",
  "features": [
    {
      "type": "Feature",
      "properties": {
        "dn": 1,
        "PRODUCT": "Day 2 Excessive Rainfall Potential Forecast",
        "VALID_TIME": "12Z 08/04/26 - 12Z 08/05/26",
        "OUTLOOK": "Marginal (At Least 5%)",
        "ISSUE_TIME": "2026-08-03 08:09:00",
        "START_TIME": "2026-08-04 12:00:00",
        "END_TIME": "2026-08-05 12:00:00",
        "Snippet": "12Z 08/04/26 - 12Z 08/05/26",
        "risk_norm": "MARGINAL"
      },
      "geometry": {
        "type": "Polygon",
        "coordinates": [
          [
            [
              -110.95246701233582,
              31.141421864001877
            ],
            [
              -111.95286767207043,
              31.40311830580093
            ],
            [
              -113.09048163966203,
              31.811386730393764
            ],
            [
              -112.94938089407339,
              32.28477410182697
            ],
            [
              -112.72477727220176,
              32.58492034557491
            ],
            [
              -112.57886968142623,
              32.69233028370803
            ],
            [
              -111.28296111912438,
              33.10253382179256
            ],
            [
              -111.09514443047054,
              33.30261619520269
            ],
            [
              -111.09269914323616,
              33.66683061740143
            ],
            [
              -111.25229357886977,
              34.01458137473751
            ],
            [
              -111.30273988680874,
              34.7357683100298
            ],
            [
              -111.04934005374271,
              34.897583713895834
            ],
            [
              -110.6680716640422,
              34.93432222349591
            ],
            [
              -109.90512912498602,
              34.597633464701
            ],
            [
              -109.17526301989876,
              34.48116340220048
            ],
            [
              -108.63722912077188,
              34.572070122098644
            ],
            [
              -107.64370072155123,
              35.01313147505564
            ],
            [
              -107.18124768130677,
              35.31867564586959
            ],
            [
              -106.78661026369878,
              35.75187021024004
            ],
            [
              -106.57259428514634,
              36.35155854288988
            ],
            [
              -106.3984572596159,
              37.349890945780054
            ],
            [
              -106.21199613317486,
              37.71996429045364
            ],
            [
              -105.56408314973542,
              38.02985880904589
            ],
            [
              -104.83649766575874,
              38.11761895340129
            ],
            [
              -103.4589907629431,
              37.87895334701666
            ],
            [
              -102.66814014590506,
              37.871551660477756
            ],
            [
              -102.03918932013576,
              37.763919231559335
            ],
            [
              -101.85345934110481,
              37.503865691118065
            ],
            [
              -101.83082580585227,
              37.14754437927017
            ],
            [
              -102.1436450492867,
              36.77599011988644
            ],
            [
              -104.07999543808495,
              35.875233213254
            ],
            [
              -104.60438677319887,
              35.53101406116403
            ],
            [
              -105.10401753779422,
              34.96152038230708
            ],
            [
              -105.3610052967182,
              34.177742047736
            ],
            [
              -105.11675592229328,
              33.28762921786134
            ],
            [
              -105.13431316941829,
              32.87837450629879
            ],
            [
              -105.37497114268487,
              32.54434934098262
            ],
            [
              -105.64264457997825,
              32.52682213269997
            ],
            [
              -106.35616929168353,
              32.65965659003517
            ],
            [
              -107.31001621627861,
              32.498416028350654
            ],
            [
              -107.50800526643316,
              32.3475220539815
            ],
            [
              -107.59485890939403,
              32.15866131262757
            ],
            [
              -107.59351995589569,
              31.65775518619254
            ],
            [
              -107.96578444528456,
              31.62688053767055
            ],
            [
              -108.06062585381395,
              31.52882876890281
            ],
            [
              -108.07866176117668,
              31.20713454245347
            ],
            [
              -108.97623571561925,
              31.13024758539512
            ],
            [
              -110.95246701233582,
              31.141421864001877
            ]
          ],
          [
            [
              -109.08683917518837,
              31.166994357441897
            ],
            [
              -109.01414580118042,
              31.447365972538407
            ],
            [
              -109.08588602240832,
              32.0339656370872
            ],
            [
              -109.40841679768042,
              32.460866335555586
            ],
            [
              -109.87686566652108,
              32.73733883176781
            ],
            [
              -110.19758557033028,
              32.70728799438388
            ],
            [
              -110.49972862898797,
              32.541652239845824
            ],
            [
              -111.36869484863082,
              31.81588007534862
            ],
            [
              -112.01728855259861,
              31.47275756257225
            ],
            [
              -110.9566209730521,
              31.171493167955166
            ],
            [
              -109.08683917518837,
              31.166994357441897
            ]
          ]
        ]
      }
    },
    {
      "type": "Feature",
      "properties": {
        "dn": 1,
        "PRODUCT": "Day 2 Excessive Rainfall Potential Forecast",
        "VALID_TIME": "12Z 08/04/26 - 12Z 08/05/26",
        "OUTLOOK": "Marginal (At Least 5%)",
        "ISSUE_TIME": "2026-08-03 08:09:00",
        "START_TIME": "2026-08-04 12:00:00",
        "END_TIME": "2026-08-05 12:00:00",
        "Snippet": "12Z 08/04/26 - 12Z 08/05/26",
        "risk_norm": "MARGINAL"
      },
      "geometry": {
        "type": "Polygon",
        "coordinates": [
          [
            [
              -80.49562980742597,
              31.949895056919985
            ],
            [
              -81.55403250554969,
              32.99846515921382
            ],
            [
              -82.37279950286572,
              33.42788924645931
            ],
            [
              -82.80400062966453,
              33.4609212209051
            ],
            [
              -83.66744963383917,
              32.97921261329069
            ],
            [
              -84.11028241135266,
              32.873560697092785
            ],
            [
              -84.91187486018148,
              32.97110096326339
            ],
            [
              -85.6888910972627,
              33.380345278083304
            ],
            [
              -86.19459928941427,
              33.86203266767006
            ],
            [
              -86.33294468582517,
              34.18584608588943
            ],
            [
              -86.29095817375911,
              34.725343584807135
            ],
            [
              -85.56450223164063,
              36.17092872360018
            ],
            [
              -85.00532800030483,
              36.81151061675621
            ],
            [
              -84.41303092597869,
              37.134726921236734
            ],
            [
              -84.00897579890116,
              37.24334617072178
            ],
            [
              -79.37819236942455,
              37.73250833190621
            ],
            [
              -78.85524317692163,
              37.818324938807955
            ],
            [
              -77.18109737462119,
              38.32452451142888
            ],
            [
              -76.41367818904354,
              38.46727761991589
            ],
            [
              -75.84470644694704,
              38.44967529502534
            ],
            [
              -75.36469656667488,
              38.2608683395826
            ],
            [
              -74.9579161400417,
              37.988162699941505
            ],
            [
              -75.67687689907939,
              36.85521520589135
            ],
            [
              -75.1544672557628,
              35.70802908591141
            ],
            [
              -75.2825951709062,
              34.9969144108118
            ],
            [
              -75.68750146652499,
              34.90775557746928
            ],
            [
              -76.21169746698526,
              34.4240113310797
            ],
            [
              -76.51309507796557,
              34.27554934724023
            ],
            [
              -76.76864650647587,
              34.395268525245044
            ],
            [
              -77.11486706439331,
              34.297165663611125
            ],
            [
              -77.5412988933626,
              34.025999103894556
            ],
            [
              -77.64390130445592,
              33.71848101879983
            ],
            [
              -77.77339189423618,
              33.594818203961296
            ],
            [
              -77.94830693276285,
              33.522282812135245
            ],
            [
              -78.21036025873504,
              33.59520142264277
            ],
            [
              -78.49252021324526,
              33.53320121815604
            ],
            [
              -78.85266302286722,
              33.29740433841915
            ],
            [
              -78.95741378027536,
              32.943546965180765
            ],
            [
              -80.49562980742597,
              31.949895056919985
            ]
          ]
        ]
      }
    },
    {
      "type": "Feature",
      "properties": {
        "dn": 1,
        "PRODUCT": "Day 2 Excessive Rainfall Potential Forecast",
        "VALID_TIME": "12Z 08/04/26 - 12Z 08/05/26",
        "OUTLOOK": "Marginal (At Least 5%)",
        "ISSUE_TIME": "2026-08-03 08:09:00",
        "START_TIME": "2026-08-04 12:00:00",
        "END_TIME": "2026-08-05 12:00:00",
        "Snippet": "12Z 08/04/26 - 12Z 08/05/26",
        "risk_norm": "MARGINAL"
      },
      "geometry": {
        "type": "Polygon",
        "coordinates": [
          [
            [
              -99.09352196549511,
              40.24972015648742
            ],
            [
              -100.72050447503825,
              40.46888979737359
            ],
            [
              -101.83982676651846,
              40.781247538104616
            ],
            [
              -102.85661499251822,
              41.17861915681867
            ],
            [
              -103.22379192958479,
              41.382325109417465
            ],
            [
              -103.66813198606265,
              41.79934204508226
            ],
            [
              -103.948011704822,
              42.30981434682912
            ],
            [
              -103.92804328695289,
              42.74625495462502
            ],
            [
              -103.70251768586012,
              42.88830082449896
            ],
            [
              -103.3482624183119,
              42.90464215223235
            ],
            [
              -100.94750209257943,
              42.389066674295584
            ],
            [
              -99.47679492500586,
              42.4308345362082
            ],
            [
              -97.8357616846091,
              42.72416838696047
            ],
            [
              -95.29772292438639,
              43.26562544982203
            ],
            [
              -91.5869341946149,
              44.097738289435355
            ],
            [
              -89.40060543013045,
              44.60443766494436
            ],
            [
              -88.01470864584128,
              44.601530773628745
            ],
            [
              -87.6005159011275,
              44.499951000481964
            ],
            [
              -87.37612736469835,
              44.2751665144216
            ],
            [
              -87.78349216190546,
              43.644323573482815
            ],
            [
              -88.87394308935663,
              42.42584859894082
            ],
            [
              -89.54838283506714,
              41.966969841034974
            ],
            [
              -90.1488175975142,
              41.67833209816692
            ],
            [
              -92.1576549378971,
              40.93316255311536
            ],
            [
              -93.61342831745195,
              40.55528157479923
            ],
            [
              -95.11616931777601,
              40.340830993011934
            ],
            [
              -99.09352196549511,
              40.24972015648742
            ]
          ]
        ]
      }
    },
    {
      "type": "Feature",
      "properties": {
        "dn": 2,
        "PRODUCT": "Day 2 Excessive Rainfall Potential Forecast",
        "VALID_TIME": "12Z 08/04/26 - 12Z 08/05/26",
        "OUTLOOK": "Slight (At Least 15%)",
        "ISSUE_TIME": "2026-08-03 08:09:00",
        "START_TIME": "2026-08-04 12:00:00",
        "END_TIME": "2026-08-05 12:00:00",
        "Snippet": "12Z 08/04/26 - 12Z 08/05/26",
        "risk_norm": "SLIGHT"
      },
      "geometry": {
        "type": "Polygon",
        "coordinates": [
          [
            [
              -110.9566209730521,
              31.171493167955166
            ],
            [
              -112.01728855259861,
              31.47275756257225
            ],
            [
              -111.36869484863082,
              31.81588007534862
            ],
            [
              -110.49972862898797,
              32.541652239845824
            ],
            [
              -110.19758557033028,
              32.70728799438388
            ],
            [
              -109.87686566652108,
              32.73733883176781
            ],
            [
              -109.40841679768042,
              32.460866335555586
            ],
            [
              -109.08588602240832,
              32.0339656370872
            ],
            [
              -109.01414580118042,
              31.447365972538407
            ],
            [
              -109.08683917518837,
              31.166994357441897
            ],
            [
              -110.9566209730521,
              31.171493167955166
            ]
          ]
        ]
      }
    }
  ]
}
