{
  "type": "FeatureCollection",
  "features": [
    {
      "type": "Feature",
      "properties": {
        "dn": 1,
        "PRODUCT": "Day 1 Excessive Rainfall Potential Forecast",
        "VALID_TIME": "16Z 07/29/26 - 12Z 07/30/26",
        "OUTLOOK": "Marginal (At Least 5%)",
        "ISSUE_TIME": "2026-07-29 15:48:00",
        "START_TIME": "2026-07-29 16:00:00",
        "END_TIME": "2026-07-30 12:00:00",
        "Snippet": "16Z 07/29/26 - 12Z 07/30/26",
        "risk_norm": "MARGINAL"
      },
      "geometry": {
        "type": "Polygon",
        "coordinates": [
          [
            [
              -83.50923166598811,
              29.18469465745956
            ],
            [
              -83.98262333699651,
              29.721758924327382
            ],
            [
              -84.08710279402948,
              29.729113279407834
            ],
            [
              -84.4813360692646,
              29.436485842805258
            ],
            [
              -85.09178043555802,
              29.659258522747574
            ],
            [
              -85.94882758691251,
              30.12198258110611
            ],
            [
              -87.41267453993085,
              31.110414667802868
            ],
            [
              -89.85944451641332,
              32.20761268100313
            ],
            [
              -92.24891428363941,
              33.08148199367609
            ],
            [
              -93.37475789663885,
              33.593866403161954
            ],
            [
              -94.02160278547935,
              34.00528104784951
            ],
            [
              -94.45545281774746,
              34.50406035612914
            ],
            [
              -94.61612010381997,
              35.44903497082936
            ],
            [
              -95.33577798267903,
              36.52490322100095
            ],
            [
              -96.19103107454877,
              38.39308037398311
            ],
            [
              -96.5953698313706,
              38.921989270766886
            ],
            [
              -97.34985954426453,
              39.576896359602216
            ],
            [
              -97.60528986821454,
              40.63039992533979
            ],
            [
              -97.617579590666,
              41.11279754024041
            ],
            [
              -97.50888858257527,
              41.42077751964702
            ],
            [
              -96.9314727012918,
              41.77827173544356
            ],
            [
              -96.16893957249687,
              41.610113285473055
            ],
            [
              -95.81592845353886,
              41.436343344658034
            ],
            [
              -95.17270308752268,
              40.34166469800609
            ],
            [
              -94.65557721156794,
              39.724662532060975
            ],
            [
              -93.9778381910877,
              38.660387411212874
            ],
            [
              -93.4815965259394,
              37.634487124787476
            ],
            [
              -91.45744207108088,
              35.95130605684535
            ],
            [
              -89.93946211620562,
              35.23850111232796
            ],
            [
              -86.9941166571304,
              34.084905938172255
            ],
            [
              -86.73240241451299,
              33.93629562654054
            ],
            [
              -85.42606471251516,
              32.641310765910404
            ],
            [
              -84.04905144947521,
              31.82580817049093
            ],
            [
              -82.44130330478256,
              31.34233181424903
            ],
            [
              -80.97677558591997,
              31.08132331265166
            ],
            [
              -81.13101592915555,
              30.68382020482289
            ],
            [
              -81.06926742590505,
              30.312625737486528
            ],
            [
              -80.66779153289181,
              29.26913607693574
            ],
            [
              -81.775376697649,
              29.229378870294365
            ],
            [
              -82.47024398939853,
              29.104093820397235
            ],
            [
              -83.50923166598811,
              29.18469465745956
            ]
          ]
        ]
      }
    },
    {
      "type": "Feature",
      "properties": {
        "dn": 1,
        "PRODUCT": "Day 1 Excessive Rainfall Potential Forecast",
        "VALID_TIME": "16Z 07/29/26 - 12Z 07/30/26",
        "OUTLOOK": "Marginal (At Least 5%)",
        "ISSUE_TIME": "2026-07-29 15:48:00",
        "START_TIME": "2026-07-29 16:00:00",
        "END_TIME": "2026-07-30 12:00:00",
        "Snippet": "16Z 07/29/26 - 12Z 07/30/26",
        "risk_norm": "MARGINAL"
      },
      "geometry": {
        "type": "Polygon",
        "coordinates": [
          [
            [
              -111.73417340776828,
              31.365735188000233
            ],
            [
              -111.6149122365827,
              31.652708117397438
            ],
            [
              -111.38162786710237,
              31.90637932447477
            ],
            [
              -110.45254897096912,
              32.592245407228546
            ],
            [
              -110.0324311290654,
              33.086581698846906
            ],
            [
              -109.85923002702094,
              33.42097472099328
            ],
            [
              -109.9306285662395,
              33.95951651740556
            ],
            [
              -110.19543373461715,
              34.29805597340918
            ],
            [
              -111.89943058146987,
              35.39961549975807
            ],
            [
              -113.08985892426314,
              35.54549926352729
            ],
            [
              -113.91681214680669,
              35.49838320391655
            ],
            [
              -114.28459683232965,
              35.68354874416913
            ],
            [
              -114.4418899470656,
              36.25398590816937
            ],
            [
              -114.18235101545793,
              37.32220018325899
            ],
            [
              -113.94299311764001,
              37.88891899427505
            ],
            [
              -112.95225734808548,
              38.757348212130644
            ],
            [
              -112.7864205994185,
              39.131833450829646
            ],
            [
              -112.13636268877572,
              39.73238897397256
            ],
            [
              -111.2003448437173,
              40.397870089231986
            ],
            [
              -110.36624702106623,
              40.64899080436762
            ],
            [
              -108.52391458380968,
              40.798325154977846
            ],
            [
              -107.31223314187379,
              41.36974810102073
            ],
            [
              -106.88978342091536,
              41.748138959932355
            ],
            [
              -106.59512845653627,
              42.24842671915803
            ],
            [
              -106.2828703599388,
              43.13910499114145
            ],
            [
              -106.1389615144538,
              43.97090141762768
            ],
            [
              -105.94392625065551,
              44.37063024762632
            ],
            [
              -105.27425884268892,
              44.881883115614706
            ],
            [
              -104.27920759845064,
              45.23263575843793
            ],
            [
              -103.42873633302345,
              45.229026395284926
            ],
            [
              -102.87375916011842,
              45.124226271181115
            ],
            [
              -101.99938371498432,
              44.772651462460736
            ],
            [
              -101.1819629199613,
              44.28474673623029
            ],
            [
              -100.79662398630222,
              43.86626565555154
            ],
            [
              -100.58064939438978,
              43.22458739130443
            ],
            [
              -100.68680675514214,
              43.004694486586736
            ],
            [
              -101.19221744339276,
              42.55415239104791
            ],
            [
              -101.35231821008102,
              42.28751955681918
            ],
            [
              -101.58315724749774,
              41.3182048535506
            ],
            [
              -102.22824631592023,
              40.54697573069037
            ],
            [
              -102.32183166603554,
              40.234888684043845
            ],
            [
              -102.16411000373223,
              39.623402891336994
            ],
            [
              -102.1909348810299,
              39.17977904488916
            ],
            [
              -102.86512294323697,
              38.262559192292635
            ],
            [
              -102.77946006921294,
              37.86564820272697
            ],
            [
              -102.23998621512749,
              37.39863266553234
            ],
            [
              -102.2161006337207,
              37.04221344801824
            ],
            [
              -102.36840505447866,
              36.811997435481004
            ],
            [
              -102.74028413656934,
              36.52577572746701
            ],
            [
              -105.83350977287277,
              35.09481819667492
            ],
            [
              -107.02381218080397,
              34.37975354536945
            ],
            [
              -107.6251488745266,
              33.881566058993606
            ],
            [
              -108.44648401083019,
              32.99933106820426
            ],
            [
              -108.61240051853196,
              32.57600951770117
            ],
            [
              -108.665214418373,
              32.11614806375885
            ],
            [
              -108.60584123738614,
              31.163518740595567
            ],
            [
              -110.73956450880605,
              31.14696319042524
            ],
            [
              -111.73417340776828,
              31.365735188000233
            ]
          ],
          [
            [
              -103.20490404430757,
              36.77303310314568
            ],
            [
              -102.87404865778092,
              36.83352858526661
            ],
            [
              -102.76848621459696,
              36.928352595328874
            ],
            [
              -102.84363486114772,
              37.19320512686652
            ],
            [
              -103.0218497913306,
              37.319400550058106
            ],
            [
              -103.42395093308903,
              37.43400617045472
            ],
            [
              -103.96813565804256,
              37.89678560163823
            ],
            [
              -103.87779199640461,
              38.16885076743388
            ],
            [
              -102.96586526389987,
              38.83524405191845
            ],
            [
              -102.75451788534146,
              39.06702252156621
            ],
            [
              -102.65359390207607,
              39.248727691976214
            ],
            [
              -102.6957113788255,
              39.8219139470228
            ],
            [
              -102.90441798788655,
              40.29804192775493
            ],
            [
              -103.22367059988633,
              40.679844370920385
            ],
            [
              -103.47341834166309,
              40.888456571492625
            ],
            [
              -104.19527089235362,
              41.16035882345554
            ],
            [
              -104.65513918306783,
              41.092329280776596
            ],
            [
              -104.9692251138691,
              40.72292565942998
            ],
            [
              -105.44816052349407,
              39.14826107619325
            ],
            [
              -105.36536568924797,
              38.308486004950545
            ],
            [
              -105.01224771441116,
              37.571096722430354
            ],
            [
              -104.94223319556275,
              36.81460315591694
            ],
            [
              -104.8182168860391,
              36.68695893386626
            ],
            [
              -103.20490404430757,
              36.77303310314568
            ]
          ]
        ]
      }
    },
    {
      "type": "Feature",
      "properties": {
        "dn": 1,
        "PRODUCT": "Day 1 Excessive Rainfall Potential Forecast",
        "VALID_TIME": "16Z 07/29/26 - 12Z 07/30/26",
        "OUTLOOK": "Marginal (At Least 5%)",
        "ISSUE_TIME": "2026-07-29 15:48:00",
        "START_TIME": "2026-07-29 16:00:00",
        "END_TIME": "2026-07-30 12:00:00",
        "Snippet": "16Z 07/29/26 - 12Z 07/30/26",
        "risk_norm": "MARGINAL"
      },
      "geometry": {
        "type": "MultiPolygon",
        "coordinates": [
          [
            [
              [
                -69.98359618742414,
                42.614875929189935
              ],
              [
                -69.51630353280504,
                42.01849821459206
              ],
              [
                -69.45603368199457,
                41.78797503447341
              ],
              [
                -69.58985992783097,
                41.49577382473789
              ],
              [
                -69.56231779786224,
                41.13554721821157
              ],
              [
                -69.7780959116242,
                40.98703615248601
              ],
              [
                -70.34902496383135,
                41.06716347504545
              ],
              [
                -71.28111093768867,
                41.371523220548276
              ],
              [
                -72.200266758145,
                41.49092763736987
              ],
              [
                -73.2834481596216,
                41.403830870413906
              ],
              [
                -74.21401824311728,
                41.46982033700601
              ],
              [
                -74.87170025281357,
                41.721368858273124
              ],
              [
                -75.17715474489775,
                41.97653929882843
              ],
              [
                -75.20610941688304,
                42.72711271286683
              ],
              [
                -75.66506474219882,
                43.12636807023953
              ],
              [
                -75.8835778893464,
                43.542137986787836
              ],
              [
                -75.96040155783423,
                44.072424316430734
              ],
              [
                -75.89309708380073,
                44.41288267379888
              ],
              [
                -75.50968085311139,
                44.8068952907838
              ],
              [
                -75.23449423476409,
                44.95232171467487
              ],
              [
                -73.91546657689788,
                45.113490397119236
              ],
              [
                -71.66772734265075,
                45.02436653397105
              ],
              [
                -71.07891447494532,
                45.1681251221072
              ],
              [
                -69.82910252664749,
                45.00659351988705
              ],
              [
                -68.92592476649925,
                44.709822916927976
              ],
              [
                -68.19337949840599,
                44.2566509271292
              ],
              [
                -67.8525550733421,
                43.94308343525315
              ],
              [
                -68.19409450383115,
                43.81603555294271
              ],
              [
                -68.3697914904479,
                43.84134327804543
              ],
              [
                -68.8602961015326,
                43.603499387071416
              ],
              [
                -69.38446726864781,
                43.457021573511
              ],
              [
                -69.59796861197813,
                43.35749914343417
              ],
              [
                -70.5599710130838,
                43.836659679530335
              ],
              [
                -71.31421455353353,
                43.97789990162496
              ],
              [
                -71.51159670405748,
                43.91542372135263
              ],
              [
                -72.46471115087535,
                43.98933001813131
              ],
              [
                -73.53498784316419,
                43.81000999818822
              ],
              [
                -73.82734875213355,
                43.58103302512521
              ],
              [
                -74.41084146299718,
                42.815016420760315
              ],
              [
                -74.62862163942515,
                42.04788145126206
              ],
              [
                -74.40038597274109,
                41.71272157802992
              ],
              [
                -73.67719988279198,
                41.495798668402315
              ],
              [
                -73.14957662729083,
                41.47660331157996
              ],
              [
                -72.11324540511355,
                41.613274416882675
              ],
              [
                -70.82790124033171,
                41.533413187264024
              ],
              [
                -70.86974638539255,
                41.850051754296246
              ],
              [
                -70.77048929409125,
                42.01397195531932
              ],
              [
                -70.1988613990094,
                42.15741170725938
              ],
              [
                -69.65722727784018,
                42.171354710169865
              ],
              [
                -69.85562155169015,
                42.331886966300026
              ],
              [
                -70.13168530189334,
                42.89993323399071
              ],
              [
                -70.07120785136233,
                42.979636355589015
              ],
              [
                -69.98359618742414,
                42.614875929189935
              ]
            ]
          ],
          [
            [
              [
                -69.82013047157518,
                43.25393966323324
              ],
              [
                -70.06981889014637,
                42.98146686503872
              ],
              [
                -69.85903308538532,
                43.25926109215238
              ],
              [
                -69.6427708692193,
                43.336614827466796
              ],
              [
                -69.82013047157518,
                43.25393966323324
              ]
            ]
          ]
        ]
      }
    },
    {
      "type": "Feature",
      "properties": {
        "dn": 2,
        "PRODUCT": "Day 1 Excessive Rainfall Potential Forecast",
        "VALID_TIME": "16Z 07/29/26 - 12Z 07/30/26",
        "OUTLOOK": "Slight (At Least 15%)",
        "ISSUE_TIME": "2026-07-29 15:48:00",
        "START_TIME": "2026-07-29 16:00:00",
        "END_TIME": "2026-07-30 12:00:00",
        "Snippet": "16Z 07/29/26 - 12Z 07/30/26",
        "risk_norm": "SLIGHT"
      },
      "geometry": {
        "type": "Polygon",
        "coordinates": [
          [
            [
              -104.8182168860391,
              36.68695893386626
            ],
            [
              -104.94223319556275,
              36.81460315591694
            ],
            [
              -105.01224771441116,
              37.571096722430354
            ],
            [
              -105.36536568924797,
              38.308486004950545
            ],
            [
              -105.44816052349407,
              39.14826107619325
            ],
            [
              -104.9692251138691,
              40.72292565942998
            ],
            [
              -104.65513918306783,
              41.092329280776596
            ],
            [
              -104.19527089235362,
              41.16035882345554
            ],
            [
              -103.47341834166309,
              40.888456571492625
            ],
            [
              -103.22367059988633,
              40.679844370920385
            ],
            [
              -102.90441798788655,
              40.29804192775493
            ],
            [
              -102.6957113788255,
              39.8219139470228
            ],
            [
              -102.65359390207607,
              39.248727691976214
            ],
            [
              -102.75451788534146,
              39.06702252156621
            ],
            [
              -102.96586526389987,
              38.83524405191845
            ],
            [
              -103.87779199640461,
              38.16885076743388
            ],
            [
              -103.96813565804256,
              37.89678560163823
            ],
            [
              -103.42395093308903,
              37.43400617045472
            ],
            [
              -103.0218497913306,
              37.319400550058106
            ],
            [
              -102.84363486114772,
              37.19320512686652
            ],
            [
              -102.76848621459696,
              36.928352595328874
            ],
            [
              -102.87404865778092,
              36.83352858526661
            ],
            [
              -103.20490404430757,
              36.77303310314568
            ],
            [
              -104.8182168860391,
              36.68695893386626
            ]
          ]
        ]
      }
    },
    {
      "type": "Feature",
      "properties": {
        "dn": 2,
        "PRODUCT": "Day 1 Excessive Rainfall Potential Forecast",
        "VALID_TIME": "16Z 07/29/26 - 12Z 07/30/26",
        "OUTLOOK": "Slight (At Least 15%)",
        "ISSUE_TIME": "2026-07-29 15:48:00",
        "START_TIME": "2026-07-29 16:00:00",
        "END_TIME": "2026-07-30 12:00:00",
        "Snippet": "16Z 07/29/26 - 12Z 07/30/26",
        "risk_norm": "SLIGHT"
      },
      "geometry": {
        "type": "Polygon",
        "coordinates": [
          [
            [
              -74.40038597274109,
              41.71272157802992
            ],
            [
              -74.62862163942515,
              42.04788145126206
            ],
            [
              -74.41084146299718,
              42.815016420760315
            ],
            [
              -73.82734875213355,
              43.58103302512521
            ],
            [
              -73.53498784316419,
              43.81000999818822
            ],
            [
              -72.46471115087535,
              43.98933001813131
            ],
            [
              -71.51159670405748,
              43.91542372135263
            ],
            [
              -71.31421455353353,
              43.97789990162496
            ],
            [
              -70.5599710130838,
              43.836659679530335
            ],
            [
              -69.59229043334302,
              43.354670918561006
            ],
            [
              -69.85903308538532,
              43.25926109215238
            ],
            [
              -70.13168530189334,
              42.89993323399071
            ],
            [
              -69.85562155169015,
              42.331886966300026
            ],
            [
              -69.65722727784018,
              42.171354710169865
            ],
            [
              -70.1988613990094,
              42.15741170725938
            ],
            [
              -70.77048929409125,
              42.01397195531932
            ],
            [
              -70.86974638539255,
              41.850051754296246
            ],
            [
              -70.82790124033171,
              41.533413187264024
            ],
            [
              -72.11324540511355,
              41.613274416882675
            ],
            [
              -73.14957662729083,
              41.47660331157996
            ],
            [
              -73.67719988279198,
              41.495798668402315
            ],
            [
              -74.40038597274109,
              41.71272157802992
            ]
          ],
          [
            [
              -73.35203621492089,
              41.63418518693641
            ],
            [
              -72.48682941401921,
              42.058991209331296
            ],
            [
              -72.3320657748531,
              42.216348226448424
            ],
            [
              -72.2151422869806,
              42.4664390377864
            ],
            [
              -72.72929348427283,
              43.10178128058575
            ],
            [
              -73.08989400730263,
              43.10118415227044
            ],
            [
              -73.47861098199675,
              42.97156869697982
            ],
            [
              -73.93066676290988,
              42.54069596091919
            ],
            [
              -74.05768995584982,
              41.93862212123537
            ],
            [
              -73.96888016208396,
              41.79567754014176
            ],
            [
              -73.35203621492089,
              41.63418518693641
            ]
          ]
        ]
      }
    },
    {
      "type": "Feature",
      "properties": {
        "dn": 3,
        "PRODUCT": "Day 1 Excessive Rainfall Potential Forecast",
        "VALID_TIME": "16Z 07/29/26 - 12Z 07/30/26",
        "OUTLOOK": "Moderate (At Least 40%)",
        "ISSUE_TIME": "2026-07-29 15:48:00",
        "START_TIME": "2026-07-29 16:00:00",
        "END_TIME": "2026-07-30 12:00:00",
        "Snippet": "16Z 07/29/26 - 12Z 07/30/26",
        "risk_norm": "MODERATE"
      },
      "geometry": {
        "type": "Polygon",
        "coordinates": [
          [
            [
              -73.96888016208396,
              41.79567754014176
            ],
            [
              -74.05768995584982,
              41.93862212123537
            ],
            [
              -73.93066676290988,
              42.54069596091919
            ],
            [
              -73.47861098199675,
              42.97156869697982
            ],
            [
              -73.08989400730263,
              43.10118415227044
            ],
            [
              -72.72929348427283,
              43.10178128058575
            ],
            [
              -72.2151422869806,
              42.4664390377864
            ],
            [
              -72.3320657748531,
              42.216348226448424
            ],
            [
              -72.48682941401921,
              42.058991209331296
            ],
            [
              -73.35203621492089,
              41.63418518693641
            ],
            [
              -73.96888016208396,
              41.79567754014176
            ]
          ]
        ]
      }
    }
  ]
}
