{"type": "FeatureCollection", "features": [{"type": "Feature", "properties": {"dn": 1, "PRODUCT": "Day 2 Excessive Rainfall Potential Forecast", "VALID_TIME": "12Z 07/30/26 - 12Z 07/31/26", "OUTLOOK": "Marginal (At Least 5%)", "ISSUE_TIME": "2026-07-29 08:08:00", "START_TIME": "2026-07-30 12:00:00", "END_TIME": "2026-07-31 12:00:00", "Snippet": "12Z 07/30/26 - 12Z 07/31/26"}, "geometry": {"type": "Polygon", "coordinates": [[[-82.96675515895856, 27.311747612032022], [-83.17876934092348, 27.78744444256655], [-83.12008427084714, 28.378261282360956], [-82.94683193937682, 28.547912441074573], [-82.98013486242392, 28.7336168061601], [-83.28088857068678, 28.847362681859316], [-83.32023214938555, 28.98850924755592], [-83.98262333699651, 29.721758924327382], [-84.08710279402948, 29.729113279407834], [-84.4813360692646, 29.436485842805258], [-84.91399175906047, 29.282449750682755], [-85.17437984791225, 29.29915663257841], [-85.68460892611208, 29.46759498758081], [-85.72344750313837, 29.653424985947463], [-85.96634164550724, 29.894930583775515], [-86.47697752494051, 30.10603567532834], [-87.70158905530097, 29.894447696549744], [-88.38566408006709, 29.879326641562674], [-88.44712950193036, 29.700508416265503], [-88.72582426544463, 29.392829315223135], [-88.6263269559462, 29.297570372466986], [-88.64102342874018, 29.024471877489752], [-88.80063412834048, 28.98440481916355], [-90.29389892709318, 29.44725996159061], [-91.4839153994836, 29.88863124676684], [-91.95024630336734, 30.1260372181627], [-92.20766993964972, 30.404758790836947], [-92.30679476973589, 30.67937149078056], [-92.29201423099454, 31.315320913713702], [-92.17914358235991, 31.58577760273942], [-91.90455693305063, 31.853864797817273], [-91.52693121618306, 31.982186522485343], [-90.88272993757201, 32.057606786620305], [-89.4401613323851, 32.01394342430348], [-86.75148478079753, 31.443092174379498], [-83.87067509852264, 30.902331023359487], [-82.19406997078458, 30.68360227651098], [-81.12115507400084, 30.775255091997032], [-80.91979709382122, 29.79593975750715], [-80.22831009726261, 28.585879083976433], [-80.27895736516328, 28.177831850492325], [-79.9990519378934, 27.507892904436183], [-81.4233782115607, 27.273528953162558], [-82.96675515895856, 27.311747612032022]]]}}, {"type": "Feature", "properties": {"dn": 1, "PRODUCT": "Day 2 Excessive Rainfall Potential Forecast", "VALID_TIME": "12Z 07/30/26 - 12Z 07/31/26", "OUTLOOK": "Marginal (At Least 5%)", "ISSUE_TIME": "2026-07-29 08:08:00", "START_TIME": "2026-07-30 12:00:00", "END_TIME": "2026-07-31 12:00:00", "Snippet": "12Z 07/30/26 - 12Z 07/31/26"}, "geometry": {"type": "Polygon", "coordinates": [[[-81.0642835993882, 30.815003491006102], [-81.06312246851297, 30.81581457612332], [-81.06217872981559, 30.81481700252919], [-81.0642835993882, 30.815003491006102]]]}}, {"type": "Feature", "properties": {"dn": 1, "PRODUCT": "Day 2 Excessive Rainfall Potential Forecast", "VALID_TIME": "12Z 07/30/26 - 12Z 07/31/26", "OUTLOOK": "Marginal (At Least 5%)", "ISSUE_TIME": "2026-07-29 08:08:00", "START_TIME": "2026-07-30 12:00:00", "END_TIME": "2026-07-31 12:00:00", "Snippet": "12Z 07/30/26 - 12Z 07/31/26"}, "geometry": {"type": "Polygon", "coordinates": [[[-108.97623571561925, 31.13024758539512], [-110.73956450880605, 31.14696319042524], [-111.4574883040788, 31.303316310707267], [-111.53857646354538, 32.98443388883272], [-111.45252932113202, 34.630116025875196], [-111.22920030648612, 35.73882274411328], [-110.73708352036672, 36.957782722509855], [-109.7528162715542, 38.390213848993994], [-108.88693596397435, 39.17573469007467], [-107.98162564749188, 39.733598759623895], [-107.05126909683786, 40.15373640092413], [-105.7008361311156, 40.50518467327766], [-104.72112553440506, 40.561372855577005], [-103.89457140463496, 40.38431480526616], [-103.35482966440873, 40.14600333627427], [-102.50414762717526, 39.56499989147268], [-102.18488892288008, 39.09141048371195], [-101.94116395590855, 37.99068563678362], [-101.84715169940525, 36.52052107265167], [-102.07275771663701, 35.70362663744223], [-102.53532823460952, 35.18859771735331], [-103.00756287730587, 34.85018558845737], [-104.94970635376373, 33.84052777939148], [-106.23105642995091, 33.03170201858319], [-106.76496546914166, 32.449317994340284], [-107.05425294523874, 31.607566393568167], [-107.96578444528456, 31.62688053767055], [-108.06062585381395, 31.52882876890281], [-108.07866176117668, 31.20713454245347], [-108.97623571561925, 31.13024758539512]]]}}, {"type": "Feature", "properties": {"dn": 1, "PRODUCT": "Day 2 Excessive Rainfall Potential Forecast", "VALID_TIME": "12Z 07/30/26 - 12Z 07/31/26", "OUTLOOK": "Marginal (At Least 5%)", "ISSUE_TIME": "2026-07-29 08:08:00", "START_TIME": "2026-07-30 12:00:00", "END_TIME": "2026-07-31 12:00:00", "Snippet": "12Z 07/30/26 - 12Z 07/31/26"}, "geometry": {"type": "Polygon", "coordinates": [[[-95.33771304181013, 37.506340304621226], [-97.20529872528482, 38.204546911945755], [-98.06701132973512, 38.67976868529558], [-98.59556030912132, 39.15789634030313], [-98.96935969781224, 39.989100571880364], [-99.20959630043217, 41.65153217143221], [-99.41908103955332, 42.43136251147567], [-99.67478520629912, 42.85951246066812], [-100.04918931721471, 43.2397752210057], [-100.92099619741909, 43.90551360098302], [-101.25537257954426, 44.454300262002846], [-101.24237896851972, 45.18331962002337], [-100.88189316619902, 46.216668116988686], [-100.37986475086846, 47.07656517144696], [-99.44021501789139, 48.106405061461736], [-97.84720642475544, 49.17484909440868], [-95.50672436238419, 49.15240911350793], [-95.44536366674684, 49.524275311148095], [-94.61988896219992, 49.52440426284683], [-94.43159410122591, 48.98581077106259], [-94.24421805023145, 48.903142092357385], [-93.61563975877733, 48.77541400180068], [-93.11109855296515, 48.81290701903468], [-92.67239385498338, 48.725376907788096], [-91.55320745506403, 48.33429169877678], [-91.84172043176855, 47.25042696591728], [-91.89142155989155, 45.7708386453556], [-91.79408066053287, 45.044253335540944], [-91.08678250789974, 43.09394483928724], [-91.11903100437719, 42.269464001766025], [-91.82611037738599, 40.35742131063633], [-91.79571137642928, 39.47504704246185], [-91.69388887629802, 39.07508422447469], [-91.78064384890483, 38.100575521780186], [-92.07389296091833, 37.70530251757378], [-92.53221744096234, 37.399687786998854], [-93.20907409200248, 37.18510282084594], [-94.04889358066282, 37.19186892475854], [-95.33771304181013, 37.506340304621226]], [[-93.47640659362168, 38.079016683246465], [-93.24913821760083, 38.16576177219024], [-93.01927374896653, 38.341432800954536], [-92.78366321245655, 38.78226322107689], [-92.68311981612514, 40.76610077423907], [-92.17146692616498, 42.506215221641625], [-92.19254232516741, 43.84845438158613], [-92.46884760713404, 44.71192876210949], [-92.87935299800536, 45.23020052037054], [-93.47708648380133, 45.747203706438725], [-94.81657165210642, 46.51684648384784], [-95.24688736261616, 46.643571042845934], [-95.86197009364693, 46.641844101744496], [-98.06051806499372, 46.15428635150678], [-98.84064053669744, 45.7577472356198], [-99.01433162091922, 45.54133549676923], [-99.11923276681868, 45.15506795886227], [-99.0900012078184, 44.470344555113286], [-98.94532024859437, 43.87112223845272], [-98.7446867857871, 43.31386462716185], [-98.36620702298201, 42.670961965462844], [-97.88155907306977, 42.2443800915023], [-97.28537113602005, 41.9037615297518], [-96.4565023684084, 41.257309013441876], [-95.05821806515706, 38.840686382246105], [-94.4349999838932, 38.3070043964111], [-93.92805005867466, 38.08241987754592], [-93.47640659362168, 38.079016683246465]]]}}, {"type": "Feature", "properties": {"dn": 1, "PRODUCT": "Day 2 Excessive Rainfall Potential Forecast", "VALID_TIME": "12Z 07/30/26 - 12Z 07/31/26", "OUTLOOK": "Marginal (At Least 5%)", "ISSUE_TIME": "2026-07-29 08:08:00", "START_TIME": "2026-07-30 12:00:00", "END_TIME": "2026-07-31 12:00:00", "Snippet": "12Z 07/30/26 - 12Z 07/31/26"}, "geometry": {"type": "Polygon", "coordinates": [[[-71.83929678867865, 42.285681719300925], [-72.16737794908279, 42.41547250395869], [-72.31307048625638, 42.5668060032168], [-72.22430546561745, 42.95185403835034], [-72.0477508295824, 43.193482965923984], [-71.11786346846046, 44.03987033064446], [-70.13974781206188, 44.5249348437281], [-69.39948508120948, 44.77471340507425], [-68.48921915291272, 44.95438787031136], [-67.75464077758247, 44.93720027886199], [-66.84530607242704, 44.671454106097684], [-67.23826018804331, 44.379432096049186], [-67.29921538641231, 44.1690468673581], [-68.19409450383115, 43.81603555294271], [-68.3697914904479, 43.84134327804543], [-68.8602961015326, 43.603499387071416], [-69.72092454783335, 43.327483995658945], [-70.01853073701356, 43.10489366899951], [-70.13090977604622, 42.89982771004321], [-70.02148461269356, 42.620077911372434], [-69.61106446012123, 42.11966390449829], [-70.79773271740827, 42.14955173330151], [-71.83929678867865, 42.285681719300925]]]}}, {"type": "Feature", "properties": {"dn": 2, "PRODUCT": "Day 2 Excessive Rainfall Potential Forecast", "VALID_TIME": "12Z 07/30/26 - 12Z 07/31/26", "OUTLOOK": "Slight (At Least 15%)", "ISSUE_TIME": "2026-07-29 08:08:00", "START_TIME": "2026-07-30 12:00:00", "END_TIME": "2026-07-31 12:00:00", "Snippet": "12Z 07/30/26 - 12Z 07/31/26"}, "geometry": {"type": "Polygon", "coordinates": [[[-93.92805005867466, 38.08241987754592], [-94.4349999838932, 38.3070043964111], [-95.05821806515706, 38.840686382246105], [-96.4565023684084, 41.257309013441876], [-97.28537113602005, 41.9037615297518], [-97.88155907306977, 42.2443800915023], [-98.36620702298201, 42.670961965462844], [-98.7446867857871, 43.31386462716185], [-98.94532024859437, 43.87112223845272], [-99.0900012078184, 44.470344555113286], [-99.11923276681868, 45.15506795886227], [-99.01433162091922, 45.54133549676923], [-98.84064053669744, 45.7577472356198], [-98.06051806499372, 46.15428635150678], [-95.86197009364693, 46.641844101744496], [-95.24688736261616, 46.643571042845934], [-94.81657165210642, 46.51684648384784], [-93.47708648380133, 45.747203706438725], [-92.87935299800536, 45.23020052037054], [-92.46884760713404, 44.71192876210949], [-92.19254232516741, 43.84845438158613], [-92.17146692616498, 42.506215221641625], [-92.68311981612514, 40.76610077423907], [-92.78366321245655, 38.78226322107689], [-93.01927374896653, 38.341432800954536], [-93.24913821760083, 38.16576177219024], [-93.47640659362168, 38.079016683246465], [-93.92805005867466, 38.08241987754592]]]}}]}