{
  "type": "FeatureCollection",
  "features": [
    {
      "type": "Feature",
      "properties": {
        "dn": 1,
        "PRODUCT": "Day 1 Excessive Rainfall Potential Forecast",
        "VALID_TIME": "16Z 08/05/26 - 12Z 08/06/26",
        "OUTLOOK": "Marginal (At Least 5%)",
        "ISSUE_TIME": "2026-08-05 15:48:00",
        "START_TIME": "2026-08-05 16:00:00",
        "END_TIME": "2026-08-06 12:00:00",
        "Snippet": "16Z 08/05/26 - 12Z 08/06/26",
        "risk_norm": "MARGINAL"
      },
      "geometry": {
        "type": "Polygon",
        "coordinates": [
          [
            [
              -108.97623571561925,
              31.13024758539512
            ],
            [
              -110.95653789383776,
              31.17089174187611
            ],
            [
              -112.91773517742972,
              31.739471929336283
            ],
            [
              -112.96001198879549,
              32.009214901325066
            ],
            [
              -112.74297224455539,
              32.354486982075855
            ],
            [
              -111.37709154842176,
              33.0018686927294
            ],
            [
              -111.19604683113839,
              33.2469979468742
            ],
            [
              -111.55613054903687,
              33.48271861491108
            ],
            [
              -112.24873265697512,
              33.729029777302394
            ],
            [
              -112.55403979877745,
              33.92474605629532
            ],
            [
              -113.22389178526223,
              34.66971109166783
            ],
            [
              -113.4213058179851,
              35.192479348382804
            ],
            [
              -113.23193122401979,
              35.395787546122484
            ],
            [
              -112.81675425232706,
              35.57690472030817
            ],
            [
              -112.06433686510081,
              35.74648204144211
            ],
            [
              -111.67369156864532,
              35.740926043145095
            ],
            [
              -111.14710509203539,
              35.566936426764414
            ],
            [
              -110.01389237676311,
              34.9952460072514
            ],
            [
              -109.6687468461081,
              34.890581999500235
            ],
            [
              -109.06886869397546,
              34.9429114528427
            ],
            [
              -108.22207103207565,
              35.23883651007707
            ],
            [
              -107.22587568732985,
              35.72111196897066
            ],
            [
              -106.10047885331188,
              36.65364493760336
            ],
            [
              -105.09456915228265,
              37.25420430987222
            ],
            [
              -104.5475389858768,
              37.41990352545002
            ],
            [
              -103.76362094767664,
              37.46200079984285
            ],
            [
              -103.2457042055309,
              37.30915310406224
            ],
            [
              -103.00415262062602,
              37.09630680855203
            ],
            [
              -102.86325806782038,
              36.70016681196458
            ],
            [
              -102.91597605675418,
              35.89039603380254
            ],
            [
              -103.35841495408968,
              35.14911272590925
            ],
            [
              -104.88536606306214,
              33.1206045290669
            ],
            [
              -105.3831916130588,
              32.634643303647756
            ],
            [
              -105.63843415652005,
              32.48167271688791
            ],
            [
              -107.15980230819261,
              32.10044539978912
            ],
            [
              -107.75363530855014,
              31.644065090577392
            ],
            [
              -107.96578444528456,
              31.62688053767055
            ],
            [
              -108.06062585381395,
              31.52882876890281
            ],
            [
              -108.07866176117668,
              31.20713454245347
            ],
            [
              -108.97623571561925,
              31.13024758539512
            ]
          ]
        ]
      }
    },
    {
      "type": "Feature",
      "properties": {
        "dn": 1,
        "PRODUCT": "Day 1 Excessive Rainfall Potential Forecast",
        "VALID_TIME": "16Z 08/05/26 - 12Z 08/06/26",
        "OUTLOOK": "Marginal (At Least 5%)",
        "ISSUE_TIME": "2026-08-05 15:48:00",
        "START_TIME": "2026-08-05 16:00:00",
        "END_TIME": "2026-08-06 12:00:00",
        "Snippet": "16Z 08/05/26 - 12Z 08/06/26",
        "risk_norm": "MARGINAL"
      },
      "geometry": {
        "type": "Polygon",
        "coordinates": [
          [
            [
              -75.3955260511098,
              40.85224489453158
            ],
            [
              -74.8795000447601,
              40.794622151184996
            ],
            [
              -74.33321425222465,
              40.59863009508963
            ],
            [
              -73.71015709341064,
              40.21221992322814
            ],
            [
              -73.85341372196022,
              39.51538921313792
            ],
            [
              -74.15853207390785,
              39.14956486953465
            ],
            [
              -74.70327736720743,
              38.72152557532674
            ],
            [
              -74.81286030368888,
              38.15090576064143
            ],
            [
              -75.06332677612373,
              37.73060143840943
            ],
            [
              -75.33487895241208,
              37.492098602666516
            ],
            [
              -75.36730145078597,
              37.31563663547625
            ],
            [
              -76.4522980114741,
              36.94149053757811
            ],
            [
              -77.57009846186507,
              36.29514866086854
            ],
            [
              -78.33364063646012,
              35.69554965524342
            ],
            [
              -78.85766731922904,
              35.159327838407165
            ],
            [
              -79.01855929442415,
              34.81266851587467
            ],
            [
              -79.00929854836806,
              34.494398434503005
            ],
            [
              -78.8096966096878,
              33.97532337445251
            ],
            [
              -78.37147058352467,
              33.61364395668465
            ],
            [
              -77.88654130419158,
              33.56220229016499
            ],
            [
              -78.21036025873504,
              33.59520142264277
            ],
            [
              -78.49252021324526,
              33.53320121815604
            ],
            [
              -78.85266302286722,
              33.29740433841915
            ],
            [
              -78.8888679927685,
              33.11202522197618
            ],
            [
              -80.0710218671398,
              32.32152927925663
            ],
            [
              -79.91121009543846,
              32.30666761196337
            ],
            [
              -79.31702824077446,
              32.705373031652655
            ],
            [
              -78.95812723491197,
              32.94361826410218
            ],
            [
              -78.89395952669067,
              33.08595520831767
            ],
            [
              -78.92245450308135,
              32.94005331803102
            ],
            [
              -80.20682724027539,
              32.10575354990943
            ],
            [
              -80.7612698651713,
              31.973875369946562
            ],
            [
              -81.39389199325453,
              32.07472840066952
            ],
            [
              -82.89574431055088,
              32.605010572836484
            ],
            [
              -84.42823531774266,
              32.94011983771505
            ],
            [
              -85.31504597891302,
              33.31312640064996
            ],
            [
              -86.19005639015337,
              33.906104762313426
            ],
            [
              -86.39077794562226,
              34.143717649788364
            ],
            [
              -86.51637082569815,
              34.64689289843366
            ],
            [
              -86.48545608709111,
              35.05105983647148
            ],
            [
              -86.28224518229482,
              35.53574569483963
            ],
            [
              -85.72293211316666,
              36.26955033130008
            ],
            [
              -82.82496452769449,
              38.769331147308385
            ],
            [
              -81.14641822445671,
              40.242025468562304
            ],
            [
              -80.59011085886884,
              40.904562817439455
            ],
            [
              -79.79947989501152,
              42.2900487243014
            ],
            [
              -79.16418977110224,
              42.93575631325375
            ],
            [
              -78.43734350745832,
              43.35255411280371
            ],
            [
              -78.18672920116911,
              43.41712639335435
            ],
            [
              -77.89173480849972,
              43.39017301698173
            ],
            [
              -77.45741446117819,
              43.130594494462656
            ],
            [
              -77.28407695216768,
              42.76431702796654
            ],
            [
              -77.59797076863073,
              41.65315557927097
            ],
            [
              -77.57747707878966,
              41.43085101521341
            ],
            [
              -77.34246068691805,
              41.09978565809995
            ],
            [
              -76.8551432946112,
              40.8740476779104
            ],
            [
              -76.1086320113609,
              40.79641673770194
            ],
            [
              -75.3955260511098,
              40.85224489453158
            ]
          ],
          [
            [
              -80.23026435309191,
              32.33678241467611
            ],
            [
              -80.23073885662703,
              32.33728210013278
            ],
            [
              -80.23133005235178,
              32.33688089620446
            ],
            [
              -80.23026435309191,
              32.33678241467611
            ]
          ],
          [
            [
              -80.1716029069709,
              32.37738325477896
            ],
            [
              -80.17219451704594,
              32.376982306265184
            ],
            [
              -80.17112849551735,
              32.37688344121032
            ],
            [
              -80.1716029069709,
              32.37738325477896
            ]
          ],
          [
            [
              -80.11195121380871,
              32.416958919363715
            ],
            [
              -80.11242553275436,
              32.41745886080771
            ],
            [
              -80.11301755738991,
              32.41705816808214
            ],
            [
              -80.11195121380871,
              32.416958919363715
            ]
          ],
          [
            [
              -80.05379915241528,
              32.457108444312674
            ],
            [
              -80.05273248699864,
              32.45700881179415
            ],
            [
              -80.05320671300936,
              32.4575088808769
            ],
            [
              -80.05379915241528,
              32.457108444312674
            ]
          ],
          [
            [
              -78.80857111042849,
              33.6119730892035
            ],
            [
              -79.17912677645862,
              33.694032263941
            ],
            [
              -79.83329266152366,
              33.301479968335414
            ],
            [
              -80.35651760928532,
              32.62173691304469
            ],
            [
              -80.31424335841773,
              32.52631803866292
            ],
            [
              -78.76075899260343,
              33.561242649430014
            ],
            [
              -78.80857111042849,
              33.6119730892035
            ]
          ],
          [
            [
              -79.99347229415362,
              32.49703308121412
            ],
            [
              -79.99394642680167,
              32.49753327769911
            ],
            [
              -79.9945392811875,
              32.49713309766881
            ],
            [
              -79.99347229415362,
              32.49703308121412
            ]
          ],
          [
            [
              -79.93523792280604,
              32.537132090917126
            ],
            [
              -79.93417061437424,
              32.537031690390705
            ],
            [
              -79.9346446532311,
              32.53753201404143
            ],
            [
              -79.93523792280604,
              32.537132090917126
            ]
          ],
          [
            [
              -79.87530137143166,
              32.577505052725826
            ],
            [
              -79.87589505640453,
              32.577105386878934
            ],
            [
              -79.87482742679516,
              32.57700460214576
            ],
            [
              -79.87530137143166,
              32.577505052725826
            ]
          ],
          [
            [
              -79.81544271058564,
              32.61695177935601
            ],
            [
              -79.81591656057182,
              32.61745235662899
            ],
            [
              -79.81651066115114,
              32.617052948430505
            ],
            [
              -79.81544271058564,
              32.61695177935601
            ]
          ],
          [
            [
              -79.75708471624844,
              32.65697473850272
            ],
            [
              -79.75601644494927,
              32.656873184952836
            ],
            [
              -79.75649019985451,
              32.65737388868244
            ],
            [
              -79.75708471624844,
              32.65697473850272
            ]
          ],
          [
            [
              -79.69702226851759,
              32.69726961187264
            ],
            [
              -79.69761720093393,
              32.69687072008153
            ],
            [
              -79.69654860912469,
              32.69676878192268
            ],
            [
              -79.69702226851759,
              32.69726961187264
            ]
          ],
          [
            [
              -79.63703918238525,
              32.736638533307016
            ],
            [
              -79.6375127458337,
              32.73713948924107
            ],
            [
              -79.63810809447993,
              32.73674085620788
            ],
            [
              -79.63703918238525,
              32.736638533307016
            ]
          ],
          [
            [
              -79.57855737619391,
              32.77658510997764
            ],
            [
              -79.57748814403953,
              32.7764824022022
            ],
            [
              -79.57796161111071,
              32.77698348388424
            ],
            [
              -79.57855737619391,
              32.77658510997764
            ]
          ],
          [
            [
              -79.51836884369169,
              32.81680155895387
            ],
            [
              -79.51896502541864,
              32.81640344454209
            ],
            [
              -79.51789547343134,
              32.81630035175996
            ],
            [
              -79.51836884369169,
              32.81680155895387
            ]
          ],
          [
            [
              -79.45826114993984,
              32.856092345186994
            ],
            [
              -79.45873442295509,
              32.856593677656626
            ],
            [
              -79.45933102153215,
              32.85619582310729
            ],
            [
              -79.45826114993984,
              32.856092345186994
            ]
          ],
          [
            [
              -79.39965534394851,
              32.895962208934876
            ],
            [
              -79.39858515298015,
              32.89585834574527
            ],
            [
              -79.39905832831526,
              32.89635980325469
            ],
            [
              -79.39965534394851,
              32.895962208934876
            ]
          ],
          [
            [
              -79.33934053922204,
              32.93609989906554
            ],
            [
              -79.33993797211711,
              32.93570256534176
            ],
            [
              -79.33886746200277,
              32.935598316752255
            ],
            [
              -79.33934053922204,
              32.93609989906554
            ]
          ],
          [
            [
              -79.27910805649458,
              32.97531222158057
            ],
            [
              -79.27958103516151,
              32.97581392846177
            ],
            [
              -79.28017888552378,
              32.97541685570005
            ],
            [
              -79.27910805649458,
              32.97531222158057
            ]
          ],
          [
            [
              -79.22037806369028,
              33.0151050434375
            ],
            [
              -79.21930691597844,
              33.01500002365846
            ],
            [
              -79.21977979565587,
              33.015501854871836
            ],
            [
              -79.22037806369028,
              33.0151050434375
            ]
          ],
          [
            [
              -79.15993680026352,
              33.05516364177929
            ],
            [
              -79.16053548617467,
              33.05476709203724
            ],
            [
              -79.15946402001353,
              33.05466168646954
            ],
            [
              -79.15993680026352,
              33.05516364177929
            ]
          ],
          [
            [
              -79.09957934819563,
              33.09429717355307
            ],
            [
              -79.10005202857954,
              33.09479925272354
            ],
            [
              -79.10065113257164,
              33.09440296503806
            ],
            [
              -79.09957934819563,
              33.09429717355307
            ]
          ],
          [
            [
              -79.0407249825126,
              33.13401262603438
            ],
            [
              -79.03965288015723,
              33.133906448504
            ],
            [
              -79.04012546023567,
              33.134408651299516
            ],
            [
              -79.0407249825126,
              33.13401262603438
            ]
          ],
          [
            [
              -78.98015707490062,
              33.173991801157776
            ],
            [
              -78.98075701566584,
              33.17359603867615
            ],
            [
              -78.97968459556773,
              33.17348947497279
            ],
            [
              -78.98015707490062,
              33.173991801157776
            ]
          ],
          [
            [
              -78.91967447413359,
              33.21304621666587
            ],
            [
              -78.92014685228006,
              33.213548666004876
            ],
            [
              -78.92074721173672,
              33.21315316666939
            ],
            [
              -78.91967447413359,
              33.21304621666587
            ]
          ]
        ]
      }
    },
    {
      "type": "Feature",
      "properties": {
        "dn": 1,
        "PRODUCT": "Day 1 Excessive Rainfall Potential Forecast",
        "VALID_TIME": "16Z 08/05/26 - 12Z 08/06/26",
        "OUTLOOK": "Marginal (At Least 5%)",
        "ISSUE_TIME": "2026-08-05 15:48:00",
        "START_TIME": "2026-08-05 16:00:00",
        "END_TIME": "2026-08-06 12:00:00",
        "Snippet": "16Z 08/05/26 - 12Z 08/06/26",
        "risk_norm": "MARGINAL"
      },
      "geometry": {
        "type": "Polygon",
        "coordinates": [
          [
            [
              -95.50513370108767,
              37.28300292020339
            ],
            [
              -96.57831293367457,
              37.8556714204531
            ],
            [
              -97.32432587399141,
              38.425963699065356
            ],
            [
              -97.91129425944533,
              39.17063041522616
            ],
            [
              -98.09540314918243,
              39.609516218612654
            ],
            [
              -98.04973648077092,
              40.007341659104384
            ],
            [
              -97.60528986821454,
              40.63039992533979
            ],
            [
              -96.9198702579808,
              41.166273126900826
            ],
            [
              -95.87729405007222,
              41.655439111704084
            ],
            [
              -91.99398178410928,
              42.54773227564236
            ],
            [
              -89.35797943113863,
              43.26690041921746
            ],
            [
              -87.5301214120609,
              43.851193668483845
            ],
            [
              -86.65865877886979,
              44.245737878692545
            ],
            [
              -83.47535556961,
              46.22136739255565
            ],
            [
              -83.30178637194973,
              46.125093227664394
            ],
            [
              -83.28420977432239,
              45.78389575727251
            ],
            [
              -82.28119518683853,
              45.506855585728914
            ],
            [
              -81.97693308614711,
              44.15237678269455
            ],
            [
              -84.91810914075215,
              41.287989421366674
            ],
            [
              -86.92017878237428,
              39.5836957585193
            ],
            [
              -88.53955767871022,
              38.45331700674311
            ],
            [
              -89.41668432053133,
              37.950222906152796
            ],
            [
              -90.50991565756202,
              37.44765612420644
            ],
            [
              -91.53134427994412,
              37.11452218875402
            ],
            [
              -92.15021660641176,
              36.99206056006159
            ],
            [
              -93.32450443952538,
              36.963053165733385
            ],
            [
              -95.50513370108767,
              37.28300292020339
            ]
          ],
          [
            [
              -92.41360264711258,
              37.66578301655428
            ],
            [
              -91.45196143930141,
              37.82670359159255
            ],
            [
              -90.47618037258728,
              38.24866811162483
            ],
            [
              -88.89490000843546,
              39.176353443008246
            ],
            [
              -87.69045899885123,
              40.05902538261539
            ],
            [
              -87.19123113352195,
              40.56649429304979
            ],
            [
              -87.055482297252,
              40.824375199047324
            ],
            [
              -87.07268188157991,
              41.35177216356715
            ],
            [
              -87.48962522628959,
              42.02556256205347
            ],
            [
              -87.7736190378682,
              42.168346486405554
            ],
            [
              -88.18420917388049,
              42.184118756583004
            ],
            [
              -89.73085395487286,
              41.84271374351021
            ],
            [
              -93.9517462413539,
              41.3918488188325
            ],
            [
              -95.00080368137881,
              41.17606822630835
            ],
            [
              -95.69657189205928,
              40.77973877662263
            ],
            [
              -95.8681389918578,
              40.51549465366407
            ],
            [
              -96.0339906495139,
              39.76608491369493
            ],
            [
              -96.02488020057665,
              38.837678718906886
            ],
            [
              -95.73624943540126,
              38.21795852463618
            ],
            [
              -95.16987902978242,
              37.90778003645439
            ],
            [
              -93.53834046128239,
              37.679074973534
            ],
            [
              -92.41360264711258,
              37.66578301655428
            ]
          ]
        ]
      }
    },
    {
      "type": "Feature",
      "properties": {
        "dn": 2,
        "PRODUCT": "Day 1 Excessive Rainfall Potential Forecast",
        "VALID_TIME": "16Z 08/05/26 - 12Z 08/06/26",
        "OUTLOOK": "Slight (At Least 15%)",
        "ISSUE_TIME": "2026-08-05 15:48:00",
        "START_TIME": "2026-08-05 16:00:00",
        "END_TIME": "2026-08-06 12:00:00",
        "Snippet": "16Z 08/05/26 - 12Z 08/06/26",
        "risk_norm": "SLIGHT"
      },
      "geometry": {
        "type": "Polygon",
        "coordinates": [
          [
            [
              -80.23133005235178,
              32.33688089620446
            ],
            [
              -80.23073885662703,
              32.33728210013278
            ],
            [
              -80.23026435309191,
              32.33678241467611
            ],
            [
              -80.23133005235178,
              32.33688089620446
            ]
          ]
        ]
      }
    },
    {
      "type": "Feature",
      "properties": {
        "dn": 2,
        "PRODUCT": "Day 1 Excessive Rainfall Potential Forecast",
        "VALID_TIME": "16Z 08/05/26 - 12Z 08/06/26",
        "OUTLOOK": "Slight (At Least 15%)",
        "ISSUE_TIME": "2026-08-05 15:48:00",
        "START_TIME": "2026-08-05 16:00:00",
        "END_TIME": "2026-08-06 12:00:00",
        "Snippet": "16Z 08/05/26 - 12Z 08/06/26",
        "risk_norm": "SLIGHT"
      },
      "geometry": {
        "type": "Polygon",
        "coordinates": [
          [
            [
              -80.0710218671398,
              32.32152927925663
            ],
            [
              -78.87933210435968,
              33.11840178704171
            ],
            [
              -78.95812723491197,
              32.94361826410218
            ],
            [
              -79.31702824077446,
              32.705373031652655
            ],
            [
              -79.91121009543846,
              32.30666761196337
            ],
            [
              -80.0710218671398,
              32.32152927925663
            ]
          ]
        ]
      }
    },
    {
      "type": "Feature",
      "properties": {
        "dn": 2,
        "PRODUCT": "Day 1 Excessive Rainfall Potential Forecast",
        "VALID_TIME": "16Z 08/05/26 - 12Z 08/06/26",
        "OUTLOOK": "Slight (At Least 15%)",
        "ISSUE_TIME": "2026-08-05 15:48:00",
        "START_TIME": "2026-08-05 16:00:00",
        "END_TIME": "2026-08-06 12:00:00",
        "Snippet": "16Z 08/05/26 - 12Z 08/06/26",
        "risk_norm": "SLIGHT"
      },
      "geometry": {
        "type": "Polygon",
        "coordinates": [
          [
            [
              -80.17219451704594,
              32.376982306265184
            ],
            [
              -80.1716029069709,
              32.37738325477896
            ],
            [
              -80.17112849551735,
              32.37688344121032
            ],
            [
              -80.17219451704594,
              32.376982306265184
            ]
          ]
        ]
      }
    },
    {
      "type": "Feature",
      "properties": {
        "dn": 2,
        "PRODUCT": "Day 1 Excessive Rainfall Potential Forecast",
        "VALID_TIME": "16Z 08/05/26 - 12Z 08/06/26",
        "OUTLOOK": "Slight (At Least 15%)",
        "ISSUE_TIME": "2026-08-05 15:48:00",
        "START_TIME": "2026-08-05 16:00:00",
        "END_TIME": "2026-08-06 12:00:00",
        "Snippet": "16Z 08/05/26 - 12Z 08/06/26",
        "risk_norm": "SLIGHT"
      },
      "geometry": {
        "type": "Polygon",
        "coordinates": [
          [
            [
              -80.11301755738991,
              32.41705816808214
            ],
            [
              -80.11242553275436,
              32.41745886080771
            ],
            [
              -80.11195121380871,
              32.416958919363715
            ],
            [
              -80.11301755738991,
              32.41705816808214
            ]
          ]
        ]
      }
    },
    {
      "type": "Feature",
      "properties": {
        "dn": 2,
        "PRODUCT": "Day 1 Excessive Rainfall Potential Forecast",
        "VALID_TIME": "16Z 08/05/26 - 12Z 08/06/26",
        "OUTLOOK": "Slight (At Least 15%)",
        "ISSUE_TIME": "2026-08-05 15:48:00",
        "START_TIME": "2026-08-05 16:00:00",
        "END_TIME": "2026-08-06 12:00:00",
        "Snippet": "16Z 08/05/26 - 12Z 08/06/26",
        "risk_norm": "SLIGHT"
      },
      "geometry": {
        "type": "Polygon",
        "coordinates": [
          [
            [
              -80.05379915241528,
              32.457108444312674
            ],
            [
              -80.05320671300936,
              32.4575088808769
            ],
            [
              -80.05273248699864,
              32.45700881179415
            ],
            [
              -80.05379915241528,
              32.457108444312674
            ]
          ]
        ]
      }
    },
    {
      "type": "Feature",
      "properties": {
        "dn": 2,
        "PRODUCT": "Day 1 Excessive Rainfall Potential Forecast",
        "VALID_TIME": "16Z 08/05/26 - 12Z 08/06/26",
        "OUTLOOK": "Slight (At Least 15%)",
        "ISSUE_TIME": "2026-08-05 15:48:00",
        "START_TIME": "2026-08-05 16:00:00",
        "END_TIME": "2026-08-06 12:00:00",
        "Snippet": "16Z 08/05/26 - 12Z 08/06/26",
        "risk_norm": "SLIGHT"
      },
      "geometry": {
        "type": "Polygon",
        "coordinates": [
          [
            [
              -80.31424335841773,
              32.52631803866292
            ],
            [
              -80.35651760928532,
              32.62173691304469
            ],
            [
              -79.83329266152366,
              33.301479968335414
            ],
            [
              -79.17912677645862,
              33.694032263941
            ],
            [
              -78.80857111042849,
              33.6119730892035
            ],
            [
              -78.76075899260343,
              33.561242649430014
            ],
            [
              -80.31424335841773,
              32.52631803866292
            ]
          ]
        ]
      }
    },
    {
      "type": "Feature",
      "properties": {
        "dn": 2,
        "PRODUCT": "Day 1 Excessive Rainfall Potential Forecast",
        "VALID_TIME": "16Z 08/05/26 - 12Z 08/06/26",
        "OUTLOOK": "Slight (At Least 15%)",
        "ISSUE_TIME": "2026-08-05 15:48:00",
        "START_TIME": "2026-08-05 16:00:00",
        "END_TIME": "2026-08-06 12:00:00",
        "Snippet": "16Z 08/05/26 - 12Z 08/06/26",
        "risk_norm": "SLIGHT"
      },
      "geometry": {
        "type": "Polygon",
        "coordinates": [
          [
            [
              -79.9945392811875,
              32.49713309766881
            ],
            [
              -79.99394642680167,
              32.49753327769911
            ],
            [
              -79.99347229415362,
              32.49703308121412
            ],
            [
              -79.9945392811875,
              32.49713309766881
            ]
          ]
        ]
      }
    },
    {
      "type": "Feature",
      "properties": {
        "dn": 2,
        "PRODUCT": "Day 1 Excessive Rainfall Potential Forecast",
        "VALID_TIME": "16Z 08/05/26 - 12Z 08/06/26",
        "OUTLOOK": "Slight (At Least 15%)",
        "ISSUE_TIME": "2026-08-05 15:48:00",
        "START_TIME": "2026-08-05 16:00:00",
        "END_TIME": "2026-08-06 12:00:00",
        "Snippet": "16Z 08/05/26 - 12Z 08/06/26",
        "risk_norm": "SLIGHT"
      },
      "geometry": {
        "type": "Polygon",
        "coordinates": [
          [
            [
              -79.93523792280604,
              32.537132090917126
            ],
            [
              -79.9346446532311,
              32.53753201404143
            ],
            [
              -79.93417061437424,
              32.537031690390705
            ],
            [
              -79.93523792280604,
              32.537132090917126
            ]
          ]
        ]
      }
    },
    {
      "type": "Feature",
      "properties": {
        "dn": 2,
        "PRODUCT": "Day 1 Excessive Rainfall Potential Forecast",
        "VALID_TIME": "16Z 08/05/26 - 12Z 08/06/26",
        "OUTLOOK": "Slight (At Least 15%)",
        "ISSUE_TIME": "2026-08-05 15:48:00",
        "START_TIME": "2026-08-05 16:00:00",
        "END_TIME": "2026-08-06 12:00:00",
        "Snippet": "16Z 08/05/26 - 12Z 08/06/26",
        "risk_norm": "SLIGHT"
      },
      "geometry": {
        "type": "Polygon",
        "coordinates": [
          [
            [
              -79.87589505640453,
              32.577105386878934
            ],
            [
              -79.87530137143166,
              32.577505052725826
            ],
            [
              -79.87482742679516,
              32.57700460214576
            ],
            [
              -79.87589505640453,
              32.577105386878934
            ]
          ]
        ]
      }
    },
    {
      "type": "Feature",
      "properties": {
        "dn": 2,
        "PRODUCT": "Day 1 Excessive Rainfall Potential Forecast",
        "VALID_TIME": "16Z 08/05/26 - 12Z 08/06/26",
        "OUTLOOK": "Slight (At Least 15%)",
        "ISSUE_TIME": "2026-08-05 15:48:00",
        "START_TIME": "2026-08-05 16:00:00",
        "END_TIME": "2026-08-06 12:00:00",
        "Snippet": "16Z 08/05/26 - 12Z 08/06/26",
        "risk_norm": "SLIGHT"
      },
      "geometry": {
        "type": "Polygon",
        "coordinates": [
          [
            [
              -79.81651066115114,
              32.617052948430505
            ],
            [
              -79.81591656057182,
              32.61745235662899
            ],
            [
              -79.81544271058564,
              32.61695177935601
            ],
            [
              -79.81651066115114,
              32.617052948430505
            ]
          ]
        ]
      }
    },
    {
      "type": "Feature",
      "properties": {
        "dn": 2,
        "PRODUCT": "Day 1 Excessive Rainfall Potential Forecast",
        "VALID_TIME": "16Z 08/05/26 - 12Z 08/06/26",
        "OUTLOOK": "Slight (At Least 15%)",
        "ISSUE_TIME": "2026-08-05 15:48:00",
        "START_TIME": "2026-08-05 16:00:00",
        "END_TIME": "2026-08-06 12:00:00",
        "Snippet": "16Z 08/05/26 - 12Z 08/06/26",
        "risk_norm": "SLIGHT"
      },
      "geometry": {
        "type": "Polygon",
        "coordinates": [
          [
            [
              -79.75708471624844,
              32.65697473850272
            ],
            [
              -79.75649019985451,
              32.65737388868244
            ],
            [
              -79.75601644494927,
              32.656873184952836
            ],
            [
              -79.75708471624844,
              32.65697473850272
            ]
          ]
        ]
      }
    },
    {
      "type": "Feature",
      "properties": {
        "dn": 2,
        "PRODUCT": "Day 1 Excessive Rainfall Potential Forecast",
        "VALID_TIME": "16Z 08/05/26 - 12Z 08/06/26",
        "OUTLOOK": "Slight (At Least 15%)",
        "ISSUE_TIME": "2026-08-05 15:48:00",
        "START_TIME": "2026-08-05 16:00:00",
        "END_TIME": "2026-08-06 12:00:00",
        "Snippet": "16Z 08/05/26 - 12Z 08/06/26",
        "risk_norm": "SLIGHT"
      },
      "geometry": {
        "type": "Polygon",
        "coordinates": [
          [
            [
              -79.69761720093393,
              32.69687072008153
            ],
            [
              -79.69702226851759,
              32.69726961187264
            ],
            [
              -79.69654860912469,
              32.69676878192268
            ],
            [
              -79.69761720093393,
              32.69687072008153
            ]
          ]
        ]
      }
    },
    {
      "type": "Feature",
      "properties": {
        "dn": 2,
        "PRODUCT": "Day 1 Excessive Rainfall Potential Forecast",
        "VALID_TIME": "16Z 08/05/26 - 12Z 08/06/26",
        "OUTLOOK": "Slight (At Least 15%)",
        "ISSUE_TIME": "2026-08-05 15:48:00",
        "START_TIME": "2026-08-05 16:00:00",
        "END_TIME": "2026-08-06 12:00:00",
        "Snippet": "16Z 08/05/26 - 12Z 08/06/26",
        "risk_norm": "SLIGHT"
      },
      "geometry": {
        "type": "Polygon",
        "coordinates": [
          [
            [
              -79.63810809447993,
              32.73674085620788
            ],
            [
              -79.6375127458337,
              32.73713948924107
            ],
            [
              -79.63703918238525,
              32.736638533307016
            ],
            [
              -79.63810809447993,
              32.73674085620788
            ]
          ]
        ]
      }
    },
    {
      "type": "Feature",
      "properties": {
        "dn": 2,
        "PRODUCT": "Day 1 Excessive Rainfall Potential Forecast",
        "VALID_TIME": "16Z 08/05/26 - 12Z 08/06/26",
        "OUTLOOK": "Slight (At Least 15%)",
        "ISSUE_TIME": "2026-08-05 15:48:00",
        "START_TIME": "2026-08-05 16:00:00",
        "END_TIME": "2026-08-06 12:00:00",
        "Snippet": "16Z 08/05/26 - 12Z 08/06/26",
        "risk_norm": "SLIGHT"
      },
      "geometry": {
        "type": "Polygon",
        "coordinates": [
          [
            [
              -79.57855737619391,
              32.77658510997764
            ],
            [
              -79.57796161111071,
              32.77698348388424
            ],
            [
              -79.57748814403953,
              32.7764824022022
            ],
            [
              -79.57855737619391,
              32.77658510997764
            ]
          ]
        ]
      }
    },
    {
      "type": "Feature",
      "properties": {
        "dn": 2,
        "PRODUCT": "Day 1 Excessive Rainfall Potential Forecast",
        "VALID_TIME": "16Z 08/05/26 - 12Z 08/06/26",
        "OUTLOOK": "Slight (At Least 15%)",
        "ISSUE_TIME": "2026-08-05 15:48:00",
        "START_TIME": "2026-08-05 16:00:00",
        "END_TIME": "2026-08-06 12:00:00",
        "Snippet": "16Z 08/05/26 - 12Z 08/06/26",
        "risk_norm": "SLIGHT"
      },
      "geometry": {
        "type": "Polygon",
        "coordinates": [
          [
            [
              -79.51896502541864,
              32.81640344454209
            ],
            [
              -79.51836884369169,
              32.81680155895387
            ],
            [
              -79.51789547343134,
              32.81630035175996
            ],
            [
              -79.51896502541864,
              32.81640344454209
            ]
          ]
        ]
      }
    },
    {
      "type": "Feature",
      "properties": {
        "dn": 2,
        "PRODUCT": "Day 1 Excessive Rainfall Potential Forecast",
        "VALID_TIME": "16Z 08/05/26 - 12Z 08/06/26",
        "OUTLOOK": "Slight (At Least 15%)",
        "ISSUE_TIME": "2026-08-05 15:48:00",
        "START_TIME": "2026-08-05 16:00:00",
        "END_TIME": "2026-08-06 12:00:00",
        "Snippet": "16Z 08/05/26 - 12Z 08/06/26",
        "risk_norm": "SLIGHT"
      },
      "geometry": {
        "type": "Polygon",
        "coordinates": [
          [
            [
              -79.45933102153215,
              32.85619582310729
            ],
            [
              -79.45873442295509,
              32.856593677656626
            ],
            [
              -79.45826114993984,
              32.856092345186994
            ],
            [
              -79.45933102153215,
              32.85619582310729
            ]
          ]
        ]
      }
    },
    {
      "type": "Feature",
      "properties": {
        "dn": 2,
        "PRODUCT": "Day 1 Excessive Rainfall Potential Forecast",
        "VALID_TIME": "16Z 08/05/26 - 12Z 08/06/26",
        "OUTLOOK": "Slight (At Least 15%)",
        "ISSUE_TIME": "2026-08-05 15:48:00",
        "START_TIME": "2026-08-05 16:00:00",
        "END_TIME": "2026-08-06 12:00:00",
        "Snippet": "16Z 08/05/26 - 12Z 08/06/26",
        "risk_norm": "SLIGHT"
      },
      "geometry": {
        "type": "Polygon",
        "coordinates": [
          [
            [
              -79.39965534394851,
              32.895962208934876
            ],
            [
              -79.39905832831526,
              32.89635980325469
            ],
            [
              -79.39858515298015,
              32.89585834574527
            ],
            [
              -79.39965534394851,
              32.895962208934876
            ]
          ]
        ]
      }
    },
    {
      "type": "Feature",
      "properties": {
        "dn": 2,
        "PRODUCT": "Day 1 Excessive Rainfall Potential Forecast",
        "VALID_TIME": "16Z 08/05/26 - 12Z 08/06/26",
        "OUTLOOK": "Slight (At Least 15%)",
        "ISSUE_TIME": "2026-08-05 15:48:00",
        "START_TIME": "2026-08-05 16:00:00",
        "END_TIME": "2026-08-06 12:00:00",
        "Snippet": "16Z 08/05/26 - 12Z 08/06/26",
        "risk_norm": "SLIGHT"
      },
      "geometry": {
        "type": "Polygon",
        "coordinates": [
          [
            [
              -79.33993797211711,
              32.93570256534176
            ],
            [
              -79.33934053922204,
              32.93609989906554
            ],
            [
              -79.33886746200277,
              32.935598316752255
            ],
            [
              -79.33993797211711,
              32.93570256534176
            ]
          ]
        ]
      }
    },
    {
      "type": "Feature",
      "properties": {
        "dn": 2,
        "PRODUCT": "Day 1 Excessive Rainfall Potential Forecast",
        "VALID_TIME": "16Z 08/05/26 - 12Z 08/06/26",
        "OUTLOOK": "Slight (At Least 15%)",
        "ISSUE_TIME": "2026-08-05 15:48:00",
        "START_TIME": "2026-08-05 16:00:00",
        "END_TIME": "2026-08-06 12:00:00",
        "Snippet": "16Z 08/05/26 - 12Z 08/06/26",
        "risk_norm": "SLIGHT"
      },
      "geometry": {
        "type": "Polygon",
        "coordinates": [
          [
            [
              -79.28017888552378,
              32.97541685570005
            ],
            [
              -79.27958103516151,
              32.97581392846177
            ],
            [
              -79.27910805649458,
              32.97531222158057
            ],
            [
              -79.28017888552378,
              32.97541685570005
            ]
          ]
        ]
      }
    },
    {
      "type": "Feature",
      "properties": {
        "dn": 2,
        "PRODUCT": "Day 1 Excessive Rainfall Potential Forecast",
        "VALID_TIME": "16Z 08/05/26 - 12Z 08/06/26",
        "OUTLOOK": "Slight (At Least 15%)",
        "ISSUE_TIME": "2026-08-05 15:48:00",
        "START_TIME": "2026-08-05 16:00:00",
        "END_TIME": "2026-08-06 12:00:00",
        "Snippet": "16Z 08/05/26 - 12Z 08/06/26",
        "risk_norm": "SLIGHT"
      },
      "geometry": {
        "type": "Polygon",
        "coordinates": [
          [
            [
              -79.22037806369028,
              33.0151050434375
            ],
            [
              -79.21977979565587,
              33.015501854871836
            ],
            [
              -79.21930691597844,
              33.01500002365846
            ],
            [
              -79.22037806369028,
              33.0151050434375
            ]
          ]
        ]
      }
    },
    {
      "type": "Feature",
      "properties": {
        "dn": 2,
        "PRODUCT": "Day 1 Excessive Rainfall Potential Forecast",
        "VALID_TIME": "16Z 08/05/26 - 12Z 08/06/26",
        "OUTLOOK": "Slight (At Least 15%)",
        "ISSUE_TIME": "2026-08-05 15:48:00",
        "START_TIME": "2026-08-05 16:00:00",
        "END_TIME": "2026-08-06 12:00:00",
        "Snippet": "16Z 08/05/26 - 12Z 08/06/26",
        "risk_norm": "SLIGHT"
      },
      "geometry": {
        "type": "Polygon",
        "coordinates": [
          [
            [
              -79.16053548617467,
              33.05476709203724
            ],
            [
              -79.15993680026352,
              33.05516364177929
            ],
            [
              -79.15946402001353,
              33.05466168646954
            ],
            [
              -79.16053548617467,
              33.05476709203724
            ]
          ]
        ]
      }
    },
    {
      "type": "Feature",
      "properties": {
        "dn": 2,
        "PRODUCT": "Day 1 Excessive Rainfall Potential Forecast",
        "VALID_TIME": "16Z 08/05/26 - 12Z 08/06/26",
        "OUTLOOK": "Slight (At Least 15%)",
        "ISSUE_TIME": "2026-08-05 15:48:00",
        "START_TIME": "2026-08-05 16:00:00",
        "END_TIME": "2026-08-06 12:00:00",
        "Snippet": "16Z 08/05/26 - 12Z 08/06/26",
        "risk_norm": "SLIGHT"
      },
      "geometry": {
        "type": "Polygon",
        "coordinates": [
          [
            [
              -79.10065113257164,
              33.09440296503806
            ],
            [
              -79.10005202857954,
              33.09479925272354
            ],
            [
              -79.09957934819563,
              33.09429717355307
            ],
            [
              -79.10065113257164,
              33.09440296503806
            ]
          ]
        ]
      }
    },
    {
      "type": "Feature",
      "properties": {
        "dn": 2,
        "PRODUCT": "Day 1 Excessive Rainfall Potential Forecast",
        "VALID_TIME": "16Z 08/05/26 - 12Z 08/06/26",
        "OUTLOOK": "Slight (At Least 15%)",
        "ISSUE_TIME": "2026-08-05 15:48:00",
        "START_TIME": "2026-08-05 16:00:00",
        "END_TIME": "2026-08-06 12:00:00",
        "Snippet": "16Z 08/05/26 - 12Z 08/06/26",
        "risk_norm": "SLIGHT"
      },
      "geometry": {
        "type": "Polygon",
        "coordinates": [
          [
            [
              -79.0407249825126,
              33.13401262603438
            ],
            [
              -79.04012546023567,
              33.134408651299516
            ],
            [
              -79.03965288015723,
              33.133906448504
            ],
            [
              -79.0407249825126,
              33.13401262603438
            ]
          ]
        ]
      }
    },
    {
      "type": "Feature",
      "properties": {
        "dn": 2,
        "PRODUCT": "Day 1 Excessive Rainfall Potential Forecast",
        "VALID_TIME": "16Z 08/05/26 - 12Z 08/06/26",
        "OUTLOOK": "Slight (At Least 15%)",
        "ISSUE_TIME": "2026-08-05 15:48:00",
        "START_TIME": "2026-08-05 16:00:00",
        "END_TIME": "2026-08-06 12:00:00",
        "Snippet": "16Z 08/05/26 - 12Z 08/06/26",
        "risk_norm": "SLIGHT"
      },
      "geometry": {
        "type": "Polygon",
        "coordinates": [
          [
            [
              -78.98075701566584,
              33.17359603867615
            ],
            [
              -78.98015707490062,
              33.173991801157776
            ],
            [
              -78.97968459556773,
              33.17348947497279
            ],
            [
              -78.98075701566584,
              33.17359603867615
            ]
          ]
        ]
      }
    },
    {
      "type": "Feature",
      "properties": {
        "dn": 2,
        "PRODUCT": "Day 1 Excessive Rainfall Potential Forecast",
        "VALID_TIME": "16Z 08/05/26 - 12Z 08/06/26",
        "OUTLOOK": "Slight (At Least 15%)",
        "ISSUE_TIME": "2026-08-05 15:48:00",
        "START_TIME": "2026-08-05 16:00:00",
        "END_TIME": "2026-08-06 12:00:00",
        "Snippet": "16Z 08/05/26 - 12Z 08/06/26",
        "risk_norm": "SLIGHT"
      },
      "geometry": {
        "type": "Polygon",
        "coordinates": [
          [
            [
              -78.92074721173672,
              33.21315316666939
            ],
            [
              -78.92014685228006,
              33.213548666004876
            ],
            [
              -78.91967447413359,
              33.21304621666587
            ],
            [
              -78.92074721173672,
              33.21315316666939
            ]
          ]
        ]
      }
    },
    {
      "type": "Feature",
      "properties": {
        "dn": 2,
        "PRODUCT": "Day 1 Excessive Rainfall Potential Forecast",
        "VALID_TIME": "16Z 08/05/26 - 12Z 08/06/26",
        "OUTLOOK": "Slight (At Least 15%)",
        "ISSUE_TIME": "2026-08-05 15:48:00",
        "START_TIME": "2026-08-05 16:00:00",
        "END_TIME": "2026-08-06 12:00:00",
        "Snippet": "16Z 08/05/26 - 12Z 08/06/26",
        "risk_norm": "SLIGHT"
      },
      "geometry": {
        "type": "Polygon",
        "coordinates": [
          [
            [
              -78.86069555046772,
              33.252683973775575
            ],
            [
              -78.86009477211688,
              33.25307920960287
            ],
            [
              -78.85980132961073,
              33.25259455647008
            ],
            [
              -78.86069555046772,
              33.252683973775575
            ]
          ]
        ]
      }
    },
    {
      "type": "Feature",
      "properties": {
        "dn": 2,
        "PRODUCT": "Day 1 Excessive Rainfall Potential Forecast",
        "VALID_TIME": "16Z 08/05/26 - 12Z 08/06/26",
        "OUTLOOK": "Slight (At Least 15%)",
        "ISSUE_TIME": "2026-08-05 15:48:00",
        "START_TIME": "2026-08-05 16:00:00",
        "END_TIME": "2026-08-06 12:00:00",
        "Snippet": "16Z 08/05/26 - 12Z 08/06/26",
        "risk_norm": "SLIGHT"
      },
      "geometry": {
        "type": "Polygon",
        "coordinates": [
          [
            [
              -93.53834046128239,
              37.679074973534
            ],
            [
              -95.16987902978242,
              37.90778003645439
            ],
            [
              -95.73624943540126,
              38.21795852463618
            ],
            [
              -96.02488020057665,
              38.837678718906886
            ],
            [
              -96.0339906495139,
              39.76608491369493
            ],
            [
              -95.8681389918578,
              40.51549465366407
            ],
            [
              -95.69657189205928,
              40.77973877662263
            ],
            [
              -95.00080368137881,
              41.17606822630835
            ],
            [
              -93.9517462413539,
              41.3918488188325
            ],
            [
              -89.73085395487286,
              41.84271374351021
            ],
            [
              -88.18420917388049,
              42.184118756583004
            ],
            [
              -87.7736190378682,
              42.168346486405554
            ],
            [
              -87.48962522628959,
              42.02556256205347
            ],
            [
              -87.07268188157991,
              41.35177216356715
            ],
            [
              -87.055482297252,
              40.824375199047324
            ],
            [
              -87.19123113352195,
              40.56649429304979
            ],
            [
              -87.69045899885123,
              40.05902538261539
            ],
            [
              -88.89490000843546,
              39.176353443008246
            ],
            [
              -90.47618037258728,
              38.24866811162483
            ],
            [
              -91.45196143930141,
              37.82670359159255
            ],
            [
              -92.41360264711258,
              37.66578301655428
            ],
            [
              -93.53834046128239,
              37.679074973534
            ]
          ]
        ]
      }
    }
  ]
}
