{"type": "FeatureCollection", "features": [{"type": "Feature", "properties": {"dn": 1, "PRODUCT": "Day 2 Excessive Rainfall Potential Forecast", "VALID_TIME": "12Z 08/06/26 - 12Z 08/07/26", "OUTLOOK": "Marginal (At Least 5%)", "ISSUE_TIME": "2026-08-05 08:06:00", "START_TIME": "2026-08-06 12:00:00", "END_TIME": "2026-08-07 12:00:00", "Snippet": "12Z 08/06/26 - 12Z 08/07/26"}, "geometry": {"type": "Polygon", "coordinates": [[[-103.43615605750442, 28.87863360121877], [-104.64208958358151, 29.585567873281928], [-104.87761417462117, 29.890359737728467], [-104.90828457938767, 30.253446935923108], [-105.028860756658, 30.4282232571379], [-106.055277882567, 31.224775584563876], [-106.50210402882288, 31.421674705201944], [-106.57207952163469, 31.597888069269302], [-107.96578444528456, 31.62688053767055], [-108.06062585381395, 31.52882876890281], [-108.07866176117668, 31.20713454245347], [-109.50931757052109, 31.12780594303685], [-110.95653789383776, 31.17089174187611], [-112.74400861250615, 31.666577967101908], [-112.74389520241874, 32.35347030504513], [-112.86751695519914, 32.796453546429696], [-113.19181337171082, 33.1251821608467], [-113.73991013530059, 33.472987629518414], [-113.95357704861947, 33.76728906497335], [-114.14464292527157, 34.88287734642406], [-114.07408284603383, 35.43587545778612], [-113.94879067579993, 35.67694579082812], [-113.33594316028038, 36.01823532432222], [-112.79403891196654, 36.122160526911436], [-112.17501964099591, 36.09665764976476], [-111.9261603017193, 35.94049941633689], [-111.42109862377065, 35.17710388482951], [-111.0558210491353, 34.94225452992865], [-110.43139199399691, 34.82082220314674], [-109.21529992749599, 34.79461643302172], [-108.61573364301297, 34.845316509862364], [-107.63348189987707, 34.92356443556224], [-106.7735322847762, 35.122588796720734], [-106.14803365806763, 35.48148218409488], [-104.89017717710922, 36.863354468868465], [-103.54661020480782, 37.56231362155047], [-100.84190656168603, 38.521499598096774], [-99.21267766377075, 38.92355283302309], [-98.14888881339004, 39.52111491503157], [-97.411082919179, 39.79763350978767], [-95.11587535378028, 40.078504853945084], [-93.84953201809022, 40.118848843748154], [-92.1709282813909, 40.45207768484324], [-90.05324802697194, 41.23998792732919], [-85.63362214298502, 43.02961753536328], [-81.99523436686772, 44.02483143319216], [-81.94410209198836, 43.50058694901688], [-82.27046455317858, 42.827620362908796], [-82.30364670049526, 42.5683173966887], [-82.44289354405349, 42.40329847652661], [-82.88485609396244, 42.170957840231544], [-82.90579323105966, 41.99738564827912], [-82.74756275819861, 41.85631426876429], [-82.51436228639966, 41.84042133809318], [-81.26070402531013, 42.406627481895526], [-79.54933668946785, 42.75106049076701], [-79.21609475076576, 42.983840967683406], [-79.33106816917073, 43.38574377884201], [-79.23619839746056, 43.59602844913372], [-78.48307327097176, 43.79156363369032], [-76.9799881275183, 43.78298999363961], [-76.52916068956802, 44.2594847389758], [-75.62050702152317, 44.86149209774918], [-74.88210589198688, 45.17468476094672], [-73.28904503436085, 45.17293093291393], [-72.84061253113221, 44.991348752751094], [-72.38350691395605, 44.5891185811698], [-72.19880331113568, 43.82549815541394], [-72.23186882601006, 42.908828028317004], [-72.48659758228638, 41.52798423492206], [-72.66874461720673, 41.24037751874654], [-73.10696661069693, 40.85065624854032], [-73.83741481458242, 40.44930288898417], [-74.6660180514198, 40.10161275033824], [-76.66551772043046, 38.98548684181074], [-79.02279938484736, 37.07013302856563], [-79.5626955502307, 36.44549954138076], [-79.72324927691663, 36.099690982123526], [-79.77916363245662, 35.69869888398115], [-79.70671998066851, 35.42097868114817], [-79.47182431295074, 35.128636087356604], [-79.14439511454235, 35.09749547626776], [-78.85209462550307, 35.20495661275356], [-76.74095996396358, 36.56887496313794], [-76.32435856627276, 36.70359647757848], [-76.04837336112816, 36.67268608759656], [-75.74106868898437, 36.50216115878287], [-75.37195293310661, 36.051109486143446], [-75.27178352967032, 35.67668202626914], [-75.39012578823704, 35.32774737494396], [-75.85685727141833, 34.883052286150914], [-76.72189542794939, 34.34456694391836], [-76.93820750877394, 34.36864437523582], [-77.5412988933626, 34.025999103894556], [-77.6369688076082, 33.763255976864095], [-77.94150720742125, 33.567094813952814], [-78.37836769065561, 33.567026823234485], [-78.85266302286722, 33.29740433841915], [-78.95104710445564, 32.98846809412986], [-80.49445341643577, 31.950699855526654], [-81.37267230131509, 30.88769197061478], [-82.3133846280582, 29.092225548504604], [-82.6780777177571, 28.617290464926924], [-83.01354198177367, 28.919274090831202], [-83.76068109830638, 29.842955168808366], [-84.01885301228684, 29.907929557356358], [-84.32734815934421, 30.568221161010175], [-85.51386517712326, 34.18560417954223], [-85.61661633460245, 34.91385203514594], [-85.52853577668591, 35.94428800823139], [-85.75182215500593, 36.58514021768563], [-86.01011934451361, 36.82223067809406], [-86.6227680924638, 36.85367928865492], [-86.90802213693554, 36.778028389018836], [-89.24745540276217, 35.843248962809064], [-90.03334972007274, 35.59907820153604], [-91.86792410876687, 35.149431814514394], [-93.41116158405835, 34.856574190907395], [-94.12441942376635, 34.77189094056348], [-95.82232461061132, 34.77216487862008], [-99.12070364955059, 35.082821660102155], [-99.78714393987002, 35.24481545234654], [-100.39171672103221, 35.226269160727554], [-101.9016257250795, 34.71988600794085], [-102.9625052974265, 34.2207248500474], [-103.73169706683157, 33.59455877528343], [-103.96983641076592, 33.1739952744719], [-103.99863584769295, 32.85507230346981], [-103.70420539166871, 31.827083905624026], [-102.5839396935793, 29.425686780005698], [-102.67353584704607, 29.193135991427127], [-102.96863089913445, 28.90342939769026], [-103.43615605750442, 28.87863360121877]]]}}]}