{
  "type": "FeatureCollection",
  "features": [
    {
      "type": "Feature",
      "properties": {
        "dn": 1,
        "PRODUCT": "Day 1 Excessive Rainfall Potential Forecast",
        "VALID_TIME": "16Z 08/18/26 - 12Z 08/19/26",
        "OUTLOOK": "Marginal (At Least 5%)",
        "ISSUE_TIME": "2026-08-18 15:59:00",
        "START_TIME": "2026-08-18 16:00:00",
        "END_TIME": "2026-08-19 12:00:00",
        "Snippet": "16Z 08/18/26 - 12Z 08/19/26",
        "risk_norm": "MARGINAL"
      },
      "geometry": {
        "type": "Polygon",
        "coordinates": [
          [
            [
              -97.10367076078036,
              38.782776137855656
            ],
            [
              -97.78668761860781,
              38.81749718917903
            ],
            [
              -99.3118817256135,
              38.56455838918422
            ],
            [
              -100.10533905519958,
              38.54299893949191
            ],
            [
              -102.22769253537484,
              38.867046784628904
            ],
            [
              -102.811912432298,
              39.063574699656705
            ],
            [
              -103.17501325750172,
              39.31372297222796
            ],
            [
              -103.44216425612784,
              39.78774348271152
            ],
            [
              -103.43845288696703,
              40.44972040201355
            ],
            [
              -103.12264016770392,
              40.861206457710566
            ],
            [
              -102.27598915950445,
              41.20478348554184
            ],
            [
              -100.53218755816683,
              41.266774532167894
            ],
            [
              -99.09165719377256,
              41.65510487067186
            ],
            [
              -94.29474947763465,
              42.353579487269045
            ],
            [
              -93.82201363316838,
              42.52506278175898
            ],
            [
              -93.34597185728366,
              42.867825424592674
            ],
            [
              -92.55375665223521,
              43.810396079060354
            ],
            [
              -92.0033901086552,
              44.190848754932865
            ],
            [
              -91.39778833618799,
              44.352239551422706
            ],
            [
              -89.22785767653957,
              44.47046805850298
            ],
            [
              -88.36368122637163,
              44.785622559718966
            ],
            [
              -87.35940254974432,
              45.261951151133125
            ],
            [
              -86.8002097043535,
              45.40988290163475
            ],
            [
              -86.00870656176289,
              45.41732799762505
            ],
            [
              -85.17414305807273,
              45.248262506188716
            ],
            [
              -83.89981198820196,
              44.706721100258136
            ],
            [
              -83.51408586099366,
              44.3816017751409
            ],
            [
              -83.26683524368114,
              43.934731390556856
            ],
            [
              -83.60555298265017,
              43.088828121030474
            ],
            [
              -84.09536104877796,
              42.4218374429963
            ],
            [
              -84.41768030466348,
              42.178005112560065
            ],
            [
              -85.27996084589488,
              41.78894127651924
            ],
            [
              -86.00381546481138,
              41.563681445211145
            ],
            [
              -87.54188817177949,
              41.32708482819106
            ],
            [
              -88.43988715639016,
              40.96737099239663
            ],
            [
              -88.98112380464401,
              40.63585964451479
            ],
            [
              -89.23446390878627,
              40.24821360990419
            ],
            [
              -89.25400698501257,
              39.896170191762444
            ],
            [
              -89.11178987769861,
              39.36127562996997
            ],
            [
              -89.11669834881265,
              38.25257245644367
            ],
            [
              -89.55762985088101,
              37.37621656023766
            ],
            [
              -89.79375237041165,
              37.15949820331829
            ],
            [
              -90.36084652040013,
              36.99725114916527
            ],
            [
              -91.53420575747776,
              37.02526631602428
            ],
            [
              -97.10367076078036,
              38.782776137855656
            ]
          ],
          [
            [
              -90.50989707315786,
              37.44810166855138
            ],
            [
              -90.28162267605875,
              37.531134143273555
            ],
            [
              -89.93166029929166,
              37.78896612692765
            ],
            [
              -89.80835261842772,
              38.00789940061825
            ],
            [
              -89.79318285623208,
              38.31875745476566
            ],
            [
              -90.05112612249741,
              38.85897582013553
            ],
            [
              -90.54831951651212,
              39.22714961714983
            ],
            [
              -92.07417068957022,
              39.78940669822969
            ],
            [
              -93.96289604313768,
              40.29517335710092
            ],
            [
              -95.92574226302798,
              40.559585583279
            ],
            [
              -96.50315243768202,
              40.51171202939885
            ],
            [
              -96.73187717680139,
              40.3333165280118
            ],
            [
              -96.84252509438411,
              40.068080542136
            ],
            [
              -96.83396098145512,
              39.583032285261034
            ],
            [
              -96.71581124658722,
              39.36333013537226
            ],
            [
              -96.42710830776811,
              39.18859803006301
            ],
            [
              -92.57928084411262,
              37.801792815116116
            ],
            [
              -91.01646121527212,
              37.41607685974341
            ],
            [
              -90.50989707315786,
              37.44810166855138
            ]
          ]
        ]
      }
    },
    {
      "type": "Feature",
      "properties": {
        "dn": 2,
        "PRODUCT": "Day 1 Excessive Rainfall Potential Forecast",
        "VALID_TIME": "16Z 08/18/26 - 12Z 08/19/26",
        "OUTLOOK": "Slight (At Least 15%)",
        "ISSUE_TIME": "2026-08-18 15:59:00",
        "START_TIME": "2026-08-18 16:00:00",
        "END_TIME": "2026-08-19 12:00:00",
        "Snippet": "16Z 08/18/26 - 12Z 08/19/26",
        "risk_norm": "SLIGHT"
      },
      "geometry": {
        "type": "Polygon",
        "coordinates": [
          [
            [
              -91.01646121527212,
              37.41607685974341
            ],
            [
              -92.57928084411262,
              37.801792815116116
            ],
            [
              -96.42710830776811,
              39.18859803006301
            ],
            [
              -96.71581124658722,
              39.36333013537226
            ],
            [
              -96.83396098145512,
              39.583032285261034
            ],
            [
              -96.84252509438411,
              40.068080542136
            ],
            [
              -96.73187717680139,
              40.3333165280118
            ],
            [
              -96.50315243768202,
              40.51171202939885
            ],
            [
              -95.92574226302798,
              40.559585583279
            ],
            [
              -93.96289604313768,
              40.29517335710092
            ],
            [
              -92.07417068957022,
              39.78940669822969
            ],
            [
              -90.54831951651212,
              39.22714961714983
            ],
            [
              -90.05112612249741,
              38.85897582013553
            ],
            [
              -89.79318285623208,
              38.31875745476566
            ],
            [
              -89.80835261842772,
              38.00789940061825
            ],
            [
              -89.93166029929166,
              37.78896612692765
            ],
            [
              -90.28162267605875,
              37.531134143273555
            ],
            [
              -90.50989707315786,
              37.44810166855138
            ],
            [
              -91.01646121527212,
              37.41607685974341
            ]
          ]
        ]
      }
    }
  ]
}
