{
  "type": "FeatureCollection",
  "features": [
    {
      "type": "Feature",
      "properties": {
        "dn": 1,
        "PRODUCT": "Day 2 Excessive Rainfall Potential Forecast",
        "VALID_TIME": "12Z 08/19/26 - 12Z 08/20/26",
        "OUTLOOK": "Marginal (At Least 5%)",
        "ISSUE_TIME": "2026-08-18 07:42:00",
        "START_TIME": "2026-08-19 12:00:00",
        "END_TIME": "2026-08-20 12:00:00",
        "Snippet": "12Z 08/19/26 - 12Z 08/20/26",
        "risk_norm": "MARGINAL"
      },
      "geometry": {
        "type": "Polygon",
        "coordinates": [
          [
            [
              -108.97623571561925,
              31.13024758539512
            ],
            [
              -110.73956450880605,
              31.14696319042524
            ],
            [
              -111.28534598770817,
              31.228769081486856
            ],
            [
              -114.10890040548628,
              32.104075470339254
            ],
            [
              -113.8546536310408,
              33.50524730071364
            ],
            [
              -113.89793826285877,
              34.41135925874623
            ],
            [
              -113.84053850730383,
              35.37195372039584
            ],
            [
              -113.73001457922493,
              35.70179767872636
            ],
            [
              -113.54033358309113,
              35.90510413337386
            ],
            [
              -113.01386200739115,
              36.09857033053926
            ],
            [
              -111.52826294211572,
              36.25217255294858
            ],
            [
              -110.34490144623275,
              36.184523775428886
            ],
            [
              -109.8486074328583,
              36.22930158260431
            ],
            [
              -109.4248154306853,
              36.401411647857714
            ],
            [
              -108.97970053446494,
              36.842769471859825
            ],
            [
              -108.56354965275334,
              37.54932580466901
            ],
            [
              -108.24785458432633,
              38.64607648940765
            ],
            [
              -108.06009996834612,
              38.97197587326095
            ],
            [
              -107.38435194060781,
              39.55508608168052
            ],
            [
              -106.07093226720205,
              40.173592971602766
            ],
            [
              -104.32138750024639,
              40.62676097050426
            ],
            [
              -103.05099480087571,
              40.68859290747212
            ],
            [
              -101.93787322702735,
              40.51539514452832
            ],
            [
              -101.28685547640796,
              40.27544642836707
            ],
            [
              -100.79775722395613,
              39.8062094715042
            ],
            [
              -100.52860072186049,
              39.063126365090675
            ],
            [
              -100.54359188167649,
              38.263820714265755
            ],
            [
              -100.8460245036414,
              37.58591111394843
            ],
            [
              -101.36516768916172,
              36.85270355737273
            ],
            [
              -101.73428720654947,
              36.47937693458954
            ],
            [
              -103.01766278399111,
              35.74986238673887
            ],
            [
              -104.1401607136948,
              34.611730216602425
            ],
            [
              -104.67006024665422,
              33.76776615270258
            ],
            [
              -104.9155220295969,
              32.8466154412933
            ],
            [
              -105.1022255697801,
              32.517241347562376
            ],
            [
              -105.25569862928094,
              32.41575113801479
            ],
            [
              -105.63002327554857,
              32.3913591063351
            ],
            [
              -106.01288995520451,
              32.45639231445623
            ],
            [
              -107.4506747187714,
              32.30558378648893
            ],
            [
              -108.04858059694979,
              31.894462697968475
            ],
            [
              -108.27772264742019,
              31.556400091851415
            ],
            [
              -108.39558800441405,
              31.18057992011447
            ],
            [
              -108.97623571561925,
              31.13024758539512
            ]
          ]
        ]
      }
    },
    {
      "type": "Feature",
      "properties": {
        "dn": 1,
        "PRODUCT": "Day 2 Excessive Rainfall Potential Forecast",
        "VALID_TIME": "12Z 08/19/26 - 12Z 08/20/26",
        "OUTLOOK": "Marginal (At Least 5%)",
        "ISSUE_TIME": "2026-08-18 07:42:00",
        "START_TIME": "2026-08-19 12:00:00",
        "END_TIME": "2026-08-20 12:00:00",
        "Snippet": "12Z 08/19/26 - 12Z 08/20/26",
        "risk_norm": "MARGINAL"
      },
      "geometry": {
        "type": "Polygon",
        "coordinates": [
          [
            [
              -92.30312071591193,
              35.33687006210757
            ],
            [
              -93.06904407261185,
              35.61697806534767
            ],
            [
              -93.7271518628579,
              35.98214099192519
            ],
            [
              -94.22375455698617,
              36.3892064965086
            ],
            [
              -94.27844607883357,
              36.52369433047375
            ],
            [
              -94.2745737238476,
              37.104614527168415
            ],
            [
              -93.87459291752995,
              37.90462319621121
            ],
            [
              -93.35937949866658,
              38.34588379771068
            ],
            [
              -92.73024354537547,
              38.6494454082151
            ],
            [
              -91.12043161067645,
              39.19696505370194
            ],
            [
              -89.85090902671607,
              39.47386434005493
            ],
            [
              -88.05925886033323,
              39.72162357154339
            ],
            [
              -85.5393698665379,
              40.26687734454769
            ],
            [
              -84.72155241929354,
              40.35372431187615
            ],
            [
              -82.91955998610948,
              40.41678447033418
            ],
            [
              -81.13926986683236,
              40.286583835194676
            ],
            [
              -80.3169015851679,
              39.95445967092159
            ],
            [
              -79.8595318456408,
              39.515242397887924
            ],
            [
              -79.85372112023144,
              39.15888691669725
            ],
            [
              -79.99230683309115,
              38.992765279887244
            ],
            [
              -80.74488278738102,
              38.52045563847624
            ],
            [
              -81.40510497258552,
              38.26136972256617
            ],
            [
              -81.91717302467774,
              38.25642008974859
            ],
            [
              -82.50631659589038,
              38.07704743332126
            ],
            [
              -83.80933190505839,
              37.54169369773442
            ],
            [
              -84.64801158565841,
              37.01401246931168
            ],
            [
              -85.08729176942879,
              36.50250460706677
            ],
            [
              -85.73328002208889,
              36.13454117948531
            ],
            [
              -87.65495280405845,
              35.64601864197785
            ],
            [
              -89.60761440092993,
              35.271220799816525
            ],
            [
              -90.38116738081358,
              35.204618507455386
            ],
            [
              -91.70042567673633,
              35.236101814769235
            ],
            [
              -92.30312071591193,
              35.33687006210757
            ]
          ],
          [
            [
              -89.46620582395026,
              35.89596230872762
            ],
            [
              -88.23663777570195,
              36.07516372051522
            ],
            [
              -86.07677790610275,
              36.69182835412806
            ],
            [
              -85.89813584475732,
              36.81713604910766
            ],
            [
              -85.82736941123902,
              36.992408505021785
            ],
            [
              -85.77670935732628,
              38.23976407292536
            ],
            [
              -85.87050725358357,
              38.46728035978525
            ],
            [
              -86.35468628546124,
              38.80366028332103
            ],
            [
              -86.74493455437964,
              38.911405736503205
            ],
            [
              -87.31303916469749,
              38.93742139642678
            ],
            [
              -89.22839236835387,
              38.30124857929307
            ],
            [
              -91.31944128330515,
              38.402869916988514
            ],
            [
              -91.71710073331599,
              38.3664641338968
            ],
            [
              -92.06158858604434,
              38.19494969462971
            ],
            [
              -92.0900753371533,
              37.17053656356108
            ],
            [
              -91.71730188429926,
              36.53804153810161
            ],
            [
              -91.00666255483775,
              36.16398131037123
            ],
            [
              -90.01913621181558,
              35.913338773784126
            ],
            [
              -89.46620582395026,
              35.89596230872762
            ]
          ]
        ]
      }
    },
    {
      "type": "Feature",
      "properties": {
        "dn": 2,
        "PRODUCT": "Day 2 Excessive Rainfall Potential Forecast",
        "VALID_TIME": "12Z 08/19/26 - 12Z 08/20/26",
        "OUTLOOK": "Slight (At Least 15%)",
        "ISSUE_TIME": "2026-08-18 07:42:00",
        "START_TIME": "2026-08-19 12:00:00",
        "END_TIME": "2026-08-20 12:00:00",
        "Snippet": "12Z 08/19/26 - 12Z 08/20/26",
        "risk_norm": "SLIGHT"
      },
      "geometry": {
        "type": "Polygon",
        "coordinates": [
          [
            [
              -90.01913621181558,
              35.913338773784126
            ],
            [
              -91.00666255483775,
              36.16398131037123
            ],
            [
              -91.71730188429926,
              36.53804153810161
            ],
            [
              -92.0900753371533,
              37.17053656356108
            ],
            [
              -92.06158858604434,
              38.19494969462971
            ],
            [
              -91.71710073331599,
              38.3664641338968
            ],
            [
              -91.31944128330515,
              38.402869916988514
            ],
            [
              -89.22839236835387,
              38.30124857929307
            ],
            [
              -87.31303916469749,
              38.93742139642678
            ],
            [
              -86.74493455437964,
              38.911405736503205
            ],
            [
              -86.35468628546124,
              38.80366028332103
            ],
            [
              -85.87050725358357,
              38.46728035978525
            ],
            [
              -85.77670935732628,
              38.23976407292536
            ],
            [
              -85.82736941123902,
              36.992408505021785
            ],
            [
              -85.89813584475732,
              36.81713604910766
            ],
            [
              -86.07677790610275,
              36.69182835412806
            ],
            [
              -88.23663777570195,
              36.07516372051522
            ],
            [
              -89.46620582395026,
              35.89596230872762
            ],
            [
              -90.01913621181558,
              35.913338773784126
            ]
          ]
        ]
      }
    }
  ]
}
