{"type": "FeatureCollection", "features": [{"type": "Feature", "properties": {"dn": 1, "PRODUCT": "Day 1 Excessive Rainfall Potential Forecast", "VALID_TIME": "16Z 08/10/26 - 12Z 08/11/26", "OUTLOOK": "Marginal (At Least 5%)", "ISSUE_TIME": "2026-08-10 15:52:00", "START_TIME": "2026-08-10 16:00:00", "END_TIME": "2026-08-11 12:00:00", "Snippet": "16Z 08/10/26 - 12Z 08/11/26"}, "geometry": {"type": "Polygon", "coordinates": [[[-82.11327891509609, 26.141753295246204], [-82.31419693541959, 26.663439990534567], [-82.91195622020456, 27.354153608653096], [-83.17876934092348, 27.78744444256655], [-83.12008427084714, 28.378261282360956], [-82.94683193937682, 28.547912441074573], [-82.98013486242392, 28.7336168061601], [-83.28088857068678, 28.847362681859316], [-83.32023214938555, 28.98850924755592], [-83.98262333699651, 29.721758924327382], [-84.08710279402948, 29.729113279407834], [-84.4813360692646, 29.436485842805258], [-84.91399175906047, 29.282449750682755], [-85.68460892611208, 29.46759498758081], [-85.72344750313837, 29.653424985947463], [-85.96634164550724, 29.894930583775515], [-86.47697752494051, 30.10603567532834], [-87.70158905530097, 29.894447696549744], [-88.38566408006709, 29.879326641562674], [-88.44712950193036, 29.700508416265503], [-88.72582426544463, 29.392829315223135], [-88.6263269559462, 29.297570372466986], [-88.64102342874018, 29.024471877489752], [-88.91871418833526, 28.715305866724048], [-89.34058509721433, 28.594433286198434], [-89.69963740594949, 28.698441485691408], [-89.84552074321768, 28.931472836935967], [-90.11316001993794, 28.757695011491165], [-90.99804491315106, 28.73752277410372], [-91.51093645350859, 28.977942769580498], [-91.6632844398196, 29.11805931176347], [-91.7687822678788, 29.074708869594247], [-91.92392837537177, 29.12344550391372], [-92.43838308397, 29.45175903897676], [-93.01120580729096, 29.59677727833365], [-93.5347150429769, 29.602576166561946], [-94.63561584828221, 29.153501063217945], [-95.2084699452532, 28.65239442400628], [-96.85685130251984, 27.774593082396716], [-97.21686473551082, 27.724165207763605], [-97.47932296088993, 27.903616320126233], [-97.43513683731696, 28.269355685443948], [-96.93000769304194, 29.051691532387125], [-96.41598337349022, 29.649482576977636], [-95.68484130675867, 30.201528561572438], [-95.15890950600927, 30.430388109935183], [-93.62559629192585, 30.78821140924274], [-91.6137289044262, 30.848787183992265], [-90.80890391242303, 31.14766720812741], [-90.20802990752577, 31.584021227034352], [-89.97740550119347, 31.985450729181185], [-90.02296003739681, 32.16833200772411], [-90.95562663421029, 33.05521863948485], [-91.20863046099839, 33.55871212326242], [-91.01910352075784, 34.32153871295589], [-90.19202385196884, 35.78422284167835], [-90.20621318939067, 36.72560394914743], [-90.40642101649068, 37.26732608596002], [-91.21528153120035, 38.17800787467769], [-92.82649168990169, 39.489944703082394], [-94.25056666606217, 40.38327108297189], [-96.64178544381683, 41.95387127191269], [-97.88846194114755, 42.504414183002766], [-100.03472928945703, 42.97933309298652], [-101.6127955449055, 43.53611165617572], [-102.43594042647378, 44.153485711191536], [-103.15877327671363, 44.897287040443146], [-103.19160193580734, 45.28117868761905], [-103.4182929111841, 45.78356271181178], [-103.37251278634717, 45.955833587137576], [-103.19960075998497, 46.09159975806323], [-102.54844301951516, 46.37248205037447], [-101.3960130494668, 46.58274864197917], [-99.30703398031385, 46.639424031850126], [-98.1973093889215, 46.57598486824262], [-96.77807251612475, 46.297702797096555], [-94.09100795543942, 45.32593747678628], [-91.08555668492164, 44.64653240748754], [-89.37542545758444, 44.001675155802246], [-87.21004926695177, 43.36260432060087], [-84.92911055720991, 42.949169766362964], [-83.98517301210376, 42.89530782345995], [-82.13140401058637, 42.99302935417693], [-82.44289354405349, 42.40329847652661], [-82.88485609396244, 42.170957840231544], [-82.90579323105966, 41.99738564827912], [-82.74756275819861, 41.85631426876429], [-82.51436228639966, 41.84042133809318], [-81.26070402531013, 42.406627481895526], [-79.54933668946785, 42.75106049076701], [-79.21609475076576, 42.983840967683406], [-79.33106816917073, 43.38574377884201], [-79.23619839746056, 43.59602844913372], [-78.48307327097176, 43.79156363369032], [-76.9799881275183, 43.78298999363961], [-76.52916068956802, 44.2594847389758], [-75.62050702152317, 44.86149209774918], [-74.88210589198688, 45.17468476094672], [-71.75592308532418, 45.16527476571578], [-71.60681553461849, 45.27615893875982], [-71.56509177735084, 45.444221266004], [-71.05337252270442, 45.51155953131959], [-70.83223225334282, 45.65598115258359], [-70.57622010939406, 45.92610409675092], [-70.223124011811, 46.78530386514592], [-69.36176342073706, 47.617591493711004], [-68.52010158572003, 47.46428406925875], [-68.22797322951953, 47.59611889672744], [-67.65686742395188, 47.17427021222508], [-67.4804491690983, 46.50364932003513], [-67.55774921842674, 45.82209336517042], [-67.29636022371703, 45.654184881780246], [-69.9112231001582, 44.928718792580234], [-71.09039307303408, 44.38570024321051], [-71.52819944419421, 44.09189268146125], [-72.19109014962798, 43.342902681445956], [-72.9094010770264, 41.757533426137186], [-73.45959621613443, 40.84931606893817], [-74.79585877855887, 39.13545347333469], [-75.28997753951388, 38.65511498240839], [-76.10879972932696, 38.2529079104615], [-76.92354905416062, 38.161342752270855], [-78.80852259402872, 38.12568993407866], [-79.5765285548192, 37.92792193668517], [-80.61789995202643, 37.34767276300645], [-81.18840256247873, 36.85660544171564], [-81.4606733557757, 36.47424311251374], [-81.55433517588988, 35.71630318559278], [-81.37330542656387, 35.38573027851177], [-81.0681903238359, 35.18056860840613], [-80.41233189203263, 35.1239566852237], [-78.83901195153241, 35.294194696431376], [-76.9844623750437, 35.102157323173664], [-76.23790128462072, 34.92793317722422], [-75.93420426200029, 34.75570799103566], [-75.94954959451358, 34.666565255067155], [-76.33608762525729, 34.3463842825895], [-76.51309507796557, 34.27554934724023], [-76.76864650647587, 34.395268525245044], [-76.93820750877394, 34.36864437523582], [-77.5412988933626, 34.025999103894556], [-77.64390130445592, 33.71848101879983], [-77.77339189423618, 33.594818203961296], [-77.94830693276285, 33.522282812135245], [-77.99526709697264, 33.572751840595316], [-78.37836769065561, 33.567026823234485], [-78.85266302286722, 33.29740433841915], [-78.95741378027536, 32.943546965180765], [-80.18814202540761, 32.241716781378685], [-80.72942173582274, 31.789514290911985], [-81.17696608862252, 31.190308643713998], [-81.3253393774323, 30.83791002575504], [-81.41535254912955, 30.068684305765995], [-81.71718772345254, 29.27109516412719], [-81.83868453630501, 28.18212975978787], [-81.81110684221333, 27.492030558860197], [-81.37208654798584, 26.351921411357548], [-81.39251665923916, 26.170132752690684], [-81.27666716226253, 25.838200658331687], [-81.39908102169446, 25.664761028048062], [-81.60576117320184, 25.637458620860375], [-82.11327891509609, 26.141753295246204]], [[-81.41105129375963, 37.7706594163146], [-80.58553900966476, 38.016254980011134], [-79.84278010799893, 38.444445875566885], [-79.16787094353148, 39.14238907465704], [-78.71387803656549, 40.21186580972867], [-78.58860074275216, 40.99676211277629], [-78.87986627613486, 41.376468230408996], [-79.38073264858903, 41.552671145094], [-80.29657610671545, 41.7174474079961], [-81.51835125906995, 41.8125183750977], [-82.9433725295355, 41.69372211621388], [-84.0503928364435, 41.76399022746611], [-85.02491497031791, 41.99509019587142], [-87.84442307765981, 42.82394248370935], [-88.84837493337558, 42.86009904707513], [-89.45197643475173, 42.661639300579644], [-89.64521813753278, 42.36292852157988], [-89.66143986241573, 42.058425251477786], [-89.46291632704596, 41.39711692149926], [-88.83054445258298, 40.27868309187119], [-88.01979350577054, 39.453479021843364], [-86.69517871429942, 38.81937956244362], [-84.5370715970933, 38.168468807421235], [-83.21061354014594, 37.859408032561774], [-81.41105129375963, 37.7706594163146]]]}}, {"type": "Feature", "properties": {"dn": 1, "PRODUCT": "Day 1 Excessive Rainfall Potential Forecast", "VALID_TIME": "16Z 08/10/26 - 12Z 08/11/26", "OUTLOOK": "Marginal (At Least 5%)", "ISSUE_TIME": "2026-08-10 15:52:00", "START_TIME": "2026-08-10 16:00:00", "END_TIME": "2026-08-11 12:00:00", "Snippet": "16Z 08/10/26 - 12Z 08/11/26"}, "geometry": {"type": "Polygon", "coordinates": [[[-110.73554955973741, 31.117486416569804], [-111.28118954581055, 31.199311046051452], [-114.38768258073324, 32.16099216884709], [-114.850323126095, 32.332944393135755], [-115.05679202879364, 32.581849836099614], [-115.79180706434614, 32.441952570601686], [-116.98267688175522, 32.41965788056303], [-116.99069231481398, 33.015744936934475], [-117.30063562802717, 33.476984531105025], [-117.3718129502396, 33.833334414640596], [-117.07441753082479, 34.83321390359678], [-116.37818684483584, 36.10751296838322], [-115.63159912999855, 37.19669682595592], [-114.6368501061608, 38.260691201825665], [-112.84118644107261, 39.79555669516495], [-111.75142802551902, 40.56807558774904], [-110.72728993952101, 41.103213545376], [-109.76412386039341, 41.317223949319924], [-109.17884460286548, 41.32031755149833], [-108.63978296160637, 41.23003468625823], [-108.19917461048205, 40.9979951171339], [-108.05010936865371, 40.744527471739396], [-108.40818047093346, 39.922272603960245], [-109.93852829391543, 37.70316999050599], [-109.97590987883216, 37.161679054927134], [-109.71815119789554, 36.91569784451176], [-109.10132120995108, 36.92338865054181], [-108.77926627949299, 37.03972602240058], [-106.79864202990042, 38.440069113243574], [-106.09245564437039, 38.75386327735652], [-105.5259964593144, 38.789149930680516], [-104.41320315240948, 38.452953906556516], [-103.39457598074645, 37.7920486941213], [-102.96473558830772, 37.32163471033013], [-102.81403571760495, 36.791996863845455], [-102.99403906271496, 36.20093203598149], [-103.39242591403043, 35.597446648048056], [-104.4608997659805, 34.50239188716348], [-104.97767411008795, 34.15545674277756], [-105.81169476270703, 33.740296650878975], [-107.27105081757543, 33.13756271084052], [-108.035547610581, 32.713977075471576], [-108.32403173879395, 32.41819493196715], [-108.4948728208478, 32.03953081599814], [-108.34182505131244, 31.18604284158873], [-109.51240359661107, 31.15251739620557], [-109.56580462636967, 31.580176438836382], [-109.46748996155868, 32.501088645812835], [-109.80451783981538, 33.01668224449263], [-110.1446758221152, 33.122032191782914], [-111.60425276875159, 33.06926667579945], [-112.39991395331685, 32.93955279584761], [-112.94479552642166, 32.6056107385437], [-113.22150812512348, 32.299621283045106], [-113.33742513744531, 32.01186573928739], [-113.2551675412042, 31.837981183982745], [-111.28543081305303, 31.22937026588354], [-110.73964644654218, 31.1475647572386], [-110.05666159404599, 31.13692981189469], [-110.73554955973741, 31.117486416569804]]]}}, {"type": "Feature", "properties": {"dn": 2, "PRODUCT": "Day 1 Excessive Rainfall Potential Forecast", "VALID_TIME": "16Z 08/10/26 - 12Z 08/11/26", "OUTLOOK": "Slight (At Least 15%)", "ISSUE_TIME": "2026-08-10 15:52:00", "START_TIME": "2026-08-10 16:00:00", "END_TIME": "2026-08-11 12:00:00", "Snippet": "16Z 08/10/26 - 12Z 08/11/26"}, "geometry": {"type": "Polygon", "coordinates": [[[-109.50939311679888, 31.12840814362826], [-110.73964644654218, 31.1475647572386], [-111.28543081305303, 31.22937026588354], [-113.2551675412042, 31.837981183982745], [-113.33742513744531, 32.01186573928739], [-113.22150812512348, 32.299621283045106], [-112.94479552642166, 32.6056107385437], [-112.39991395331685, 32.93955279584761], [-111.60425276875159, 33.06926667579945], [-110.1446758221152, 33.122032191782914], [-109.80451783981538, 33.01668224449263], [-109.46748996155868, 32.501088645812835], [-109.56580462636967, 31.580176438836382], [-109.50939311679888, 31.12840814362826]]]}}, {"type": "Feature", "properties": {"dn": 2, "PRODUCT": "Day 1 Excessive Rainfall Potential Forecast", "VALID_TIME": "16Z 08/10/26 - 12Z 08/11/26", "OUTLOOK": "Slight (At Least 15%)", "ISSUE_TIME": "2026-08-10 15:52:00", "START_TIME": "2026-08-10 16:00:00", "END_TIME": "2026-08-11 12:00:00", "Snippet": "16Z 08/10/26 - 12Z 08/11/26"}, "geometry": {"type": "Polygon", "coordinates": [[[-83.21061354014594, 37.859408032561774], [-84.5370715970933, 38.168468807421235], [-86.69517871429942, 38.81937956244362], [-88.01979350577054, 39.453479021843364], [-88.83054445258298, 40.27868309187119], [-89.46291632704596, 41.39711692149926], [-89.66143986241573, 42.058425251477786], [-89.64521813753278, 42.36292852157988], [-89.45197643475173, 42.661639300579644], [-88.84837493337558, 42.86009904707513], [-87.84442307765981, 42.82394248370935], [-85.02491497031791, 41.99509019587142], [-84.0503928364435, 41.76399022746611], [-82.9433725295355, 41.69372211621388], [-81.51835125906995, 41.8125183750977], [-80.29657610671545, 41.7174474079961], [-79.38073264858903, 41.552671145094], [-78.87986627613486, 41.376468230408996], [-78.58860074275216, 40.99676211277629], [-78.71387803656549, 40.21186580972867], [-79.16787094353148, 39.14238907465704], [-79.84278010799893, 38.444445875566885], [-80.58553900966476, 38.016254980011134], [-81.41105129375963, 37.7706594163146], [-83.21061354014594, 37.859408032561774]]]}}]}