{
  "type": "FeatureCollection",
  "features": [
    {
      "type": "Feature",
      "properties": {
        "dn": 1,
        "PRODUCT": "Day 2 Excessive Rainfall Potential Forecast",
        "VALID_TIME": "12Z 08/11/26 - 12Z 08/12/26",
        "OUTLOOK": "Marginal (At Least 5%)",
        "ISSUE_TIME": "2026-08-10 06:50:00",
        "START_TIME": "2026-08-11 12:00:00",
        "END_TIME": "2026-08-12 12:00:00",
        "Snippet": "12Z 08/11/26 - 12Z 08/12/26",
        "risk_norm": "MARGINAL"
      },
      "geometry": {
        "type": "Polygon",
        "coordinates": [
          [
            [
              -104.64208958358151,
              29.585567873281928
            ],
            [
              -104.87761417462117,
              29.890359737728467
            ],
            [
              -104.90828457938767,
              30.253446935923108
            ],
            [
              -105.028860756658,
              30.4282232571379
            ],
            [
              -106.055277882567,
              31.224775584563876
            ],
            [
              -106.50210402882288,
              31.421674705201944
            ],
            [
              -106.57207952163469,
              31.597888069269302
            ],
            [
              -107.96578444528456,
              31.62688053767055
            ],
            [
              -108.06062585381395,
              31.52882876890281
            ],
            [
              -108.07866176117668,
              31.20713454245347
            ],
            [
              -109.5056158029096,
              31.09829811405745
            ],
            [
              -110.73554955973741,
              31.117486416569804
            ],
            [
              -111.28118954581055,
              31.199311046051452
            ],
            [
              -114.38768258073324,
              32.16099216884709
            ],
            [
              -114.850323126095,
              32.332944393135755
            ],
            [
              -115.05679202879364,
              32.581849836099614
            ],
            [
              -115.79180706434614,
              32.441952570601686
            ],
            [
              -116.60342824009159,
              32.42567657287494
            ],
            [
              -116.70732758982227,
              32.96272670643189
            ],
            [
              -117.1486141236916,
              33.81830636990921
            ],
            [
              -117.36275304289165,
              34.61152247390721
            ],
            [
              -118.07959653976584,
              35.652173724838825
            ],
            [
              -118.65508971166368,
              36.753351939493
            ],
            [
              -118.96296255699572,
              37.117958548485376
            ],
            [
              -119.73071743071175,
              37.73219429234743
            ],
            [
              -119.90306852974285,
              37.97853653427264
            ],
            [
              -119.99242056856063,
              38.59799437501673
            ],
            [
              -119.88324065283336,
              39.10952119677265
            ],
            [
              -119.73483300673803,
              39.22169815158122
            ],
            [
              -117.98134857093694,
              39.418015550606334
            ],
            [
              -114.76167720241595,
              39.23199018855849
            ],
            [
              -112.73634642657764,
              39.1824666100126
            ],
            [
              -112.11380483487939,
              39.24480511629515
            ],
            [
              -111.56115058179284,
              39.38728545195747
            ],
            [
              -110.55424907847811,
              39.96837850439493
            ],
            [
              -109.77933805184492,
              40.21225088498415
            ],
            [
              -107.42166356959412,
              40.34907703719211
            ],
            [
              -105.7264555160408,
              40.19479492082893
            ],
            [
              -104.95301332876168,
              39.9741044416707
            ],
            [
              -104.50730427650733,
              39.51219983819134
            ],
            [
              -104.29679605683188,
              39.08032255761414
            ],
            [
              -104.00883457751121,
              37.71622333472522
            ],
            [
              -103.80071187498008,
              35.17124003380461
            ],
            [
              -103.85300217396211,
              34.44689189189648
            ],
            [
              -104.14238129232653,
              33.30026194935226
            ],
            [
              -104.10247228220435,
              32.80388476347642
            ],
            [
              -103.73169279245865,
              32.18905664174268
            ],
            [
              -102.69670090516385,
              31.15153635774741
            ],
            [
              -102.27744492253099,
              30.397575587933723
            ],
            [
              -102.25488125734358,
              30.034126326514116
            ],
            [
              -102.3399125011546,
              29.711043911027556
            ],
            [
              -102.38751840992553,
              29.616677912898542
            ],
            [
              -102.540464226531,
              29.564651167053935
            ],
            [
              -102.67353584704607,
              29.193135991427127
            ],
            [
              -102.96863089913445,
              28.90342939769026
            ],
            [
              -103.43615605750442,
              28.87863360121877
            ],
            [
              -104.64208958358151,
              29.585567873281928
            ]
          ],
          [
            [
              -109.08683917518837,
              31.166994357441897
            ],
            [
              -109.2397794309887,
              31.97469338975136
            ],
            [
              -109.6809511934379,
              32.48165839580235
            ],
            [
              -110.31658299364514,
              32.78707775093099
            ],
            [
              -110.91077438210019,
              32.77484866673691
            ],
            [
              -111.77203937191256,
              32.3676481913027
            ],
            [
              -112.24989185793133,
              31.95069091361737
            ],
            [
              -112.4139030073751,
              31.612618491023664
            ],
            [
              -110.9566209730521,
              31.171493167955166
            ],
            [
              -109.08683917518837,
              31.166994357441897
            ]
          ]
        ]
      }
    },
    {
      "type": "Feature",
      "properties": {
        "dn": 1,
        "PRODUCT": "Day 2 Excessive Rainfall Potential Forecast",
        "VALID_TIME": "12Z 08/11/26 - 12Z 08/12/26",
        "OUTLOOK": "Marginal (At Least 5%)",
        "ISSUE_TIME": "2026-08-10 06:50:00",
        "START_TIME": "2026-08-11 12:00:00",
        "END_TIME": "2026-08-12 12:00:00",
        "Snippet": "12Z 08/11/26 - 12Z 08/12/26",
        "risk_norm": "MARGINAL"
      },
      "geometry": {
        "type": "Polygon",
        "coordinates": [
          [
            [
              -86.61964405141205,
              32.52466788190378
            ],
            [
              -87.46245143324083,
              32.793122723034216
            ],
            [
              -87.9293094085256,
              33.08609030096526
            ],
            [
              -88.23211904831177,
              33.462011813264716
            ],
            [
              -88.25656899474467,
              33.96027260779951
            ],
            [
              -87.2258836909057,
              36.25612141579896
            ],
            [
              -87.18428811512571,
              36.83668077512961
            ],
            [
              -87.26068558679479,
              37.33202813772883
            ],
            [
              -87.61285179482502,
              37.927544362666026
            ],
            [
              -88.58005287639543,
              38.72126992728033
            ],
            [
              -89.79383193136773,
              39.47041253553617
            ],
            [
              -95.94425793210311,
              42.56812155791171
            ],
            [
              -98.15289348646743,
              43.410434175234904
            ],
            [
              -99.30488789784727,
              43.90547600482828
            ],
            [
              -99.92731756955634,
              44.36453699967206
            ],
            [
              -100.19496268401161,
              44.872250264936056
            ],
            [
              -100.16685228768002,
              45.47134488415977
            ],
            [
              -99.70105857328258,
              45.90980457830921
            ],
            [
              -99.09657346953857,
              46.05087740938893
            ],
            [
              -98.42445443690245,
              46.06381793736286
            ],
            [
              -97.62636320291448,
              45.94881142201406
            ],
            [
              -92.47279904668358,
              44.584224440933674
            ],
            [
              -90.74517034290196,
              44.16671058217973
            ],
            [
              -89.44011020137322,
              43.91739764205997
            ],
            [
              -87.1860729159074,
              43.66441808877024
            ],
            [
              -84.5748964970588,
              43.49371171727171
            ],
            [
              -82.02149728540911,
              43.37664248125224
            ],
            [
              -82.30364670049526,
              42.5683173966887
            ],
            [
              -82.44289354405349,
              42.40329847652661
            ],
            [
              -82.88485609396244,
              42.170957840231544
            ],
            [
              -82.90579323105966,
              41.99738564827912
            ],
            [
              -82.74756275819861,
              41.85631426876429
            ],
            [
              -82.39235217823789,
              41.875798427322366
            ],
            [
              -81.26070402531013,
              42.406627481895526
            ],
            [
              -79.54933668946785,
              42.75106049076701
            ],
            [
              -79.28860738317717,
              42.90276082113281
            ],
            [
              -79.25987091114376,
              43.07567875586697
            ],
            [
              -78.73030773715888,
              43.02978266446508
            ],
            [
              -76.14762688606963,
              42.47641498478682
            ],
            [
              -74.36464866924975,
              41.8865535040224
            ],
            [
              -73.30166139507723,
              41.31918581489162
            ],
            [
              -72.82097423249844,
              40.81517168566632
            ],
            [
              -72.66835282243616,
              40.439841625207585
            ],
            [
              -73.71015709341064,
              40.21221992322814
            ],
            [
              -73.85341372196022,
              39.51538921313792
            ],
            [
              -74.15853207390785,
              39.14956486953465
            ],
            [
              -74.70327736720743,
              38.72152557532674
            ],
            [
              -74.81286030368888,
              38.15090576064143
            ],
            [
              -75.66100038532956,
              36.94365311235639
            ],
            [
              -75.1544672557628,
              35.70802908591141
            ],
            [
              -75.2825951709062,
              34.9969144108118
            ],
            [
              -75.92007333794213,
              34.84405968167251
            ],
            [
              -77.9869350290564,
              34.70811817858558
            ],
            [
              -79.69274052517443,
              34.332071103911375
            ],
            [
              -81.03069645573801,
              33.726308356941495
            ],
            [
              -82.40429891923571,
              32.65813153481037
            ],
            [
              -83.19608616660807,
              32.309120782129185
            ],
            [
              -83.9035728291346,
              32.22333787642964
            ],
            [
              -85.4526979170102,
              32.32325371700194
            ],
            [
              -86.61964405141205,
              32.52466788190378
            ]
          ],
          [
            [
              -81.78315860622831,
              36.58935442396231
            ],
            [
              -80.97325417738698,
              36.793490642977275
            ],
            [
              -80.43816802210611,
              37.01773449750995
            ],
            [
              -79.88154225077538,
              37.373454406706585
            ],
            [
              -78.12072213157255,
              40.289224342338045
            ],
            [
              -78.0415658524504,
              40.768826555787065
            ],
            [
              -78.18583929625282,
              40.9597565437081
            ],
            [
              -78.98581979940529,
              41.07734442414007
            ],
            [
              -80.0380884917305,
              41.08015504256537
            ],
            [
              -84.15765879929192,
              41.857982933717444
            ],
            [
              -89.28937620334604,
              42.39615794615565
            ],
            [
              -91.17231448407158,
              42.445076177783406
            ],
            [
              -91.53067835582749,
              42.32124900042781
            ],
            [
              -91.47799256383881,
              42.146071116756545
            ],
            [
              -91.25076515330129,
              41.9231341827914
            ],
            [
              -89.77825436086364,
              40.92398963555197
            ],
            [
              -88.5475528695442,
              40.18006226440945
            ],
            [
              -86.60632459290724,
              38.50411048156245
            ],
            [
              -84.93386787675423,
              37.567481583443666
            ],
            [
              -84.19893394631737,
              37.03032376948826
            ],
            [
              -83.3872946505462,
              36.75240765397538
            ],
            [
              -82.45878202536841,
              36.5511939146122
            ],
            [
              -81.78315860622831,
              36.58935442396231
            ]
          ]
        ]
      }
    },
    {
      "type": "Feature",
      "properties": {
        "dn": 2,
        "PRODUCT": "Day 2 Excessive Rainfall Potential Forecast",
        "VALID_TIME": "12Z 08/11/26 - 12Z 08/12/26",
        "OUTLOOK": "Slight (At Least 15%)",
        "ISSUE_TIME": "2026-08-10 06:50:00",
        "START_TIME": "2026-08-11 12:00:00",
        "END_TIME": "2026-08-12 12:00:00",
        "Snippet": "12Z 08/11/26 - 12Z 08/12/26",
        "risk_norm": "SLIGHT"
      },
      "geometry": {
        "type": "Polygon",
        "coordinates": [
          [
            [
              -110.9566209730521,
              31.171493167955166
            ],
            [
              -112.4139030073751,
              31.612618491023664
            ],
            [
              -112.24989185793133,
              31.95069091361737
            ],
            [
              -111.77203937191256,
              32.3676481913027
            ],
            [
              -110.91077438210019,
              32.77484866673691
            ],
            [
              -110.31658299364514,
              32.78707775093099
            ],
            [
              -109.6809511934379,
              32.48165839580235
            ],
            [
              -109.2397794309887,
              31.97469338975136
            ],
            [
              -109.08683917518837,
              31.166994357441897
            ],
            [
              -110.9566209730521,
              31.171493167955166
            ]
          ]
        ]
      }
    },
    {
      "type": "Feature",
      "properties": {
        "dn": 2,
        "PRODUCT": "Day 2 Excessive Rainfall Potential Forecast",
        "VALID_TIME": "12Z 08/11/26 - 12Z 08/12/26",
        "OUTLOOK": "Slight (At Least 15%)",
        "ISSUE_TIME": "2026-08-10 06:50:00",
        "START_TIME": "2026-08-11 12:00:00",
        "END_TIME": "2026-08-12 12:00:00",
        "Snippet": "12Z 08/11/26 - 12Z 08/12/26",
        "risk_norm": "SLIGHT"
      },
      "geometry": {
        "type": "Polygon",
        "coordinates": [
          [
            [
              -83.3872946505462,
              36.75240765397538
            ],
            [
              -84.19893394631737,
              37.03032376948826
            ],
            [
              -84.93386787675423,
              37.567481583443666
            ],
            [
              -86.60632459290724,
              38.50411048156245
            ],
            [
              -88.5475528695442,
              40.18006226440945
            ],
            [
              -89.77825436086364,
              40.92398963555197
            ],
            [
              -91.25076515330129,
              41.9231341827914
            ],
            [
              -91.47799256383881,
              42.146071116756545
            ],
            [
              -91.53067835582749,
              42.32124900042781
            ],
            [
              -91.17231448407158,
              42.445076177783406
            ],
            [
              -89.28937620334604,
              42.39615794615565
            ],
            [
              -84.15765879929192,
              41.857982933717444
            ],
            [
              -80.0380884917305,
              41.08015504256537
            ],
            [
              -78.98581979940529,
              41.07734442414007
            ],
            [
              -78.18583929625282,
              40.9597565437081
            ],
            [
              -78.0415658524504,
              40.768826555787065
            ],
            [
              -78.12072213157255,
              40.289224342338045
            ],
            [
              -79.88154225077538,
              37.373454406706585
            ],
            [
              -80.43816802210611,
              37.01773449750995
            ],
            [
              -80.97325417738698,
              36.793490642977275
            ],
            [
              -81.78315860622831,
              36.58935442396231
            ],
            [
              -82.45878202536841,
              36.5511939146122
            ],
            [
              -83.3872946505462,
              36.75240765397538
            ]
          ],
          [
            [
              -81.57350596616381,
              37.82849180444119
            ],
            [
              -81.02844708805344,
              38.09805185145983
            ],
            [
              -80.8632100189061,
              38.48646077670721
            ],
            [
              -80.8723982689118,
              38.84388605103431
            ],
            [
              -80.9620006220886,
              39.02926184800705
            ],
            [
              -81.27921798557277,
              39.23264067127705
            ],
            [
              -82.29139011738523,
              39.39805333062038
            ],
            [
              -82.71086318483155,
              39.25029424829247
            ],
            [
              -82.97372015644798,
              38.957614761145614
            ],
            [
              -82.99889262098517,
              38.73695574689663
            ],
            [
              -82.90597981911729,
              38.5524013374415
            ],
            [
              -82.44479617992019,
              38.11792052299152
            ],
            [
              -82.02204332730533,
              37.863092949014536
            ],
            [
              -81.57350596616381,
              37.82849180444119
            ]
          ]
        ]
      }
    },
    {
      "type": "Feature",
      "properties": {
        "dn": 3,
        "PRODUCT": "Day 2 Excessive Rainfall Potential Forecast",
        "VALID_TIME": "12Z 08/11/26 - 12Z 08/12/26",
        "OUTLOOK": "Moderate (At Least 40%)",
        "ISSUE_TIME": "2026-08-10 06:50:00",
        "START_TIME": "2026-08-11 12:00:00",
        "END_TIME": "2026-08-12 12:00:00",
        "Snippet": "12Z 08/11/26 - 12Z 08/12/26",
        "risk_norm": "MODERATE"
      },
      "geometry": {
        "type": "Polygon",
        "coordinates": [
          [
            [
              -82.02204332730533,
              37.863092949014536
            ],
            [
              -82.44479617992019,
              38.11792052299152
            ],
            [
              -82.90597981911729,
              38.5524013374415
            ],
            [
              -82.99889262098517,
              38.73695574689663
            ],
            [
              -82.97372015644798,
              38.957614761145614
            ],
            [
              -82.71086318483155,
              39.25029424829247
            ],
            [
              -82.29139011738523,
              39.39805333062038
            ],
            [
              -81.27921798557277,
              39.23264067127705
            ],
            [
              -80.9620006220886,
              39.02926184800705
            ],
            [
              -80.8723982689118,
              38.84388605103431
            ],
            [
              -80.8632100189061,
              38.48646077670721
            ],
            [
              -81.02844708805344,
              38.09805185145983
            ],
            [
              -81.57350596616381,
              37.82849180444119
            ],
            [
              -82.02204332730533,
              37.863092949014536
            ]
          ]
        ]
      }
    }
  ]
}
