{
  "type": "FeatureCollection",
  "features": [
    {
      "type": "Feature",
      "properties": {
        "dn": 1,
        "PRODUCT": "Day 1 Excessive Rainfall Potential Forecast",
        "VALID_TIME": "16Z 08/08/26 - 12Z 08/09/26",
        "OUTLOOK": "Marginal (At Least 5%)",
        "ISSUE_TIME": "2026-08-08 15:26:00",
        "START_TIME": "2026-08-08 16:00:00",
        "END_TIME": "2026-08-09 12:00:00",
        "Snippet": "16Z 08/08/26 - 12Z 08/09/26",
        "risk_norm": "MARGINAL"
      },
      "geometry": {
        "type": "Polygon",
        "coordinates": [
          [
            [
              -81.12021116667621,
              30.77425779181026
            ],
            [
              -80.91979709382122,
              29.79593975750715
            ],
            [
              -80.22831009726261,
              28.585879083976433
            ],
            [
              -80.27895736516328,
              28.177831850492325
            ],
            [
              -79.7952859485846,
              27.074208658573983
            ],
            [
              -80.11335530715323,
              27.01297501269565
            ],
            [
              -80.50708761916546,
              26.730564837409478
            ],
            [
              -80.71871613116002,
              26.24549677956881
            ],
            [
              -80.83837950009844,
              25.659676680773522
            ],
            [
              -81.09187870601947,
              25.224129712967905
            ],
            [
              -81.63019045223899,
              24.950979103256056
            ],
            [
              -82.98828001682769,
              24.516111376277827
            ],
            [
              -83.26003108547003,
              24.308533553390063
            ],
            [
              -83.14535551376402,
              24.988271877247925
            ],
            [
              -82.38701590963649,
              24.972866704434747
            ],
            [
              -82.3238345877115,
              25.104258088866843
            ],
            [
              -82.59290722228265,
              25.448019724918527
            ],
            [
              -81.91407661823771,
              25.619706401004528
            ],
            [
              -82.1181065867413,
              26.09627964729339
            ],
            [
              -82.2642860577806,
              26.15368335589894
            ],
            [
              -82.53643912279504,
              26.498454800815157
            ],
            [
              -83.17876934092348,
              27.78744444256655
            ],
            [
              -83.12008427084714,
              28.378261282360956
            ],
            [
              -82.94683193937682,
              28.547912441074573
            ],
            [
              -82.98013486242392,
              28.7336168061601
            ],
            [
              -83.28088857068678,
              28.847362681859316
            ],
            [
              -83.32023214938555,
              28.98850924755592
            ],
            [
              -83.98262333699651,
              29.721758924327382
            ],
            [
              -84.08710279402948,
              29.729113279407834
            ],
            [
              -84.58960571074063,
              29.39809269208807
            ],
            [
              -84.91399175906047,
              29.282449750682755
            ],
            [
              -85.17437984791225,
              29.29915663257841
            ],
            [
              -85.68460892611208,
              29.46759498758081
            ],
            [
              -85.72344750313837,
              29.653424985947463
            ],
            [
              -86.06763025312853,
              29.946373845810413
            ],
            [
              -86.47697752494051,
              30.10603567532834
            ],
            [
              -86.90414257006437,
              30.03844761744923
            ],
            [
              -86.23902252797275,
              31.18720234123077
            ],
            [
              -85.28209446221322,
              31.813936495763556
            ],
            [
              -84.35560835702046,
              32.573038443170425
            ],
            [
              -84.26807050083472,
              32.93044400409324
            ],
            [
              -84.40818954466285,
              33.16654116645595
            ],
            [
              -84.85949262149089,
              33.55710064926383
            ],
            [
              -85.38457577885364,
              33.770097022143936
            ],
            [
              -85.98398096246103,
              33.75914272434208
            ],
            [
              -86.97534053786059,
              33.58484812659526
            ],
            [
              -88.08546346384749,
              33.183397330007125
            ],
            [
              -90.78919239690019,
              31.690351188476786
            ],
            [
              -92.18584103666504,
              31.267146757991327
            ],
            [
              -92.8761551558014,
              31.277893095513885
            ],
            [
              -93.40391383929614,
              31.602773357563898
            ],
            [
              -93.76996303550145,
              32.240928843253016
            ],
            [
              -94.13494708597128,
              33.55541947787484
            ],
            [
              -94.0741056114749,
              34.36719205780859
            ],
            [
              -93.63093164998982,
              34.8153416118487
            ],
            [
              -92.96692229923373,
              35.168348059053685
            ],
            [
              -90.90243862258889,
              35.98349093186285
            ],
            [
              -88.13348869222195,
              36.8340039546591
            ],
            [
              -85.70100703911413,
              37.165403909492476
            ],
            [
              -85.4032063782159,
              37.37154630652759
            ],
            [
              -85.08663568578086,
              37.75548317640976
            ],
            [
              -84.79863260603344,
              38.407321641560856
            ],
            [
              -84.77301548007694,
              38.67277042083417
            ],
            [
              -84.86503620456772,
              38.90038310990029
            ],
            [
              -85.50629057454591,
              39.38006693719541
            ],
            [
              -85.64185774506767,
              39.78567265374665
            ],
            [
              -85.59010749814662,
              40.35688874880965
            ],
            [
              -85.2651083744277,
              40.735852841747565
            ],
            [
              -84.65556095100459,
              41.010417851671455
            ],
            [
              -82.92569507160276,
              40.8581187063926
            ],
            [
              -82.6264458312889,
              40.92574008243785
            ],
            [
              -82.30634929834119,
              41.166534130950524
            ],
            [
              -81.512565341852,
              42.29422480185293
            ],
            [
              -81.13756870253223,
              42.44104836400095
            ],
            [
              -79.67339501968122,
              42.71776877368008
            ],
            [
              -79.28860738317717,
              42.90276082113281
            ],
            [
              -79.20921117867444,
              43.02687374387928
            ],
            [
              -79.33106816917073,
              43.38574377884201
            ],
            [
              -79.23619839746056,
              43.59602844913372
            ],
            [
              -78.48307327097176,
              43.79156363369032
            ],
            [
              -76.9799881275183,
              43.78298999363961
            ],
            [
              -76.52916068956802,
              44.2594847389758
            ],
            [
              -75.62050702152317,
              44.86149209774918
            ],
            [
              -74.88210589198688,
              45.17468476094672
            ],
            [
              -71.75592308532418,
              45.16527476571578
            ],
            [
              -71.60681553461849,
              45.27615893875982
            ],
            [
              -71.56509177735084,
              45.444221266004
            ],
            [
              -71.05337252270442,
              45.51155953131959
            ],
            [
              -70.83223225334282,
              45.65598115258359
            ],
            [
              -70.57622010939406,
              45.92610409675092
            ],
            [
              -70.223124011811,
              46.78530386514592
            ],
            [
              -69.36321849579707,
              47.61692557619974
            ],
            [
              -68.52010158572003,
              47.46428406925875
            ],
            [
              -68.22797322951953,
              47.59611889672744
            ],
            [
              -67.70607034610646,
              47.224886047355156
            ],
            [
              -67.58537856395651,
              46.99241669038696
            ],
            [
              -67.4804491690983,
              46.50364932003513
            ],
            [
              -67.55774921842674,
              45.82209336517042
            ],
            [
              -67.24914242920676,
              45.60386279836561
            ],
            [
              -67.18057241058808,
              45.42068924624156
            ],
            [
              -66.95442564786461,
              45.343055660791535
            ],
            [
              -67.63536789116397,
              45.13639704126387
            ],
            [
              -68.62932669636271,
              44.66764844616849
            ],
            [
              -69.90214058302185,
              43.79235357900381
            ],
            [
              -70.3838604390065,
              43.33015583751944
            ],
            [
              -71.2318403207394,
              42.07526135697649
            ],
            [
              -71.77663709279359,
              41.5261396412626
            ],
            [
              -72.36381269368063,
              41.289881617520656
            ],
            [
              -73.86504681806994,
              41.1632623808527
            ],
            [
              -74.37643911479931,
              40.957950558561734
            ],
            [
              -74.50375771142457,
              40.61754912716841
            ],
            [
              -74.18328039994424,
              40.17968860529585
            ],
            [
              -74.09219635682705,
              39.76751724414253
            ],
            [
              -74.34070997137454,
              39.395025579040286
            ],
            [
              -75.9227780063611,
              37.69413593769429
            ],
            [
              -76.18334504749544,
              37.18305513222193
            ],
            [
              -76.6962827416733,
              36.832906203238046
            ],
            [
              -80.63342300217658,
              35.54812105027248
            ],
            [
              -81.77965616826276,
              35.23716836373806
            ],
            [
              -82.48131909437758,
              34.88623703833547
            ],
            [
              -82.56104160306923,
              34.66629374960551
            ],
            [
              -82.47227480019055,
              34.478639347699
            ],
            [
              -82.22704078357818,
              34.23429338017093
            ],
            [
              -81.91202817926504,
              34.118773081640086
            ],
            [
              -81.15367300949994,
              34.056179032943014
            ],
            [
              -79.27791997132641,
              34.158344632557835
            ],
            [
              -77.41932283207865,
              34.10383260743702
            ],
            [
              -77.60918365561945,
              33.94229653704453
            ],
            [
              -77.7115248092838,
              33.63466331486307
            ],
            [
              -77.94830693276285,
              33.522282812135245
            ],
            [
              -78.21036025873504,
              33.59520142264277
            ],
            [
              -78.49252021324526,
              33.53320121815604
            ],
            [
              -78.85266302286722,
              33.29740433841915
            ],
            [
              -78.95741378027536,
              32.943546965180765
            ],
            [
              -80.45975156681814,
              31.947531694041075
            ],
            [
              -80.77017919367151,
              31.61068153649363
            ],
            [
              -80.96996760551087,
              31.13327437239786
            ],
            [
              -80.80549449720593,
              31.6138478307439
            ],
            [
              -80.49516161744837,
              31.950764511883545
            ],
            [
              -79.19758965515209,
              32.78555340751087
            ],
            [
              -80.10100525473952,
              32.91739868503851
            ],
            [
              -80.77841789691693,
              32.70522048784516
            ],
            [
              -81.32494587785682,
              32.20641785747818
            ],
            [
              -81.5272904999224,
              31.859121753696247
            ],
            [
              -81.52187432592743,
              31.448262436403233
            ],
            [
              -81.43728217633718,
              31.25851589649322
            ],
            [
              -81.28903786726131,
              31.153968951329674
            ],
            [
              -80.97293078600974,
              31.1261936634336
            ],
            [
              -81.12021116667621,
              30.77425779181026
            ]
          ]
        ]
      }
    },
    {
      "type": "Feature",
      "properties": {
        "dn": 1,
        "PRODUCT": "Day 1 Excessive Rainfall Potential Forecast",
        "VALID_TIME": "16Z 08/08/26 - 12Z 08/09/26",
        "OUTLOOK": "Marginal (At Least 5%)",
        "ISSUE_TIME": "2026-08-08 15:26:00",
        "START_TIME": "2026-08-08 16:00:00",
        "END_TIME": "2026-08-09 12:00:00",
        "Snippet": "16Z 08/08/26 - 12Z 08/09/26",
        "risk_norm": "MARGINAL"
      },
      "geometry": {
        "type": "Polygon",
        "coordinates": [
          [
            [
              -110.73956450880605,
              31.14696319042524
            ],
            [
              -111.28534598770817,
              31.228769081486856
            ],
            [
              -113.65563015505889,
              31.974816228965377
            ],
            [
              -113.6178199778076,
              33.39588537265375
            ],
            [
              -113.82002894394999,
              34.60228053816428
            ],
            [
              -114.07408284603383,
              35.43587545778612
            ],
            [
              -114.50478951262636,
              36.291895407612465
            ],
            [
              -115.93908497837062,
              37.6100729210314
            ],
            [
              -116.24013586966474,
              37.97826057405203
            ],
            [
              -116.28145498319596,
              38.46792230287428
            ],
            [
              -116.01556223801808,
              38.85967528652528
            ],
            [
              -115.56881624563428,
              39.22774376948185
            ],
            [
              -115.0463696998259,
              39.51218806172674
            ],
            [
              -114.38295054751826,
              39.67629737256315
            ],
            [
              -113.84822579413552,
              39.600998140135715
            ],
            [
              -112.77670127353194,
              39.088193169958096
            ],
            [
              -112.30836985671509,
              38.68892035250962
            ],
            [
              -112.0048587666427,
              38.22700457479532
            ],
            [
              -111.81593866983714,
              37.03375274260448
            ],
            [
              -111.82994336684948,
              36.40165714608184
            ],
            [
              -111.65890988744496,
              35.65108267744673
            ],
            [
              -111.10256732874515,
              34.89147625891727
            ],
            [
              -110.50898067902361,
              34.58695648074307
            ],
            [
              -110.07424170125407,
              34.62748763988745
            ],
            [
              -109.76583129335903,
              34.791370984284505
            ],
            [
              -108.10398021692176,
              36.10480503097456
            ],
            [
              -106.51745443008267,
              36.89481856609055
            ],
            [
              -105.9744418682948,
              37.06532138577661
            ],
            [
              -105.02627431316823,
              37.124015309180464
            ],
            [
              -104.68339623503442,
              37.05441735384155
            ],
            [
              -104.38392051214157,
              36.84650881552892
            ],
            [
              -104.3646520808295,
              36.6235400464098
            ],
            [
              -104.50791333718863,
              36.346401551744805
            ],
            [
              -105.22174995171011,
              35.629259422300365
            ],
            [
              -105.74139075791975,
              35.28117903654917
            ],
            [
              -107.88795104353113,
              34.268740830112684
            ],
            [
              -108.62955217132239,
              33.619931366354535
            ],
            [
              -108.9402273664499,
              33.04830077593782
            ],
            [
              -109.08765442669097,
              32.489410354658574
            ],
            [
              -109.19455694462594,
              31.613843110007586
            ],
            [
              -109.13908463847154,
              31.162323609354548
            ],
            [
              -110.73956450880605,
              31.14696319042524
            ]
          ]
        ]
      }
    },
    {
      "type": "Feature",
      "properties": {
        "dn": 1,
        "PRODUCT": "Day 1 Excessive Rainfall Potential Forecast",
        "VALID_TIME": "16Z 08/08/26 - 12Z 08/09/26",
        "OUTLOOK": "Marginal (At Least 5%)",
        "ISSUE_TIME": "2026-08-08 15:26:00",
        "START_TIME": "2026-08-08 16:00:00",
        "END_TIME": "2026-08-09 12:00:00",
        "Snippet": "16Z 08/08/26 - 12Z 08/09/26",
        "risk_norm": "MARGINAL"
      },
      "geometry": {
        "type": "Polygon",
        "coordinates": [
          [
            [
              -93.90151244703772,
              40.64514152515511
            ],
            [
              -94.47963145645173,
              40.7355702862945
            ],
            [
              -94.88584894078026,
              41.000348010184624
            ],
            [
              -95.1186880900451,
              41.52557818806397
            ],
            [
              -95.29644007642686,
              42.4407985262642
            ],
            [
              -95.53525315886661,
              43.04779936263004
            ],
            [
              -95.77308471522717,
              43.305779618809304
            ],
            [
              -96.61034237988707,
              43.64603871272452
            ],
            [
              -99.07670735175311,
              44.168916781362235
            ],
            [
              -99.81368834891867,
              44.49631947000866
            ],
            [
              -99.9448424107429,
              44.70748361667426
            ],
            [
              -99.84809940857713,
              45.18079900349428
            ],
            [
              -99.62043976479521,
              45.4851804679071
            ],
            [
              -99.26637893431572,
              45.74971380312603
            ],
            [
              -98.8469835735285,
              45.92854193967038
            ],
            [
              -98.0563923725469,
              46.02747654240562
            ],
            [
              -96.22048564047184,
              45.83522538892944
            ],
            [
              -93.78720256561387,
              45.36692221681108
            ],
            [
              -91.85992528689594,
              44.91786918245142
            ],
            [
              -91.20427617627877,
              44.691808936322204
            ],
            [
              -90.15794999231562,
              43.8932759766027
            ],
            [
              -90.04724151478378,
              43.717850369388316
            ],
            [
              -90.1346918851801,
              43.15807295607383
            ],
            [
              -90.70212172081241,
              42.39073505309241
            ],
            [
              -91.80023071906561,
              41.19100390449536
            ],
            [
              -92.5089107148879,
              40.806773314235706
            ],
            [
              -93.0907807392636,
              40.682233530086414
            ],
            [
              -93.90151244703772,
              40.64514152515511
            ]
          ]
        ]
      }
    },
    {
      "type": "Feature",
      "properties": {
        "dn": 2,
        "PRODUCT": "Day 1 Excessive Rainfall Potential Forecast",
        "VALID_TIME": "16Z 08/08/26 - 12Z 08/09/26",
        "OUTLOOK": "Slight (At Least 15%)",
        "ISSUE_TIME": "2026-08-08 15:26:00",
        "START_TIME": "2026-08-08 16:00:00",
        "END_TIME": "2026-08-09 12:00:00",
        "Snippet": "16Z 08/08/26 - 12Z 08/09/26",
        "risk_norm": "SLIGHT"
      },
      "geometry": {
        "type": "Polygon",
        "coordinates": [
          [
            [
              -81.28903786726131,
              31.153968951329674
            ],
            [
              -81.43728217633718,
              31.25851589649322
            ],
            [
              -81.52187432592743,
              31.448262436403233
            ],
            [
              -81.5272904999224,
              31.859121753696247
            ],
            [
              -81.32494587785682,
              32.20641785747818
            ],
            [
              -80.77841789691693,
              32.70522048784516
            ],
            [
              -80.10100525473952,
              32.91739868503851
            ],
            [
              -79.19758965515209,
              32.78555340751087
            ],
            [
              -80.49516161744837,
              31.950764511883545
            ],
            [
              -80.80549449720593,
              31.6138478307439
            ],
            [
              -80.9724066920764,
              31.12614761302617
            ],
            [
              -81.28903786726131,
              31.153968951329674
            ]
          ]
        ]
      }
    }
  ]
}
