{
  "type": "FeatureCollection",
  "features": [
    {
      "type": "Feature",
      "properties": {
        "dn": 1,
        "PRODUCT": "Day 2 Excessive Rainfall Potential Forecast",
        "VALID_TIME": "12Z 08/09/26 - 12Z 08/10/26",
        "OUTLOOK": "Marginal (At Least 5%)",
        "ISSUE_TIME": "2026-08-08 07:29:00",
        "START_TIME": "2026-08-09 12:00:00",
        "END_TIME": "2026-08-10 12:00:00",
        "Snippet": "12Z 08/09/26 - 12Z 08/10/26",
        "risk_norm": "MARGINAL"
      },
      "geometry": {
        "type": "Polygon",
        "coordinates": [
          [
            [
              -110.73956450880605,
              31.14696319042524
            ],
            [
              -111.28534598770817,
              31.228769081486856
            ],
            [
              -112.85666913077567,
              31.69968378108532
            ],
            [
              -113.25507201317353,
              31.83738186453724
            ],
            [
              -113.32354489980293,
              31.921943246490862
            ],
            [
              -113.80222770952682,
              33.19194429512162
            ],
            [
              -113.86866276015868,
              33.91391515433655
            ],
            [
              -113.85688686303514,
              35.143214274738106
            ],
            [
              -113.58292204938631,
              36.803212275274966
            ],
            [
              -113.65949665760986,
              37.24551116750144
            ],
            [
              -113.98306181037063,
              37.79458177091282
            ],
            [
              -114.76486558617216,
              38.333969016586614
            ],
            [
              -115.47884012377511,
              38.47475093897625
            ],
            [
              -116.15059331555713,
              38.39332185217215
            ],
            [
              -116.88749754620969,
              38.07570261501992
            ],
            [
              -117.4062038006997,
              37.55799237454148
            ],
            [
              -117.74520457078226,
              36.74326334360063
            ],
            [
              -118.1289058400869,
              36.41747537805257
            ],
            [
              -118.58620231984526,
              36.444300024054186
            ],
            [
              -118.84542853921884,
              36.590111459239814
            ],
            [
              -119.37836059033185,
              37.19433888596242
            ],
            [
              -119.56928019530562,
              37.529260158699756
            ],
            [
              -119.66076035746998,
              37.923386470937956
            ],
            [
              -119.57574357943162,
              38.297222187649616
            ],
            [
              -119.26575214832512,
              38.703142379081584
            ],
            [
              -118.12316760583235,
              39.533684341682964
            ],
            [
              -116.45875540727765,
              40.45987191915449
            ],
            [
              -115.52694861959196,
              41.05866773492727
            ],
            [
              -114.71531139501194,
              41.41549787542163
            ],
            [
              -113.92335407833329,
              41.588913790077804
            ],
            [
              -112.69990117156289,
              41.66910648786745
            ],
            [
              -111.57642865871907,
              41.64371000091163
            ],
            [
              -110.49829219902361,
              41.51955651400607
            ],
            [
              -109.88628211976055,
              41.35116881295145
            ],
            [
              -109.56414839685769,
              41.15653970102594
            ],
            [
              -108.9302333584975,
              40.36868949400183
            ],
            [
              -108.48944464955154,
              40.09407149564584
            ],
            [
              -107.95738689950669,
              40.001141036031264
            ],
            [
              -107.32752804617922,
              40.04625029935163
            ],
            [
              -107.05126909683786,
              40.15373640092413
            ],
            [
              -106.84296848320469,
              40.34360801992207
            ],
            [
              -106.70538500377148,
              40.66151691692102
            ],
            [
              -106.3826291141738,
              40.90347309938717
            ],
            [
              -105.51970378938165,
              41.00022034657061
            ],
            [
              -104.57192230231074,
              40.215906025011904
            ],
            [
              -104.3557663878906,
              39.74158061588382
            ],
            [
              -104.13699393261199,
              38.55583204547059
            ],
            [
              -104.32253837799118,
              36.13234364549903
            ],
            [
              -104.51353985638045,
              35.13181339908026
            ],
            [
              -105.22548276398408,
              32.691064563991866
            ],
            [
              -105.37086577721318,
              32.49919488518501
            ],
            [
              -105.52725153136012,
              32.44357873473883
            ],
            [
              -105.8481381727146,
              32.42218358334021
            ],
            [
              -106.12424593317856,
              32.494148829245724
            ],
            [
              -106.24128316987775,
              32.57778012239073
            ],
            [
              -106.21860800064046,
              33.441725597183876
            ],
            [
              -106.39742779454961,
              33.609671809184746
            ],
            [
              -106.62274179536361,
              33.68434823592796
            ],
            [
              -107.00094875168443,
              33.656855250802955
            ],
            [
              -107.93360161987295,
              32.76768632110201
            ],
            [
              -108.8367392870727,
              32.19157673748604
            ],
            [
              -109.11074448477382,
              31.803785699733712
            ],
            [
              -109.1918535760764,
              31.157588236337872
            ],
            [
              -110.73956450880605,
              31.14696319042524
            ]
          ]
        ]
      }
    },
    {
      "type": "Feature",
      "properties": {
        "dn": 1,
        "PRODUCT": "Day 2 Excessive Rainfall Potential Forecast",
        "VALID_TIME": "12Z 08/09/26 - 12Z 08/10/26",
        "OUTLOOK": "Marginal (At Least 5%)",
        "ISSUE_TIME": "2026-08-08 07:29:00",
        "START_TIME": "2026-08-09 12:00:00",
        "END_TIME": "2026-08-10 12:00:00",
        "Snippet": "12Z 08/09/26 - 12Z 08/10/26",
        "risk_norm": "MARGINAL"
      },
      "geometry": {
        "type": "Polygon",
        "coordinates": [
          [
            [
              -91.89359531770043,
              32.25996342680796
            ],
            [
              -92.21382723291775,
              32.31117045493439
            ],
            [
              -92.42614964478689,
              32.45155391488956
            ],
            [
              -92.42002121561879,
              32.72318362468803
            ],
            [
              -92.08000925129508,
              33.3959409447427
            ],
            [
              -90.89186637197865,
              34.81402012805286
            ],
            [
              -90.32424302679402,
              35.24979004020409
            ],
            [
              -89.59216297329674,
              35.58714152642623
            ],
            [
              -86.09131249546668,
              36.51466196163353
            ],
            [
              -84.18096594656448,
              37.209625996402075
            ],
            [
              -83.04059587044976,
              37.35703694310111
            ],
            [
              -82.13674283987467,
              37.38064523574212
            ],
            [
              -80.40795027422779,
              37.24093709250096
            ],
            [
              -79.70956793223387,
              36.999691264124195
            ],
            [
              -79.34668685289006,
              36.786563082710835
            ],
            [
              -78.96183812146784,
              36.34404020596188
            ],
            [
              -78.98803320769649,
              36.16616676935025
            ],
            [
              -80.07307929450309,
              35.5889922978998
            ],
            [
              -81.00807137001468,
              35.2188685394117
            ],
            [
              -82.09003409924571,
              34.94552485066358
            ],
            [
              -82.66624294518941,
              34.718521138732136
            ],
            [
              -83.02123678874517,
              34.47441959124628
            ],
            [
              -83.81451318659757,
              33.67062203592413
            ],
            [
              -84.33639399603086,
              33.34229122823523
            ],
            [
              -84.89983465293723,
              33.10641273283936
            ],
            [
              -85.23056206279323,
              33.03606405251504
            ],
            [
              -85.66099722210647,
              33.061532339900374
            ],
            [
              -86.18176292382682,
              33.31732636665058
            ],
            [
              -86.6674397195086,
              33.34302815493525
            ],
            [
              -89.57480453389086,
              32.56092936183991
            ],
            [
              -91.03375291201277,
              32.33165353250909
            ],
            [
              -91.89359531770043,
              32.25996342680796
            ]
          ]
        ]
      }
    },
    {
      "type": "Feature",
      "properties": {
        "dn": 1,
        "PRODUCT": "Day 2 Excessive Rainfall Potential Forecast",
        "VALID_TIME": "12Z 08/09/26 - 12Z 08/10/26",
        "OUTLOOK": "Marginal (At Least 5%)",
        "ISSUE_TIME": "2026-08-08 07:29:00",
        "START_TIME": "2026-08-09 12:00:00",
        "END_TIME": "2026-08-10 12:00:00",
        "Snippet": "12Z 08/09/26 - 12Z 08/10/26",
        "risk_norm": "MARGINAL"
      },
      "geometry": {
        "type": "Polygon",
        "coordinates": [
          [
            [
              -82.84663945746513,
              42.16841398967161
            ],
            [
              -82.8676419319711,
              41.99484361455043
            ],
            [
              -82.74756275819861,
              41.85631426876429
            ],
            [
              -82.39235217823789,
              41.875798427322366
            ],
            [
              -81.13756870253223,
              42.44104836400095
            ],
            [
              -80.03857188272737,
              42.660512601485244
            ],
            [
              -79.82930165297698,
              42.46758826664444
            ],
            [
              -79.7387138064129,
              42.28497710839102
            ],
            [
              -79.80450300275113,
              41.852018503579494
            ],
            [
              -80.09510544072273,
              41.480742651291116
            ],
            [
              -80.4239343169025,
              41.24276942357121
            ],
            [
              -80.97495157962085,
              41.06649268939521
            ],
            [
              -82.3486651601773,
              40.81643593721167
            ],
            [
              -83.85389774574388,
              39.813408295179045
            ],
            [
              -84.27707898205402,
              39.61838335411371
            ],
            [
              -85.04082631571214,
              39.44194159001521
            ],
            [
              -86.01471419034812,
              39.450282638593066
            ],
            [
              -88.34010718322276,
              39.81902790663655
            ],
            [
              -90.21687427391988,
              40.23248106845249
            ],
            [
              -91.75857415386524,
              40.706956305076346
            ],
            [
              -93.13751743180431,
              41.29646834487144
            ],
            [
              -94.53153351969156,
              42.047836268876374
            ],
            [
              -95.23786059268946,
              42.5712583927537
            ],
            [
              -95.65346566209972,
              43.004099401958634
            ],
            [
              -96.1979764284138,
              43.95175768401873
            ],
            [
              -96.20328561306356,
              44.381777905114085
            ],
            [
              -96.08557111121503,
              44.59704665749026
            ],
            [
              -95.42410193174024,
              45.02867391272558
            ],
            [
              -94.39427965871236,
              45.32712860402406
            ],
            [
              -93.96924033138923,
              45.367980461398595
            ],
            [
              -92.4569885660293,
              45.18323255535653
            ],
            [
              -89.74285912614556,
              44.95704177790465
            ],
            [
              -85.28235468458173,
              44.7822618048859
            ],
            [
              -83.4553362608351,
              44.37888873293332
            ],
            [
              -81.95185138882947,
              43.89116740929753
            ],
            [
              -81.94410209198836,
              43.50058694901688
            ],
            [
              -82.27046455317858,
              42.827620362908796
            ],
            [
              -82.30364670049526,
              42.5683173966887
            ],
            [
              -82.71848027943294,
              42.26280068503305
            ],
            [
              -82.91308497351412,
              42.43537044014644
            ],
            [
              -83.70522828041447,
              42.74737226714149
            ],
            [
              -85.8420774912454,
              43.34323320678839
            ],
            [
              -88.80241586472798,
              43.594854711955136
            ],
            [
              -91.89042406176333,
              43.97339586251212
            ],
            [
              -92.36997717072711,
              43.937630722513525
            ],
            [
              -92.79488464447681,
              43.683997149433964
            ],
            [
              -92.91871644662132,
              43.46953710228578
            ],
            [
              -92.9269081059303,
              43.08030412674167
            ],
            [
              -92.69892191221244,
              42.68733092348508
            ],
            [
              -92.46665683519642,
              42.51008432731789
            ],
            [
              -91.88427953196542,
              42.28364267517912
            ],
            [
              -90.66144299374864,
              41.99729372163619
            ],
            [
              -90.2009980454583,
              41.81119350603525
            ],
            [
              -89.01712229867842,
              41.03185640572438
            ],
            [
              -88.61924588464707,
              40.88648328176754
            ],
            [
              -88.2717175502599,
              40.87376983034625
            ],
            [
              -86.62970140657167,
              41.06810936827897
            ],
            [
              -84.55309048646745,
              41.44225254631375
            ],
            [
              -82.91745379217484,
              41.91017644395153
            ],
            [
              -82.88563602531953,
              42.171009755549086
            ],
            [
              -82.79177105836295,
              42.208823478485016
            ],
            [
              -82.84663945746513,
              42.16841398967161
            ]
          ]
        ]
      }
    },
    {
      "type": "Feature",
      "properties": {
        "dn": 2,
        "PRODUCT": "Day 2 Excessive Rainfall Potential Forecast",
        "VALID_TIME": "12Z 08/09/26 - 12Z 08/10/26",
        "OUTLOOK": "Slight (At Least 15%)",
        "ISSUE_TIME": "2026-08-08 07:29:00",
        "START_TIME": "2026-08-09 12:00:00",
        "END_TIME": "2026-08-10 12:00:00",
        "Snippet": "12Z 08/09/26 - 12Z 08/10/26",
        "risk_norm": "SLIGHT"
      },
      "geometry": {
        "type": "Polygon",
        "coordinates": [
          [
            [
              -88.61924588464707,
              40.88648328176754
            ],
            [
              -89.01712229867842,
              41.03185640572438
            ],
            [
              -90.2009980454583,
              41.81119350603525
            ],
            [
              -90.66144299374864,
              41.99729372163619
            ],
            [
              -91.88427953196542,
              42.28364267517912
            ],
            [
              -92.46665683519642,
              42.51008432731789
            ],
            [
              -92.69892191221244,
              42.68733092348508
            ],
            [
              -92.9269081059303,
              43.08030412674167
            ],
            [
              -92.91871644662132,
              43.46953710228578
            ],
            [
              -92.79488464447681,
              43.683997149433964
            ],
            [
              -92.36997717072711,
              43.937630722513525
            ],
            [
              -91.89042406176333,
              43.97339586251212
            ],
            [
              -88.80241586472798,
              43.594854711955136
            ],
            [
              -85.8420774912454,
              43.34323320678839
            ],
            [
              -83.70522828041447,
              42.74737226714149
            ],
            [
              -82.91308497351412,
              42.43537044014644
            ],
            [
              -82.69951982256154,
              42.245987106025694
            ],
            [
              -82.88563602531953,
              42.171009755549086
            ],
            [
              -82.91745379217484,
              41.91017644395153
            ],
            [
              -84.55309048646745,
              41.44225254631375
            ],
            [
              -86.62970140657167,
              41.06810936827897
            ],
            [
              -88.2717175502599,
              40.87376983034625
            ],
            [
              -88.61924588464707,
              40.88648328176754
            ]
          ]
        ]
      }
    }
  ]
}
