{
  "type": "FeatureCollection",
  "features": [
    {
      "type": "Feature",
      "properties": {
        "dn": 1,
        "PRODUCT": "Day 1 Excessive Rainfall Potential Forecast",
        "VALID_TIME": "16Z 07/25/26 - 12Z 07/26/26",
        "OUTLOOK": "Marginal (At Least 5%)",
        "ISSUE_TIME": "2026-07-25 15:54:00",
        "START_TIME": "2026-07-25 16:00:00",
        "END_TIME": "2026-07-26 12:00:00",
        "Snippet": "16Z 07/25/26 - 12Z 07/26/26",
        "risk_norm": "MARGINAL"
      },
      "geometry": {
        "type": "Polygon",
        "coordinates": [
          [
            [
              -83.58687451864637,
              29.46474537150695
            ],
            [
              -85.46632192763802,
              30.8683361515285
            ],
            [
              -87.51001638318606,
              32.06949457488916
            ],
            [
              -88.4915609403682,
              32.702030131337956
            ],
            [
              -89.28385753415972,
              33.00383768835986
            ],
            [
              -90.46577438774932,
              33.13181676550679
            ],
            [
              -91.64491793267975,
              33.43182777339325
            ],
            [
              -92.50273126606324,
              33.80861009916685
            ],
            [
              -93.14719830255065,
              34.314279544274626
            ],
            [
              -93.3607510011706,
              34.631911570759556
            ],
            [
              -93.4090276283655,
              35.082361839232654
            ],
            [
              -93.0654051488788,
              35.88702759318176
            ],
            [
              -92.89488695777898,
              36.06519168585312
            ],
            [
              -91.88364374543772,
              36.54209110067736
            ],
            [
              -91.31327121111327,
              36.97683399116931
            ],
            [
              -90.38352143933746,
              37.801725045052414
            ],
            [
              -89.78835277963769,
              38.45190383482173
            ],
            [
              -89.25612745403588,
              38.83543307086727
            ],
            [
              -88.96451062023777,
              38.95857937351608
            ],
            [
              -88.56376609192807,
              38.98856580273897
            ],
            [
              -88.28221986594161,
              38.93360232279654
            ],
            [
              -87.78586129275062,
              38.691856021178246
            ],
            [
              -87.52322144542278,
              38.368783355249555
            ],
            [
              -87.4480111431424,
              37.83124308386364
            ],
            [
              -87.30168934741545,
              37.51249189297683
            ],
            [
              -86.71701217335122,
              37.083824750343496
            ],
            [
              -86.16975747528467,
              36.92197419888163
            ],
            [
              -84.38351643213059,
              36.864129484537386
            ],
            [
              -81.33548481620215,
              35.699377935046286
            ],
            [
              -80.95093854996117,
              35.66734148424196
            ],
            [
              -80.49404477543136,
              35.76348020428881
            ],
            [
              -79.36192270653838,
              36.29261817822883
            ],
            [
              -78.06669448102002,
              36.7077272527814
            ],
            [
              -76.80659475137722,
              36.8466654431295
            ],
            [
              -75.6936732180106,
              36.76775735301749
            ],
            [
              -75.59028308763476,
              36.70978305090726
            ],
            [
              -75.1544672557628,
              35.70802908591141
            ],
            [
              -75.18665398313752,
              35.53041884535283
            ],
            [
              -75.1125849059455,
              35.43074474048653
            ],
            [
              -75.24711970735581,
              34.99265195274225
            ],
            [
              -75.69258775655094,
              34.8786593344872
            ],
            [
              -76.17636920109427,
              34.41994090223707
            ],
            [
              -76.51793781172255,
              34.24637167594707
            ],
            [
              -76.77342781215607,
              34.36609377873327
            ],
            [
              -77.11955399511409,
              34.26797238615109
            ],
            [
              -77.50604924338721,
              34.02221024179338
            ],
            [
              -77.60874437314557,
              33.71471100202884
            ],
            [
              -77.7778791007044,
              33.565547930438235
            ],
            [
              -77.95274596875981,
              33.49300196525466
            ],
            [
              -78.21473424746615,
              33.5659192832868
            ],
            [
              -78.49681870193751,
              33.50390661667525
            ],
            [
              -78.81759787441108,
              33.29389121380424
            ],
            [
              -78.92245450308135,
              32.94005331803102
            ],
            [
              -80.32852671168258,
              31.996000932137456
            ],
            [
              -80.49445341643577,
              31.950699855526654
            ],
            [
              -80.80478819113524,
              31.613784504858923
            ],
            [
              -81.13101592915555,
              30.68382020482289
            ],
            [
              -80.9970781692306,
              30.03171991136292
            ],
            [
              -80.79624996013163,
              29.50999039915125
            ],
            [
              -81.04205355130729,
              29.21171104408942
            ],
            [
              -81.50011269283924,
              28.885021734231486
            ],
            [
              -81.82603101444342,
              28.77578002264239
            ],
            [
              -82.39547424155073,
              28.823365386480344
            ],
            [
              -83.58687451864637,
              29.46474537150695
            ]
          ],
          [
            [
              -80.32467657218145,
              32.02605128965215
            ],
            [
              -78.95812723491197,
              32.94361826410218
            ],
            [
              -78.85337863814183,
              33.29747603483985
            ],
            [
              -78.49243248898624,
              33.53379906716586
            ],
            [
              -78.2102709936589,
              33.595799017323515
            ],
            [
              -77.9482163401915,
              33.52288038043892
            ],
            [
              -77.71224181094408,
              33.63473997397105
            ],
            [
              -77.54201827397435,
              34.02607642761089
            ],
            [
              -77.11477141274594,
              34.29776144478377
            ],
            [
              -76.76854892880894,
              34.39586392823509
            ],
            [
              -76.56702118014071,
              34.28226107388718
            ],
            [
              -76.33598779051458,
              34.346979512730535
            ],
            [
              -75.68739766468772,
              34.908349378346486
            ],
            [
              -75.28331915995825,
              34.99700139975197
            ],
            [
              -75.14920543792493,
              35.435605282704515
            ],
            [
              -76.67051357760447,
              35.656407258528105
            ],
            [
              -77.6913728756506,
              35.539762560954316
            ],
            [
              -78.85869339351474,
              35.15988105731362
            ],
            [
              -79.70435852766575,
              34.65140263116137
            ],
            [
              -80.09071357148258,
              34.23370904419547
            ],
            [
              -80.7079589114188,
              32.8355005159292
            ],
            [
              -80.7644065647182,
              32.38523204440144
            ],
            [
              -80.43099442581817,
              32.03565829520947
            ],
            [
              -80.32467657218145,
              32.02605128965215
            ]
          ]
        ]
      }
    },
    {
      "type": "Feature",
      "properties": {
        "dn": 1,
        "PRODUCT": "Day 1 Excessive Rainfall Potential Forecast",
        "VALID_TIME": "16Z 07/25/26 - 12Z 07/26/26",
        "OUTLOOK": "Marginal (At Least 5%)",
        "ISSUE_TIME": "2026-07-25 15:54:00",
        "START_TIME": "2026-07-25 16:00:00",
        "END_TIME": "2026-07-26 12:00:00",
        "Snippet": "16Z 07/25/26 - 12Z 07/26/26",
        "risk_norm": "MARGINAL"
      },
      "geometry": {
        "type": "Polygon",
        "coordinates": [
          [
            [
              -110.73956450880605,
              31.14696319042524
            ],
            [
              -111.28534598770817,
              31.228769081486856
            ],
            [
              -111.4574883040788,
              31.303316310707267
            ],
            [
              -111.58888777822499,
              31.472533280955684
            ],
            [
              -111.87935712299733,
              31.990466116618826
            ],
            [
              -111.94600679060345,
              32.440135996046145
            ],
            [
              -111.82606950049575,
              33.09134903427741
            ],
            [
              -111.87297388443682,
              33.405340938889076
            ],
            [
              -112.27754378137197,
              33.908887391799354
            ],
            [
              -112.4691801947191,
              34.43399634918624
            ],
            [
              -112.13725422295788,
              34.78775180952684
            ],
            [
              -110.62218597709943,
              35.39118397407417
            ],
            [
              -109.26208903350815,
              36.86497115180742
            ],
            [
              -108.93464432178475,
              36.9372142626333
            ],
            [
              -108.67463927219414,
              37.09218359157469
            ],
            [
              -108.94318279733912,
              37.42906674243407
            ],
            [
              -109.06293521856868,
              37.911739827960986
            ],
            [
              -108.77909518060262,
              38.78283691604725
            ],
            [
              -108.27360309361308,
              39.3123684545085
            ],
            [
              -106.6546297412193,
              40.22448285860325
            ],
            [
              -106.04165316761123,
              40.440253581441326
            ],
            [
              -105.40393375264635,
              40.43462245725899
            ],
            [
              -105.15509945511735,
              40.27171030302119
            ],
            [
              -104.7438479816933,
              39.58776969038095
            ],
            [
              -104.72332116501168,
              39.36746616522402
            ],
            [
              -104.99788846522968,
              38.64167175992185
            ],
            [
              -105.06057584825778,
              38.10376637622448
            ],
            [
              -104.28620126343625,
              36.35879826239652
            ],
            [
              -104.15202410245013,
              35.4224036407826
            ],
            [
              -103.81270100073661,
              34.62959864593435
            ],
            [
              -103.89674847566455,
              34.30905085113548
            ],
            [
              -104.97093140027742,
              33.47791836810124
            ],
            [
              -105.10869991901974,
              33.1974698137236
            ],
            [
              -105.17186496476255,
              32.694465461261224
            ],
            [
              -105.317342318924,
              32.50264577681763
            ],
            [
              -105.52308969663112,
              32.39841743843141
            ],
            [
              -106.27134189277862,
              32.34751154153321
            ],
            [
              -107.03791933354997,
              32.47360758379791
            ],
            [
              -107.52381465253788,
              32.481853085370716
            ],
            [
              -107.78591964193416,
              32.415654112872495
            ],
            [
              -108.75094378261359,
              31.925574847094236
            ],
            [
              -109.5320252684665,
              31.30842489572746
            ],
            [
              -109.93692862272133,
              31.133590265269216
            ],
            [
              -110.73956450880605,
              31.14696319042524
            ]
          ],
          [
            [
              -108.85318232182439,
              32.32726342966913
            ],
            [
              -106.92948633577065,
              32.98200454244217
            ],
            [
              -106.38327307112304,
              32.93069451101998
            ],
            [
              -106.09273580752645,
              32.723932224988445
            ],
            [
              -105.81609222045729,
              32.65195203488031
            ],
            [
              -105.3950926561558,
              32.77098358474861
            ],
            [
              -105.35763391950243,
              33.544300791092766
            ],
            [
              -105.14423700801912,
              34.19132880088292
            ],
            [
              -105.15516768275931,
              34.91327248610476
            ],
            [
              -105.3407009575498,
              35.12771668215483
            ],
            [
              -105.68233633761497,
              35.24127263270709
            ],
            [
              -106.73299911663612,
              35.26036370186151
            ],
            [
              -106.90645722005975,
              35.33774222065753
            ],
            [
              -107.00876252974199,
              36.275974208605916
            ],
            [
              -107.21463393911598,
              36.62056499283754
            ],
            [
              -107.39180813747866,
              36.697876877178786
            ],
            [
              -107.95196481678384,
              36.70067781594549
            ],
            [
              -108.21848149297365,
              36.59012440081304
            ],
            [
              -108.83213982281116,
              36.13577948944142
            ],
            [
              -109.86267689595208,
              35.098521000325704
            ],
            [
              -110.35745975242632,
              34.28290799504152
            ],
            [
              -110.45792743600744,
              33.819431881009
            ],
            [
              -110.39023411925328,
              33.3258248628129
            ],
            [
              -109.85380598138248,
              32.556833544148915
            ],
            [
              -109.43942400682032,
              32.275370156498155
            ],
            [
              -108.85318232182439,
              32.32726342966913
            ]
          ]
        ]
      }
    },
    {
      "type": "Feature",
      "properties": {
        "dn": 2,
        "PRODUCT": "Day 1 Excessive Rainfall Potential Forecast",
        "VALID_TIME": "16Z 07/25/26 - 12Z 07/26/26",
        "OUTLOOK": "Slight (At Least 15%)",
        "ISSUE_TIME": "2026-07-25 15:54:00",
        "START_TIME": "2026-07-25 16:00:00",
        "END_TIME": "2026-07-26 12:00:00",
        "Snippet": "16Z 07/25/26 - 12Z 07/26/26",
        "risk_norm": "SLIGHT"
      },
      "geometry": {
        "type": "Polygon",
        "coordinates": [
          [
            [
              -80.43099442581817,
              32.03565829520947
            ],
            [
              -80.7644065647182,
              32.38523204440144
            ],
            [
              -80.7079589114188,
              32.8355005159292
            ],
            [
              -80.09071357148258,
              34.23370904419547
            ],
            [
              -79.70435852766575,
              34.65140263116137
            ],
            [
              -78.85869339351474,
              35.15988105731362
            ],
            [
              -77.6913728756506,
              35.539762560954316
            ],
            [
              -76.67051357760447,
              35.656407258528105
            ],
            [
              -75.14920543792493,
              35.435605282704515
            ],
            [
              -75.28331915995825,
              34.99700139975197
            ],
            [
              -75.68739766468772,
              34.908349378346486
            ],
            [
              -76.33598779051458,
              34.346979512730535
            ],
            [
              -76.56702118014071,
              34.28226107388718
            ],
            [
              -76.76854892880894,
              34.39586392823509
            ],
            [
              -77.11477141274594,
              34.29776144478377
            ],
            [
              -77.54201827397435,
              34.02607642761089
            ],
            [
              -77.71224181094408,
              33.63473997397105
            ],
            [
              -77.9482163401915,
              33.52288038043892
            ],
            [
              -78.2102709936589,
              33.595799017323515
            ],
            [
              -78.49243248898624,
              33.53379906716586
            ],
            [
              -78.85337863814183,
              33.29747603483985
            ],
            [
              -78.95812723491197,
              32.94361826410218
            ],
            [
              -80.32467657218145,
              32.02605128965215
            ],
            [
              -80.43099442581817,
              32.03565829520947
            ]
          ]
        ]
      }
    },
    {
      "type": "Feature",
      "properties": {
        "dn": 2,
        "PRODUCT": "Day 1 Excessive Rainfall Potential Forecast",
        "VALID_TIME": "16Z 07/25/26 - 12Z 07/26/26",
        "OUTLOOK": "Slight (At Least 15%)",
        "ISSUE_TIME": "2026-07-25 15:54:00",
        "START_TIME": "2026-07-25 16:00:00",
        "END_TIME": "2026-07-26 12:00:00",
        "Snippet": "16Z 07/25/26 - 12Z 07/26/26",
        "risk_norm": "SLIGHT"
      },
      "geometry": {
        "type": "Polygon",
        "coordinates": [
          [
            [
              -109.43942400682032,
              32.275370156498155
            ],
            [
              -109.85380598138248,
              32.556833544148915
            ],
            [
              -110.39023411925328,
              33.3258248628129
            ],
            [
              -110.45792743600744,
              33.819431881009
            ],
            [
              -110.35745975242632,
              34.28290799504152
            ],
            [
              -109.86267689595208,
              35.098521000325704
            ],
            [
              -108.83213982281116,
              36.13577948944142
            ],
            [
              -108.21848149297365,
              36.59012440081304
            ],
            [
              -107.95196481678384,
              36.70067781594549
            ],
            [
              -107.39180813747866,
              36.697876877178786
            ],
            [
              -107.21463393911598,
              36.62056499283754
            ],
            [
              -107.00876252974199,
              36.275974208605916
            ],
            [
              -106.90645722005975,
              35.33774222065753
            ],
            [
              -106.73299911663612,
              35.26036370186151
            ],
            [
              -105.68233633761497,
              35.24127263270709
            ],
            [
              -105.3407009575498,
              35.12771668215483
            ],
            [
              -105.15516768275931,
              34.91327248610476
            ],
            [
              -105.14423700801912,
              34.19132880088292
            ],
            [
              -105.35763391950243,
              33.544300791092766
            ],
            [
              -105.3950926561558,
              32.77098358474861
            ],
            [
              -105.81609222045729,
              32.65195203488031
            ],
            [
              -106.09273580752645,
              32.723932224988445
            ],
            [
              -106.38327307112304,
              32.93069451101998
            ],
            [
              -106.92948633577065,
              32.98200454244217
            ],
            [
              -108.85318232182439,
              32.32726342966913
            ],
            [
              -109.43942400682032,
              32.275370156498155
            ]
          ]
        ]
      }
    }
  ]
}
