{
  "type": "FeatureCollection",
  "features": [
    {
      "type": "Feature",
      "properties": {
        "dn": 1,
        "PRODUCT": "Day 2 Excessive Rainfall Potential Forecast",
        "VALID_TIME": "12Z 07/26/26 - 12Z 07/27/26",
        "OUTLOOK": "Marginal (At Least 5%)",
        "ISSUE_TIME": "2026-07-25 08:08:00",
        "START_TIME": "2026-07-26 12:00:00",
        "END_TIME": "2026-07-27 12:00:00",
        "Snippet": "12Z 07/26/26 - 12Z 07/27/26",
        "risk_norm": "MARGINAL"
      },
      "geometry": {
        "type": "Polygon",
        "coordinates": [
          [
            [
              -80.1565824025546,
              25.40889899501125
            ],
            [
              -80.43740893968918,
              25.62123837293953
            ],
            [
              -80.40063373716045,
              26.352819555478444
            ],
            [
              -80.51457332547162,
              26.68535205766157
            ],
            [
              -82.09069466944983,
              28.75328234257668
            ],
            [
              -82.37706296407163,
              29.005891979988377
            ],
            [
              -82.87870305716717,
              30.234714920338288
            ],
            [
              -83.92114580535,
              31.497362404339306
            ],
            [
              -84.24182867701873,
              32.06548481607482
            ],
            [
              -84.12422155479325,
              32.739205529846124
            ],
            [
              -83.75353338951,
              33.21303841150536
            ],
            [
              -82.8449329711546,
              34.09939875163789
            ],
            [
              -82.04345062307429,
              34.40095408264282
            ],
            [
              -81.26102296202798,
              34.518310615028966
            ],
            [
              -80.27724987946709,
              34.47818592529762
            ],
            [
              -79.8070259802142,
              34.29919192124335
            ],
            [
              -79.20139489974693,
              33.92387691521403
            ],
            [
              -78.96264374239466,
              33.67231416253187
            ],
            [
              -78.85266302286722,
              33.29740433841915
            ],
            [
              -78.95741378027536,
              32.943546965180765
            ],
            [
              -80.49445341643577,
              31.950699855526654
            ],
            [
              -80.7406272890233,
              31.699283483611605
            ],
            [
              -81.12021116667621,
              30.77425779181026
            ],
            [
              -80.91979709382122,
              29.79593975750715
            ],
            [
              -80.22831009726261,
              28.585879083976433
            ],
            [
              -80.27895736516328,
              28.177831850492325
            ],
            [
              -79.72225018624539,
              26.83709996097543
            ],
            [
              -79.83705590772036,
              25.51566625853706
            ],
            [
              -79.90534079031471,
              25.383737101986455
            ],
            [
              -80.1565824025546,
              25.40889899501125
            ]
          ]
        ]
      }
    },
    {
      "type": "Feature",
      "properties": {
        "dn": 1,
        "PRODUCT": "Day 2 Excessive Rainfall Potential Forecast",
        "VALID_TIME": "12Z 07/26/26 - 12Z 07/27/26",
        "OUTLOOK": "Marginal (At Least 5%)",
        "ISSUE_TIME": "2026-07-25 08:08:00",
        "START_TIME": "2026-07-26 12:00:00",
        "END_TIME": "2026-07-27 12:00:00",
        "Snippet": "12Z 07/26/26 - 12Z 07/27/26",
        "risk_norm": "MARGINAL"
      },
      "geometry": {
        "type": "Polygon",
        "coordinates": [
          [
            [
              -108.97623571561925,
              31.13024758539512
            ],
            [
              -110.95653789383776,
              31.17089174187611
            ],
            [
              -113.48108322812887,
              31.90276387881721
            ],
            [
              -113.60827800437836,
              32.34641034559532
            ],
            [
              -114.02426696915082,
              32.89177311457013
            ],
            [
              -113.99350379821344,
              33.03247516523938
            ],
            [
              -113.79384195225049,
              33.14818492777001
            ],
            [
              -112.74450188388741,
              33.40397062967212
            ],
            [
              -112.28996151187133,
              33.63450464056173
            ],
            [
              -112.37840179728057,
              33.85262878501726
            ],
            [
              -112.86634441515622,
              34.16370761592926
            ],
            [
              -113.51730706459503,
              34.77312201779582
            ],
            [
              -113.80246046813885,
              35.14943540028431
            ],
            [
              -113.83291064562398,
              35.3274638803641
            ],
            [
              -113.64406291826798,
              35.53114869514017
            ],
            [
              -113.38577594987147,
              35.650628686356754
            ],
            [
              -112.69575184754846,
              35.86136872587968
            ],
            [
              -111.70035543006566,
              36.28020019455068
            ],
            [
              -111.28598465084634,
              36.50134850358813
            ],
            [
              -110.9947626392337,
              36.79859897376876
            ],
            [
              -110.83817687723716,
              37.26292986411545
            ],
            [
              -110.78189599812102,
              38.0304757639555
            ],
            [
              -110.24199290766006,
              39.01691862895274
            ],
            [
              -110.12979734509915,
              39.8270291732165
            ],
            [
              -109.72202615625883,
              40.61420239759067
            ],
            [
              -108.8147673816528,
              41.65621734879857
            ],
            [
              -108.38415113465635,
              41.95167010002817
            ],
            [
              -107.80625586924452,
              42.037078952518414
            ],
            [
              -107.07910102754163,
              41.867929681976605
            ],
            [
              -106.52416860076546,
              41.641166089510634
            ],
            [
              -105.09158800012065,
              40.80407277143065
            ],
            [
              -104.63758096800791,
              40.30057876989246
            ],
            [
              -104.41298217233583,
              39.73853032751725
            ],
            [
              -104.2795672967534,
              38.236742968728024
            ],
            [
              -104.68220075891473,
              37.05359031580116
            ],
            [
              -104.77697357740361,
              36.24117560165894
            ],
            [
              -104.4789784696347,
              34.72794786279536
            ],
            [
              -104.35809812482115,
              33.28794018295955
            ],
            [
              -104.45205791739053,
              32.46604215274992
            ],
            [
              -104.65954115832264,
              31.725619260252135
            ],
            [
              -104.87224972157505,
              31.71256300653922
            ],
            [
              -105.15802516867022,
              31.922008076874047
            ],
            [
              -105.61633959868621,
              31.664628489778202
            ],
            [
              -105.82882101214112,
              31.650293909935286
            ],
            [
              -106.4839733777852,
              31.786421419050836
            ],
            [
              -107.10175257836563,
              32.05934300185885
            ],
            [
              -107.66743037303846,
              31.833226549338622
            ],
            [
              -107.80667850688059,
              31.639795509009744
            ],
            [
              -107.96578444528456,
              31.62688053767055
            ],
            [
              -108.06062585381395,
              31.52882876890281
            ],
            [
              -108.07866176117668,
              31.20713454245347
            ],
            [
              -108.97623571561925,
              31.13024758539512
            ]
          ]
        ]
      }
    },
    {
      "type": "Feature",
      "properties": {
        "dn": 1,
        "PRODUCT": "Day 2 Excessive Rainfall Potential Forecast",
        "VALID_TIME": "12Z 07/26/26 - 12Z 07/27/26",
        "OUTLOOK": "Marginal (At Least 5%)",
        "ISSUE_TIME": "2026-07-25 08:08:00",
        "START_TIME": "2026-07-26 12:00:00",
        "END_TIME": "2026-07-27 12:00:00",
        "Snippet": "12Z 07/26/26 - 12Z 07/27/26",
        "risk_norm": "MARGINAL"
      },
      "geometry": {
        "type": "Polygon",
        "coordinates": [
          [
            [
              -90.49910361010036,
              40.37191227924321
            ],
            [
              -91.4692152129022,
              40.701476411205824
            ],
            [
              -92.03910930071142,
              41.01894291059159
            ],
            [
              -92.89947102300287,
              41.60083963940688
            ],
            [
              -93.35886300628601,
              42.085507094849824
            ],
            [
              -94.05194295873595,
              43.26258439067983
            ],
            [
              -94.40218711423896,
              44.25577210110018
            ],
            [
              -94.33810241459055,
              44.8560365991583
            ],
            [
              -94.21599206057134,
              45.026685459636134
            ],
            [
              -93.78828764709404,
              45.281603508338506
            ],
            [
              -93.24033029101486,
              45.405356290977466
            ],
            [
              -92.02649629228503,
              45.39047631749922
            ],
            [
              -90.1569043632748,
              45.13904164454377
            ],
            [
              -88.46964282233417,
              45.00347702948238
            ],
            [
              -87.04611852077342,
              44.64938307153682
            ],
            [
              -86.23193605601467,
              44.31254898739446
            ],
            [
              -85.55829528959755,
              43.80467491746491
            ],
            [
              -84.87782614280128,
              42.85854971279407
            ],
            [
              -84.61459203840494,
              41.97170653391155
            ],
            [
              -84.67703864586431,
              41.362097510668654
            ],
            [
              -84.81510945781973,
              41.150479610582146
            ],
            [
              -85.18533079786117,
              40.95053205022067
            ],
            [
              -85.95737972850479,
              40.77134796085803
            ],
            [
              -88.59149946845135,
              40.40144184137836
            ],
            [
              -89.28839083269779,
              40.33714567995865
            ],
            [
              -90.49910361010036,
              40.37191227924321
            ]
          ]
        ]
      }
    }
  ]
}
