{
  "type": "FeatureCollection",
  "features": [
    {
      "type": "Feature",
      "properties": {
        "dn": 1,
        "PRODUCT": "Day 1 Excessive Rainfall Potential Forecast",
        "VALID_TIME": "16Z 09/26/26 - 12Z 09/27/26",
        "OUTLOOK": "Marginal (At Least 5%)",
        "ISSUE_TIME": "2026-09-26 15:53:00",
        "START_TIME": "2026-09-26 16:00:00",
        "END_TIME": "2026-09-27 12:00:00",
        "Snippet": "16Z 09/26/26 - 12Z 09/27/26",
        "risk_norm": "MARGINAL"
      },
      "geometry": {
        "type": "Polygon",
        "coordinates": [
          [
            [
              -104.07805274404082,
              29.756388166219363
            ],
            [
              -104.2111439792726,
              30.113560626349315
            ],
            [
              -104.25059595116194,
              30.61274007290285
            ],
            [
              -104.13163913738096,
              31.120720185001524
            ],
            [
              -103.93292377513878,
              31.315033376959367
            ],
            [
              -103.10660163761281,
              31.677727135362414
            ],
            [
              -102.49157758592318,
              32.07123600356179
            ],
            [
              -101.98330121870269,
              32.50167731199547
            ],
            [
              -100.25523402044244,
              34.646331995636054
            ],
            [
              -99.48024951970169,
              35.793333014443625
            ],
            [
              -99.22986660217872,
              36.47218492850182
            ],
            [
              -97.85186435754781,
              39.08309393773765
            ],
            [
              -97.70021824107448,
              39.836673550464816
            ],
            [
              -97.71748357369447,
              40.496898736332795
            ],
            [
              -97.57049216216375,
              41.55108255178338
            ],
            [
              -97.24154756986304,
              42.514306997716915
            ],
            [
              -96.84106287621191,
              43.16934598989041
            ],
            [
              -96.13200101600913,
              43.52175828580412
            ],
            [
              -94.76204744997602,
              43.7839259401003
            ],
            [
              -93.3898602853717,
              43.73404976160766
            ],
            [
              -92.85578245504064,
              43.599251590083405
            ],
            [
              -92.14972452348653,
              43.287305674234894
            ],
            [
              -91.68662690651367,
              42.88891438993305
            ],
            [
              -91.52136626378038,
              42.538533756172065
            ],
            [
              -91.49294392703693,
              41.66647390102867
            ],
            [
              -91.85820825801055,
              39.299354478753806
            ],
            [
              -92.16639279912692,
              38.46276950136406
            ],
            [
              -92.51771765773469,
              37.979360121072304
            ],
            [
              -93.37434263641494,
              37.36519853746823
            ],
            [
              -96.7124356480225,
              35.66424703771122
            ],
            [
              -97.68749707582445,
              34.9332515297401
            ],
            [
              -98.05650797241637,
              34.386430091539104
            ],
            [
              -98.51783107115338,
              33.42928807957649
            ],
            [
              -99.08191148167741,
              32.55623769938423
            ],
            [
              -99.59318270740185,
              31.907627874467035
            ],
            [
              -100.05657270660015,
              31.484085371488224
            ],
            [
              -100.98518432300651,
              30.906262699223277
            ],
            [
              -102.4219128343491,
              30.162101041730182
            ],
            [
              -102.97483159553983,
              29.770167279106534
            ],
            [
              -103.27922813158631,
              29.617451475360696
            ],
            [
              -103.80175662818695,
              29.58879335700856
            ],
            [
              -104.07805274404082,
              29.756388166219363
            ]
          ],
          [
            [
              -92.63388328494756,
              40.41353892024245
            ],
            [
              -92.45689609649159,
              40.54342338009782
            ],
            [
              -92.44819002425085,
              40.89454676590628
            ],
            [
              -92.66314466065967,
              41.64163650645122
            ],
            [
              -92.83278905227776,
              41.90564191225482
            ],
            [
              -93.4129241044259,
              42.30412697405489
            ],
            [
              -93.99883112305679,
              42.525675595786396
            ],
            [
              -94.76494744340499,
              42.57169654009872
            ],
            [
              -95.52990046996814,
              42.26671648501584
            ],
            [
              -96.28742870514063,
              41.695790361435265
            ],
            [
              -96.45838133544419,
              41.388566847783196
            ],
            [
              -96.45338149253362,
              41.03833562255536
            ],
            [
              -96.27637855762518,
              40.863858521346124
            ],
            [
              -95.57987843974664,
              40.73582630864342
            ],
            [
              -94.30620467084346,
              40.69152071927057
            ],
            [
              -93.15337658156902,
              40.419684463582314
            ],
            [
              -92.63388328494756,
              40.41353892024245
            ]
          ]
        ]
      }
    },
    {
      "type": "Feature",
      "properties": {
        "dn": 1,
        "PRODUCT": "Day 1 Excessive Rainfall Potential Forecast",
        "VALID_TIME": "16Z 09/26/26 - 12Z 09/27/26",
        "OUTLOOK": "Marginal (At Least 5%)",
        "ISSUE_TIME": "2026-09-26 15:53:00",
        "START_TIME": "2026-09-26 16:00:00",
        "END_TIME": "2026-09-27 12:00:00",
        "Snippet": "16Z 09/26/26 - 12Z 09/27/26",
        "risk_norm": "MARGINAL"
      },
      "geometry": {
        "type": "Polygon",
        "coordinates": [
          [
            [
              -69.60378002774304,
              41.052290131318514
            ],
            [
              -69.9775637217937,
              40.89691470263725
            ],
            [
              -70.3768770012669,
              40.95278175752549
            ],
            [
              -71.03589015795623,
              40.909278873620366
            ],
            [
              -72.80859393724711,
              40.338379645752106
            ],
            [
              -73.67298123944643,
              40.20771864327401
            ],
            [
              -73.81647979138202,
              39.510902480819595
            ],
            [
              -74.12171379232029,
              39.14513458047651
            ],
            [
              -74.66658562418245,
              38.71720153763917
            ],
            [
              -74.76795827691085,
              38.19054029683805
            ],
            [
              -75.06332677612373,
              37.73060143840943
            ],
            [
              -75.32803070455708,
              37.53544040470344
            ],
            [
              -75.85421531091957,
              38.71866493309775
            ],
            [
              -76.14782395523427,
              39.95599855134031
            ],
            [
              -76.0758306369647,
              40.34840459193006
            ],
            [
              -75.46813050608816,
              41.69958187429168
            ],
            [
              -75.31012968140828,
              41.90291589607093
            ],
            [
              -74.85256541183726,
              42.11696311122425
            ],
            [
              -74.61333345407127,
              42.705980934890725
            ],
            [
              -74.3516509193966,
              42.8092389449036
            ],
            [
              -73.77701964354115,
              42.69964383420333
            ],
            [
              -72.75894264103897,
              43.50057502087884
            ],
            [
              -72.21086805269478,
              43.52153163048779
            ],
            [
              -71.88719598336132,
              43.61284344573965
            ],
            [
              -70.99680980835093,
              43.54344785071636
            ],
            [
              -69.87015023781072,
              43.2176428108732
            ],
            [
              -70.10930004617522,
              42.9850581797129
            ],
            [
              -70.09290900953746,
              42.894657036616486
            ],
            [
              -69.81708007095752,
              42.32653465722633
            ],
            [
              -69.4786682588855,
              42.013173494381306
            ],
            [
              -69.41848747016856,
              41.78263081835675
            ],
            [
              -69.53119577254675,
              41.33838491840629
            ],
            [
              -69.59062411422764,
              41.49588250517834
            ],
            [
              -69.48141906355886,
              41.92480590676998
            ],
            [
              -69.85562155169015,
              42.331886966300026
            ],
            [
              -70.1211652314484,
              42.94303326534766
            ],
            [
              -70.52874530906115,
              42.99791978904801
            ],
            [
              -70.9098851629377,
              42.91628754163703
            ],
            [
              -71.69362518828277,
              42.40037155958801
            ],
            [
              -72.89213372563111,
              41.84386472145693
            ],
            [
              -73.5691562534865,
              41.17322983583504
            ],
            [
              -74.1124773994365,
              41.1050439735511
            ],
            [
              -74.37815997278686,
              40.95814987610596
            ],
            [
              -74.34274236573465,
              40.554406356309485
            ],
            [
              -74.9136750143383,
              39.72986558751003
            ],
            [
              -75.05662392095482,
              38.98664834016577
            ],
            [
              -74.97150482975925,
              38.52869492638814
            ],
            [
              -74.80567422050711,
              38.19454556290146
            ],
            [
              -74.70402617828958,
              38.72161382099384
            ],
            [
              -74.15928346740964,
              39.149655283597085
            ],
            [
              -73.8541674756455,
              39.51548077910362
            ],
            [
              -73.71091578430789,
              40.212311786084356
            ],
            [
              -73.57942472426011,
              40.285189222268976
            ],
            [
              -72.80232401321926,
              40.367310191683515
            ],
            [
              -71.02908676342167,
              40.93805796810194
            ],
            [
              -70.36988557871831,
              40.9815287987522
            ],
            [
              -69.97046407349346,
              40.925654692482
            ],
            [
              -69.6418281258076,
              41.05772641344726
            ],
            [
              -69.55987143119347,
              41.2253582512186
            ],
            [
              -69.60378002774304,
              41.052290131318514
            ]
          ]
        ]
      }
    },
    {
      "type": "Feature",
      "properties": {
        "dn": 1,
        "PRODUCT": "Day 1 Excessive Rainfall Potential Forecast",
        "VALID_TIME": "16Z 09/26/26 - 12Z 09/27/26",
        "OUTLOOK": "Marginal (At Least 5%)",
        "ISSUE_TIME": "2026-09-26 15:53:00",
        "START_TIME": "2026-09-26 16:00:00",
        "END_TIME": "2026-09-27 12:00:00",
        "Snippet": "16Z 09/26/26 - 12Z 09/27/26",
        "risk_norm": "MARGINAL"
      },
      "geometry": {
        "type": "Polygon",
        "coordinates": [
          [
            [
              -69.52454760559024,
              43.38931914238577
            ],
            [
              -69.5231570293906,
              43.39000700162789
            ],
            [
              -69.52221127909567,
              43.38899628288425
            ],
            [
              -69.52454760559024,
              43.38931914238577
            ]
          ]
        ]
      }
    },
    {
      "type": "Feature",
      "properties": {
        "dn": 1,
        "PRODUCT": "Day 1 Excessive Rainfall Potential Forecast",
        "VALID_TIME": "16Z 09/26/26 - 12Z 09/27/26",
        "OUTLOOK": "Marginal (At Least 5%)",
        "ISSUE_TIME": "2026-09-26 15:53:00",
        "START_TIME": "2026-09-26 16:00:00",
        "END_TIME": "2026-09-27 12:00:00",
        "Snippet": "16Z 09/26/26 - 12Z 09/27/26",
        "risk_norm": "MARGINAL"
      },
      "geometry": {
        "type": "Polygon",
        "coordinates": [
          [
            [
              -69.45500439364938,
              43.423692501575765
            ],
            [
              -69.45361284602994,
              43.42437969211077
            ],
            [
              -69.45266747995126,
              43.423368841919476
            ],
            [
              -69.45500439364938,
              43.423692501575765
            ]
          ]
        ]
      }
    },
    {
      "type": "Feature",
      "properties": {
        "dn": 1,
        "PRODUCT": "Day 1 Excessive Rainfall Potential Forecast",
        "VALID_TIME": "16Z 09/26/26 - 12Z 09/27/26",
        "OUTLOOK": "Marginal (At Least 5%)",
        "ISSUE_TIME": "2026-09-26 15:53:00",
        "START_TIME": "2026-09-26 16:00:00",
        "END_TIME": "2026-09-27 12:00:00",
        "Snippet": "16Z 09/26/26 - 12Z 09/27/26",
        "risk_norm": "MARGINAL"
      },
      "geometry": {
        "type": "Polygon",
        "coordinates": [
          [
            [
              -69.38446726864781,
              43.457021573511
            ],
            [
              -68.54651979938596,
              43.86749492959151
            ],
            [
              -67.79012655316535,
              45.246684105577614
            ],
            [
              -67.40421434335829,
              45.714088262971664
            ],
            [
              -67.18057241058808,
              45.42068924624156
            ],
            [
              -66.95442564786461,
              45.343055660791535
            ],
            [
              -66.79221231227616,
              45.05718921762847
            ],
            [
              -66.7239783722989,
              44.8721243610597
            ],
            [
              -66.8918529766954,
              44.72220884774778
            ],
            [
              -66.84530607242704,
              44.671454106097684
            ],
            [
              -67.23826018804331,
              44.379432096049186
            ],
            [
              -67.29921538641231,
              44.1690468673581
            ],
            [
              -67.51295570934856,
              44.06806522492239
            ],
            [
              -69.38446726864781,
              43.457021573511
            ]
          ]
        ]
      }
    },
    {
      "type": "Feature",
      "properties": {
        "dn": 2,
        "PRODUCT": "Day 1 Excessive Rainfall Potential Forecast",
        "VALID_TIME": "16Z 09/26/26 - 12Z 09/27/26",
        "OUTLOOK": "Slight (At Least 15%)",
        "ISSUE_TIME": "2026-09-26 15:53:00",
        "START_TIME": "2026-09-26 16:00:00",
        "END_TIME": "2026-09-27 12:00:00",
        "Snippet": "16Z 09/26/26 - 12Z 09/27/26",
        "risk_norm": "SLIGHT"
      },
      "geometry": {
        "type": "Polygon",
        "coordinates": [
          [
            [
              -74.80567422050711,
              38.19454556290146
            ],
            [
              -74.97150482975925,
              38.52869492638814
            ],
            [
              -75.05662392095482,
              38.98664834016577
            ],
            [
              -74.9136750143383,
              39.72986558751003
            ],
            [
              -74.34274236573465,
              40.554406356309485
            ],
            [
              -74.37815997278686,
              40.95814987610596
            ],
            [
              -74.1124773994365,
              41.1050439735511
            ],
            [
              -73.5691562534865,
              41.17322983583504
            ],
            [
              -72.89213372563111,
              41.84386472145693
            ],
            [
              -71.69362518828277,
              42.40037155958801
            ],
            [
              -70.9098851629377,
              42.91628754163703
            ],
            [
              -70.52874530906115,
              42.99791978904801
            ],
            [
              -70.1211652314484,
              42.94303326534766
            ],
            [
              -69.85562155169015,
              42.331886966300026
            ],
            [
              -69.48141906355886,
              41.92480590676998
            ],
            [
              -69.59062411422764,
              41.49588250517834
            ],
            [
              -69.51961588273812,
              41.307695778370416
            ],
            [
              -69.6418281258076,
              41.05772641344726
            ],
            [
              -69.97046407349346,
              40.925654692482
            ],
            [
              -70.36988557871831,
              40.9815287987522
            ],
            [
              -71.02908676342167,
              40.93805796810194
            ],
            [
              -72.80232401321926,
              40.367310191683515
            ],
            [
              -73.57942472426011,
              40.285189222268976
            ],
            [
              -73.71091578430789,
              40.212311786084356
            ],
            [
              -73.8541674756455,
              39.51548077910362
            ],
            [
              -74.15928346740964,
              39.149655283597085
            ],
            [
              -74.70402617828958,
              38.72161382099384
            ],
            [
              -74.80567422050711,
              38.19454556290146
            ]
          ]
        ]
      }
    },
    {
      "type": "Feature",
      "properties": {
        "dn": 2,
        "PRODUCT": "Day 1 Excessive Rainfall Potential Forecast",
        "VALID_TIME": "16Z 09/26/26 - 12Z 09/27/26",
        "OUTLOOK": "Slight (At Least 15%)",
        "ISSUE_TIME": "2026-09-26 15:53:00",
        "START_TIME": "2026-09-26 16:00:00",
        "END_TIME": "2026-09-27 12:00:00",
        "Snippet": "16Z 09/26/26 - 12Z 09/27/26",
        "risk_norm": "SLIGHT"
      },
      "geometry": {
        "type": "Polygon",
        "coordinates": [
          [
            [
              -93.15337658156902,
              40.419684463582314
            ],
            [
              -94.30620467084346,
              40.69152071927057
            ],
            [
              -95.57987843974664,
              40.73582630864342
            ],
            [
              -96.27637855762518,
              40.863858521346124
            ],
            [
              -96.45338149253362,
              41.03833562255536
            ],
            [
              -96.45838133544419,
              41.388566847783196
            ],
            [
              -96.28742870514063,
              41.695790361435265
            ],
            [
              -95.52990046996814,
              42.26671648501584
            ],
            [
              -94.76494744340499,
              42.57169654009872
            ],
            [
              -93.99883112305679,
              42.525675595786396
            ],
            [
              -93.4129241044259,
              42.30412697405489
            ],
            [
              -92.83278905227776,
              41.90564191225482
            ],
            [
              -92.66314466065967,
              41.64163650645122
            ],
            [
              -92.44819002425085,
              40.89454676590628
            ],
            [
              -92.45689609649159,
              40.54342338009782
            ],
            [
              -92.63388328494756,
              40.41353892024245
            ],
            [
              -93.15337658156902,
              40.419684463582314
            ]
          ]
        ]
      }
    }
  ]
}
