{"type": "FeatureCollection", "features": [{"type": "Feature", "properties": {"dn": 1, "PRODUCT": "Day 1 Excessive Rainfall Potential Forecast", "VALID_TIME": "16Z 09/20/26 - 12Z 09/21/26", "OUTLOOK": "Marginal (At Least 5%)", "ISSUE_TIME": "2026-09-20 15:58:00", "START_TIME": "2026-09-20 16:00:00", "END_TIME": "2026-09-21 12:00:00", "Snippet": "16Z 09/20/26 - 12Z 09/21/26"}, "geometry": {"type": "Polygon", "coordinates": [[[-82.23395908992899, 24.499093837061707], [-82.37076715806401, 24.649363426232533], [-82.28307191608747, 25.00901058873419], [-81.49968507243626, 25.21654621684609], [-81.2641441636923, 25.51560999892447], [-81.15704126974987, 26.010903418025524], [-80.6033023510701, 26.372313072943065], [-80.24838575173797, 26.752402829899747], [-79.94920562442438, 26.676965219773578], [-79.82453723615556, 26.433778651901715], [-79.89260270424931, 25.889046564417168], [-80.12182828961265, 25.268470495238066], [-80.36620869442352, 24.924970670563827], [-80.6443422419553, 24.721390778850942], [-81.12018769458517, 24.536915561548454], [-81.63461948787743, 24.446359089387887], [-82.23395908992899, 24.499093837061707]]]}}, {"type": "Feature", "properties": {"dn": 1, "PRODUCT": "Day 1 Excessive Rainfall Potential Forecast", "VALID_TIME": "16Z 09/20/26 - 12Z 09/21/26", "OUTLOOK": "Marginal (At Least 5%)", "ISSUE_TIME": "2026-09-20 15:58:00", "START_TIME": "2026-09-20 16:00:00", "END_TIME": "2026-09-21 12:00:00", "Snippet": "16Z 09/20/26 - 12Z 09/21/26"}, "geometry": {"type": "Polygon", "coordinates": [[[-104.75781402954834, 29.71531876159247], [-104.87761417462117, 29.890359737728467], [-104.90828457938767, 30.253446935923108], [-105.02496405227991, 30.38286534513732], [-104.86067700973351, 30.940261510973684], [-104.57362408061458, 31.32221912283764], [-103.7259412053188, 32.09943776624039], [-100.61642161474157, 34.22947947978773], [-98.91544157724158, 35.494150717546475], [-97.83609555713083, 36.36711044731378], [-95.62636724902823, 38.66226645363741], [-95.34411480061623, 39.15028440459756], [-95.28854106483823, 39.68063653896822], [-95.69507135227087, 40.47230246789133], [-96.27691938379866, 40.907277313727114], [-96.68508372687523, 41.035436065652], [-97.38394817888643, 41.1151685454358], [-98.77513390442984, 41.003676061191705], [-99.11803661331403, 40.86453323027176], [-99.56487627360815, 40.503125946819644], [-100.05006873381703, 39.785063336519855], [-100.13431678127861, 39.16373380426969], [-99.99928190806689, 38.72449326891466], [-99.95979407156369, 37.88120582822563], [-100.11173173343505, 37.52026513327372], [-100.38225577408934, 37.287970378166946], [-101.03912065756215, 36.99788557593492], [-101.80939945917801, 36.789778014746204], [-102.700525933469, 36.75154226038479], [-103.26734359199624, 36.859083504449366], [-103.90203343614542, 37.09542544379929], [-104.38065052793664, 37.42827678117221], [-104.7208309121705, 38.07873486169453], [-104.77848173031262, 39.32007522054207], [-104.21489816669177, 40.7194340355137], [-104.25043840456105, 41.11318737343329], [-104.386514368094, 41.325559464302344], [-104.75896183022503, 41.56794362024986], [-105.54740524488965, 41.83027544926756], [-107.83932456863592, 42.29545120225267], [-108.27903076187026, 42.48340034638782], [-108.4900291152445, 42.72988481134213], [-108.53123858137525, 43.03189472369343], [-108.12082609196771, 43.97264455431004], [-108.20812382188349, 44.614114612480726], [-108.37541040737091, 44.94668666713601], [-108.47737947271631, 45.668449953656186], [-108.44061200036789, 46.26838499648653], [-108.20128907797, 46.75203377528798], [-107.68867341816598, 47.082841414892755], [-106.01406804478732, 47.604014238361295], [-105.21304416321472, 47.68838524099317], [-104.39331728420959, 47.60233471142907], [-103.35862556959788, 47.18533153833919], [-101.21682851588731, 45.73962589621012], [-99.90088703570682, 45.05205871342927], [-98.79233085646216, 44.56321620105277], [-97.03386667139509, 43.9454457035156], [-95.1197916330264, 43.43875361204719], [-92.5728583458794, 42.990226755116204], [-85.98429397549135, 42.438132241146135], [-82.92251091133191, 41.86803690877835], [-81.78545888612419, 41.569393340471535], [-80.45485432011006, 41.02677160458292], [-80.33311625759596, 41.060918928046256], [-78.84481960502373, 40.490543889273965], [-77.82171059799583, 39.994973906127335], [-77.32542947971697, 39.4999311991898], [-77.30137968630173, 38.96222233881892], [-77.45104153311505, 38.75405588701815], [-78.09960941491042, 38.28208939692534], [-78.60191219934758, 37.613866990330195], [-79.25149434773189, 37.04663303943318], [-79.86379998772978, 36.29276141666948], [-80.620526897923, 35.63818625031955], [-80.98536486883553, 35.39762646361823], [-81.39107522890019, 35.25082346890355], [-81.84505895986484, 35.15206518874731], [-82.55651465505684, 35.20712805542793], [-82.81157570771235, 35.40745162186052], [-82.22467409997054, 36.17431885204036], [-81.92067196236243, 36.37668756640875], [-81.63320796001337, 36.44398948002766], [-81.32418812642487, 36.6879701585247], [-81.29605798950264, 36.91027987425303], [-81.58988129267685, 37.24695760938811], [-82.57865771978439, 37.456453120311366], [-84.85829480103591, 38.36542359077541], [-85.74648895730328, 38.59321778826876], [-86.65595978475706, 38.5949654978019], [-87.92310312677667, 38.34027362950555], [-90.95704665119656, 37.503419042956025], [-92.656044578725, 36.86578035181929], [-93.05078750454906, 36.64727554732912], [-93.78090781929171, 36.02826016104702], [-94.72635333156762, 34.54977506501397], [-96.55100489973952, 32.10216356343144], [-96.54855999023776, 31.92081533084905], [-98.53120835512958, 30.343482524564017], [-99.40417899787978, 29.729480192460052], [-100.52852822828325, 29.10102060913981], [-100.83655755616769, 28.998500727628123], [-101.49335118859003, 29.56531773165455], [-102.0241837393526, 29.679077841975136], [-102.33806625490003, 29.664618481651512], [-102.540464226531, 29.564651167053935], [-102.67353584704607, 29.193135991427127], [-102.96863089913445, 28.90342939769026], [-103.43615605750442, 28.87863360121877], [-104.14267331873411, 29.249555816492244], [-104.75781402954834, 29.71531876159247]], [[-87.60656770914055, 38.816151395390186], [-86.05241015262945, 39.009424100095984], [-85.42746764976744, 38.97619618251935], [-84.19695309603783, 38.726325146929874], [-81.89359449172858, 37.98712677064564], [-80.16766076201677, 37.75677351287283], [-79.645228726252, 37.84498701137519], [-79.32581104104224, 38.085121010970916], [-79.04848916110842, 38.417426892444496], [-78.91175822759278, 38.94056493371426], [-79.11451778925323, 39.49363807790495], [-79.35306649984976, 39.82658436143073], [-79.6122098818914, 40.02690066961194], [-80.10777359669136, 40.20233585692144], [-80.86192840275523, 40.61783194772097], [-81.87022596773559, 40.91544086240437], [-84.61560319070735, 41.402877749889505], [-86.18984697040327, 41.44274096493889], [-86.89876788301828, 41.34448360822306], [-87.377158784342, 41.18998997941776], [-88.30031411208036, 40.43605569843184], [-90.28842604427567, 39.92722792791237], [-90.81652032698273, 39.67532950431513], [-91.29992611595559, 38.978606948188855], [-91.25402512484537, 38.66733386368735], [-91.0897844469043, 38.48575246626166], [-90.86665299647854, 38.39175242837466], [-90.25013099365154, 38.242593870763066], [-89.4568628365268, 38.26339087233525], [-87.60656770914055, 38.816151395390186]], [[-102.30874328590501, 42.46919162878871], [-101.78809691598616, 42.619673315540645], [-101.10211229772703, 42.99104632442175], [-100.7692526174867, 43.39196777699756], [-100.70297116533214, 44.29978458221094], [-100.89850091179912, 44.551616252778686], [-101.40266642807845, 44.878886358781635], [-101.83691277525261, 45.03516305071637], [-102.26608116349762, 45.1049762749618], [-103.59092064745563, 45.00736560881434], [-104.2939442237157, 44.760024548413185], [-104.68108125674182, 44.39634840177566], [-104.77925619434649, 44.175893816033664], [-104.7234023268105, 43.61729516422128], [-104.57506530585299, 43.32180345309212], [-104.24224536652069, 42.94812458834474], [-103.73476521937961, 42.58105448224132], [-103.13195438615668, 42.43456503828742], [-102.30874328590501, 42.46919162878871]]]}}, {"type": "Feature", "properties": {"dn": 2, "PRODUCT": "Day 1 Excessive Rainfall Potential Forecast", "VALID_TIME": "16Z 09/20/26 - 12Z 09/21/26", "OUTLOOK": "Slight (At Least 15%)", "ISSUE_TIME": "2026-09-20 15:58:00", "START_TIME": "2026-09-20 16:00:00", "END_TIME": "2026-09-21 12:00:00", "Snippet": "16Z 09/20/26 - 12Z 09/21/26"}, "geometry": {"type": "Polygon", "coordinates": [[[-90.25013099365154, 38.242593870763066], [-90.86665299647854, 38.39175242837466], [-91.0897844469043, 38.48575246626166], [-91.25402512484537, 38.66733386368735], [-91.29992611595559, 38.978606948188855], [-90.81652032698273, 39.67532950431513], [-90.28842604427567, 39.92722792791237], [-88.30031411208036, 40.43605569843184], [-87.377158784342, 41.18998997941776], [-86.89876788301828, 41.34448360822306], [-86.18984697040327, 41.44274096493889], [-84.61560319070735, 41.402877749889505], [-81.87022596773559, 40.91544086240437], [-80.86192840275523, 40.61783194772097], [-80.10777359669136, 40.20233585692144], [-79.6122098818914, 40.02690066961194], [-79.35306649984976, 39.82658436143073], [-79.11451778925323, 39.49363807790495], [-78.91175822759278, 38.94056493371426], [-79.04848916110842, 38.417426892444496], [-79.32581104104224, 38.085121010970916], [-79.645228726252, 37.84498701137519], [-80.16766076201677, 37.75677351287283], [-81.89359449172858, 37.98712677064564], [-84.19695309603783, 38.726325146929874], [-85.42746764976744, 38.97619618251935], [-86.05241015262945, 39.009424100095984], [-87.60656770914055, 38.816151395390186], [-89.4568628365268, 38.26339087233525], [-90.25013099365154, 38.242593870763066]]]}}, {"type": "Feature", "properties": {"dn": 2, "PRODUCT": "Day 1 Excessive Rainfall Potential Forecast", "VALID_TIME": "16Z 09/20/26 - 12Z 09/21/26", "OUTLOOK": "Slight (At Least 15%)", "ISSUE_TIME": "2026-09-20 15:58:00", "START_TIME": "2026-09-20 16:00:00", "END_TIME": "2026-09-21 12:00:00", "Snippet": "16Z 09/20/26 - 12Z 09/21/26"}, "geometry": {"type": "Polygon", "coordinates": [[[-103.13195438615668, 42.43456503828742], [-103.73476521937961, 42.58105448224132], [-104.24224536652069, 42.94812458834474], [-104.57506530585299, 43.32180345309212], [-104.7234023268105, 43.61729516422128], [-104.77925619434649, 44.175893816033664], [-104.68108125674182, 44.39634840177566], [-104.2939442237157, 44.760024548413185], [-103.59092064745563, 45.00736560881434], [-102.26608116349762, 45.1049762749618], [-101.83691277525261, 45.03516305071637], [-101.40266642807845, 44.878886358781635], [-100.89850091179912, 44.551616252778686], [-100.70297116533214, 44.29978458221094], [-100.7692526174867, 43.39196777699756], [-101.10211229772703, 42.99104632442175], [-101.78809691598616, 42.619673315540645], [-102.30874328590501, 42.46919162878871], [-103.13195438615668, 42.43456503828742]]]}}]}