{"type": "FeatureCollection", "features": [{"type": "Feature", "properties": {"dn": 1, "PRODUCT": "Day 2 Excessive Rainfall Potential Forecast", "VALID_TIME": "12Z 09/21/26 - 12Z 09/22/26", "OUTLOOK": "Marginal (At Least 5%)", "ISSUE_TIME": "2026-09-20 08:15:00", "START_TIME": "2026-09-21 12:00:00", "END_TIME": "2026-09-22 12:00:00", "Snippet": "12Z 09/21/26 - 12Z 09/22/26"}, "geometry": {"type": "Polygon", "coordinates": [[[-80.5192798341949, 25.352564930990095], [-80.75025875491953, 25.559443922980112], [-80.75279387349977, 25.973124913995814], [-80.35116100429804, 26.761473799013434], [-80.38126438909642, 27.361414779197723], [-80.21011611227777, 27.483543090083877], [-79.9488336198821, 27.50385455416804], [-79.72225018624539, 26.83709996097543], [-79.83705590772036, 25.51566625853706], [-79.96117914096732, 25.343396456222017], [-80.5192798341949, 25.352564930990095]]]}}, {"type": "Feature", "properties": {"dn": 1, "PRODUCT": "Day 2 Excessive Rainfall Potential Forecast", "VALID_TIME": "12Z 09/21/26 - 12Z 09/22/26", "OUTLOOK": "Marginal (At Least 5%)", "ISSUE_TIME": "2026-09-20 08:15:00", "START_TIME": "2026-09-21 12:00:00", "END_TIME": "2026-09-22 12:00:00", "Snippet": "12Z 09/21/26 - 12Z 09/22/26"}, "geometry": {"type": "Polygon", "coordinates": [[[-104.29491696683112, 30.51806174292437], [-105.19735147190565, 30.55326812895257], [-106.055277882567, 31.224775584563876], [-106.50210402882288, 31.421674705201944], [-106.57207952163469, 31.597888069269302], [-107.37852166806711, 31.62909099522961], [-105.56685540137774, 33.440188581074736], [-105.07938468528924, 34.059678067698314], [-104.85941438487133, 34.66046859528279], [-104.78649224552451, 35.70129794615977], [-104.45858158091158, 36.39405626502811], [-104.0398071552183, 36.7317745602416], [-103.48683513520827, 36.805235776293316], [-102.9200799942844, 36.698407608469076], [-102.0590189489788, 36.33342115669193], [-100.67460777198964, 35.39760510295977], [-99.98572337014856, 34.78984261729776], [-99.6968049654299, 34.437875875116724], [-99.51488604187527, 33.99189733378984], [-99.47894148894302, 33.08901548727439], [-99.56318129116237, 32.49798627993562], [-99.70548528724449, 32.04047095836187], [-99.9569880717573, 31.669780846410266], [-100.31822836893333, 31.384681388657587], [-100.88859776278657, 31.09180118140347], [-101.7228474004317, 30.831070424886914], [-102.61196804168118, 30.654074660941347], [-104.29491696683112, 30.51806174292437]]]}}, {"type": "Feature", "properties": {"dn": 1, "PRODUCT": "Day 2 Excessive Rainfall Potential Forecast", "VALID_TIME": "12Z 09/21/26 - 12Z 09/22/26", "OUTLOOK": "Marginal (At Least 5%)", "ISSUE_TIME": "2026-09-20 08:15:00", "START_TIME": "2026-09-21 12:00:00", "END_TIME": "2026-09-22 12:00:00", "Snippet": "12Z 09/21/26 - 12Z 09/22/26"}, "geometry": {"type": "Polygon", "coordinates": [[[-81.54459299580223, 35.80477792660681], [-82.02501655039332, 35.97889718655291], [-81.99849651044589, 36.20190760860326], [-81.59598771553868, 36.754727798973164], [-82.33066969932975, 37.169404204135475], [-82.46789106088626, 37.44923298500807], [-82.43544275745683, 38.20668086639659], [-82.07876599957216, 38.804358907315496], [-80.42171283463732, 40.44925691337721], [-79.90354904667923, 40.80458331936986], [-79.53173246476165, 40.949323807092995], [-78.28667763531429, 41.05799042421992], [-77.36508284542256, 40.969425237548585], [-77.15017796298514, 40.859588216724], [-76.90047547156999, 40.61205420099848], [-76.71505076126391, 40.01589928664732], [-77.19272932829526, 39.263552275990286], [-77.49714317751285, 38.1321133796822], [-77.85667811046449, 37.31574413864997], [-78.56234897898236, 36.39549770260568], [-78.94729674095169, 36.071118592547585], [-79.71307150482417, 35.782031635887904], [-80.71991890411292, 35.73609480029381], [-81.54459299580223, 35.80477792660681]]]}}]}