{
  "type": "FeatureCollection",
  "features": [
    {
      "type": "Feature",
      "properties": {
        "dn": 1,
        "PRODUCT": "Day 1 Excessive Rainfall Potential Forecast",
        "VALID_TIME": "16Z 09/04/26 - 12Z 09/05/26",
        "OUTLOOK": "Marginal (At Least 5%)",
        "ISSUE_TIME": "2026-09-04 15:24:00",
        "START_TIME": "2026-09-04 16:00:00",
        "END_TIME": "2026-09-05 12:00:00",
        "Snippet": "16Z 09/04/26 - 12Z 09/05/26",
        "risk_norm": "MARGINAL"
      },
      "geometry": {
        "type": "Polygon",
        "coordinates": [
          [
            [
              -81.25388701851584,
              25.146361984146296
            ],
            [
              -82.18053973226463,
              25.505055620772374
            ],
            [
              -81.91407661823771,
              25.619706401004528
            ],
            [
              -82.1181065867413,
              26.09627964729339
            ],
            [
              -82.2642860577806,
              26.15368335589894
            ],
            [
              -82.53643912279504,
              26.498454800815157
            ],
            [
              -83.17876934092348,
              27.78744444256655
            ],
            [
              -83.12008427084714,
              28.378261282360956
            ],
            [
              -82.94683193937682,
              28.547912441074573
            ],
            [
              -82.98013486242392,
              28.7336168061601
            ],
            [
              -83.28088857068678,
              28.847362681859316
            ],
            [
              -83.32023214938555,
              28.98850924755592
            ],
            [
              -83.98262333699651,
              29.721758924327382
            ],
            [
              -84.08710279402948,
              29.729113279407834
            ],
            [
              -84.4813360692646,
              29.436485842805258
            ],
            [
              -84.91399175906047,
              29.282449750682755
            ],
            [
              -85.17437984791225,
              29.29915663257841
            ],
            [
              -85.68460892611208,
              29.46759498758081
            ],
            [
              -85.72344750313837,
              29.653424985947463
            ],
            [
              -85.96634164550724,
              29.894930583775515
            ],
            [
              -86.47697752494051,
              30.10603567532834
            ],
            [
              -87.70158905530097,
              29.894447696549744
            ],
            [
              -88.38566408006709,
              29.879326641562674
            ],
            [
              -88.44712950193036,
              29.700508416265503
            ],
            [
              -88.72582426544463,
              29.392829315223135
            ],
            [
              -88.6263269559462,
              29.297570372466986
            ],
            [
              -88.64102342874018,
              29.024471877489752
            ],
            [
              -88.91871418833526,
              28.715305866724048
            ],
            [
              -89.34058509721433,
              28.594433286198434
            ],
            [
              -89.69963740594949,
              28.698441485691408
            ],
            [
              -89.84552074321768,
              28.931472836935967
            ],
            [
              -90.11316001993794,
              28.757695011491165
            ],
            [
              -91.04999807871151,
              28.73885912208155
            ],
            [
              -91.6632844398196,
              29.11805931176347
            ],
            [
              -91.820891038045,
              29.075785756639466
            ],
            [
              -92.08032577742242,
              29.126467070091238
            ],
            [
              -92.1824269179349,
              29.21950606131329
            ],
            [
              -92.5476757470499,
              29.225702201592362
            ],
            [
              -93.22266304624043,
              29.462687779748723
            ],
            [
              -93.58870427310148,
              29.466435775146778
            ],
            [
              -94.26995427925398,
              29.24334244579901
            ],
            [
              -95.20831027943626,
              28.561200309284196
            ],
            [
              -95.98412972350866,
              28.2389437172858
            ],
            [
              -96.39497753603123,
              27.962026713959222
            ],
            [
              -96.86109933149774,
              28.048341497861543
            ],
            [
              -97.07198754859037,
              28.229052901442838
            ],
            [
              -97.23234300291615,
              28.50050116370562
            ],
            [
              -97.81359825870781,
              28.991679546540297
            ],
            [
              -98.44771227206829,
              29.29794729057102
            ],
            [
              -99.34171992469457,
              29.457851451687823
            ],
            [
              -100.75458380391997,
              29.457603191559574
            ],
            [
              -101.21992032443042,
              29.348495199224427
            ],
            [
              -101.49335118859003,
              29.56531773165455
            ],
            [
              -102.0241837393526,
              29.679077841975136
            ],
            [
              -102.49208393197327,
              29.611684267347027
            ],
            [
              -102.58785062847514,
              29.470204355955367
            ],
            [
              -102.60949804108944,
              29.78932413139541
            ],
            [
              -102.48425857618268,
              30.296741003662447
            ],
            [
              -101.85908214901161,
              31.3264558679927
            ],
            [
              -101.15353637613266,
              32.08294867624786
            ],
            [
              -100.83984041304443,
              32.230812273624736
            ],
            [
              -99.01819020236161,
              32.24151026095908
            ],
            [
              -97.78219710375669,
              32.0864001497927
            ],
            [
              -97.29726639000344,
              31.912708055833132
            ],
            [
              -96.64930129818983,
              31.421572190424158
            ],
            [
              -96.00840775633772,
              31.10905061002953
            ],
            [
              -95.15959251060048,
              30.930452404220286
            ],
            [
              -94.47119841527292,
              30.929648341239396
            ],
            [
              -93.67434394768678,
              31.152137334528284
            ],
            [
              -91.63377297302603,
              31.98447285604408
            ],
            [
              -90.77083191922945,
              32.19073914060644
            ],
            [
              -89.53836459607237,
              32.19879818879346
            ],
            [
              -88.68766144213943,
              32.07675821914235
            ],
            [
              -87.77976107425118,
              32.03832343947608
            ],
            [
              -85.08228828344296,
              32.257124904339214
            ],
            [
              -84.12120456961175,
              32.19464394305763
            ],
            [
              -83.33493398158704,
              32.00267082590674
            ],
            [
              -81.64280737626491,
              31.322556291377143
            ],
            [
              -81.04042096837763,
              30.995623840139615
            ],
            [
              -81.13101592915555,
              30.68382020482289
            ],
            [
              -80.91979709382122,
              29.79593975750715
            ],
            [
              -80.22831009726261,
              28.585879083976433
            ],
            [
              -80.27895736516328,
              28.177831850492325
            ],
            [
              -79.78954500432337,
              27.119579459547793
            ],
            [
              -79.72225018624539,
              26.83709996097543
            ],
            [
              -79.81442164641959,
              25.69726653158766
            ],
            [
              -79.90422372981932,
              25.3845435405142
            ],
            [
              -80.54617874009614,
              25.12542391220126
            ],
            [
              -81.25388701851584,
              25.146361984146296
            ]
          ]
        ]
      }
    },
    {
      "type": "Feature",
      "properties": {
        "dn": 1,
        "PRODUCT": "Day 1 Excessive Rainfall Potential Forecast",
        "VALID_TIME": "16Z 09/04/26 - 12Z 09/05/26",
        "OUTLOOK": "Marginal (At Least 5%)",
        "ISSUE_TIME": "2026-09-04 15:24:00",
        "START_TIME": "2026-09-04 16:00:00",
        "END_TIME": "2026-09-05 12:00:00",
        "Snippet": "16Z 09/04/26 - 12Z 09/05/26",
        "risk_norm": "MARGINAL"
      },
      "geometry": {
        "type": "Polygon",
        "coordinates": [
          [
            [
              -106.055277882567,
              31.224775584563876
            ],
            [
              -106.50210402882288,
              31.421674705201944
            ],
            [
              -106.57207952163469,
              31.597888069269302
            ],
            [
              -106.78893953024682,
              31.62748502168065
            ],
            [
              -107.96578444528456,
              31.62688053767055
            ],
            [
              -108.06062585381395,
              31.52882876890281
            ],
            [
              -108.07866176117668,
              31.20713454245347
            ],
            [
              -108.97266938754481,
              31.100727661809906
            ],
            [
              -110.2552596543012,
              31.11896567775389
            ],
            [
              -110.37058172899314,
              31.18334854176014
            ],
            [
              -110.73956450880605,
              31.14696319042524
            ],
            [
              -111.23381732537413,
              31.234993583187876
            ],
            [
              -111.34239302187413,
              32.0008590621885
            ],
            [
              -111.69296547082938,
              32.55802971458489
            ],
            [
              -111.81939004420292,
              33.04647101035462
            ],
            [
              -111.89328510624378,
              33.90380811361755
            ],
            [
              -111.75768164760078,
              34.82600809831037
            ],
            [
              -111.58696091217358,
              35.16051634949945
            ],
            [
              -111.09886620572969,
              35.616828899664505
            ],
            [
              -109.94040517145686,
              36.491357239392805
            ],
            [
              -109.26208903350815,
              36.86497115180742
            ],
            [
              -108.61236980794686,
              37.05322884711219
            ],
            [
              -107.49869221365267,
              37.13903648843157
            ],
            [
              -106.19738729403326,
              37.050740561089384
            ],
            [
              -105.61802169424986,
              36.864032914596855
            ],
            [
              -105.19779046557224,
              36.57519944895787
            ],
            [
              -104.88768807825234,
              36.23468790403752
            ],
            [
              -104.61509259668897,
              35.66628968735002
            ],
            [
              -104.53744194619154,
              34.7696943747832
            ],
            [
              -104.89459741763595,
              31.984947546844797
            ],
            [
              -105.17144833194531,
              30.874960199216062
            ],
            [
              -105.31063485885349,
              30.63707428624866
            ],
            [
              -106.055277882567,
              31.224775584563876
            ]
          ],
          [
            [
              -108.50077510648961,
              31.172536234400326
            ],
            [
              -108.52729222642223,
              31.854489948967686
            ],
            [
              -108.37266126172888,
              32.368617849288846
            ],
            [
              -107.20191510708767,
              33.506743118654775
            ],
            [
              -106.96561352599728,
              33.84164687634727
            ],
            [
              -106.82490338362881,
              34.576007356522354
            ],
            [
              -106.87570681783103,
              35.56534827751746
            ],
            [
              -107.01001391787787,
              35.78095274764541
            ],
            [
              -107.24576525669093,
              35.89934351811898
            ],
            [
              -107.52124597082661,
              35.87890084100956
            ],
            [
              -107.67615203527751,
              35.77710839447104
            ],
            [
              -108.3645596631189,
              35.04624163676822
            ],
            [
              -109.1752059628602,
              34.480715419650885
            ],
            [
              -109.94157300313782,
              34.0497388707197
            ],
            [
              -111.03143092097426,
              33.62788158123027
            ],
            [
              -111.2277829110469,
              33.47139561647914
            ],
            [
              -111.30928124807429,
              33.281122515991
            ],
            [
              -111.26398578170631,
              32.96686881185714
            ],
            [
              -110.43152676869072,
              31.63524959742518
            ],
            [
              -110.25979895954944,
              31.14930598972198
            ],
            [
              -108.50077510648961,
              31.172536234400326
            ]
          ]
        ]
      }
    },
    {
      "type": "Feature",
      "properties": {
        "dn": 1,
        "PRODUCT": "Day 1 Excessive Rainfall Potential Forecast",
        "VALID_TIME": "16Z 09/04/26 - 12Z 09/05/26",
        "OUTLOOK": "Marginal (At Least 5%)",
        "ISSUE_TIME": "2026-09-04 15:24:00",
        "START_TIME": "2026-09-04 16:00:00",
        "END_TIME": "2026-09-05 12:00:00",
        "Snippet": "16Z 09/04/26 - 12Z 09/05/26",
        "risk_norm": "MARGINAL"
      },
      "geometry": {
        "type": "Polygon",
        "coordinates": [
          [
            [
              -79.55000254535791,
              35.360319699976905
            ],
            [
              -79.79372732194997,
              35.609711528542796
            ],
            [
              -79.77516727742285,
              35.74348340237141
            ],
            [
              -79.99994442039943,
              36.12385386513805
            ],
            [
              -80.66989898104288,
              36.54271268884236
            ],
            [
              -81.42826020288906,
              37.18926957803653
            ],
            [
              -83.05875405991124,
              38.205561318856404
            ],
            [
              -83.67333769087273,
              38.82589462806499
            ],
            [
              -85.80474928686465,
              39.88176351758851
            ],
            [
              -88.4755139800303,
              41.31946061190951
            ],
            [
              -89.48981878505666,
              41.965208473460976
            ],
            [
              -89.87879072714482,
              42.41311834039144
            ],
            [
              -89.90665306748514,
              43.021955836728125
            ],
            [
              -89.58230966466394,
              43.532218096061264
            ],
            [
              -88.76251592405835,
              44.23990274643481
            ],
            [
              -88.01160582219794,
              44.64434519715178
            ],
            [
              -86.88985601214691,
              45.07157420970445
            ],
            [
              -85.07823562528307,
              45.58531840489233
            ],
            [
              -84.27561247963278,
              45.67057128555224
            ],
            [
              -83.76379165989486,
              45.34138314773361
            ],
            [
              -83.428632549507,
              44.591739457894846
            ],
            [
              -82.92549663722707,
              43.783291249962254
            ],
            [
              -82.11347063961767,
              43.12143584886637
            ],
            [
              -82.40459972036747,
              42.400665901903984
            ],
            [
              -82.84663945746513,
              42.16841398967161
            ],
            [
              -82.8676419319711,
              41.99484361455043
            ],
            [
              -82.74410778353783,
              41.88469552548327
            ],
            [
              -82.38879663915237,
              41.90416967042471
            ],
            [
              -81.26070402531013,
              42.406627481895526
            ],
            [
              -81.02041469312682,
              42.43213884182693
            ],
            [
              -80.58325966572443,
              42.17940742973568
            ],
            [
              -79.12830918472129,
              41.66303757451633
            ],
            [
              -76.84414712508135,
              40.60718854986979
            ],
            [
              -75.46399929495887,
              39.88213727647153
            ],
            [
              -74.85798528884813,
              39.41093365557436
            ],
            [
              -74.7001080716033,
              39.03475711539988
            ],
            [
              -74.78476995222543,
              38.596575050399636
            ],
            [
              -75.30234994418745,
              37.66842706747044
            ],
            [
              -75.81115007392692,
              37.051028067495146
            ],
            [
              -75.77947521774817,
              36.59603822803815
            ],
            [
              -75.65372783151233,
              36.355554318521285
            ],
            [
              -75.74812626660169,
              35.823302370359194
            ],
            [
              -76.04423065650269,
              35.40413023731796
            ],
            [
              -76.58888395199656,
              35.14734323680609
            ],
            [
              -77.04646148058463,
              35.06175213513804
            ],
            [
              -78.10905144058422,
              34.992812990500035
            ],
            [
              -78.65386493322323,
              35.04778056435084
            ],
            [
              -79.55000254535791,
              35.360319699976905
            ]
          ],
          [
            [
              -80.1819606888135,
              38.87494132444951
            ],
            [
              -79.91730548255175,
              39.119885952231556
            ],
            [
              -79.22890243511819,
              40.25856739272992
            ],
            [
              -79.23933639670823,
              40.56936642910592
            ],
            [
              -79.44972348894932,
              40.720954108647966
            ],
            [
              -80.3909334809789,
              41.06520343376504
            ],
            [
              -81.83946451916007,
              42.0551455501179
            ],
            [
              -82.01466797253175,
              42.06758150095955
            ],
            [
              -82.51443412302065,
              41.83984216713583
            ],
            [
              -82.74763326788556,
              41.855735059443475
            ],
            [
              -82.90657182900024,
              41.99743752651846
            ],
            [
              -82.88563602531953,
              42.171009755549086
            ],
            [
              -82.43822636483752,
              42.44664500425389
            ],
            [
              -82.98869817336868,
              42.78914862572588
            ],
            [
              -83.69045688774847,
              42.87705346138695
            ],
            [
              -83.9948184547505,
              42.80842711565287
            ],
            [
              -84.2592188650405,
              42.56230533776564
            ],
            [
              -84.41359079523008,
              42.222311623880216
            ],
            [
              -84.53112791485347,
              41.66056955170802
            ],
            [
              -84.44189922087632,
              41.392354858016866
            ],
            [
              -82.3664340878124,
              40.20020423699977
            ],
            [
              -81.11480744675004,
              39.17453951000532
            ],
            [
              -80.47690899872184,
              38.81076321139689
            ],
            [
              -80.1819606888135,
              38.87494132444951
            ]
          ]
        ]
      }
    },
    {
      "type": "Feature",
      "properties": {
        "dn": 2,
        "PRODUCT": "Day 1 Excessive Rainfall Potential Forecast",
        "VALID_TIME": "16Z 09/04/26 - 12Z 09/05/26",
        "OUTLOOK": "Slight (At Least 15%)",
        "ISSUE_TIME": "2026-09-04 15:24:00",
        "START_TIME": "2026-09-04 16:00:00",
        "END_TIME": "2026-09-05 12:00:00",
        "Snippet": "16Z 09/04/26 - 12Z 09/05/26",
        "risk_norm": "SLIGHT"
      },
      "geometry": {
        "type": "Polygon",
        "coordinates": [
          [
            [
              -110.25979895954944,
              31.14930598972198
            ],
            [
              -110.43152676869072,
              31.63524959742518
            ],
            [
              -111.26398578170631,
              32.96686881185714
            ],
            [
              -111.30928124807429,
              33.281122515991
            ],
            [
              -111.2277829110469,
              33.47139561647914
            ],
            [
              -111.03143092097426,
              33.62788158123027
            ],
            [
              -109.94157300313782,
              34.0497388707197
            ],
            [
              -109.1752059628602,
              34.480715419650885
            ],
            [
              -108.3645596631189,
              35.04624163676822
            ],
            [
              -107.67615203527751,
              35.77710839447104
            ],
            [
              -107.52124597082661,
              35.87890084100956
            ],
            [
              -107.24576525669093,
              35.89934351811898
            ],
            [
              -107.01001391787787,
              35.78095274764541
            ],
            [
              -106.87570681783103,
              35.56534827751746
            ],
            [
              -106.82490338362881,
              34.576007356522354
            ],
            [
              -106.96561352599728,
              33.84164687634727
            ],
            [
              -107.20191510708767,
              33.506743118654775
            ],
            [
              -108.37266126172888,
              32.368617849288846
            ],
            [
              -108.52729222642223,
              31.854489948967686
            ],
            [
              -108.50077510648961,
              31.172536234400326
            ],
            [
              -110.25979895954944,
              31.14930598972198
            ]
          ]
        ]
      }
    },
    {
      "type": "Feature",
      "properties": {
        "dn": 2,
        "PRODUCT": "Day 1 Excessive Rainfall Potential Forecast",
        "VALID_TIME": "16Z 09/04/26 - 12Z 09/05/26",
        "OUTLOOK": "Slight (At Least 15%)",
        "ISSUE_TIME": "2026-09-04 15:24:00",
        "START_TIME": "2026-09-04 16:00:00",
        "END_TIME": "2026-09-05 12:00:00",
        "Snippet": "16Z 09/04/26 - 12Z 09/05/26",
        "risk_norm": "SLIGHT"
      },
      "geometry": {
        "type": "Polygon",
        "coordinates": [
          [
            [
              -80.47690899872184,
              38.81076321139689
            ],
            [
              -81.11480744675004,
              39.17453951000532
            ],
            [
              -82.3664340878124,
              40.20020423699977
            ],
            [
              -84.44189922087632,
              41.392354858016866
            ],
            [
              -84.53112791485347,
              41.66056955170802
            ],
            [
              -84.41359079523008,
              42.222311623880216
            ],
            [
              -84.2592188650405,
              42.56230533776564
            ],
            [
              -83.9948184547505,
              42.80842711565287
            ],
            [
              -83.69045688774847,
              42.87705346138695
            ],
            [
              -82.98869817336868,
              42.78914862572588
            ],
            [
              -82.43822636483752,
              42.44664500425389
            ],
            [
              -82.88563602531953,
              42.171009755549086
            ],
            [
              -82.90657182900024,
              41.99743752651846
            ],
            [
              -82.74763326788556,
              41.855735059443475
            ],
            [
              -82.51443412302065,
              41.83984216713583
            ],
            [
              -82.01466797253175,
              42.06758150095955
            ],
            [
              -81.83946451916007,
              42.0551455501179
            ],
            [
              -80.3909334809789,
              41.06520343376504
            ],
            [
              -79.44972348894932,
              40.720954108647966
            ],
            [
              -79.23933639670823,
              40.56936642910592
            ],
            [
              -79.22890243511819,
              40.25856739272992
            ],
            [
              -79.91730548255175,
              39.119885952231556
            ],
            [
              -80.1819606888135,
              38.87494132444951
            ],
            [
              -80.47690899872184,
              38.81076321139689
            ]
          ]
        ]
      }
    }
  ]
}
