{"type": "FeatureCollection", "features": [{"type": "Feature", "properties": {"dn": 1, "PRODUCT": "Day 2 Excessive Rainfall Potential Forecast", "VALID_TIME": "12Z 09/05/26 - 12Z 09/06/26", "OUTLOOK": "Marginal (At Least 5%)", "ISSUE_TIME": "2026-09-04 06:52:00", "START_TIME": "2026-09-05 12:00:00", "END_TIME": "2026-09-06 12:00:00", "Snippet": "12Z 09/05/26 - 12Z 09/06/26"}, "geometry": {"type": "Polygon", "coordinates": [[[-81.2640968500402, 25.055454044184746], [-82.00238205079353, 25.25928891812962], [-82.3316807915616, 25.517915551678517], [-81.91407661823771, 25.619706401004528], [-82.1181065867413, 26.09627964729339], [-82.2642860577806, 26.15368335589894], [-82.53643912279504, 26.498454800815157], [-83.17876934092348, 27.78744444256655], [-83.12008427084714, 28.378261282360956], [-82.94683193937682, 28.547912441074573], [-82.98013486242392, 28.7336168061601], [-83.28088857068678, 28.847362681859316], [-83.32023214938555, 28.98850924755592], [-83.98262333699651, 29.721758924327382], [-84.08710279402948, 29.729113279407834], [-84.4813360692646, 29.436485842805258], [-84.91399175906047, 29.282449750682755], [-85.17437984791225, 29.29915663257841], [-85.68460892611208, 29.46759498758081], [-85.72344750313837, 29.653424985947463], [-85.96634164550724, 29.894930583775515], [-86.47697752494051, 30.10603567532834], [-87.70158905530097, 29.894447696549744], [-88.38566408006709, 29.879326641562674], [-88.44712950193036, 29.700508416265503], [-88.72582426544463, 29.392829315223135], [-88.6263269559462, 29.297570372466986], [-88.64102342874018, 29.024471877489752], [-88.91871418833526, 28.715305866724048], [-89.34058509721433, 28.594433286198434], [-89.69963740594949, 28.698441485691408], [-89.84552074321768, 28.931472836935967], [-90.11316001993794, 28.757695011491165], [-91.04999807871151, 28.73885912208155], [-91.6632844398196, 29.11805931176347], [-91.820891038045, 29.075785756639466], [-92.08032577742242, 29.126467070091238], [-92.1824269179349, 29.21950606131329], [-92.5476757470499, 29.225702201592362], [-93.22266304624043, 29.462687779748723], [-93.58870427310148, 29.466435775146778], [-94.26995427925398, 29.24334244579901], [-95.20831027943626, 28.561200309284196], [-96.44661309104285, 27.961548732883163], [-96.85231101677168, 27.547345142825293], [-96.90189232749027, 27.363220488298815], [-97.32185301429985, 27.769164458093034], [-97.69394281069084, 28.26504334266002], [-97.85904545424567, 28.67259188694392], [-97.92218025303437, 29.127331337549922], [-97.8244305438508, 29.4025629922815], [-97.66972183458148, 29.542874747130593], [-96.52145962756605, 29.786004026281024], [-96.15768576800167, 30.01581656952457], [-95.94973733744857, 30.29022934569312], [-95.74254778332963, 30.836990435954036], [-95.37613640889622, 32.06390430569744], [-95.10798920033118, 32.382445410420566], [-94.8397420129785, 32.47299584203641], [-93.2855398934596, 32.32801748932241], [-92.1123334271275, 32.08453130454523], [-91.57765293520717, 32.073986373675424], [-90.71732417051854, 32.18931715317521], [-88.68766144213943, 32.07675821914235], [-86.44244136701649, 32.01769132909482], [-85.07979305966698, 31.66590592687234], [-82.34043951486174, 31.288690934521522], [-81.62135313949268, 31.046903078161993], [-81.09949642419429, 30.956083232202033], [-81.05130830380163, 30.905228360138306], [-81.13101592915555, 30.68382020482289], [-80.91979709382122, 29.79593975750715], [-80.22831009726261, 28.585879083976433], [-80.27895736516328, 28.177831850492325], [-79.72225018624539, 26.83709996097543], [-79.81442164641959, 25.69726653158766], [-79.90422372981932, 25.3845435405142], [-80.71259766194942, 25.003623968001477], [-81.2640968500402, 25.055454044184746]]]}}, {"type": "Feature", "properties": {"dn": 1, "PRODUCT": "Day 2 Excessive Rainfall Potential Forecast", "VALID_TIME": "12Z 09/05/26 - 12Z 09/06/26", "OUTLOOK": "Marginal (At Least 5%)", "ISSUE_TIME": "2026-09-04 06:52:00", "START_TIME": "2026-09-05 12:00:00", "END_TIME": "2026-09-06 12:00:00", "Snippet": "12Z 09/05/26 - 12Z 09/06/26"}, "geometry": {"type": "Polygon", "coordinates": [[[-108.97623571561925, 31.13024758539512], [-110.95653789383776, 31.17089174187611], [-111.96503059233122, 31.478372639892687], [-110.90756249498735, 32.36526698310204], [-110.04326417642172, 32.76782755339575], [-109.80612587013815, 33.01653432048451], [-109.72815883591512, 33.25111283640127], [-109.8165953776252, 33.924545251803224], [-109.76170619690981, 34.33779566264369], [-109.51867813609293, 34.58699354891392], [-108.57764666142558, 34.98410043514409], [-106.9946907287361, 36.142988200306725], [-106.4853863421455, 36.582077590666984], [-106.1098416842654, 37.27948311284004], [-105.85193345039215, 37.520660315969465], [-105.36080406272858, 37.68521327448947], [-104.63539641514923, 37.77224632600054], [-103.75471217578156, 38.04240975113104], [-103.30405615356298, 38.064764865010346], [-103.01229465661348, 37.9449595742563], [-102.76977440748207, 37.73233711255322], [-102.5760607751119, 37.38402792529462], [-102.59124091221462, 36.802143951109144], [-102.99403906271496, 36.20093203598149], [-104.26797584247514, 34.83017675613866], [-105.19206510670323, 32.92010528110185], [-105.63843415652005, 32.48167271688791], [-106.40905768508495, 32.11035993874683], [-106.98105986593384, 31.931895088716463], [-107.4304132104051, 31.624125701899157], [-107.96578444528456, 31.62688053767055], [-108.06062585381395, 31.52882876890281], [-108.07866176117668, 31.20713454245347], [-108.97623571561925, 31.13024758539512]]]}}, {"type": "Feature", "properties": {"dn": 1, "PRODUCT": "Day 2 Excessive Rainfall Potential Forecast", "VALID_TIME": "12Z 09/05/26 - 12Z 09/06/26", "OUTLOOK": "Marginal (At Least 5%)", "ISSUE_TIME": "2026-09-04 06:52:00", "START_TIME": "2026-09-05 12:00:00", "END_TIME": "2026-09-06 12:00:00", "Snippet": "12Z 09/05/26 - 12Z 09/06/26"}, "geometry": {"type": "MultiPolygon", "coordinates": [[[[-76.34097952764955, 34.31721800567828], [-76.57194866240155, 34.25248685438865], [-76.77342781215607, 34.36609377873327], [-77.11955399511409, 34.26797238615109], [-77.50604924338721, 34.02221024179338], [-77.67639172792956, 33.630907018572174], [-77.94830693276285, 33.522282812135245], [-78.21036025873504, 33.59520142264277], [-78.49252021324526, 33.53320121815604], [-78.85266302286722, 33.29740433841915], [-78.88472710036379, 33.07294193926657], [-78.99942923978001, 33.03792513822905], [-80.60121302470033, 34.097219214589764], [-81.25115376573515, 34.15327344814337], [-82.35609791277729, 34.06135938747123], [-83.27785421245099, 34.130138014614175], [-83.75726077194761, 34.25430102767548], [-84.88830260790489, 35.050346018686916], [-86.76324236335735, 35.73918959500827], [-87.50915584934678, 36.17928510334591], [-87.92919661049005, 36.55608215335577], [-88.28529295299194, 37.10748510887254], [-88.47110830177704, 37.73955108210379], [-88.44935469672677, 38.095040156327954], [-88.19828183431866, 38.485560632750904], [-86.55456243412003, 39.87595434686866], [-85.69608003502836, 40.45149975385409], [-84.79755999026395, 40.75465128555881], [-84.38430946282894, 40.81860518577618], [-83.51810402864791, 40.765041267927316], [-82.6373752586058, 40.353201129372806], [-81.91310479939564, 40.124344967510986], [-79.48016919858912, 39.74950300265457], [-79.05141108474604, 39.533258288004745], [-78.64505783011177, 39.18404196824467], [-77.8886373894128, 38.88812069774785], [-77.74860238291008, 38.3367487419191], [-77.44939941769998, 38.083300328280394], [-76.42336477023116, 37.43558862670069], [-75.43890181613968, 37.2337776039697], [-75.63124333760884, 36.869144811568624], [-75.66202678308275, 36.94422230312895], [-76.15221278812623, 37.044828457983805], [-76.64138881016224, 36.8278306944312], [-77.60019153983528, 36.117641720404244], [-78.40947167273168, 35.2054440079513], [-78.57182706382908, 34.85927331040993], [-78.65098509857795, 34.322833088173496], [-78.58880969153279, 33.99863657595073], [-78.35174267100103, 33.74673720287191], [-77.94143920908976, 33.56754293282385], [-77.71224181094408, 33.63473997397105], [-77.54201827397435, 34.02607642761089], [-77.11477141274594, 34.29776144478377], [-76.76854892880894, 34.39586392823509], [-76.51299624666441, 34.27614480991967], [-76.22431207480243, 34.41824015413068], [-76.34097952764955, 34.31721800567828]]], [[[-75.11876789305349, 35.70374929632649], [-75.15278538724742, 35.20851632651335], [-75.24711970735581, 34.99265195274225], [-75.69258775655094, 34.8786593344872], [-76.1336942976897, 34.49670593279051], [-75.68739766468772, 34.908349378346486], [-75.28331915995825, 34.99700139975197], [-75.15519581418542, 35.70811642855602], [-75.46925968500342, 36.47408421571367], [-75.11876789305349, 35.70374929632649]]]]}}, {"type": "Feature", "properties": {"dn": 2, "PRODUCT": "Day 2 Excessive Rainfall Potential Forecast", "VALID_TIME": "12Z 09/05/26 - 12Z 09/06/26", "OUTLOOK": "Slight (At Least 15%)", "ISSUE_TIME": "2026-09-04 06:52:00", "START_TIME": "2026-09-05 12:00:00", "END_TIME": "2026-09-06 12:00:00", "Snippet": "12Z 09/05/26 - 12Z 09/06/26"}, "geometry": {"type": "Polygon", "coordinates": [[[-77.94143920908976, 33.56754293282385], [-78.35174267100103, 33.74673720287191], [-78.58880969153279, 33.99863657595073], [-78.65098509857795, 34.322833088173496], [-78.57182706382908, 34.85927331040993], [-78.40947167273168, 35.2054440079513], [-77.60019153983528, 36.117641720404244], [-76.64138881016224, 36.8278306944312], [-76.15221278812623, 37.044828457983805], [-75.66202678308275, 36.94422230312895], [-75.15519581418542, 35.70811642855602], [-75.28331915995825, 34.99700139975197], [-75.68739766468772, 34.908349378346486], [-76.21241845200345, 34.42409440105609], [-76.51299624666441, 34.27614480991967], [-76.76854892880894, 34.39586392823509], [-77.11477141274594, 34.29776144478377], [-77.54201827397435, 34.02607642761089], [-77.71224181094408, 33.63473997397105], [-77.94143920908976, 33.56754293282385]]]}}]}