{
  "type": "FeatureCollection",
  "features": [
    {
      "type": "Feature",
      "properties": {
        "dn": 1,
        "PRODUCT": "Day 1 Excessive Rainfall Potential Forecast",
        "VALID_TIME": "16Z 09/18/26 - 12Z 09/19/26",
        "OUTLOOK": "Marginal (At Least 5%)",
        "ISSUE_TIME": "2026-09-18 15:59:00",
        "START_TIME": "2026-09-18 16:00:00",
        "END_TIME": "2026-09-19 12:00:00",
        "Snippet": "16Z 09/18/26 - 12Z 09/19/26",
        "risk_norm": "MARGINAL"
      },
      "geometry": {
        "type": "Polygon",
        "coordinates": [
          [
            [
              -82.14828954726482,
              24.354029640074913
            ],
            [
              -82.5792121549698,
              24.574237389529547
            ],
            [
              -82.711971671493,
              24.769691350636453
            ],
            [
              -82.68806232516863,
              24.998021216460458
            ],
            [
              -82.33324890549201,
              25.013279945310703
            ],
            [
              -82.3238345877115,
              25.104258088866843
            ],
            [
              -82.59290722228265,
              25.448019724918527
            ],
            [
              -81.91407661823771,
              25.619706401004528
            ],
            [
              -82.12293065350022,
              26.05080515131266
            ],
            [
              -82.05294085707467,
              26.228352482471895
            ],
            [
              -81.77869548167814,
              26.389031072928194
            ],
            [
              -81.17024075624306,
              26.33445965089093
            ],
            [
              -80.77558478518407,
              26.205866974548176
            ],
            [
              -80.45129478570477,
              26.3577183982071
            ],
            [
              -80.32131394911136,
              26.575746625918235
            ],
            [
              -79.90978543335031,
              26.581124631830633
            ],
            [
              -79.82453723615556,
              26.433778651901715
            ],
            [
              -79.90388787680973,
              25.798245725588565
            ],
            [
              -80.06607697864563,
              25.308871218390625
            ],
            [
              -80.3106936007345,
              24.96546273251295
            ],
            [
              -80.58901052594159,
              24.761985662016446
            ],
            [
              -81.33009409381522,
              24.46454236619888
            ],
            [
              -81.74427257187706,
              24.364380169624873
            ],
            [
              -82.14828954726482,
              24.354029640074913
            ]
          ]
        ]
      }
    },
    {
      "type": "Feature",
      "properties": {
        "dn": 1,
        "PRODUCT": "Day 1 Excessive Rainfall Potential Forecast",
        "VALID_TIME": "16Z 09/18/26 - 12Z 09/19/26",
        "OUTLOOK": "Marginal (At Least 5%)",
        "ISSUE_TIME": "2026-09-18 15:59:00",
        "START_TIME": "2026-09-18 16:00:00",
        "END_TIME": "2026-09-19 12:00:00",
        "Snippet": "16Z 09/18/26 - 12Z 09/19/26",
        "risk_norm": "MARGINAL"
      },
      "geometry": {
        "type": "Polygon",
        "coordinates": [
          [
            [
              -106.055277882567,
              31.224775584563876
            ],
            [
              -106.50210402882288,
              31.421674705201944
            ],
            [
              -106.57207952163469,
              31.597888069269302
            ],
            [
              -106.78893953024682,
              31.62748502168065
            ],
            [
              -107.96578444528456,
              31.62688053767055
            ],
            [
              -108.06062585381395,
              31.52882876890281
            ],
            [
              -108.07866176117668,
              31.20713454245347
            ],
            [
              -108.97623571561925,
              31.13024758539512
            ],
            [
              -110.10215233222227,
              31.1644756846662
            ],
            [
              -110.47356737862474,
              33.13585103245404
            ],
            [
              -110.90287178247517,
              34.638991687019576
            ],
            [
              -111.31236651030284,
              35.54986014731786
            ],
            [
              -112.21346431088106,
              37.03871966809475
            ],
            [
              -112.5653239302273,
              37.811743728071576
            ],
            [
              -112.94107982719053,
              38.355712156192034
            ],
            [
              -114.29465218892418,
              39.50676486261449
            ],
            [
              -114.53301403623672,
              40.7705438404828
            ],
            [
              -114.76387748258159,
              41.055302933918085
            ],
            [
              -115.22511758489956,
              41.31273247660881
            ],
            [
              -117.10034618312132,
              41.79968317350144
            ],
            [
              -117.74802795820261,
              42.29460602651521
            ],
            [
              -118.06130754236128,
              42.872173073784154
            ],
            [
              -118.33491485430537,
              44.021675876409304
            ],
            [
              -118.34006302080499,
              44.544412396926404
            ],
            [
              -118.03872542105054,
              45.319278011917966
            ],
            [
              -117.43982634896967,
              45.90920192667017
            ],
            [
              -116.25663731074651,
              46.68577266373651
            ],
            [
              -114.316629484285,
              47.52336478461745
            ],
            [
              -113.05709445175036,
              47.81023586819774
            ],
            [
              -111.3723549161281,
              47.870237498700774
            ],
            [
              -109.71268159224513,
              48.08231445726766
            ],
            [
              -107.03513778499696,
              48.71859101642481
            ],
            [
              -106.14096042625198,
              49.143367356561654
            ],
            [
              -100.18817576676453,
              49.17086302554872
            ],
            [
              -101.75358802471948,
              48.126170339492894
            ],
            [
              -102.5611546670644,
              47.30054800478627
            ],
            [
              -103.03693187183308,
              46.35223594805613
            ],
            [
              -103.34088511804879,
              44.93229385358575
            ],
            [
              -103.68165304649965,
              44.01402379015954
            ],
            [
              -104.01711545670372,
              43.738282918780996
            ],
            [
              -105.01987155762104,
              43.60077150629833
            ],
            [
              -105.29322479203965,
              43.37016664842117
            ],
            [
              -105.48434703074408,
              42.9253095583817
            ],
            [
              -105.42975076022742,
              42.4058638480995
            ],
            [
              -104.91398676979729,
              41.95515335324301
            ],
            [
              -104.36351692052037,
              41.72192627998061
            ],
            [
              -102.3246500670739,
              41.071218732829806
            ],
            [
              -101.72013114715396,
              40.74272081353543
            ],
            [
              -101.3378463257954,
              40.18463593163461
            ],
            [
              -101.3083645321652,
              39.7003522674397
            ],
            [
              -101.56415154634173,
              39.20444337306301
            ],
            [
              -101.83866038110311,
              39.015796682461264
            ],
            [
              -103.79482550029145,
              38.528203584150425
            ],
            [
              -104.1705675844956,
              38.28710061838952
            ],
            [
              -104.32043263649184,
              38.05633883958695
            ],
            [
              -104.35338802920552,
              37.78698875840455
            ],
            [
              -104.00899133422135,
              36.37388265689012
            ],
            [
              -103.52296023770914,
              35.14072500668151
            ],
            [
              -103.223572983431,
              34.07319714609085
            ],
            [
              -103.21198031142106,
              33.168941594153694
            ],
            [
              -103.53482799416257,
              32.42667484228768
            ],
            [
              -103.92422785869951,
              31.905819050207313
            ],
            [
              -105.31063485885349,
              30.63707428624866
            ],
            [
              -106.055277882567,
              31.224775584563876
            ]
          ],
          [
            [
              -112.57876886453757,
              44.992741081081775
            ],
            [
              -112.12191674918995,
              45.16351835948001
            ],
            [
              -109.64709968021442,
              45.32563913040519
            ],
            [
              -109.30436543309811,
              45.48007499894502
            ],
            [
              -109.20204922784274,
              45.61655020297783
            ],
            [
              -109.19241996829334,
              45.95927014824105
            ],
            [
              -109.4880681399039,
              46.2791500900592
            ],
            [
              -110.86614915857858,
              46.768250931160374
            ],
            [
              -111.80579999816118,
              46.81786605948871
            ],
            [
              -113.1412227954135,
              46.65668124694938
            ],
            [
              -114.05546103970565,
              46.270819886557106
            ],
            [
              -114.4621428916808,
              45.844251158866754
            ],
            [
              -114.53030270529774,
              45.57944884690304
            ],
            [
              -114.37479116236823,
              45.12118477399358
            ],
            [
              -114.10039727673124,
              44.97573298257144
            ],
            [
              -113.2376469987888,
              44.93079775889056
            ],
            [
              -112.57876886453757,
              44.992741081081775
            ]
          ]
        ]
      }
    },
    {
      "type": "Feature",
      "properties": {
        "dn": 1,
        "PRODUCT": "Day 1 Excessive Rainfall Potential Forecast",
        "VALID_TIME": "16Z 09/18/26 - 12Z 09/19/26",
        "OUTLOOK": "Marginal (At Least 5%)",
        "ISSUE_TIME": "2026-09-18 15:59:00",
        "START_TIME": "2026-09-18 16:00:00",
        "END_TIME": "2026-09-19 12:00:00",
        "Snippet": "16Z 09/18/26 - 12Z 09/19/26",
        "risk_norm": "MARGINAL"
      },
      "geometry": {
        "type": "Polygon",
        "coordinates": [
          [
            [
              -83.76280692307252,
              37.98533869913242
            ],
            [
              -84.31624937700956,
              38.10986897806574
            ],
            [
              -84.79437198402886,
              38.45158520641779
            ],
            [
              -85.08369218843731,
              39.00179264317543
            ],
            [
              -85.0628315543252,
              39.22245627002681
            ],
            [
              -84.93083759905115,
              39.393117965353426
            ],
            [
              -83.16548020923125,
              39.28257939008683
            ],
            [
              -81.50065756737861,
              39.73892319282654
            ],
            [
              -80.86723236108581,
              39.733460036777856
            ],
            [
              -79.62159062119434,
              39.183952866378654
            ],
            [
              -79.36350824995165,
              38.98185255470122
            ],
            [
              -79.51559542343388,
              38.72792092697841
            ],
            [
              -79.89346722675973,
              38.49266004177894
            ],
            [
              -81.09074293357502,
              38.05752458289701
            ],
            [
              -82.40960307896432,
              37.935991412358355
            ],
            [
              -83.76280692307252,
              37.98533869913242
            ]
          ]
        ]
      }
    },
    {
      "type": "Feature",
      "properties": {
        "dn": 1,
        "PRODUCT": "Day 1 Excessive Rainfall Potential Forecast",
        "VALID_TIME": "16Z 09/18/26 - 12Z 09/19/26",
        "OUTLOOK": "Marginal (At Least 5%)",
        "ISSUE_TIME": "2026-09-18 15:59:00",
        "START_TIME": "2026-09-18 16:00:00",
        "END_TIME": "2026-09-19 12:00:00",
        "Snippet": "16Z 09/18/26 - 12Z 09/19/26",
        "risk_norm": "MARGINAL"
      },
      "geometry": {
        "type": "Polygon",
        "coordinates": [
          [
            [
              -91.423566928096,
              40.34890282920085
            ],
            [
              -94.01300900836573,
              41.08444399673604
            ],
            [
              -95.52669504233127,
              41.65504852388304
            ],
            [
              -96.58730294602836,
              42.215769711031776
            ],
            [
              -97.3665990661507,
              42.81670276001112
            ],
            [
              -97.7319231285455,
              43.201673797476595
            ],
            [
              -98.60503905790905,
              44.35132642049236
            ],
            [
              -99.07022766389525,
              45.412266798174706
            ],
            [
              -99.0275841235775,
              45.83902861432098
            ],
            [
              -98.91270904642381,
              46.01134028794459
            ],
            [
              -98.67385313827705,
              46.18656892279534
            ],
            [
              -98.12876665899832,
              46.36552840149827
            ],
            [
              -96.66002164637173,
              46.552644077572694
            ],
            [
              -93.89470348036988,
              46.55653461848679
            ],
            [
              -92.11687323032059,
              46.41162285398878
            ],
            [
              -91.02012572330541,
              46.22299171599536
            ],
            [
              -89.33265344003382,
              45.75644245904971
            ],
            [
              -87.91052508803797,
              45.19755146215573
            ],
            [
              -86.92228768473072,
              44.687103034125
            ],
            [
              -86.35825815635187,
              44.23137868166483
            ],
            [
              -85.93568962335107,
              43.60714878233812
            ],
            [
              -85.6732578915839,
              42.59594842173623
            ],
            [
              -85.80408702441635,
              41.81711708088558
            ],
            [
              -86.06851534733673,
              41.480159997792505
            ],
            [
              -86.94951531314688,
              40.6877361593709
            ],
            [
              -87.56042864042767,
              40.27318048933009
            ],
            [
              -88.50384888643133,
              39.957541878437574
            ],
            [
              -89.6524304685614,
              39.99601222947348
            ],
            [
              -91.423566928096,
              40.34890282920085
            ]
          ],
          [
            [
              -89.65087058875928,
              41.139532332346846
            ],
            [
              -88.88799874060237,
              41.246730073706225
            ],
            [
              -88.17292798815937,
              41.48387003858441
            ],
            [
              -87.61951363384554,
              41.85619937900947
            ],
            [
              -87.3327254846454,
              42.54206277047586
            ],
            [
              -87.40088350588901,
              43.19634422886549
            ],
            [
              -87.55255763211963,
              43.548813938746825
            ],
            [
              -88.05789155605785,
              44.00038610200317
            ],
            [
              -89.22019403293278,
              44.59861457134407
            ],
            [
              -90.8793452976514,
              45.24090318766478
            ],
            [
              -92.86851364877572,
              45.7419048361588
            ],
            [
              -94.08569238537719,
              45.87897670380068
            ],
            [
              -95.79397668979509,
              45.87950448746963
            ],
            [
              -96.5239949084705,
              45.74762058541098
            ],
            [
              -96.94665044878614,
              45.530574284281045
            ],
            [
              -97.24048795760116,
              45.10069669461434
            ],
            [
              -97.10537809288442,
              44.45978344780091
            ],
            [
              -96.61237099659039,
              43.73316803107218
            ],
            [
              -95.71087964288245,
              42.916777156077565
            ],
            [
              -94.76535786059709,
              42.3969723075747
            ],
            [
              -93.36195208211106,
              41.82348393934896
            ],
            [
              -91.9693571207233,
              41.412345380910494
            ],
            [
              -90.52244642270671,
              41.16332695676165
            ],
            [
              -89.65087058875928,
              41.139532332346846
            ]
          ]
        ]
      }
    },
    {
      "type": "Feature",
      "properties": {
        "dn": 2,
        "PRODUCT": "Day 1 Excessive Rainfall Potential Forecast",
        "VALID_TIME": "16Z 09/18/26 - 12Z 09/19/26",
        "OUTLOOK": "Slight (At Least 15%)",
        "ISSUE_TIME": "2026-09-18 15:59:00",
        "START_TIME": "2026-09-18 16:00:00",
        "END_TIME": "2026-09-19 12:00:00",
        "Snippet": "16Z 09/18/26 - 12Z 09/19/26",
        "risk_norm": "SLIGHT"
      },
      "geometry": {
        "type": "Polygon",
        "coordinates": [
          [
            [
              -90.52244642270671,
              41.16332695676165
            ],
            [
              -91.9693571207233,
              41.412345380910494
            ],
            [
              -93.36195208211106,
              41.82348393934896
            ],
            [
              -94.76535786059709,
              42.3969723075747
            ],
            [
              -95.71087964288245,
              42.916777156077565
            ],
            [
              -96.61237099659039,
              43.73316803107218
            ],
            [
              -97.10537809288442,
              44.45978344780091
            ],
            [
              -97.24048795760116,
              45.10069669461434
            ],
            [
              -96.94665044878614,
              45.530574284281045
            ],
            [
              -96.5239949084705,
              45.74762058541098
            ],
            [
              -95.79397668979509,
              45.87950448746963
            ],
            [
              -94.08569238537719,
              45.87897670380068
            ],
            [
              -92.86851364877572,
              45.7419048361588
            ],
            [
              -90.8793452976514,
              45.24090318766478
            ],
            [
              -89.22019403293278,
              44.59861457134407
            ],
            [
              -88.05789155605785,
              44.00038610200317
            ],
            [
              -87.55255763211963,
              43.548813938746825
            ],
            [
              -87.40088350588901,
              43.19634422886549
            ],
            [
              -87.3327254846454,
              42.54206277047586
            ],
            [
              -87.61951363384554,
              41.85619937900947
            ],
            [
              -88.17292798815937,
              41.48387003858441
            ],
            [
              -88.88799874060237,
              41.246730073706225
            ],
            [
              -89.65087058875928,
              41.139532332346846
            ],
            [
              -90.52244642270671,
              41.16332695676165
            ]
          ]
        ]
      }
    },
    {
      "type": "Feature",
      "properties": {
        "dn": 2,
        "PRODUCT": "Day 1 Excessive Rainfall Potential Forecast",
        "VALID_TIME": "16Z 09/18/26 - 12Z 09/19/26",
        "OUTLOOK": "Slight (At Least 15%)",
        "ISSUE_TIME": "2026-09-18 15:59:00",
        "START_TIME": "2026-09-18 16:00:00",
        "END_TIME": "2026-09-19 12:00:00",
        "Snippet": "16Z 09/18/26 - 12Z 09/19/26",
        "risk_norm": "SLIGHT"
      },
      "geometry": {
        "type": "Polygon",
        "coordinates": [
          [
            [
              -113.2376469987888,
              44.93079775889056
            ],
            [
              -114.10039727673124,
              44.97573298257144
            ],
            [
              -114.37479116236823,
              45.12118477399358
            ],
            [
              -114.53030270529774,
              45.57944884690304
            ],
            [
              -114.4621428916808,
              45.844251158866754
            ],
            [
              -114.05546103970565,
              46.270819886557106
            ],
            [
              -113.1412227954135,
              46.65668124694938
            ],
            [
              -111.80579999816118,
              46.81786605948871
            ],
            [
              -110.86614915857858,
              46.768250931160374
            ],
            [
              -109.4880681399039,
              46.2791500900592
            ],
            [
              -109.19241996829334,
              45.95927014824105
            ],
            [
              -109.20204922784274,
              45.61655020297783
            ],
            [
              -109.30436543309811,
              45.48007499894502
            ],
            [
              -109.64709968021442,
              45.32563913040519
            ],
            [
              -112.12191674918995,
              45.16351835948001
            ],
            [
              -112.57876886453757,
              44.992741081081775
            ],
            [
              -113.2376469987888,
              44.93079775889056
            ]
          ]
        ]
      }
    }
  ]
}
