{"type": "FeatureCollection", "features": [{"type": "Feature", "properties": {"dn": 1, "PRODUCT": "Day 2 Excessive Rainfall Potential Forecast", "VALID_TIME": "12Z 09/19/26 - 12Z 09/20/26", "OUTLOOK": "Marginal (At Least 5%)", "ISSUE_TIME": "2026-09-18 08:20:00", "START_TIME": "2026-09-19 12:00:00", "END_TIME": "2026-09-20 12:00:00", "Snippet": "12Z 09/19/26 - 12Z 09/20/26"}, "geometry": {"type": "Polygon", "coordinates": [[[-82.03891435438963, 24.43630571852267], [-82.23395908992899, 24.499093837061707], [-82.37076715806401, 24.649363426232533], [-82.4021426793356, 24.835568232969155], [-82.28307191608747, 25.00901058873419], [-82.17210407624168, 25.092213574652526], [-81.71052879953899, 25.14363557850473], [-81.39021289167485, 25.297530312196045], [-81.15704126974987, 26.010903418025524], [-80.54720476672905, 26.412880981051128], [-80.24838575173797, 26.752402829899747], [-79.99433809474598, 26.727403268019525], [-79.81883753424569, 26.47916640602216], [-79.88695381462885, 25.93444584049957], [-80.05495717004901, 25.399692278927883], [-80.3106936007345, 24.96546273251295], [-80.58901052594159, 24.761985662016446], [-81.17013059391265, 24.54157467960467], [-82.03891435438963, 24.43630571852267]]]}}, {"type": "Feature", "properties": {"dn": 1, "PRODUCT": "Day 2 Excessive Rainfall Potential Forecast", "VALID_TIME": "12Z 09/19/26 - 12Z 09/20/26", "OUTLOOK": "Marginal (At Least 5%)", "ISSUE_TIME": "2026-09-18 08:20:00", "START_TIME": "2026-09-19 12:00:00", "END_TIME": "2026-09-20 12:00:00", "Snippet": "12Z 09/19/26 - 12Z 09/20/26"}, "geometry": {"type": "Polygon", "coordinates": [[[-81.26070402531013, 42.406627481895526], [-79.54933668946785, 42.75106049076701], [-79.21609475076576, 42.983840967683406], [-79.25299997725956, 43.1186886193379], [-77.47609677594147, 42.69609090698445], [-76.75512949142507, 42.40648219093518], [-75.80579219657494, 41.780797553101614], [-75.42584344753291, 41.297443545998526], [-75.50929545047178, 40.863851706235245], [-76.1571343717497, 40.53376018417905], [-77.19931021489391, 40.24228196523833], [-79.90494931086535, 39.60713985061032], [-82.083152044365, 38.75927446008901], [-83.25955045709863, 38.44225375830803], [-83.7770282687628, 38.387570892846945], [-84.56737966499485, 38.4371368951002], [-85.73098081332928, 38.770160484356275], [-87.67714843857505, 39.43906599039648], [-89.6772633682724, 39.51112264183662], [-91.2884740983779, 39.2873231057762], [-92.60977218786559, 38.95630706086096], [-94.66159544508592, 38.218308757066794], [-96.51504921821358, 37.36621683662927], [-97.95212338503144, 36.58799482805084], [-99.3098421104547, 35.707150181854054], [-99.9489800564359, 35.19599440629234], [-100.98922680997937, 34.07996631673709], [-101.58874545138733, 33.15262462907001], [-102.44639674006405, 31.390902805285734], [-102.84715779412362, 30.233433689124393], [-103.12975790990288, 28.98728026726966], [-103.17644394775314, 28.892583408578457], [-103.43615605750442, 28.87863360121877], [-104.64208958358151, 29.585567873281928], [-104.87761417462117, 29.890359737728467], [-104.90828457938767, 30.253446935923108], [-105.028860756658, 30.4282232571379], [-106.055277882567, 31.224775584563876], [-106.50210402882288, 31.421674705201944], [-106.5201639664175, 31.60257377826276], [-106.35690397145116, 32.11498731020804], [-106.44631797070664, 32.47239004741728], [-106.81381678236436, 32.900151774273155], [-107.69894123226196, 33.559311034120896], [-108.01536282821395, 33.942408427975536], [-108.24665602541353, 34.512645246107056], [-108.25631130566092, 35.054518042055044], [-108.12420764757941, 35.336009880772146], [-107.8151821566033, 35.541534673126286], [-107.22587568732985, 35.72111196897066], [-106.56066740841274, 35.723571360114605], [-106.15709942550643, 35.57097064438328], [-104.85442741143578, 34.616525614161], [-104.16263931463435, 34.20494013882706], [-103.66275460198298, 34.09660729092955], [-103.08444098380112, 34.39716177732918], [-102.31200799551638, 35.10856630488803], [-101.6417430400541, 35.85607095349276], [-101.17976519417059, 36.50152167861889], [-101.08358271841587, 36.77359216591019], [-101.11629590763421, 37.353369485272395], [-101.48455542505314, 37.87491346431585], [-102.01023398452, 38.16506077537624], [-103.70549153764713, 38.132221840385306], [-104.16779621283732, 38.241834381145445], [-104.64836252135606, 38.52807734896208], [-104.90767027286604, 38.86906575985694], [-105.12879611381496, 39.38879213355148], [-105.59679038929848, 41.17058844381729], [-105.77484711114778, 42.298615874208345], [-106.1112348702553, 42.67099924475302], [-106.48782887187572, 42.86473608461719], [-107.22660500624276, 43.0783480984279], [-108.7307172782046, 43.1904032784345], [-109.04421690672868, 43.29739755991752], [-109.37859493531946, 43.5334323851165], [-109.76518156842104, 44.110262325889515], [-110.24771374650547, 44.50330000399157], [-110.69365253163177, 44.639559918185284], [-112.18835738501646, 44.85540483861195], [-112.86740082789449, 45.22495449196225], [-113.17239265468083, 45.540493623972424], [-113.2951193015152, 46.17217532669833], [-113.22158556835305, 47.37141080309538], [-112.91716989687944, 47.738316256265975], [-112.22358754552526, 48.05197817969477], [-111.50237334797791, 48.2383232711138], [-110.75637368643764, 48.29768174743296], [-110.24443857530729, 48.25288278367181], [-109.56653686237408, 48.34459870918792], [-108.37493637525122, 48.802371733227105], [-107.73244337050632, 49.17608579964574], [-105.56873875913875, 49.131896152874084], [-102.08958850296548, 49.19735420804108], [-102.77867514421658, 47.670491877870894], [-102.580472391226, 45.2634742858912], [-101.57529246316332, 43.8837683977452], [-100.36047273702772, 42.44979833553684], [-100.19984530314429, 41.62583980941928], [-99.82255962682373, 41.067184829083665], [-99.33758485817945, 40.59672035770076], [-99.1005661897736, 40.42734029909638], [-98.8087630997194, 40.34583888668608], [-97.9473924554019, 40.49412475687886], [-96.85773857207896, 40.94781048493652], [-96.28132856242887, 41.25951416828495], [-94.46942045043536, 42.701789440212565], [-93.87508022282796, 43.04602725232702], [-90.54776419775422, 44.548913976282286], [-89.56658408753141, 44.86647927480828], [-88.59040899670669, 45.00755502329659], [-87.92632612062128, 44.9841834300046], [-86.73452258028789, 44.764890251057466], [-83.6899614515187, 43.91832900694157], [-82.37663641138941, 43.401083504842006], [-81.92223266558793, 43.67339780034841], [-82.30364670049526, 42.5683173966887], [-82.84663945746513, 42.16841398967161], [-82.8676419319711, 41.99484361455043], [-82.74410778353783, 41.88469552548327], [-82.46971394934587, 41.87775517018894], [-82.74763326788556, 41.855735059443475], [-82.90657182900024, 41.99743752651846], [-82.88597354015127, 42.171469365298584], [-83.49983403752704, 42.47312493972938], [-84.8111074397472, 42.94226906460461], [-86.26486048856759, 43.27688774842662], [-89.40753576816239, 43.441036923547166], [-90.78063390250414, 43.347409511917], [-91.61832683978719, 43.191424931259725], [-92.51691843677318, 42.85898666017854], [-93.23344474399052, 42.47645346664083], [-93.8873566278519, 42.00233507248778], [-94.36138977698405, 41.21828426079403], [-94.18859083492451, 40.9985517964416], [-94.0142726511382, 40.95340211419181], [-92.44768860840337, 40.93796099345772], [-91.45557574371472, 41.096485345146476], [-90.23596357627075, 41.068307162598934], [-85.03479791218373, 40.105490657524385], [-84.11225883589378, 40.095282664368206], [-83.63419643997943, 40.241923161640344], [-82.93552945862855, 40.76980091399867], [-82.4675828174052, 41.26579262299687], [-82.40274874898785, 41.78800566423336], [-82.44967590645601, 41.87724833978778], [-82.39235217823789, 41.875798427322366], [-81.26070402531013, 42.406627481895526]], [[-108.38551703709524, 45.46042942240869], [-107.71102573266212, 45.89068340836514], [-106.59241321585677, 46.258614740782214], [-106.43454999596784, 46.48074179955889], [-106.58836950493757, 46.72620513703787], [-107.17955871010419, 46.987454883284414], [-108.05770468084184, 47.05848035238139], [-109.22518124222795, 46.97812027110915], [-110.1179207021317, 46.7421161829832], [-110.57901823134142, 46.5360509726445], [-110.90249736626667, 46.253936091467985], [-110.86318383262847, 45.65854726093088], [-110.70005042142176, 45.41459292061509], [-109.32631769943937, 45.22108882360639], [-108.38551703709524, 45.46042942240869]]]}}, {"type": "Feature", "properties": {"dn": 2, "PRODUCT": "Day 2 Excessive Rainfall Potential Forecast", "VALID_TIME": "12Z 09/19/26 - 12Z 09/20/26", "OUTLOOK": "Slight (At Least 15%)", "ISSUE_TIME": "2026-09-18 08:20:00", "START_TIME": "2026-09-19 12:00:00", "END_TIME": "2026-09-20 12:00:00", "Snippet": "12Z 09/19/26 - 12Z 09/20/26"}, "geometry": {"type": "Polygon", "coordinates": [[[-85.03479791218373, 40.105490657524385], [-90.23596357627075, 41.068307162598934], [-91.45557574371472, 41.096485345146476], [-92.44768860840337, 40.93796099345772], [-94.0142726511382, 40.95340211419181], [-94.18859083492451, 40.9985517964416], [-94.36138977698405, 41.21828426079403], [-93.8873566278519, 42.00233507248778], [-93.23344474399052, 42.47645346664083], [-92.51691843677318, 42.85898666017854], [-91.61832683978719, 43.191424931259725], [-90.78063390250414, 43.347409511917], [-89.40753576816239, 43.441036923547166], [-86.26486048856759, 43.27688774842662], [-84.8111074397472, 42.94226906460461], [-83.49983403752704, 42.47312493972938], [-82.88597354015127, 42.171469365298584], [-82.90657182900024, 41.99743752651846], [-82.74763326788556, 41.855735059443475], [-82.4507332147429, 41.87925905225149], [-82.40274874898785, 41.78800566423336], [-82.4675828174052, 41.26579262299687], [-82.93552945862855, 40.76980091399867], [-83.63419643997943, 40.241923161640344], [-84.11225883589378, 40.095282664368206], [-85.03479791218373, 40.105490657524385]]]}}, {"type": "Feature", "properties": {"dn": 2, "PRODUCT": "Day 2 Excessive Rainfall Potential Forecast", "VALID_TIME": "12Z 09/19/26 - 12Z 09/20/26", "OUTLOOK": "Slight (At Least 15%)", "ISSUE_TIME": "2026-09-18 08:20:00", "START_TIME": "2026-09-19 12:00:00", "END_TIME": "2026-09-20 12:00:00", "Snippet": "12Z 09/19/26 - 12Z 09/20/26"}, "geometry": {"type": "Polygon", "coordinates": [[[-109.32631769943937, 45.22108882360639], [-110.70005042142176, 45.41459292061509], [-110.86318383262847, 45.65854726093088], [-110.90249736626667, 46.253936091467985], [-110.57901823134142, 46.5360509726445], [-110.1179207021317, 46.7421161829832], [-109.22518124222795, 46.97812027110915], [-108.05770468084184, 47.05848035238139], [-107.17955871010419, 46.987454883284414], [-106.58836950493757, 46.72620513703787], [-106.43454999596784, 46.48074179955889], [-106.59241321585677, 46.258614740782214], [-107.71102573266212, 45.89068340836514], [-108.38551703709524, 45.46042942240869], [-109.32631769943937, 45.22108882360639]]]}}]}