{"type": "FeatureCollection", "features": [{"type": "Feature", "properties": {"dn": 1, "PRODUCT": "Day 1 Excessive Rainfall Potential Forecast", "VALID_TIME": "16Z 09/02/26 - 12Z 09/03/26", "OUTLOOK": "Marginal (At Least 5%)", "ISSUE_TIME": "2026-09-02 15:57:00", "START_TIME": "2026-09-02 16:00:00", "END_TIME": "2026-09-03 12:00:00", "Snippet": "16Z 09/02/26 - 12Z 09/03/26"}, "geometry": {"type": "Polygon", "coordinates": [[[-82.50523668022976, 25.30216433290168], [-82.59290722228265, 25.448019724918527], [-81.91407661823771, 25.619706401004528], [-82.1181065867413, 26.09627964729339], [-82.2642860577806, 26.15368335589894], [-82.53643912279504, 26.498454800815157], [-83.17876934092348, 27.78744444256655], [-83.12008427084714, 28.378261282360956], [-82.94683193937682, 28.547912441074573], [-82.98013486242392, 28.7336168061601], [-83.28183536671474, 28.848349498711404], [-83.32023214938555, 28.98850924755592], [-83.93021747834258, 29.719870693756814], [-83.50357368989762, 29.78034718975502], [-82.45933647012346, 29.69975725042664], [-81.68740218336107, 29.54408763638029], [-80.5352299955034, 29.07441644434], [-80.22831009726261, 28.585879083976433], [-80.27895736516328, 28.177831850492325], [-79.72225018624539, 26.83709996097543], [-79.83705590772036, 25.51566625853706], [-79.98241638370557, 25.162572825065823], [-80.5515465791846, 25.079994778819174], [-82.50523668022976, 25.30216433290168]]]}}, {"type": "Feature", "properties": {"dn": 1, "PRODUCT": "Day 1 Excessive Rainfall Potential Forecast", "VALID_TIME": "16Z 09/02/26 - 12Z 09/03/26", "OUTLOOK": "Marginal (At Least 5%)", "ISSUE_TIME": "2026-09-02 15:57:00", "START_TIME": "2026-09-02 16:00:00", "END_TIME": "2026-09-03 12:00:00", "Snippet": "16Z 09/02/26 - 12Z 09/03/26"}, "geometry": {"type": "Polygon", "coordinates": [[[-95.62564884078473, 28.970376181158674], [-96.04692528320604, 29.379118686681664], [-96.47462649851371, 30.149679451401237], [-96.8049137514462, 31.101065610841403], [-96.81557014335691, 31.78192298114591], [-96.60981088023267, 32.328195333717375], [-96.13084794855159, 32.78603551354681], [-95.6475561881217, 32.9696922594075], [-95.21626408632889, 32.92560530662815], [-94.67810551223215, 32.6991538255748], [-93.71730674998615, 31.96852032368954], [-93.14061513201584, 31.282121764921992], [-92.56797803017528, 30.77545502479546], [-91.94427047321436, 30.35527234203435], [-90.59379313633788, 29.822348664060264], [-90.28918317355937, 29.539176313334146], [-90.30549370329953, 29.12941740217168], [-90.47858043078153, 28.72319916140322], [-91.04999807871151, 28.73885912208155], [-91.6632844398196, 29.11805931176347], [-91.820891038045, 29.075785756639466], [-92.08032577742242, 29.126467070091238], [-92.1824269179349, 29.21950606131329], [-92.5476757470499, 29.225702201592362], [-93.22266304624043, 29.462687779748723], [-93.58870427310148, 29.466435775146778], [-94.26995427925398, 29.24334244579901], [-95.05267601669327, 28.69811969281985], [-95.62564884078473, 28.970376181158674]], [[-93.89906755292985, 29.833694928661476], [-93.62882384914676, 30.46906106022147], [-93.6229285762129, 30.96906553297105], [-93.88165588774693, 31.60684687811834], [-94.5720900463327, 32.29084459055781], [-95.48431206440713, 32.60774887179878], [-95.91414171084259, 32.60588138880658], [-96.23458750254728, 32.376828244054636], [-96.2866792856937, 32.240484238931586], [-96.22058248330418, 31.06122001163427], [-95.68483037863533, 30.109615356564397], [-95.36780888861772, 29.791614474507544], [-95.21040601721059, 29.74637749307846], [-93.89906755292985, 29.833694928661476]]]}}, {"type": "Feature", "properties": {"dn": 1, "PRODUCT": "Day 1 Excessive Rainfall Potential Forecast", "VALID_TIME": "16Z 09/02/26 - 12Z 09/03/26", "OUTLOOK": "Marginal (At Least 5%)", "ISSUE_TIME": "2026-09-02 15:57:00", "START_TIME": "2026-09-02 16:00:00", "END_TIME": "2026-09-03 12:00:00", "Snippet": "16Z 09/02/26 - 12Z 09/03/26"}, "geometry": {"type": "Polygon", "coordinates": [[[-84.48229757066945, 29.43746453898929], [-84.48117391214474, 29.438302356182028], [-84.48021253543376, 29.43732336959901], [-84.48229757066945, 29.43746453898929]]]}}, {"type": "Feature", "properties": {"dn": 1, "PRODUCT": "Day 1 Excessive Rainfall Potential Forecast", "VALID_TIME": "16Z 09/02/26 - 12Z 09/03/26", "OUTLOOK": "Marginal (At Least 5%)", "ISSUE_TIME": "2026-09-02 15:57:00", "START_TIME": "2026-09-02 16:00:00", "END_TIME": "2026-09-03 12:00:00", "Snippet": "16Z 09/02/26 - 12Z 09/03/26"}, "geometry": {"type": "Polygon", "coordinates": [[[-84.42609816337422, 29.479337161101153], [-84.4249737070843, 29.480174523741574], [-84.42401245581694, 29.479195247234124], [-84.42609816337422, 29.479337161101153]]]}}, {"type": "Feature", "properties": {"dn": 1, "PRODUCT": "Day 1 Excessive Rainfall Potential Forecast", "VALID_TIME": "16Z 09/02/26 - 12Z 09/03/26", "OUTLOOK": "Marginal (At Least 5%)", "ISSUE_TIME": "2026-09-02 15:57:00", "START_TIME": "2026-09-02 16:00:00", "END_TIME": "2026-09-03 12:00:00", "Snippet": "16Z 09/02/26 - 12Z 09/03/26"}, "geometry": {"type": "Polygon", "coordinates": [[[-84.3698588748686, 29.521187047073386], [-84.36873362035077, 29.52202395433922], [-84.36777249527817, 29.52104438838187], [-84.3698588748686, 29.521187047073386]]]}}, {"type": "Feature", "properties": {"dn": 1, "PRODUCT": "Day 1 Excessive Rainfall Potential Forecast", "VALID_TIME": "16Z 09/02/26 - 12Z 09/03/26", "OUTLOOK": "Marginal (At Least 5%)", "ISSUE_TIME": "2026-09-02 15:57:00", "START_TIME": "2026-09-02 16:00:00", "END_TIME": "2026-09-03 12:00:00", "Snippet": "16Z 09/02/26 - 12Z 09/03/26"}, "geometry": {"type": "Polygon", "coordinates": [[[-84.31357968206169, 29.563014155816845], [-84.31245362885367, 29.563850606886728], [-84.3114926307284, 29.5628707519542], [-84.31357968206169, 29.563014155816845]]]}}, {"type": "Feature", "properties": {"dn": 1, "PRODUCT": "Day 1 Excessive Rainfall Potential Forecast", "VALID_TIME": "16Z 09/02/26 - 12Z 09/03/26", "OUTLOOK": "Marginal (At Least 5%)", "ISSUE_TIME": "2026-09-02 15:57:00", "START_TIME": "2026-09-02 16:00:00", "END_TIME": "2026-09-03 12:00:00", "Snippet": "16Z 09/02/26 - 12Z 09/03/26"}, "geometry": {"type": "Polygon", "coordinates": [[[-84.25726056188483, 29.604818446290754], [-84.25613370952482, 29.60565444034438], [-84.25517283910075, 29.60467429691133], [-84.25726056188483, 29.604818446290754]]]}}, {"type": "Feature", "properties": {"dn": 1, "PRODUCT": "Day 1 Excessive Rainfall Potential Forecast", "VALID_TIME": "16Z 09/02/26 - 12Z 09/03/26", "OUTLOOK": "Marginal (At Least 5%)", "ISSUE_TIME": "2026-09-02 15:57:00", "START_TIME": "2026-09-02 16:00:00", "END_TIME": "2026-09-03 12:00:00", "Snippet": "16Z 09/02/26 - 12Z 09/03/26"}, "geometry": {"type": "Polygon", "coordinates": [[[-108.97623571561925, 31.13024758539512], [-110.95653789383776, 31.17089174187611], [-112.40641569993879, 31.566769127626774], [-112.42125969305948, 31.657563075721104], [-112.22451593691697, 32.13626339922966], [-111.79198500028387, 32.50294650148123], [-111.27189935859282, 32.64789571303885], [-110.35794254186705, 32.69247218643175], [-109.27412872044715, 32.24602501090831], [-109.02665531899342, 31.993606811279957], [-108.94056886221361, 31.727591382503366], [-108.97623571561925, 31.13024758539512]]]}}, {"type": "Feature", "properties": {"dn": 1, "PRODUCT": "Day 1 Excessive Rainfall Potential Forecast", "VALID_TIME": "16Z 09/02/26 - 12Z 09/03/26", "OUTLOOK": "Marginal (At Least 5%)", "ISSUE_TIME": "2026-09-02 15:57:00", "START_TIME": "2026-09-02 16:00:00", "END_TIME": "2026-09-03 12:00:00", "Snippet": "16Z 09/02/26 - 12Z 09/03/26"}, "geometry": {"type": "Polygon", "coordinates": [[[-78.32724149845355, 39.3748774993776], [-80.77428515853067, 40.830225853525185], [-81.51841331164132, 41.37214347554569], [-82.14380289676224, 41.98890030942564], [-81.26070402531013, 42.406627481895526], [-79.54933668946785, 42.75106049076701], [-79.21609475076576, 42.983840967683406], [-79.33106816917073, 43.38574377884201], [-79.23619839746056, 43.59602844913372], [-78.48307327097176, 43.79156363369032], [-76.9799881275183, 43.78298999363961], [-76.52916068956802, 44.2594847389758], [-75.62050702152317, 44.86149209774918], [-74.88210589198688, 45.17468476094672], [-71.75592308532418, 45.16527476571578], [-71.60681553461849, 45.27615893875982], [-71.56509177735084, 45.444221266004], [-71.05337252270442, 45.51155953131959], [-70.83223225334282, 45.65598115258359], [-70.57622010939406, 45.92610409675092], [-70.46632186978633, 46.343290145596676], [-70.26641090499872, 46.61989086285114], [-69.73851270040004, 45.34135709497474], [-69.80225245286037, 44.87157207430196], [-70.26344542326568, 44.278422976842364], [-70.90564437849437, 43.66228945008689], [-71.96858795279473, 43.00786239808102], [-72.21314185519893, 42.73051753300073], [-72.44703227414541, 42.23067988325539], [-72.65919481133022, 41.28355469005283], [-72.47841015616042, 40.5048458764361], [-72.92568107586709, 40.337627715882476], [-73.57954567388487, 40.28460982894157], [-73.71015709341064, 40.21221992322814], [-73.85341372196022, 39.51538921313792], [-74.15853207390785, 39.14956486953465], [-74.70327736720743, 38.72152557532674], [-74.79607790157083, 38.23879146580292], [-77.20468615758628, 38.86207403631326], [-78.32724149845355, 39.3748774993776]], [[-76.67479116436415, 39.922317664004126], [-76.0168983384515, 40.03045621538474], [-75.74779518610784, 40.22406408857036], [-75.35450312776696, 40.75814760198547], [-74.76093119388916, 41.974559327183854], [-74.51764825228813, 42.870842222200594], [-74.60440304731809, 43.3184541446715], [-75.0226937163143, 43.626521125307185], [-75.95854158492945, 43.76815378299697], [-76.7084092826724, 43.62553088460459], [-77.650763504419, 43.06153795885387], [-78.3327220463278, 42.20567584307454], [-78.41876613626599, 41.68638895622725], [-78.2583809761654, 40.87775409429213], [-77.89307049587487, 40.26734031702866], [-77.41541805370386, 39.99794275613549], [-76.67479116436415, 39.922317664004126]]]}}, {"type": "Feature", "properties": {"dn": 1, "PRODUCT": "Day 1 Excessive Rainfall Potential Forecast", "VALID_TIME": "16Z 09/02/26 - 12Z 09/03/26", "OUTLOOK": "Marginal (At Least 5%)", "ISSUE_TIME": "2026-09-02 15:57:00", "START_TIME": "2026-09-02 16:00:00", "END_TIME": "2026-09-03 12:00:00", "Snippet": "16Z 09/02/26 - 12Z 09/03/26"}, "geometry": {"type": "Polygon", "coordinates": [[[-82.63077231741795, 42.327864249673134], [-83.80507897907529, 43.448203939292895], [-84.20374798553183, 44.16355983387861], [-84.16546137070323, 44.50610956806845], [-83.80624999613477, 45.00103228745367], [-82.51765766334985, 45.56507514138954], [-82.22531878468769, 45.45950388465304], [-81.91541276032169, 43.71539282780478], [-82.30364670049526, 42.5683173966887], [-82.63077231741795, 42.327864249673134]]]}}, {"type": "Feature", "properties": {"dn": 2, "PRODUCT": "Day 1 Excessive Rainfall Potential Forecast", "VALID_TIME": "16Z 09/02/26 - 12Z 09/03/26", "OUTLOOK": "Slight (At Least 15%)", "ISSUE_TIME": "2026-09-02 15:57:00", "START_TIME": "2026-09-02 16:00:00", "END_TIME": "2026-09-03 12:00:00", "Snippet": "16Z 09/02/26 - 12Z 09/03/26"}, "geometry": {"type": "Polygon", "coordinates": [[[-95.36780888861772, 29.791614474507544], [-95.68483037863533, 30.109615356564397], [-96.22058248330418, 31.06122001163427], [-96.2866792856937, 32.240484238931586], [-96.23458750254728, 32.376828244054636], [-95.91414171084259, 32.60588138880658], [-95.48431206440713, 32.60774887179878], [-94.5720900463327, 32.29084459055781], [-93.88165588774693, 31.60684687811834], [-93.6229285762129, 30.96906553297105], [-93.62882384914676, 30.46906106022147], [-93.89906755292985, 29.833694928661476], [-95.21040601721059, 29.74637749307846], [-95.36780888861772, 29.791614474507544]], [[-94.10751634940334, 30.01737100243866], [-93.999898379051, 30.289916747326853], [-93.99599691052981, 30.744638776487665], [-94.41437734842144, 31.655075545078724], [-94.68026423901227, 31.928183414511114], [-95.05423602308629, 32.109851210790545], [-95.37551201276652, 32.2000712841435], [-95.80349826274627, 32.15317235272756], [-95.85284871369745, 31.563108446415296], [-95.52943844145437, 30.70148805490393], [-95.10597543297538, 30.201895773555634], [-94.47550697643749, 29.973523312161156], [-94.10751634940334, 30.01737100243866]]]}}, {"type": "Feature", "properties": {"dn": 2, "PRODUCT": "Day 1 Excessive Rainfall Potential Forecast", "VALID_TIME": "16Z 09/02/26 - 12Z 09/03/26", "OUTLOOK": "Slight (At Least 15%)", "ISSUE_TIME": "2026-09-02 15:57:00", "START_TIME": "2026-09-02 16:00:00", "END_TIME": "2026-09-03 12:00:00", "Snippet": "16Z 09/02/26 - 12Z 09/03/26"}, "geometry": {"type": "Polygon", "coordinates": [[[-77.41541805370386, 39.99794275613549], [-77.89307049587487, 40.26734031702866], [-78.2583809761654, 40.87775409429213], [-78.41876613626599, 41.68638895622725], [-78.3327220463278, 42.20567584307454], [-77.650763504419, 43.06153795885387], [-76.7084092826724, 43.62553088460459], [-75.95854158492945, 43.76815378299697], [-75.0226937163143, 43.626521125307185], [-74.60440304731809, 43.3184541446715], [-74.51764825228813, 42.870842222200594], [-74.76093119388916, 41.974559327183854], [-75.35450312776696, 40.75814760198547], [-75.74779518610784, 40.22406408857036], [-76.0168983384515, 40.03045621538474], [-76.67479116436415, 39.922317664004126], [-77.41541805370386, 39.99794275613549]]]}}, {"type": "Feature", "properties": {"dn": 3, "PRODUCT": "Day 1 Excessive Rainfall Potential Forecast", "VALID_TIME": "16Z 09/02/26 - 12Z 09/03/26", "OUTLOOK": "Moderate (At Least 40%)", "ISSUE_TIME": "2026-09-02 15:57:00", "START_TIME": "2026-09-02 16:00:00", "END_TIME": "2026-09-03 12:00:00", "Snippet": "16Z 09/02/26 - 12Z 09/03/26"}, "geometry": {"type": "Polygon", "coordinates": [[[-95.10597543297538, 30.201895773555634], [-95.52943844145437, 30.70148805490393], [-95.85284871369745, 31.563108446415296], [-95.80349826274627, 32.15317235272756], [-95.37551201276652, 32.2000712841435], [-95.05423602308629, 32.109851210790545], [-94.68026423901227, 31.928183414511114], [-94.41437734842144, 31.655075545078724], [-93.99599691052981, 30.744638776487665], [-93.999898379051, 30.289916747326853], [-94.10751634940334, 30.01737100243866], [-94.47550697643749, 29.973523312161156], [-95.10597543297538, 30.201895773555634]], [[-94.3163538444511, 30.245968774804233], [-94.15726651006564, 30.381817115125695], [-94.1552954884925, 30.654652540487376], [-94.47099516335717, 30.974328814711743], [-94.84174839504091, 31.02056873929622], [-95.15964301837388, 30.838655892830687], [-95.15926991994301, 30.565903522409396], [-95.00072778478311, 30.292950328384347], [-94.63235920233384, 30.20153109171363], [-94.3163538444511, 30.245968774804233]]]}}, {"type": "Feature", "properties": {"dn": 4, "PRODUCT": "Day 1 Excessive Rainfall Potential Forecast", "VALID_TIME": "16Z 09/02/26 - 12Z 09/03/26", "OUTLOOK": "High (At Least 70%)", "ISSUE_TIME": "2026-09-02 15:57:00", "START_TIME": "2026-09-02 16:00:00", "END_TIME": "2026-09-03 12:00:00", "Snippet": "16Z 09/02/26 - 12Z 09/03/26"}, "geometry": {"type": "Polygon", "coordinates": [[[-94.63235920233384, 30.20153109171363], [-95.00072778478311, 30.292950328384347], [-95.15926991994301, 30.565903522409396], [-95.15964301837388, 30.838655892830687], [-94.84174839504091, 31.02056873929622], [-94.47099516335717, 30.974328814711743], [-94.1552954884925, 30.654652540487376], [-94.15726651006564, 30.381817115125695], [-94.3163538444511, 30.245968774804233], [-94.63235920233384, 30.20153109171363]]]}}]}