{
  "type": "FeatureCollection",
  "features": [
    {
      "type": "Feature",
      "properties": {
        "dn": 1,
        "PRODUCT": "Day 2 Excessive Rainfall Potential Forecast",
        "VALID_TIME": "12Z 09/03/26 - 12Z 09/04/26",
        "OUTLOOK": "Marginal (At Least 5%)",
        "ISSUE_TIME": "2026-09-02 08:04:00",
        "START_TIME": "2026-09-03 12:00:00",
        "END_TIME": "2026-09-04 12:00:00",
        "Snippet": "12Z 09/03/26 - 12Z 09/04/26",
        "risk_norm": "MARGINAL"
      },
      "geometry": {
        "type": "Polygon",
        "coordinates": [
          [
            [
              -81.20882002733501,
              25.096278613472297
            ],
            [
              -82.17575861196727,
              25.550538029270413
            ],
            [
              -81.91407661823771,
              25.619706401004528
            ],
            [
              -82.1181065867413,
              26.09627964729339
            ],
            [
              -82.4489989551686,
              26.353602289152548
            ],
            [
              -83.17876934092348,
              27.78744444256655
            ],
            [
              -83.12008427084714,
              28.378261282360956
            ],
            [
              -82.94683193937682,
              28.547912441074573
            ],
            [
              -82.98013486242392,
              28.7336168061601
            ],
            [
              -83.28088857068678,
              28.847362681859316
            ],
            [
              -83.32023214938555,
              28.98850924755592
            ],
            [
              -83.98262333699651,
              29.721758924327382
            ],
            [
              -84.08710279402948,
              29.729113279407834
            ],
            [
              -84.4813360692646,
              29.436485842805258
            ],
            [
              -84.91399175906047,
              29.282449750682755
            ],
            [
              -85.17437984791225,
              29.29915663257841
            ],
            [
              -85.68460892611208,
              29.46759498758081
            ],
            [
              -85.72344750313837,
              29.653424985947463
            ],
            [
              -85.96634164550724,
              29.894930583775515
            ],
            [
              -86.47697752494051,
              30.10603567532834
            ],
            [
              -87.70158905530097,
              29.894447696549744
            ],
            [
              -88.38566408006709,
              29.879326641562674
            ],
            [
              -88.44712950193036,
              29.700508416265503
            ],
            [
              -88.72582426544463,
              29.392829315223135
            ],
            [
              -88.6263269559462,
              29.297570372466986
            ],
            [
              -88.64102342874018,
              29.024471877489752
            ],
            [
              -88.91871418833526,
              28.715305866724048
            ],
            [
              -89.34058509721433,
              28.594433286198434
            ],
            [
              -89.69963740594949,
              28.698441485691408
            ],
            [
              -89.84552074321768,
              28.931472836935967
            ],
            [
              -90.11316001993794,
              28.757695011491165
            ],
            [
              -91.04999807871151,
              28.73885912208155
            ],
            [
              -91.6632844398196,
              29.11805931176347
            ],
            [
              -91.820891038045,
              29.075785756639466
            ],
            [
              -92.08032577742242,
              29.126467070091238
            ],
            [
              -92.1824269179349,
              29.21950606131329
            ],
            [
              -92.5476757470499,
              29.225702201592362
            ],
            [
              -93.22266304624043,
              29.462687779748723
            ],
            [
              -93.58870427310148,
              29.466435775146778
            ],
            [
              -94.26995427925398,
              29.24334244579901
            ],
            [
              -95.31198704475828,
              28.515424881878275
            ],
            [
              -95.67590734294224,
              28.651056502194095
            ],
            [
              -96.30362644093665,
              29.057310506302567
            ],
            [
              -97.25827254662723,
              29.86724003960068
            ],
            [
              -97.68943883907215,
              30.361060222382577
            ],
            [
              -97.85637539795765,
              30.72196799944714
            ],
            [
              -97.8731837671249,
              31.403240781590576
            ],
            [
              -97.73408592016904,
              32.267652326375305
            ],
            [
              -97.63112526443425,
              32.45062602327917
            ],
            [
              -97.20787053354994,
              32.82014773471466
            ],
            [
              -96.78080374306678,
              33.05165051302008
            ],
            [
              -96.13580899204172,
              33.283543093680585
            ],
            [
              -95.70341454290458,
              33.28599497410694
            ],
            [
              -95.0535251904811,
              32.87959138182484
            ],
            [
              -94.30558937351117,
              31.881461167232157
            ],
            [
              -93.98870473074037,
              31.608470612300437
            ],
            [
              -93.5122773077265,
              31.377766171667712
            ],
            [
              -92.66553046927122,
              31.185908490231512
            ],
            [
              -90.2860763440511,
              30.951134034613737
            ],
            [
              -87.2190194387052,
              30.82975606838076
            ],
            [
              -84.06468118788386,
              31.09823251278241
            ],
            [
              -82.69155383242708,
              30.99713733920269
            ],
            [
              -81.8053836683334,
              30.834131299203477
            ],
            [
              -81.24245450446168,
              30.648835905121825
            ],
            [
              -81.05303378292803,
              30.448357650015634
            ],
            [
              -80.9970781692306,
              30.03171991136292
            ],
            [
              -80.75520059408946,
              29.414626373216457
            ],
            [
              -80.22831009726261,
              28.585879083976433
            ],
            [
              -80.27895736516328,
              28.177831850492325
            ],
            [
              -79.72225018624539,
              26.83709996097543
            ],
            [
              -79.82574718223478,
              25.60646758451003
            ],
            [
              -80.49602254844459,
              25.120555570381438
            ],
            [
              -80.75742802648358,
              25.053856494965718
            ],
            [
              -81.20882002733501,
              25.096278613472297
            ]
          ]
        ]
      }
    },
    {
      "type": "Feature",
      "properties": {
        "dn": 1,
        "PRODUCT": "Day 2 Excessive Rainfall Potential Forecast",
        "VALID_TIME": "12Z 09/03/26 - 12Z 09/04/26",
        "OUTLOOK": "Marginal (At Least 5%)",
        "ISSUE_TIME": "2026-09-02 08:04:00",
        "START_TIME": "2026-09-03 12:00:00",
        "END_TIME": "2026-09-04 12:00:00",
        "Snippet": "12Z 09/03/26 - 12Z 09/04/26",
        "risk_norm": "MARGINAL"
      },
      "geometry": {
        "type": "Polygon",
        "coordinates": [
          [
            [
              -112.40641569993879,
              31.566769127626774
            ],
            [
              -112.41801161447009,
              32.343684438728516
            ],
            [
              -112.55425873750353,
              32.876676144199884
            ],
            [
              -112.83141687956143,
              33.25671542455098
            ],
            [
              -113.83742583123863,
              34.05420014125288
            ],
            [
              -113.91402882671424,
              34.181922922231784
            ],
            [
              -113.92073012414752,
              34.545189901471204
            ],
            [
              -113.12592928912717,
              35.090046492273814
            ],
            [
              -111.86555951839011,
              35.540643682176245
            ],
            [
              -110.56957982005336,
              35.80278029315723
            ],
            [
              -109.14576426514108,
              35.97481599027233
            ],
            [
              -108.3962191755957,
              36.21670477416174
            ],
            [
              -107.60349630379682,
              36.59281120200362
            ],
            [
              -107.22030460736396,
              36.665950243590274
            ],
            [
              -106.92808088603928,
              36.552197025989585
            ],
            [
              -106.52319475293218,
              35.90532208323519
            ],
            [
              -106.28870619868937,
              35.24569187871672
            ],
            [
              -105.6294813005114,
              34.70282377638582
            ],
            [
              -105.17758691752141,
              33.9631130166043
            ],
            [
              -105.09503434056789,
              33.65141331771113
            ],
            [
              -105.10869991901974,
              33.1974698137236
            ],
            [
              -105.39050675874489,
              32.135296193071255
            ],
            [
              -105.87949765733052,
              31.054689478599595
            ],
            [
              -106.055277882567,
              31.224775584563876
            ],
            [
              -106.50210402882288,
              31.421674705201944
            ],
            [
              -106.57207952163469,
              31.597888069269302
            ],
            [
              -106.78893953024682,
              31.62748502168065
            ],
            [
              -107.96578444528456,
              31.62688053767055
            ],
            [
              -108.06062585381395,
              31.52882876890281
            ],
            [
              -108.07866176117668,
              31.20713454245347
            ],
            [
              -108.97266938754481,
              31.100727661809906
            ],
            [
              -110.95246701233582,
              31.141421864001877
            ],
            [
              -111.21912696665427,
              31.219432238683453
            ],
            [
              -110.73964644654218,
              31.1475647572386
            ],
            [
              -108.65916002413223,
              31.1589154393873
            ],
            [
              -108.93562617867185,
              31.68241439356948
            ],
            [
              -109.75179604151252,
              32.611807431792236
            ],
            [
              -110.10864780450979,
              32.85230905511315
            ],
            [
              -110.44799742545507,
              32.95666512148247
            ],
            [
              -110.87620173566914,
              32.91496166729019
            ],
            [
              -111.07743490396986,
              32.80381707217314
            ],
            [
              -111.49942476739999,
              32.35040025292516
            ],
            [
              -111.89830203489275,
              32.12598076163249
            ],
            [
              -112.07075813239157,
              31.832892644647764
            ],
            [
              -112.06989618551921,
              31.468321599295685
            ],
            [
              -112.40641569993879,
              31.566769127626774
            ]
          ]
        ]
      }
    },
    {
      "type": "Feature",
      "properties": {
        "dn": 1,
        "PRODUCT": "Day 2 Excessive Rainfall Potential Forecast",
        "VALID_TIME": "12Z 09/03/26 - 12Z 09/04/26",
        "OUTLOOK": "Marginal (At Least 5%)",
        "ISSUE_TIME": "2026-09-02 08:04:00",
        "START_TIME": "2026-09-03 12:00:00",
        "END_TIME": "2026-09-04 12:00:00",
        "Snippet": "12Z 09/03/26 - 12Z 09/04/26",
        "risk_norm": "MARGINAL"
      },
      "geometry": {
        "type": "Polygon",
        "coordinates": [
          [
            [
              -76.36212436618139,
              37.78683230679099
            ],
            [
              -78.10790467096622,
              38.237240467723815
            ],
            [
              -79.45600039285246,
              38.36440556040602
            ],
            [
              -79.94979532964908,
              38.497583551258415
            ],
            [
              -81.08735088043899,
              38.949424764770384
            ],
            [
              -83.42913343322995,
              40.007227841037555
            ],
            [
              -88.90692880262365,
              41.902996545061306
            ],
            [
              -90.5914215398251,
              42.25665213974916
            ],
            [
              -92.93805596263098,
              42.51553917959629
            ],
            [
              -93.76094290410096,
              42.696654844199585
            ],
            [
              -94.52702970912276,
              43.00378130002569
            ],
            [
              -94.70497917078396,
              43.308014840975204
            ],
            [
              -94.76272085217394,
              43.99847669334154
            ],
            [
              -94.51896059952912,
              44.899373080816666
            ],
            [
              -94.15250303100599,
              45.3680193138343
            ],
            [
              -93.90660234831013,
              45.53812770870927
            ],
            [
              -93.2332078381268,
              45.78851719484901
            ],
            [
              -91.94667264721575,
              45.985064805468795
            ],
            [
              -90.66466570569926,
              45.96077935103607
            ],
            [
              -90.11985424692107,
              45.86288445158931
            ],
            [
              -84.28586225159297,
              43.95326153894946
            ],
            [
              -82.09198243944682,
              43.29468287720708
            ],
            [
              -82.30364670049526,
              42.5683173966887
            ],
            [
              -82.44289354405349,
              42.40329847652661
            ],
            [
              -82.88485609396244,
              42.170957840231544
            ],
            [
              -82.90579323105966,
              41.99738564827912
            ],
            [
              -82.74756275819861,
              41.85631426876429
            ],
            [
              -82.39235217823789,
              41.875798427322366
            ],
            [
              -81.26070402531013,
              42.406627481895526
            ],
            [
              -80.35104918680098,
              42.554652486825134
            ],
            [
              -79.4839016061051,
              42.78922399461822
            ],
            [
              -76.78980922163943,
              42.541529131599106
            ],
            [
              -75.49026124009919,
              42.1874863037514
            ],
            [
              -74.55595478611396,
              41.82004810627558
            ],
            [
              -73.6075483400224,
              41.26737877287606
            ],
            [
              -73.31742597303352,
              40.96529362308044
            ],
            [
              -73.35243834535062,
              40.524983976330226
            ],
            [
              -73.45524115974946,
              40.31490387208691
            ],
            [
              -73.71015709341064,
              40.21221992322814
            ],
            [
              -73.79991713565609,
              39.77699632105729
            ],
            [
              -74.12353006726003,
              39.32437642493304
            ],
            [
              -74.50915531776555,
              38.83306578316856
            ],
            [
              -74.70327736720743,
              38.72152557532674
            ],
            [
              -74.80447256332921,
              38.19485301377837
            ],
            [
              -74.9579161400417,
              37.988162699941505
            ],
            [
              -75.1595302231814,
              37.830930555153
            ],
            [
              -75.46251850828878,
              37.73099313185512
            ],
            [
              -76.36212436618139,
              37.78683230679099
            ]
          ]
        ]
      }
    },
    {
      "type": "Feature",
      "properties": {
        "dn": 1,
        "PRODUCT": "Day 2 Excessive Rainfall Potential Forecast",
        "VALID_TIME": "12Z 09/03/26 - 12Z 09/04/26",
        "OUTLOOK": "Marginal (At Least 5%)",
        "ISSUE_TIME": "2026-09-02 08:04:00",
        "START_TIME": "2026-09-03 12:00:00",
        "END_TIME": "2026-09-04 12:00:00",
        "Snippet": "12Z 09/03/26 - 12Z 09/04/26",
        "risk_norm": "MARGINAL"
      },
      "geometry": {
        "type": "Polygon",
        "coordinates": [
          [
            [
              -120.66577513900931,
              38.99399788751348
            ],
            [
              -121.40236214297963,
              39.153347001672294
            ],
            [
              -122.33578694152726,
              39.82055684941334
            ],
            [
              -122.67902561861749,
              40.44087886631346
            ],
            [
              -122.68104403455486,
              40.6649039398298
            ],
            [
              -122.42379035792911,
              41.242114111528785
            ],
            [
              -121.04253951161255,
              42.78137270260002
            ],
            [
              -118.26401504729705,
              44.98934608394527
            ],
            [
              -117.73054899644822,
              45.572316488485065
            ],
            [
              -117.09776970169762,
              46.54894499131944
            ],
            [
              -116.50457504323204,
              47.21359759807462
            ],
            [
              -116.10538695888285,
              47.38414524035595
            ],
            [
              -115.5631272707503,
              47.48344344881164
            ],
            [
              -114.44843139063077,
              47.55293340751926
            ],
            [
              -113.93037342563123,
              47.47566221110778
            ],
            [
              -113.70185469457988,
              47.28439708964399
            ],
            [
              -113.68658601724813,
              46.90335568919384
            ],
            [
              -114.0638167303336,
              45.71217686602994
            ],
            [
              -114.71172877338813,
              44.39397351730384
            ],
            [
              -114.78515967576529,
              43.86454363262233
            ],
            [
              -115.48202470602142,
              43.43919933697643
            ],
            [
              -117.80576477697764,
              42.55109945546661
            ],
            [
              -119.49706628497599,
              41.39991616520004
            ],
            [
              -120.10135285214943,
              40.737258821445224
            ],
            [
              -120.21851277277595,
              40.49711663671916
            ],
            [
              -120.28056137865323,
              39.32189753639848
            ],
            [
              -120.39663382909805,
              39.078902848454895
            ],
            [
              -120.66577513900931,
              38.99399788751348
            ]
          ]
        ]
      }
    },
    {
      "type": "Feature",
      "properties": {
        "dn": 2,
        "PRODUCT": "Day 2 Excessive Rainfall Potential Forecast",
        "VALID_TIME": "12Z 09/03/26 - 12Z 09/04/26",
        "OUTLOOK": "Slight (At Least 15%)",
        "ISSUE_TIME": "2026-09-02 08:04:00",
        "START_TIME": "2026-09-03 12:00:00",
        "END_TIME": "2026-09-04 12:00:00",
        "Snippet": "12Z 09/03/26 - 12Z 09/04/26",
        "risk_norm": "SLIGHT"
      },
      "geometry": {
        "type": "Polygon",
        "coordinates": [
          [
            [
              -110.73964644654218,
              31.1475647572386
            ],
            [
              -111.28543081305303,
              31.22937026588354
            ],
            [
              -112.06989326705514,
              31.467087198970518
            ],
            [
              -112.07075813239157,
              31.832892644647764
            ],
            [
              -111.89830203489275,
              32.12598076163249
            ],
            [
              -111.49942476739999,
              32.35040025292516
            ],
            [
              -111.07743490396986,
              32.80381707217314
            ],
            [
              -110.87620173566914,
              32.91496166729019
            ],
            [
              -110.44799742545507,
              32.95666512148247
            ],
            [
              -110.10864780450979,
              32.85230905511315
            ],
            [
              -109.75179604151252,
              32.611807431792236
            ],
            [
              -108.93562617867185,
              31.68241439356948
            ],
            [
              -108.65916002413223,
              31.1589154393873
            ],
            [
              -110.73964644654218,
              31.1475647572386
            ]
          ]
        ]
      }
    }
  ]
}
