{"type": "FeatureCollection", "features": [{"type": "Feature", "properties": {"dn": 1, "PRODUCT": "Day 1 Excessive Rainfall Potential Forecast", "VALID_TIME": "12Z 09/29/26 - 12Z 09/30/26", "OUTLOOK": "Marginal (At Least 5%)", "ISSUE_TIME": "2026-09-29 08:17:00", "START_TIME": "2026-09-29 12:00:00", "END_TIME": "2026-09-30 12:00:00", "Snippet": "12Z 09/29/26 - 12Z 09/30/26"}, "geometry": {"type": "MultiPolygon", "coordinates": [[[[-106.56818604747161, 31.55911436285512], [-107.96142231028024, 31.588145302652837], [-108.07427769574804, 31.168369714264063], [-108.97155491002155, 31.09150268568954], [-110.73429488815346, 31.10827492474001], [-111.27989065771753, 31.190105409977882], [-113.70855611574214, 31.96858985018193], [-113.89323365717462, 33.409495178907726], [-114.168361793849, 34.06106730868856], [-114.59343351032362, 34.60245773764475], [-115.64515342178952, 35.201321460040454], [-115.68695506495118, 35.4233581557885], [-115.47625242219401, 36.084873807531515], [-114.91569617509158, 36.69571205245682], [-114.95870799584958, 37.23239965795744], [-114.81866527240138, 37.69937875029232], [-114.62751658574267, 37.902347518361104], [-113.75623901411338, 38.448836292794496], [-113.00759996657604, 38.75248520456048], [-112.12726334249415, 38.97583817746727], [-111.15942895492199, 39.024030579694184], [-109.68939748945193, 38.351863694409865], [-109.23907671798484, 38.38967463261224], [-108.20138546894572, 38.73961405354322], [-107.28587090742388, 39.207002959573806], [-105.94682777249116, 40.092960383507844], [-103.33186943551098, 41.29057375518623], [-102.53094158819057, 41.50101422775183], [-100.4368745024522, 41.66347228766012], [-99.683704824864, 41.81550983459878], [-99.11764083634475, 42.26429595653437], [-99.0854597736467, 42.91684790128978], [-98.8657456549072, 43.354646577481624], [-97.87078718325051, 43.93454361247666], [-96.68255881710166, 44.37899100598179], [-96.44608327274885, 44.55176131122604], [-95.79127494297258, 45.410899843632706], [-95.18379401063513, 45.838966073831294], [-94.45001170533014, 46.17786459427431], [-93.89820065037287, 46.26030282386048], [-91.6919971342686, 46.277868965695845], [-90.16994696669376, 46.076570306636505], [-89.62982598860347, 45.89250140468708], [-88.98788307393478, 45.404215252572946], [-88.82255434794197, 45.14266324722097], [-88.83631626131681, 44.929142359716316], [-90.95412539384104, 43.43730366458766], [-91.32541215723421, 43.055499500662386], [-91.51985270459859, 42.58196349281717], [-91.60685815101232, 41.7559869462627], [-91.85297850084334, 41.36704282598716], [-92.97503872960327, 40.68095991690509], [-94.48404071062812, 39.855684597184165], [-95.05682209911085, 39.41590735090276], [-95.4551287354465, 38.972982534518685], [-96.01508233044044, 37.99427653350174], [-96.45846340305397, 37.4121898261465], [-99.06968650060999, 35.21989948296359], [-99.73421397704418, 34.0308295319974], [-100.50329641557065, 33.05739978208991], [-100.83411483779724, 32.139384730809354], [-100.9176757801114, 31.68238297303608], [-100.90820702912194, 30.45503633761882], [-101.0310720064802, 29.767131629825], [-101.21892444141325, 29.34944697106682], [-101.60045505822336, 29.60641002220556], [-102.33806625490003, 29.664618481651512], [-102.540464226531, 29.564651167053935], [-102.67353584704607, 29.193135991427127], [-102.96863089913445, 28.90342939769026], [-103.43615605750442, 28.87863360121877], [-104.64208958358151, 29.585567873281928], [-104.87761417462117, 29.890359737728467], [-104.90828457938767, 30.253446935923108], [-105.028860756658, 30.4282232571379], [-105.19699926864867, 30.554209677301895], [-104.90080253581, 30.800593753371672], [-103.5750987910269, 31.515382286260113], [-103.04697887319917, 31.58847612893473], [-102.63610683983329, 31.83639665465922], [-101.37549944093405, 34.15565939009481], [-99.8892172514039, 36.31997961168451], [-99.31567035979899, 37.27459540784421], [-98.5020212760708, 38.09461569676205], [-97.16231854008944, 38.87113101125811], [-94.54087171927411, 39.98851810891887], [-93.5562351520772, 40.51132379068088], [-93.0869177491978, 40.85863264319758], [-92.67017502279133, 41.33567814424843], [-92.42393808394657, 41.8566918367443], [-92.41500452350682, 42.20526856456461], [-92.75930108584528, 42.601653102382144], [-93.40531224750077, 42.78202588909903], [-95.59176768607419, 42.78796136398714], [-97.24232892057631, 42.60163326339026], [-98.05858927374749, 42.28547582809371], [-98.2313028152883, 42.151440319511885], [-98.50751743316873, 41.666901971836154], [-99.43439561542881, 41.471728552587315], [-100.17871856208751, 41.18921879016748], [-100.45993552134868, 41.00552750111791], [-101.3769541153019, 40.79966114627158], [-101.88600417277499, 40.60495026932076], [-102.26292682685343, 40.19323337001106], [-102.86156745456623, 39.726667163957615], [-104.4116842847237, 39.074602855471696], [-105.2030029559852, 38.98567264263942], [-105.73189369309047, 39.131479925400406], [-106.24804359821675, 39.14334753856269], [-107.61457477618981, 38.60474954790407], [-109.76494228311199, 38.07677606223926], [-110.1576667813815, 38.042512701951615], [-110.56953837166759, 38.139846093536484], [-111.34443775300818, 38.738523309706956], [-112.02789380633246, 38.71723442723867], [-113.53828456360348, 37.52885974098532], [-114.05659315913609, 36.298387334655686], [-114.07353732437247, 35.43593849724811], [-113.80435979799384, 34.51313512594473], [-113.13884063274976, 33.81493415098091], [-113.04511816594251, 33.23292856229884], [-113.12958832283553, 32.401525378098356], [-113.08995282846185, 31.81144713988813], [-111.28148113293346, 31.20137761741491], [-110.73583122070524, 31.119554302490776], [-108.97291957637657, 31.10279857481652], [-108.07555584893423, 31.17967141344465], [-107.96269406975671, 31.599438374086553], [-106.5693211711343, 31.570418650439432], [-106.56467041893734, 31.55035901905405], [-106.56818604747161, 31.55911436285512]]], [[[-106.49709052623169, 31.382057621762385], [-106.50609657063583, 31.404486332383303], [-106.33074759373368, 31.31215333367718], [-106.49709052623169, 31.382057621762385]]], [[[-106.0524527273449, 31.19520214001641], [-106.08282454548052, 31.207965653877444], [-106.05533553879603, 31.22537912424851], [-105.2165792083745, 30.568880953286676], [-106.0524527273449, 31.19520214001641]]]]}}, {"type": "Feature", "properties": {"dn": 2, "PRODUCT": "Day 1 Excessive Rainfall Potential Forecast", "VALID_TIME": "12Z 09/29/26 - 12Z 09/30/26", "OUTLOOK": "Slight (At Least 15%)", "ISSUE_TIME": "2026-09-29 08:17:00", "START_TIME": "2026-09-29 12:00:00", "END_TIME": "2026-09-30 12:00:00", "Snippet": "12Z 09/29/26 - 12Z 09/30/26"}, "geometry": {"type": "Polygon", "coordinates": [[[-106.05533553879603, 31.22537912424851], [-106.10554832603076, 31.193570812918946], [-106.53429261811556, 31.419333442765456], [-106.5693211711343, 31.570418650439432], [-107.96269406975671, 31.599438374086553], [-108.07555584893423, 31.17967141344465], [-108.97291957637657, 31.10279857481652], [-110.73583122070524, 31.119554302490776], [-111.28148113293346, 31.20137761741491], [-113.08995282846185, 31.81144713988813], [-113.12958832283553, 32.401525378098356], [-113.04511816594251, 33.23292856229884], [-113.13884063274976, 33.81493415098091], [-113.80435979799384, 34.51313512594473], [-114.07353732437247, 35.43593849724811], [-114.05659315913609, 36.298387334655686], [-113.53828456360348, 37.52885974098532], [-112.02789380633246, 38.71723442723867], [-111.34443775300818, 38.738523309706956], [-110.56953837166759, 38.139846093536484], [-110.1576667813815, 38.042512701951615], [-109.76494228311199, 38.07677606223926], [-107.61457477618981, 38.60474954790407], [-106.24804359821675, 39.14334753856269], [-105.73189369309047, 39.131479925400406], [-105.2030029559852, 38.98567264263942], [-104.4116842847237, 39.074602855471696], [-102.86156745456623, 39.726667163957615], [-102.26292682685343, 40.19323337001106], [-101.88600417277499, 40.60495026932076], [-101.3769541153019, 40.79966114627158], [-100.45993552134868, 41.00552750111791], [-100.17871856208751, 41.18921879016748], [-99.43439561542881, 41.471728552587315], [-98.50751743316873, 41.666901971836154], [-98.2313028152883, 42.151440319511885], [-98.05858927374749, 42.28547582809371], [-97.24232892057631, 42.60163326339026], [-95.59176768607419, 42.78796136398714], [-93.40531224750077, 42.78202588909903], [-92.75930108584528, 42.601653102382144], [-92.41500452350682, 42.20526856456461], [-92.42393808394657, 41.8566918367443], [-92.67017502279133, 41.33567814424843], [-93.0869177491978, 40.85863264319758], [-93.5562351520772, 40.51132379068088], [-94.54087171927411, 39.98851810891887], [-97.16231854008944, 38.87113101125811], [-98.5020212760708, 38.09461569676205], [-99.31567035979899, 37.27459540784421], [-99.8892172514039, 36.31997961168451], [-101.37549944093405, 34.15565939009481], [-102.63610683983329, 31.83639665465922], [-103.04697887319917, 31.58847612893473], [-103.5750987910269, 31.515382286260113], [-104.90080253581, 30.800593753371672], [-105.197404356599, 30.553872714704728], [-106.05533553879603, 31.22537912424851]], [[-105.1781262953664, 32.148782239893706], [-103.93178168902323, 32.677176820503306], [-103.31090534912526, 33.02778498846574], [-102.24901187310901, 34.164456982299576], [-101.3486289001555, 35.597980053240875], [-100.66438781743383, 37.32435314170565], [-100.63400406216769, 37.81586001475167], [-100.81972735310144, 38.12129698462023], [-101.1148110842312, 38.33362392830376], [-101.86676716702551, 38.5720231629941], [-102.31986201622655, 38.55346963327344], [-103.48714797462223, 38.233241131694534], [-105.62911287128065, 38.11432521522335], [-105.95318410227816, 37.96014651465912], [-107.46694089786624, 36.377599164759104], [-107.733159517696, 36.26767934363722], [-108.40161007253731, 36.26055679557375], [-108.87593170824644, 36.04179469331831], [-110.5778659068487, 35.07797109206688], [-110.92746898876048, 34.81808867413989], [-111.16057322077371, 34.52308410645575], [-111.4017650657337, 33.54485862420874], [-111.2895166397087, 33.14650770578071], [-111.97827462007653, 32.29972829574903], [-112.14358156314512, 31.962193980528358], [-112.10323261812266, 31.692212462243802], [-111.84517754033944, 31.39957531097265], [-110.73967205208469, 31.147752746867766], [-108.97633124226411, 31.131038297634017], [-108.0787512318997, 31.207925661396093], [-108.06155305135975, 31.52875254719563], [-107.96587346844791, 31.6276710526709], [-106.78902049498184, 31.628276163960095], [-106.57215898029106, 31.59867936940023], [-106.50117678550993, 31.421742148975824], [-106.10826378076864, 31.22186103563778], [-105.1781262953664, 32.148782239893706]]]}}, {"type": "Feature", "properties": {"dn": 3, "PRODUCT": "Day 1 Excessive Rainfall Potential Forecast", "VALID_TIME": "12Z 09/29/26 - 12Z 09/30/26", "OUTLOOK": "Moderate (At Least 40%)", "ISSUE_TIME": "2026-09-29 08:17:00", "START_TIME": "2026-09-29 12:00:00", "END_TIME": "2026-09-30 12:00:00", "Snippet": "12Z 09/29/26 - 12Z 09/30/26"}, "geometry": {"type": "Polygon", "coordinates": [[[-106.10826378076864, 31.22186103563778], [-106.50117678550993, 31.421742148975824], [-106.57215898029106, 31.59867936940023], [-106.78902049498184, 31.628276163960095], [-107.96587346844791, 31.6276710526709], [-108.06155305135975, 31.52875254719563], [-108.0787512318997, 31.207925661396093], [-108.97633124226411, 31.131038297634017], [-110.73967205208469, 31.147752746867766], [-111.84517754033944, 31.39957531097265], [-112.10323261812266, 31.692212462243802], [-112.14358156314512, 31.962193980528358], [-111.97827462007653, 32.29972829574903], [-111.2895166397087, 33.14650770578071], [-111.4017650657337, 33.54485862420874], [-111.16057322077371, 34.52308410645575], [-110.92746898876048, 34.81808867413989], [-110.5778659068487, 35.07797109206688], [-108.87593170824644, 36.04179469331831], [-108.40161007253731, 36.26055679557375], [-107.733159517696, 36.26767934363722], [-107.46694089786624, 36.377599164759104], [-105.95318410227816, 37.96014651465912], [-105.62911287128065, 38.11432521522335], [-103.48714797462223, 38.233241131694534], [-102.31986201622655, 38.55346963327344], [-101.86676716702551, 38.5720231629941], [-101.1148110842312, 38.33362392830376], [-100.81972735310144, 38.12129698462023], [-100.63400406216769, 37.81586001475167], [-100.66438781743383, 37.32435314170565], [-101.3486289001555, 35.597980053240875], [-102.24901187310901, 34.164456982299576], [-103.31090534912526, 33.02778498846574], [-103.93178168902323, 32.677176820503306], [-105.1781262953664, 32.148782239893706], [-106.10826378076864, 31.22186103563778]]]}}]}