{
  "type": "FeatureCollection",
  "features": [
    {
      "type": "Feature",
      "properties": {
        "dn": 1,
        "PRODUCT": "Day 2 Excessive Rainfall Potential Forecast",
        "VALID_TIME": "12Z 09/30/26 - 12Z 10/01/26",
        "OUTLOOK": "Marginal (At Least 5%)",
        "ISSUE_TIME": "2026-09-29 08:17:00",
        "START_TIME": "2026-09-30 12:00:00",
        "END_TIME": "2026-10-01 12:00:00",
        "Snippet": "12Z 09/30/26 - 12Z 10/01/26",
        "risk_norm": "MARGINAL"
      },
      "geometry": {
        "type": "Polygon",
        "coordinates": [
          [
            [
              -102.67353584704607,
              29.193135991427127
            ],
            [
              -102.96863089913445,
              28.90342939769026
            ],
            [
              -103.07254217089827,
              28.89804128096833
            ],
            [
              -103.24848654933389,
              29.163624462200346
            ],
            [
              -103.38486394385517,
              29.61271265980176
            ],
            [
              -103.50609145445506,
              30.56363980117413
            ],
            [
              -103.35387650352153,
              31.39118769729726
            ],
            [
              -102.76873099698467,
              32.193304015505426
            ],
            [
              -101.70408467063064,
              33.238419851417106
            ],
            [
              -101.20890510945465,
              34.07177497420367
            ],
            [
              -100.98993380982628,
              35.07164798198388
            ],
            [
              -101.01429777117265,
              35.52051409572969
            ],
            [
              -101.19719503647453,
              35.82824973170469
            ],
            [
              -101.48542797268095,
              36.0408361270896
            ],
            [
              -101.76763078843288,
              36.11940512360607
            ],
            [
              -102.3735896755591,
              36.04897231354382
            ],
            [
              -104.58879231564929,
              35.35182822973594
            ],
            [
              -106.37574616685036,
              34.471223969061434
            ],
            [
              -107.68432636986559,
              33.92228938007752
            ],
            [
              -108.7868079703198,
              33.560337639967706
            ],
            [
              -109.3256105342395,
              33.51360663963429
            ],
            [
              -109.77399816062788,
              33.6096377936763
            ],
            [
              -110.30882688627204,
              33.92437941550291
            ],
            [
              -110.62257832029881,
              34.21238448682418
            ],
            [
              -110.90287178247517,
              34.638991687019576
            ],
            [
              -111.09577828318642,
              35.209140062669725
            ],
            [
              -111.17210351700064,
              36.10562563016555
            ],
            [
              -110.99190455706089,
              37.15863759820121
            ],
            [
              -110.56843780605571,
              37.73648858571961
            ],
            [
              -110.16403162574039,
              38.08713671575881
            ],
            [
              -107.31187244497097,
              39.91459919110745
            ],
            [
              -106.26223749967842,
              40.33815579126163
            ],
            [
              -103.78159349744543,
              41.093689852000864
            ],
            [
              -102.75059358831555,
              41.31650419676358
            ],
            [
              -101.47637868113084,
              41.454314053244815
            ],
            [
              -100.50000491057438,
              41.74896399388926
            ],
            [
              -98.1900063506002,
              42.71838381662659
            ],
            [
              -96.66850985828145,
              43.56092390043394
            ],
            [
              -95.89701851951124,
              43.8681379801917
            ],
            [
              -94.2213762292971,
              44.21298922781831
            ],
            [
              -92.22840569002081,
              44.70944363156733
            ],
            [
              -87.41992204914446,
              45.26434481172694
            ],
            [
              -86.4551934245258,
              45.86407130690643
            ],
            [
              -85.17208330618416,
              46.4412524565034
            ],
            [
              -84.47516911177388,
              46.61719837449152
            ],
            [
              -84.2299771610874,
              46.60394281356703
            ],
            [
              -84.05604749978411,
              46.509528230688026
            ],
            [
              -83.62706625007917,
              45.973991437478254
            ],
            [
              -83.53631891629274,
              45.71274605655327
            ],
            [
              -83.58244244112603,
              45.33070768366413
            ],
            [
              -84.41696176282568,
              44.39115095732781
            ],
            [
              -85.24023902382399,
              42.791092525285514
            ],
            [
              -85.70961884821712,
              42.20550203425276
            ],
            [
              -86.63756733003063,
              41.68159583659038
            ],
            [
              -87.95509491166908,
              41.256055991046594
            ],
            [
              -91.38436424712074,
              39.81941301603574
            ],
            [
              -92.3776461630018,
              39.086691101244206
            ],
            [
              -92.9046536703839,
              38.38448886619755
            ],
            [
              -93.3150371663614,
              37.499258349293335
            ],
            [
              -93.66575618057743,
              36.38571002696172
            ],
            [
              -94.18369547688006,
              34.007072566943584
            ],
            [
              -94.78423495967309,
              32.87945606336868
            ],
            [
              -95.63935313053835,
              31.700241996003005
            ],
            [
              -97.10202537784565,
              30.05150097233584
            ],
            [
              -97.87451073501862,
              29.355170928940375
            ],
            [
              -99.25661024700361,
              28.548247881295456
            ],
            [
              -99.95795010198248,
              27.93390904993568
            ],
            [
              -100.1107727705939,
              27.8832311916331
            ],
            [
              -100.53173406830616,
              28.417413645263007
            ],
            [
              -100.92823854444845,
              29.087164175716314
            ],
            [
              -101.49120239425704,
              29.52630927482325
            ],
            [
              -102.0224111288019,
              29.64936775641272
            ],
            [
              -102.49019443993608,
              29.581976792853386
            ],
            [
              -102.62769049622042,
              29.290367398329195
            ],
            [
              -102.54116102289309,
              29.564617535917147
            ],
            [
              -102.33810404099302,
              29.66522474822245
            ],
            [
              -102.02421991507812,
              29.67968417025192
            ],
            [
              -101.49182886490806,
              29.537682002762416
            ],
            [
              -100.89351917576529,
              29.088489701899782
            ],
            [
              -100.49684624179501,
              28.418359982522706
            ],
            [
              -99.4795189029936,
              28.952924419004336
            ],
            [
              -98.14903948343917,
              29.85137693259864
            ],
            [
              -97.01227566430234,
              30.91681259213106
            ],
            [
              -95.90963393171934,
              32.107094132905
            ],
            [
              -95.59076266401816,
              32.51637436042222
            ],
            [
              -95.10839568506896,
              33.37696972555267
            ],
            [
              -94.39600917903354,
              35.08890004359429
            ],
            [
              -94.169912450174,
              35.940987458468356
            ],
            [
              -94.21565378497155,
              37.282838504006826
            ],
            [
              -94.09647828157114,
              38.12828332748364
            ],
            [
              -93.86105985200972,
              39.014134775849264
            ],
            [
              -93.68633151989349,
              39.32259919287434
            ],
            [
              -92.87381796281298,
              39.97633825057654
            ],
            [
              -92.29105334338493,
              40.27667257504663
            ],
            [
              -88.39176778358686,
              41.710695336841844
            ],
            [
              -87.9612109615614,
              42.000734047874865
            ],
            [
              -87.50930365946996,
              42.54934291031765
            ],
            [
              -87.47987698365276,
              42.939304722889226
            ],
            [
              -87.81308790611959,
              43.25650354410218
            ],
            [
              -88.6833865239319,
              43.590873141940946
            ],
            [
              -90.27857344491369,
              43.89677425847056
            ],
            [
              -91.71249691857545,
              43.92729558688426
            ],
            [
              -92.9713746677984,
              43.77268672972745
            ],
            [
              -95.2382371648711,
              43.22201668011598
            ],
            [
              -96.94743653891922,
              42.60498751514352
            ],
            [
              -100.8254400819669,
              41.300903683786274
            ],
            [
              -102.0284991121638,
              40.99484433068499
            ],
            [
              -104.65930465976561,
              40.520244200015554
            ],
            [
              -105.61606184934278,
              40.24515102585993
            ],
            [
              -106.04328543033222,
              39.909245663347164
            ],
            [
              -106.3813509648941,
              39.31179232094552
            ],
            [
              -106.69273792489201,
              39.02524110113
            ],
            [
              -107.40413351308838,
              38.753538184870315
            ],
            [
              -107.93773385075096,
              38.44670418888655
            ],
            [
              -108.02876393649663,
              38.26141344598528
            ],
            [
              -107.95857208937248,
              37.68586506717891
            ],
            [
              -107.71153856708295,
              37.0326405124621
            ],
            [
              -107.37706227527123,
              36.56379514229025
            ],
            [
              -106.70873499923755,
              36.07193356393416
            ],
            [
              -105.84024603719635,
              35.72563058744379
            ],
            [
              -105.23011674530396,
              35.71919835178704
            ],
            [
              -104.62791286278882,
              35.80003237096768
            ],
            [
              -103.06369769576546,
              36.376570382150305
            ],
            [
              -101.10757134052105,
              37.219287907028345
            ],
            [
              -100.22291205106245,
              37.47185700503946
            ],
            [
              -99.65993098291553,
              37.443549962983454
            ],
            [
              -99.31799767310831,
              37.31871511179254
            ],
            [
              -98.97251052735776,
              37.059725698514725
            ],
            [
              -98.90693774528302,
              36.79313075183726
            ],
            [
              -99.16516840286866,
              36.24987430266245
            ],
            [
              -99.74045565886914,
              35.42686357388883
            ],
            [
              -100.49694972935428,
              34.006963618708866
            ],
            [
              -100.90329271056927,
              33.4505163473035
            ],
            [
              -102.6663175446096,
              31.471365845992544
            ],
            [
              -102.81033456006695,
              31.236954197257646
            ],
            [
              -102.93516588542897,
              30.730100989278004
            ],
            [
              -102.89821725312038,
              30.185294694276493
            ],
            [
              -102.62910493244897,
              29.28736758216468
            ],
            [
              -102.67353584704607,
              29.193135991427127
            ]
          ]
        ]
      }
    },
    {
      "type": "Feature",
      "properties": {
        "dn": 2,
        "PRODUCT": "Day 2 Excessive Rainfall Potential Forecast",
        "VALID_TIME": "12Z 09/30/26 - 12Z 10/01/26",
        "OUTLOOK": "Slight (At Least 15%)",
        "ISSUE_TIME": "2026-09-29 08:17:00",
        "START_TIME": "2026-09-30 12:00:00",
        "END_TIME": "2026-10-01 12:00:00",
        "Snippet": "12Z 09/30/26 - 12Z 10/01/26",
        "risk_norm": "SLIGHT"
      },
      "geometry": {
        "type": "Polygon",
        "coordinates": [
          [
            [
              -101.49182886490806,
              29.537682002762416
            ],
            [
              -102.02421991507812,
              29.67968417025192
            ],
            [
              -102.33810404099302,
              29.66522474822245
            ],
            [
              -102.54116102289309,
              29.564617535917147
            ],
            [
              -102.6288769672108,
              29.286606947469608
            ],
            [
              -102.89821725312038,
              30.185294694276493
            ],
            [
              -102.93516588542897,
              30.730100989278004
            ],
            [
              -102.81033456006695,
              31.236954197257646
            ],
            [
              -102.6663175446096,
              31.471365845992544
            ],
            [
              -100.90329271056927,
              33.4505163473035
            ],
            [
              -100.49694972935428,
              34.006963618708866
            ],
            [
              -99.74045565886914,
              35.42686357388883
            ],
            [
              -99.16516840286866,
              36.24987430266245
            ],
            [
              -98.90693774528302,
              36.79313075183726
            ],
            [
              -98.97251052735776,
              37.059725698514725
            ],
            [
              -99.31799767310831,
              37.31871511179254
            ],
            [
              -99.65993098291553,
              37.443549962983454
            ],
            [
              -100.22291205106245,
              37.47185700503946
            ],
            [
              -101.10757134052105,
              37.219287907028345
            ],
            [
              -103.06369769576546,
              36.376570382150305
            ],
            [
              -104.62791286278882,
              35.80003237096768
            ],
            [
              -105.23011674530396,
              35.71919835178704
            ],
            [
              -105.84024603719635,
              35.72563058744379
            ],
            [
              -106.70873499923755,
              36.07193356393416
            ],
            [
              -107.37706227527123,
              36.56379514229025
            ],
            [
              -107.71153856708295,
              37.0326405124621
            ],
            [
              -107.95857208937248,
              37.68586506717891
            ],
            [
              -108.02876393649663,
              38.26141344598528
            ],
            [
              -107.93773385075096,
              38.44670418888655
            ],
            [
              -107.40413351308838,
              38.753538184870315
            ],
            [
              -106.69273792489201,
              39.02524110113
            ],
            [
              -106.3813509648941,
              39.31179232094552
            ],
            [
              -106.04328543033222,
              39.909245663347164
            ],
            [
              -105.61606184934278,
              40.24515102585993
            ],
            [
              -104.65930465976561,
              40.520244200015554
            ],
            [
              -102.0284991121638,
              40.99484433068499
            ],
            [
              -100.8254400819669,
              41.300903683786274
            ],
            [
              -96.94743653891922,
              42.60498751514352
            ],
            [
              -95.2382371648711,
              43.22201668011598
            ],
            [
              -92.9713746677984,
              43.77268672972745
            ],
            [
              -91.71249691857545,
              43.92729558688426
            ],
            [
              -90.27857344491369,
              43.89677425847056
            ],
            [
              -88.6833865239319,
              43.590873141940946
            ],
            [
              -87.81308790611959,
              43.25650354410218
            ],
            [
              -87.47987698365276,
              42.939304722889226
            ],
            [
              -87.50930365946996,
              42.54934291031765
            ],
            [
              -87.9612109615614,
              42.000734047874865
            ],
            [
              -88.39176778358686,
              41.710695336841844
            ],
            [
              -92.29105334338493,
              40.27667257504663
            ],
            [
              -92.87381796281298,
              39.97633825057654
            ],
            [
              -93.68633151989349,
              39.32259919287434
            ],
            [
              -93.86105985200972,
              39.014134775849264
            ],
            [
              -94.09647828157114,
              38.12828332748364
            ],
            [
              -94.21565378497155,
              37.282838504006826
            ],
            [
              -94.169912450174,
              35.940987458468356
            ],
            [
              -94.39600917903354,
              35.08890004359429
            ],
            [
              -95.10839568506896,
              33.37696972555267
            ],
            [
              -95.59076266401816,
              32.51637436042222
            ],
            [
              -95.90963393171934,
              32.107094132905
            ],
            [
              -97.01227566430234,
              30.91681259213106
            ],
            [
              -98.14903948343917,
              29.85137693259864
            ],
            [
              -99.4795189029936,
              28.952924419004336
            ],
            [
              -100.49684624179501,
              28.418359982522706
            ],
            [
              -100.89351917576529,
              29.088489701899782
            ],
            [
              -101.49182886490806,
              29.537682002762416
            ]
          ],
          [
            [
              -99.33273827443922,
              30.64281873573821
            ],
            [
              -98.19731763678425,
              31.623869500827414
            ],
            [
              -97.24827702438532,
              32.13904083788634
            ],
            [
              -96.87872148206137,
              32.46118683356067
            ],
            [
              -96.56234409016086,
              32.87203973330713
            ],
            [
              -95.87229938228033,
              34.187182402281984
            ],
            [
              -95.49568996337095,
              35.269053028644784
            ],
            [
              -95.554306395994,
              35.98695561916773
            ],
            [
              -95.83459210303289,
              36.43368356049896
            ],
            [
              -96.2275456123772,
              36.74454939295272
            ],
            [
              -96.4511769750396,
              36.78747698661517
            ],
            [
              -96.84011322875011,
              36.69428770296811
            ],
            [
              -97.33324688117578,
              36.28528033011191
            ],
            [
              -98.35224346635137,
              35.101055130477214
            ],
            [
              -99.23587361062238,
              33.77362532400963
            ],
            [
              -100.20813486388417,
              32.478373047362254
            ],
            [
              -101.77859915376413,
              30.87509807234411
            ],
            [
              -101.965560632918,
              30.4572586579305
            ],
            [
              -101.9412604543135,
              30.048353620639997
            ],
            [
              -101.81514860376278,
              29.689266785984522
            ],
            [
              -101.49339504153559,
              29.566113822610276
            ],
            [
              -101.00193820299218,
              29.175442866147005
            ],
            [
              -100.08117258848328,
              29.618498589790597
            ],
            [
              -99.33273827443922,
              30.64281873573821
            ]
          ],
          [
            [
              -103.90282889608693,
              36.42421143393618
            ],
            [
              -102.9395828127251,
              36.96498241034916
            ],
            [
              -102.20274283758293,
              37.66794310592328
            ],
            [
              -102.22973235444135,
              38.067850479634814
            ],
            [
              -102.70330143665173,
              38.35900737814126
            ],
            [
              -103.39528814500072,
              38.504654697085044
            ],
            [
              -104.42495097072415,
              38.58503920966572
            ],
            [
              -105.32994622105431,
              38.533388695779024
            ],
            [
              -105.66017727593689,
              38.42431052071778
            ],
            [
              -105.86807011743817,
              38.23295932174883
            ],
            [
              -106.0050248138348,
              37.912018913892766
            ],
            [
              -105.86308016172235,
              37.07159753457213
            ],
            [
              -105.53624936163955,
              36.59905500274938
            ],
            [
              -104.73465361159543,
              36.37811866210699
            ],
            [
              -103.90282889608693,
              36.42421143393618
            ]
          ]
        ]
      }
    },
    {
      "type": "Feature",
      "properties": {
        "dn": 3,
        "PRODUCT": "Day 2 Excessive Rainfall Potential Forecast",
        "VALID_TIME": "12Z 09/30/26 - 12Z 10/01/26",
        "OUTLOOK": "Moderate (At Least 40%)",
        "ISSUE_TIME": "2026-09-29 08:17:00",
        "START_TIME": "2026-09-30 12:00:00",
        "END_TIME": "2026-10-01 12:00:00",
        "Snippet": "12Z 09/30/26 - 12Z 10/01/26",
        "risk_norm": "MODERATE"
      },
      "geometry": {
        "type": "Polygon",
        "coordinates": [
          [
            [
              -101.00193820299218,
              29.175442866147005
            ],
            [
              -101.49339504153559,
              29.566113822610276
            ],
            [
              -101.81514860376278,
              29.689266785984522
            ],
            [
              -101.9412604543135,
              30.048353620639997
            ],
            [
              -101.965560632918,
              30.4572586579305
            ],
            [
              -101.77859915376413,
              30.87509807234411
            ],
            [
              -100.20813486388417,
              32.478373047362254
            ],
            [
              -99.23587361062238,
              33.77362532400963
            ],
            [
              -98.35224346635137,
              35.101055130477214
            ],
            [
              -97.33324688117578,
              36.28528033011191
            ],
            [
              -96.84011322875011,
              36.69428770296811
            ],
            [
              -96.4511769750396,
              36.78747698661517
            ],
            [
              -96.2275456123772,
              36.74454939295272
            ],
            [
              -95.83459210303289,
              36.43368356049896
            ],
            [
              -95.554306395994,
              35.98695561916773
            ],
            [
              -95.49568996337095,
              35.269053028644784
            ],
            [
              -95.87229938228033,
              34.187182402281984
            ],
            [
              -96.56234409016086,
              32.87203973330713
            ],
            [
              -96.87872148206137,
              32.46118683356067
            ],
            [
              -97.24827702438532,
              32.13904083788634
            ],
            [
              -98.19731763678425,
              31.623869500827414
            ],
            [
              -99.33273827443922,
              30.64281873573821
            ],
            [
              -100.08117258848328,
              29.618498589790597
            ],
            [
              -101.00193820299218,
              29.175442866147005
            ]
          ]
        ]
      }
    },
    {
      "type": "Feature",
      "properties": {
        "dn": 3,
        "PRODUCT": "Day 2 Excessive Rainfall Potential Forecast",
        "VALID_TIME": "12Z 09/30/26 - 12Z 10/01/26",
        "OUTLOOK": "Moderate (At Least 40%)",
        "ISSUE_TIME": "2026-09-29 08:17:00",
        "START_TIME": "2026-09-30 12:00:00",
        "END_TIME": "2026-10-01 12:00:00",
        "Snippet": "12Z 09/30/26 - 12Z 10/01/26",
        "risk_norm": "MODERATE"
      },
      "geometry": {
        "type": "Polygon",
        "coordinates": [
          [
            [
              -104.73465361159543,
              36.37811866210699
            ],
            [
              -105.53624936163955,
              36.59905500274938
            ],
            [
              -105.86308016172235,
              37.07159753457213
            ],
            [
              -106.0050248138348,
              37.912018913892766
            ],
            [
              -105.86807011743817,
              38.23295932174883
            ],
            [
              -105.66017727593689,
              38.42431052071778
            ],
            [
              -105.32994622105431,
              38.533388695779024
            ],
            [
              -104.42495097072415,
              38.58503920966572
            ],
            [
              -103.39528814500072,
              38.504654697085044
            ],
            [
              -102.70330143665173,
              38.35900737814126
            ],
            [
              -102.22973235444135,
              38.067850479634814
            ],
            [
              -102.20274283758293,
              37.66794310592328
            ],
            [
              -102.9395828127251,
              36.96498241034916
            ],
            [
              -103.90282889608693,
              36.42421143393618
            ],
            [
              -104.73465361159543,
              36.37811866210699
            ]
          ]
        ]
      }
    }
  ]
}
