{"type": "FeatureCollection", "features": [{"type": "Feature", "properties": {"dn": 1, "PRODUCT": "Day 1 Excessive Rainfall Potential Forecast", "VALID_TIME": "12Z 10/01/26 - 12Z 10/02/26", "OUTLOOK": "Marginal (At Least 5%)", "ISSUE_TIME": "2026-10-01 08:11:00", "START_TIME": "2026-10-01 12:00:00", "END_TIME": "2026-10-02 12:00:00", "Snippet": "12Z 10/01/26 - 12Z 10/02/26"}, "geometry": {"type": "Polygon", "coordinates": [[[-98.1483248230526, 25.896633704885833], [-99.02116619328962, 26.186442750134884], [-99.32964037129932, 26.446513835195432], [-99.65996379385072, 27.076416063237513], [-99.72728107225873, 27.485458209884253], [-100.04716090868307, 27.749257452534245], [-100.36404195190876, 28.149452987360135], [-100.81736651295182, 28.954513798286122], [-101.49335118859003, 29.56531773165455], [-101.81335283271524, 29.643752474617898], [-101.7295295601958, 30.012035455995523], [-101.346570263297, 30.711057706486795], [-99.46510185600697, 32.68195743335291], [-98.8461176440458, 33.46704449335797], [-98.64566315593999, 33.96846239393951], [-98.6544602262951, 34.238951436979185], [-98.94753337290261, 34.817938531012636], [-99.74179383775378, 35.47086204247894], [-100.93192342579451, 36.06134426211598], [-101.88400414076241, 36.20437646204146], [-103.5004121372719, 36.264892180483415], [-104.29866220652299, 36.49178723082141], [-105.42214825593322, 37.1440323732462], [-105.68942262792288, 37.57472180294201], [-105.59933377811686, 37.803671783498466], [-104.90106958848924, 38.20303580694853], [-103.79865095106072, 38.5742462489147], [-100.71740978611214, 39.367815969668875], [-98.15555133238387, 39.741763123597124], [-96.154019470396, 40.29489264751504], [-94.47806141273882, 41.044330161831446], [-89.3381386951771, 43.61226497844743], [-87.27113872631088, 44.099492867313906], [-85.57331915684126, 44.2808694532305], [-84.31722201950313, 44.21401434624286], [-83.04024315059122, 43.83479140262602], [-82.49398039226544, 43.408139110326424], [-82.29812832598853, 42.61156326116327], [-82.44289354405349, 42.40329847652661], [-82.88485609396244, 42.170957840231544], [-82.90579323105966, 41.99738564827912], [-82.74756275819861, 41.85631426876429], [-82.51436228639966, 41.84042133809318], [-82.2637030608534, 41.953549216754126], [-82.39282514912892, 41.39239987763669], [-82.74618989820132, 40.88906592369055], [-83.07072730547688, 40.60258321289167], [-84.4394978519634, 39.71675744656285], [-85.71152249653234, 38.99113620702406], [-88.41382689018565, 37.736466928981216], [-90.10463380510906, 36.45416565075341], [-91.42584207556791, 35.18635455811986], [-92.0507677360064, 34.43345878800179], [-92.7315281918476, 33.18032177775687], [-93.29727605710158, 31.465498723614438], [-93.79775295608812, 29.377995952433785], [-94.26995427925398, 29.24334244579901], [-95.20831027943626, 28.561200309284196], [-96.44661309104285, 27.961548732883163], [-96.85231101677168, 27.547345142825293], [-97.04956838052047, 27.042603917847618], [-96.88941797420924, 26.633653415681245], [-96.77723624327665, 25.949801960648816], [-97.03061492512109, 25.854312576223087], [-97.23023106743004, 25.668726873049444], [-97.48632153605654, 25.801788689044237], [-98.1483248230526, 25.896633704885833]], [[-96.35470762771182, 29.01220789066634], [-90.9273188077544, 36.78922345439929], [-89.3290684040881, 38.526294304746784], [-87.59816116543824, 39.745705348954175], [-87.11947940749417, 39.990379912247896], [-86.74015335765095, 40.41405569923291], [-86.61471652239133, 41.243366322529475], [-86.78360211227559, 42.03876526276085], [-87.03155938493063, 42.61628354968427], [-87.53301197200557, 43.02868583361588], [-87.94095071291255, 43.131400311632255], [-88.5332764134577, 43.15297772284359], [-89.19274339224775, 43.04475319469883], [-90.21606935420226, 42.72692413207754], [-95.00079684239388, 40.29819888528977], [-96.66230994501998, 39.62932990354364], [-98.59594833909726, 39.202583762159875], [-101.70524926891743, 38.711817497799885], [-102.37034104397205, 38.462716255956565], [-102.74420270498705, 38.134511974845935], [-102.84065585759794, 37.907430615874915], [-102.75858029680188, 37.554396363556954], [-102.32642116912494, 36.99276863073607], [-102.03226822895924, 36.781105861519904], [-101.464456576626, 36.62473845206856], [-100.23564365494641, 36.577802033094194], [-99.44745629668395, 36.37658062478484], [-98.65081375519125, 35.81351182293382], [-98.1891115900134, 35.14924368257015], [-98.11271251893388, 34.385374677292226], [-98.25673681999018, 33.705806039694906], [-98.55792785903691, 32.93090400804635], [-98.81207898547979, 32.47225011246299], [-99.27452661971044, 31.91647750136201], [-100.80892803146592, 30.549769626015568], [-101.09917256370282, 30.037876659572152], [-101.22031616737154, 29.349391393754626], [-100.78268474568281, 28.955814729042018], [-100.14317029005976, 27.883058981409395], [-99.71443030079769, 27.48585424931702], [-99.64715635537797, 27.07680655959788], [-99.31689838446242, 26.44687667735305], [-99.02154369823629, 26.1978573266334], [-98.58900409203986, 26.08308333332635], [-98.50837451777718, 26.05642704115134], [-98.50730911539073, 26.061405645159017], [-97.690198343409, 25.844586040824424], [-97.45533363678685, 26.808248215737475], [-96.35470762771182, 29.01220789066634]]]}}, {"type": "Feature", "properties": {"dn": 2, "PRODUCT": "Day 1 Excessive Rainfall Potential Forecast", "VALID_TIME": "12Z 10/01/26 - 12Z 10/02/26", "OUTLOOK": "Slight (At Least 15%)", "ISSUE_TIME": "2026-10-01 08:11:00", "START_TIME": "2026-10-01 12:00:00", "END_TIME": "2026-10-02 12:00:00", "Snippet": "12Z 10/01/26 - 12Z 10/02/26"}, "geometry": {"type": "Polygon", "coordinates": [[[-99.02154369823629, 26.1978573266334], [-99.31689838446242, 26.44687667735305], [-99.64715635537797, 27.07680655959788], [-99.71443030079769, 27.48585424931702], [-100.14317029005976, 27.883058981409395], [-100.78268474568281, 28.955814729042018], [-101.22031616737154, 29.349391393754626], [-101.09917256370282, 30.037876659572152], [-100.80892803146592, 30.549769626015568], [-99.27452661971044, 31.91647750136201], [-98.81207898547979, 32.47225011246299], [-98.55792785903691, 32.93090400804635], [-98.25673681999018, 33.705806039694906], [-98.11271251893388, 34.385374677292226], [-98.1891115900134, 35.14924368257015], [-98.65081375519125, 35.81351182293382], [-99.44745629668395, 36.37658062478484], [-100.23564365494641, 36.577802033094194], [-101.464456576626, 36.62473845206856], [-102.03226822895924, 36.781105861519904], [-102.32642116912494, 36.99276863073607], [-102.75858029680188, 37.554396363556954], [-102.84065585759794, 37.907430615874915], [-102.74420270498705, 38.134511974845935], [-102.37034104397205, 38.462716255956565], [-101.70524926891743, 38.711817497799885], [-98.59594833909726, 39.202583762159875], [-96.66230994501998, 39.62932990354364], [-95.00079684239388, 40.29819888528977], [-90.21606935420226, 42.72692413207754], [-89.19274339224775, 43.04475319469883], [-88.5332764134577, 43.15297772284359], [-87.94095071291255, 43.131400311632255], [-87.53301197200557, 43.02868583361588], [-87.03155938493063, 42.61628354968427], [-86.78360211227559, 42.03876526276085], [-86.61471652239133, 41.243366322529475], [-86.74015335765095, 40.41405569923291], [-87.11947940749417, 39.990379912247896], [-87.59816116543824, 39.745705348954175], [-89.3290684040881, 38.526294304746784], [-90.9273188077544, 36.78922345439929], [-96.35470762771182, 29.01220789066634], [-97.45533363678685, 26.808248215737475], [-97.690198343409, 25.844586040824424], [-98.50730911539073, 26.061405645159017], [-98.28241093853211, 27.112350320014126], [-97.44604125917596, 28.862066276673037], [-94.56725798140914, 33.51197355122328], [-94.40239391143822, 33.96290432923642], [-94.39974466720875, 34.45881895816604], [-94.6168230415037, 34.864669357253945], [-94.94583127743962, 35.090172007590716], [-95.49490628346743, 35.04447688024381], [-96.20398840675834, 34.59063635558556], [-97.42720817614335, 32.99709761941383], [-99.03365461251911, 31.150846783438574], [-99.8814996625187, 29.85286019727987], [-100.01743284172231, 29.34727697737022], [-100.11094058755104, 27.88413884614514], [-99.68230337214507, 27.486844347898902], [-99.61513775919614, 27.07778280049891], [-99.28504341737016, 26.447783782747024], [-99.022487460603, 26.226393767879586], [-98.58900409203986, 26.08308333332635], [-99.02154369823629, 26.1978573266334]]]}}, {"type": "Feature", "properties": {"dn": 3, "PRODUCT": "Day 1 Excessive Rainfall Potential Forecast", "VALID_TIME": "12Z 10/01/26 - 12Z 10/02/26", "OUTLOOK": "Moderate (At Least 40%)", "ISSUE_TIME": "2026-10-01 08:11:00", "START_TIME": "2026-10-01 12:00:00", "END_TIME": "2026-10-02 12:00:00", "Snippet": "12Z 10/01/26 - 12Z 10/02/26"}, "geometry": {"type": "Polygon", "coordinates": [[[-98.50837451777718, 26.05642704115134], [-98.58900409203986, 26.08308333332635], [-99.022487460603, 26.226393767879586], [-99.28504341737016, 26.447783782747024], [-99.61513775919614, 27.07778280049891], [-99.68230337214507, 27.486844347898902], [-100.11094058755104, 27.88413884614514], [-100.01743284172231, 29.34727697737022], [-99.8814996625187, 29.85286019727987], [-99.03365461251911, 31.150846783438574], [-97.42720817614335, 32.99709761941383], [-96.20398840675834, 34.59063635558556], [-95.49490628346743, 35.04447688024381], [-94.94583127743962, 35.090172007590716], [-94.6168230415037, 34.864669357253945], [-94.39974466720875, 34.45881895816604], [-94.40239391143822, 33.96290432923642], [-94.56725798140914, 33.51197355122328], [-97.44604125917596, 28.862066276673037], [-98.28241093853211, 27.112350320014126], [-98.50730911539073, 26.061405645159017], [-98.50837451777718, 26.05642704115134]]]}}]}