{
  "type": "FeatureCollection",
  "features": [
    {
      "type": "Feature",
      "properties": {
        "dn": 1,
        "PRODUCT": "Day 2 Excessive Rainfall Potential Forecast",
        "VALID_TIME": "12Z 10/02/26 - 12Z 10/03/26",
        "OUTLOOK": "Marginal (At Least 5%)",
        "ISSUE_TIME": "2026-10-01 08:11:00",
        "START_TIME": "2026-10-02 12:00:00",
        "END_TIME": "2026-10-03 12:00:00",
        "Snippet": "12Z 10/02/26 - 12Z 10/03/26",
        "risk_norm": "MARGINAL"
      },
      "geometry": {
        "type": "Polygon",
        "coordinates": [
          [
            [
              -97.74194273594556,
              25.888736343436992
            ],
            [
              -98.3018070055462,
              25.93904479216217
            ],
            [
              -99.02147448899606,
              26.19576465427532
            ],
            [
              -99.31923441538251,
              26.446810156290802
            ],
            [
              -99.64950438576463,
              27.076734968598497
            ],
            [
              -99.71678627556554,
              27.485781642087687
            ],
            [
              -100.36404195190876,
              28.149452987360135
            ],
            [
              -100.92823854444845,
              29.087164175716314
            ],
            [
              -101.49335118859003,
              29.56531773165455
            ],
            [
              -102.0241837393526,
              29.679077841975136
            ],
            [
              -102.33806625490003,
              29.664618481651512
            ],
            [
              -102.540464226531,
              29.564651167053935
            ],
            [
              -102.67561951303752,
              29.193032910758603
            ],
            [
              -102.6993200939454,
              29.556876688341262
            ],
            [
              -102.61538835238537,
              29.8802281400305
            ],
            [
              -102.22972388275247,
              30.445325593390205
            ],
            [
              -100.2942579203044,
              32.022962273998424
            ],
            [
              -97.87423591818458,
              33.6235776642597
            ],
            [
              -94.5019672556301,
              36.077663048061034
            ],
            [
              -90.13096222412288,
              38.37393112201868
            ],
            [
              -89.1375943733576,
              38.9201609879174
            ],
            [
              -85.73945248404976,
              39.968477065339655
            ],
            [
              -83.31719029987865,
              40.487499383396404
            ],
            [
              -82.68435910466013,
              40.44477575003306
            ],
            [
              -81.51785367586363,
              40.050364870919935
            ],
            [
              -80.65729109754548,
              39.583282671972384
            ],
            [
              -80.30115373682598,
              39.241709197192606
            ],
            [
              -80.19317267432878,
              38.78719551402722
            ],
            [
              -80.28662287329358,
              38.52752363093275
            ],
            [
              -80.70251995301122,
              37.981777105003715
            ],
            [
              -81.2760014334348,
              37.4916871513662
            ],
            [
              -82.4382253455066,
              36.72884959845678
            ],
            [
              -84.44959547029042,
              35.60875209654096
            ],
            [
              -85.68044380271753,
              34.78216094252687
            ],
            [
              -87.1333602898035,
              33.638712734620206
            ],
            [
              -87.42523961325685,
              33.33584559004538
            ],
            [
              -87.67045454371714,
              32.8942596529948
            ],
            [
              -87.59231317413165,
              32.437299899204255
            ],
            [
              -87.1361757662537,
              32.053351471598354
            ],
            [
              -84.87375426973199,
              30.969916377739487
            ],
            [
              -84.47591381108163,
              30.670358045117506
            ],
            [
              -84.144331052339,
              30.23627854728726
            ],
            [
              -83.93353314865654,
              29.67350725650354
            ],
            [
              -84.08710279402948,
              29.729113279407834
            ],
            [
              -84.4813360692646,
              29.436485842805258
            ],
            [
              -84.91399175906047,
              29.282449750682755
            ],
            [
              -85.17437984791225,
              29.29915663257841
            ],
            [
              -85.68460892611208,
              29.46759498758081
            ],
            [
              -85.72344750313837,
              29.653424985947463
            ],
            [
              -85.96634164550724,
              29.894930583775515
            ],
            [
              -86.47697752494051,
              30.10603567532834
            ],
            [
              -87.70158905530097,
              29.894447696549744
            ],
            [
              -88.38566408006709,
              29.879326641562674
            ],
            [
              -88.44712950193036,
              29.700508416265503
            ],
            [
              -88.72582426544463,
              29.392829315223135
            ],
            [
              -88.6263269559462,
              29.297570372466986
            ],
            [
              -88.64102342874018,
              29.024471877489752
            ],
            [
              -88.91871418833526,
              28.715305866724048
            ],
            [
              -89.34058509721433,
              28.594433286198434
            ],
            [
              -89.69963740594949,
              28.698441485691408
            ],
            [
              -89.84552074321768,
              28.931472836935967
            ],
            [
              -90.11316001993794,
              28.757695011491165
            ],
            [
              -91.04999807871151,
              28.73885912208155
            ],
            [
              -91.6632844398196,
              29.11805931176347
            ],
            [
              -91.820891038045,
              29.075785756639466
            ],
            [
              -92.08032577742242,
              29.126467070091238
            ],
            [
              -92.1824269179349,
              29.21950606131329
            ],
            [
              -92.5476757470499,
              29.225702201592362
            ],
            [
              -93.22266304624043,
              29.462687779748723
            ],
            [
              -93.58870427310148,
              29.466435775146778
            ],
            [
              -93.74655305788035,
              29.376680902494464
            ],
            [
              -93.95557214162247,
              29.378224519021607
            ],
            [
              -94.84460576202483,
              28.880400943529136
            ],
            [
              -95.20831027943626,
              28.561200309284196
            ],
            [
              -96.44661309104285,
              27.961548732883163
            ],
            [
              -96.85231101677168,
              27.547345142825293
            ],
            [
              -97.04956838052047,
              27.042603917847618
            ],
            [
              -96.88941797420924,
              26.633653415681245
            ],
            [
              -96.77723624327665,
              25.949801960648816
            ],
            [
              -97.03061492512109,
              25.854312576223087
            ],
            [
              -97.23023106743004,
              25.668726873049444
            ],
            [
              -97.74194273594556,
              25.888736343436992
            ]
          ],
          [
            [
              -98.28458856010533,
              27.20364195903125
            ],
            [
              -98.05235351346137,
              28.167096958115717
            ],
            [
              -96.63020648815026,
              30.10263245865448
            ],
            [
              -96.21904541022296,
              31.01579933048773
            ],
            [
              -96.28004377494663,
              31.741753995947775
            ],
            [
              -96.49681829311699,
              31.967111772796958
            ],
            [
              -96.81952375493539,
              32.09978936834581
            ],
            [
              -97.78218612011003,
              32.08594694251468
            ],
            [
              -98.1539952588956,
              31.988348814424594
            ],
            [
              -98.78458504512551,
              31.657019398219838
            ],
            [
              -100.42707917696357,
              30.290301216854015
            ],
            [
              -101.11846591668272,
              29.399034092754057
            ],
            [
              -101.11122367114383,
              29.2625105221906
            ],
            [
              -100.78268474568281,
              28.955814729042018
            ],
            [
              -100.32958912180416,
              28.150653515133456
            ],
            [
              -99.68251755166942,
              27.486837747241715
            ],
            [
              -99.61535121650402,
              27.07777629222625
            ],
            [
              -99.28525578381745,
              26.44777773537773
            ],
            [
              -99.0224811688539,
              26.226203524937958
            ],
            [
              -98.30263183258398,
              25.969490600579206
            ],
            [
              -98.28458856010533,
              27.20364195903125
            ]
          ]
        ]
      }
    },
    {
      "type": "Feature",
      "properties": {
        "dn": 2,
        "PRODUCT": "Day 2 Excessive Rainfall Potential Forecast",
        "VALID_TIME": "12Z 10/02/26 - 12Z 10/03/26",
        "OUTLOOK": "Slight (At Least 15%)",
        "ISSUE_TIME": "2026-10-01 08:11:00",
        "START_TIME": "2026-10-02 12:00:00",
        "END_TIME": "2026-10-03 12:00:00",
        "Snippet": "12Z 10/02/26 - 12Z 10/03/26",
        "risk_norm": "SLIGHT"
      },
      "geometry": {
        "type": "Polygon",
        "coordinates": [
          [
            [
              -98.30263183258398,
              25.969490600579206
            ],
            [
              -99.0224811688539,
              26.226203524937958
            ],
            [
              -99.28525578381745,
              26.44777773537773
            ],
            [
              -99.61535121650402,
              27.07777629222625
            ],
            [
              -99.68251755166942,
              27.486837747241715
            ],
            [
              -100.32958912180416,
              28.150653515133456
            ],
            [
              -100.78268474568281,
              28.955814729042018
            ],
            [
              -101.11122367114383,
              29.2625105221906
            ],
            [
              -101.11846591668272,
              29.399034092754057
            ],
            [
              -100.42707917696357,
              30.290301216854015
            ],
            [
              -98.78458504512551,
              31.657019398219838
            ],
            [
              -98.1539952588956,
              31.988348814424594
            ],
            [
              -97.78218612011003,
              32.08594694251468
            ],
            [
              -96.81952375493539,
              32.09978936834581
            ],
            [
              -96.49681829311699,
              31.967111772796958
            ],
            [
              -96.28004377494663,
              31.741753995947775
            ],
            [
              -96.21904541022296,
              31.01579933048773
            ],
            [
              -96.63020648815026,
              30.10263245865448
            ],
            [
              -98.05235351346137,
              28.167096958115717
            ],
            [
              -98.28458856010533,
              27.20364195903125
            ],
            [
              -98.30263183258398,
              25.969490600579206
            ]
          ]
        ]
      }
    }
  ]
}
