{
  "type": "FeatureCollection",
  "features": [
    {
      "type": "Feature",
      "properties": {
        "dn": 1,
        "PRODUCT": "Day 1 Excessive Rainfall Potential Forecast",
        "VALID_TIME": "16Z 09/16/26 - 12Z 09/17/26",
        "OUTLOOK": "Marginal (At Least 5%)",
        "ISSUE_TIME": "2026-09-16 15:56:00",
        "START_TIME": "2026-09-16 16:00:00",
        "END_TIME": "2026-09-17 12:00:00",
        "Snippet": "16Z 09/16/26 - 12Z 09/17/26",
        "risk_norm": "MARGINAL"
      },
      "geometry": {
        "type": "Polygon",
        "coordinates": [
          [
            [
              -104.90828457938767,
              30.253446935923108
            ],
            [
              -105.028860756658,
              30.4282232571379
            ],
            [
              -106.055277882567,
              31.224775584563876
            ],
            [
              -106.50210402882288,
              31.421674705201944
            ],
            [
              -106.57207952163469,
              31.597888069269302
            ],
            [
              -107.59448227822585,
              31.656767587471624
            ],
            [
              -107.96246091385268,
              31.597367977657036
            ],
            [
              -108.07532152085008,
              31.177599435261552
            ],
            [
              -108.97266938754481,
              31.100727661809906
            ],
            [
              -110.73554955973741,
              31.117486416569804
            ],
            [
              -111.28118954581055,
              31.199311046051452
            ],
            [
              -112.85209528170842,
              31.67029696902879
            ],
            [
              -114.04233833457495,
              32.03544800438264
            ],
            [
              -114.79850930507368,
              32.340307764384605
            ],
            [
              -114.81576625926091,
              32.7501146804928
            ],
            [
              -114.65968378125434,
              33.728714361202634
            ],
            [
              -114.18318069397276,
              35.42324882657009
            ],
            [
              -114.34779221950885,
              36.35537842591245
            ],
            [
              -114.61692951556829,
              36.9115114047786
            ],
            [
              -114.68969814879733,
              37.309015665841315
            ],
            [
              -114.26080596036917,
              37.7643116518106
            ],
            [
              -113.15693662852378,
              38.289122234128946
            ],
            [
              -112.62896284127577,
              38.87998504761659
            ],
            [
              -112.44712373438757,
              39.166218646714746
            ],
            [
              -112.35022948799168,
              39.62146742222481
            ],
            [
              -112.58242848599559,
              40.30940054867923
            ],
            [
              -112.56250513641871,
              40.533070655683275
            ],
            [
              -112.27633563838225,
              40.91606976167593
            ],
            [
              -111.33918184051826,
              41.26897986389487
            ],
            [
              -108.5588599674649,
              41.4999429682439
            ],
            [
              -107.85084155830585,
              41.46392051160336
            ],
            [
              -107.06454315027203,
              41.25471374648331
            ],
            [
              -106.14187623700087,
              40.83060130436613
            ],
            [
              -105.64199331646608,
              40.50783183690383
            ],
            [
              -105.1121254137517,
              39.83244495921673
            ],
            [
              -104.8676418811391,
              39.67026247661095
            ],
            [
              -104.39434386143873,
              39.519170036558464
            ],
            [
              -103.70897428944411,
              39.55451285935261
            ],
            [
              -102.75693792320995,
              39.86428269525724
            ],
            [
              -100.73526345510669,
              40.73396249237583
            ],
            [
              -100.28590994296849,
              41.01117326832834
            ],
            [
              -99.25585852945039,
              41.3889545503469
            ],
            [
              -97.81004827142095,
              41.81046270649667
            ],
            [
              -95.82312182080803,
              42.179004535700564
            ],
            [
              -94.58786661389762,
              42.61525517199355
            ],
            [
              -93.70018344635069,
              42.82815127082609
            ],
            [
              -91.26079353303435,
              43.22829852935701
            ],
            [
              -86.45759460498998,
              43.112834442504905
            ],
            [
              -84.64756975913456,
              42.80314774447437
            ],
            [
              -82.37439108925312,
              42.48678786658539
            ],
            [
              -82.88485609396244,
              42.170957840231544
            ],
            [
              -82.90579323105966,
              41.99738564827912
            ],
            [
              -82.74756275819861,
              41.85631426876429
            ],
            [
              -82.39235217823789,
              41.875798427322366
            ],
            [
              -81.57689566473161,
              42.25523132822546
            ],
            [
              -81.45992010291504,
              42.24659259151886
            ],
            [
              -80.34201644972634,
              41.8093796979097
            ],
            [
              -80.01885538516518,
              41.607210718599774
            ],
            [
              -79.61314993124076,
              41.1759712995409
            ],
            [
              -79.48831467675429,
              40.45857620752053
            ],
            [
              -79.74480758148252,
              39.90493627682046
            ],
            [
              -80.09335092828955,
              39.49087533124921
            ],
            [
              -80.60915003786856,
              39.08944276226609
            ],
            [
              -81.099007766662,
              38.8613027339842
            ],
            [
              -82.09395774052587,
              38.67101147554052
            ],
            [
              -83.29644506808965,
              38.62289616288393
            ],
            [
              -85.56881879223724,
              38.67254745877788
            ],
            [
              -90.27710848823814,
              38.90869306821455
            ],
            [
              -95.17051661005914,
              38.30739991472799
            ],
            [
              -96.63941867046508,
              38.1664128927545
            ],
            [
              -97.60089167250594,
              38.19903599693323
            ],
            [
              -98.6239549267346,
              38.35831813255793
            ],
            [
              -99.64226318042437,
              38.33396314893641
            ],
            [
              -100.48130718359691,
              38.131509266730674
            ],
            [
              -101.14307565296686,
              37.842040298464525
            ],
            [
              -101.6862660693539,
              37.50960186202705
            ],
            [
              -102.26893769360518,
              36.99524229235147
            ],
            [
              -102.67108204572207,
              36.35054775411475
            ],
            [
              -102.84555054010605,
              34.9039356067887
            ],
            [
              -103.12795913440812,
              34.25866099793031
            ],
            [
              -103.94135639964122,
              32.8129095217798
            ],
            [
              -104.16260177587819,
              32.2103775239106
            ],
            [
              -104.1617689451848,
              31.52856121130038
            ],
            [
              -104.0553517692332,
              30.851888337225816
            ],
            [
              -104.32481165745858,
              30.243650360318274
            ],
            [
              -104.75669327581126,
              29.714476080851096
            ],
            [
              -104.87761417462117,
              29.890359737728467
            ],
            [
              -104.90828457938767,
              30.253446935923108
            ]
          ],
          [
            [
              -108.06133229003933,
              31.528770695221137
            ],
            [
              -107.96585227245663,
              31.627482834813662
            ],
            [
              -107.75320492918486,
              31.64501115743435
            ],
            [
              -107.73014359726788,
              31.92024086531353
            ],
            [
              -107.55200121524027,
              32.253065990257895
            ],
            [
              -107.14967507437055,
              32.51110224228021
            ],
            [
              -106.24461986782354,
              32.6225268741156
            ],
            [
              -105.63426909482293,
              32.436969956534384
            ],
            [
              -105.3133019811866,
              32.45793703577758
            ],
            [
              -104.74770856228012,
              32.765658568092334
            ],
            [
              -104.34746182732563,
              33.15260761921763
            ],
            [
              -103.87231466963915,
              33.99405819182924
            ],
            [
              -103.87498977228091,
              34.716485716944874
            ],
            [
              -104.32124816411135,
              35.45800959702698
            ],
            [
              -104.47633514079729,
              36.61730152089363
            ],
            [
              -105.11063018645777,
              37.431228869348594
            ],
            [
              -106.61895594168486,
              38.36224809121471
            ],
            [
              -107.73967639043686,
              39.17355962487376
            ],
            [
              -108.58024899374489,
              39.909093111935206
            ],
            [
              -109.4026950667274,
              40.41982291482974
            ],
            [
              -110.24470065227796,
              40.61480719601807
            ],
            [
              -110.81916467671495,
              40.56460943878093
            ],
            [
              -111.25757917501338,
              40.392184259522296
            ],
            [
              -111.50945151425644,
              40.14678130713526
            ],
            [
              -111.4619536025792,
              39.484798554993034
            ],
            [
              -111.61989462818767,
              38.66714825405874
            ],
            [
              -112.11822268562757,
              38.21618487740525
            ],
            [
              -112.59344157414544,
              37.98877071239293
            ],
            [
              -113.46465432104365,
              37.762098776250774
            ],
            [
              -113.67222028381633,
              37.64956837701346
            ],
            [
              -113.85645778011435,
              37.40381118874997
            ],
            [
              -113.81111160390562,
              36.822972467799346
            ],
            [
              -113.45891285970174,
              36.41061125502354
            ],
            [
              -113.3762502502676,
              35.92240476679585
            ],
            [
              -113.58229056772218,
              35.49186449075181
            ],
            [
              -113.71868282052175,
              34.65936154832416
            ],
            [
              -114.04480188636295,
              33.984475939745195
            ],
            [
              -114.17580838173856,
              33.46743119078548
            ],
            [
              -114.21419551336147,
              32.73198501519787
            ],
            [
              -114.10837079808815,
              32.10413921311159
            ],
            [
              -111.28543081305303,
              31.22937026588354
            ],
            [
              -110.73964644654218,
              31.1475647572386
            ],
            [
              -108.97630849782487,
              31.130850032815246
            ],
            [
              -108.07872992934661,
              31.207737299743084
            ],
            [
              -108.06133229003933,
              31.528770695221137
            ]
          ],
          [
            [
              -93.80165767479268,
              39.27877003560569
            ],
            [
              -92.36661507588951,
              39.572438013338704
            ],
            [
              -88.67605387717315,
              39.96422850007988
            ],
            [
              -82.8922785248466,
              39.66171421396333
            ],
            [
              -81.46092280570308,
              39.6014718371204
            ],
            [
              -80.98741603110497,
              39.697397847421705
            ],
            [
              -80.73464132732656,
              39.854912146314994
            ],
            [
              -80.57164820430212,
              40.19608103667782
            ],
            [
              -80.61909743366623,
              40.686256930706755
            ],
            [
              -80.91096066977296,
              41.106843703015656
            ],
            [
              -81.51823972480415,
              41.37344933664926
            ],
            [
              -82.37224091762347,
              41.567027921919724
            ],
            [
              -83.40929846575064,
              41.724134324320076
            ],
            [
              -87.61049391545963,
              41.98728731391638
            ],
            [
              -89.88425733484029,
              42.28311605854614
            ],
            [
              -91.17729733274315,
              42.31465543196299
            ],
            [
              -93.35625889469944,
              42.17303609369468
            ],
            [
              -94.53173012417683,
              42.00556284864789
            ],
            [
              -95.87653442406796,
              41.5676346740838
            ],
            [
              -96.34067678074891,
              41.30197492195893
            ],
            [
              -96.62621163747839,
              40.949180575923975
            ],
            [
              -96.61583389341737,
              40.2904142140547
            ],
            [
              -96.32081452396588,
              39.76417013491698
            ],
            [
              -95.68659764536194,
              39.36993833930496
            ],
            [
              -95.11494661938517,
              39.238611467245924
            ],
            [
              -93.80165767479268,
              39.27877003560569
            ]
          ]
        ]
      }
    },
    {
      "type": "Feature",
      "properties": {
        "dn": 2,
        "PRODUCT": "Day 1 Excessive Rainfall Potential Forecast",
        "VALID_TIME": "16Z 09/16/26 - 12Z 09/17/26",
        "OUTLOOK": "Slight (At Least 15%)",
        "ISSUE_TIME": "2026-09-16 15:56:00",
        "START_TIME": "2026-09-16 16:00:00",
        "END_TIME": "2026-09-17 12:00:00",
        "Snippet": "16Z 09/16/26 - 12Z 09/17/26",
        "risk_norm": "SLIGHT"
      },
      "geometry": {
        "type": "Polygon",
        "coordinates": [
          [
            [
              -111.28543081305303,
              31.22937026588354
            ],
            [
              -114.10837079808815,
              32.10413921311159
            ],
            [
              -114.21419551336147,
              32.73198501519787
            ],
            [
              -114.17580838173856,
              33.46743119078548
            ],
            [
              -114.04480188636295,
              33.984475939745195
            ],
            [
              -113.71868282052175,
              34.65936154832416
            ],
            [
              -113.58229056772218,
              35.49186449075181
            ],
            [
              -113.3762502502676,
              35.92240476679585
            ],
            [
              -113.45891285970174,
              36.41061125502354
            ],
            [
              -113.81111160390562,
              36.822972467799346
            ],
            [
              -113.85645778011435,
              37.40381118874997
            ],
            [
              -113.67222028381633,
              37.64956837701346
            ],
            [
              -113.46465432104365,
              37.762098776250774
            ],
            [
              -112.59344157414544,
              37.98877071239293
            ],
            [
              -112.11822268562757,
              38.21618487740525
            ],
            [
              -111.61989462818767,
              38.66714825405874
            ],
            [
              -111.4619536025792,
              39.484798554993034
            ],
            [
              -111.50945151425644,
              40.14678130713526
            ],
            [
              -111.25757917501338,
              40.392184259522296
            ],
            [
              -110.81916467671495,
              40.56460943878093
            ],
            [
              -110.24470065227796,
              40.61480719601807
            ],
            [
              -109.4026950667274,
              40.41982291482974
            ],
            [
              -108.58024899374489,
              39.909093111935206
            ],
            [
              -107.73967639043686,
              39.17355962487376
            ],
            [
              -106.61895594168486,
              38.36224809121471
            ],
            [
              -105.11063018645777,
              37.431228869348594
            ],
            [
              -104.47633514079729,
              36.61730152089363
            ],
            [
              -104.32124816411135,
              35.45800959702698
            ],
            [
              -103.87498977228091,
              34.716485716944874
            ],
            [
              -103.87231466963915,
              33.99405819182924
            ],
            [
              -104.34746182732563,
              33.15260761921763
            ],
            [
              -104.74770856228012,
              32.765658568092334
            ],
            [
              -105.3133019811866,
              32.45793703577758
            ],
            [
              -105.63426909482293,
              32.436969956534384
            ],
            [
              -106.24461986782354,
              32.6225268741156
            ],
            [
              -107.14967507437055,
              32.51110224228021
            ],
            [
              -107.55200121524027,
              32.253065990257895
            ],
            [
              -107.73014359726788,
              31.92024086531353
            ],
            [
              -107.75320492918486,
              31.64501115743435
            ],
            [
              -107.96585227245663,
              31.627482834813662
            ],
            [
              -108.06133229003933,
              31.528770695221137
            ],
            [
              -108.07872992934661,
              31.207737299743084
            ],
            [
              -108.97630849782487,
              31.130850032815246
            ],
            [
              -110.73964644654218,
              31.1475647572386
            ],
            [
              -111.28543081305303,
              31.22937026588354
            ]
          ],
          [
            [
              -110.43860250714903,
              32.09088164569581
            ],
            [
              -110.16129022031781,
              32.43687065797221
            ],
            [
              -109.9953962263446,
              32.816929448040746
            ],
            [
              -109.64603953565704,
              34.302861898112106
            ],
            [
              -109.85043460948977,
              34.6016879622921
            ],
            [
              -110.32858760732533,
              34.87499723460852
            ],
            [
              -110.93389640192486,
              34.862775527479414
            ],
            [
              -111.77716770938747,
              34.59738949523021
            ],
            [
              -112.1834787436709,
              34.37361244293196
            ],
            [
              -112.60003830023138,
              33.874262001914914
            ],
            [
              -113.01615310461298,
              33.05369351001358
            ],
            [
              -112.99108210379896,
              32.554272994715134
            ],
            [
              -112.73604875151452,
              32.3086450803523
            ],
            [
              -112.03063221485016,
              31.92844605474768
            ],
            [
              -111.25626601035012,
              31.781102057181826
            ],
            [
              -110.88541733992247,
              31.818639685026664
            ],
            [
              -110.43860250714903,
              32.09088164569581
            ]
          ],
          [
            [
              -105.24684677151664,
              32.916450956596535
            ],
            [
              -105.09368573457797,
              33.01683897190706
            ],
            [
              -105.01379964012959,
              33.33935062257895
            ],
            [
              -105.22765172196985,
              34.50249550877371
            ],
            [
              -105.46264652987776,
              34.668542103659206
            ],
            [
              -105.6765416144112,
              34.60963161961599
            ],
            [
              -105.77275080879004,
              34.467626436238106
            ],
            [
              -105.78378233535733,
              34.01467567430211
            ],
            [
              -105.907096130577,
              33.5989331752464
            ],
            [
              -105.79270108913623,
              32.9717696270364
            ],
            [
              -105.62281881070318,
              32.892107208192485
            ],
            [
              -105.24684677151664,
              32.916450956596535
            ]
          ]
        ]
      }
    },
    {
      "type": "Feature",
      "properties": {
        "dn": 2,
        "PRODUCT": "Day 1 Excessive Rainfall Potential Forecast",
        "VALID_TIME": "16Z 09/16/26 - 12Z 09/17/26",
        "OUTLOOK": "Slight (At Least 15%)",
        "ISSUE_TIME": "2026-09-16 15:56:00",
        "START_TIME": "2026-09-16 16:00:00",
        "END_TIME": "2026-09-17 12:00:00",
        "Snippet": "16Z 09/16/26 - 12Z 09/17/26",
        "risk_norm": "SLIGHT"
      },
      "geometry": {
        "type": "Polygon",
        "coordinates": [
          [
            [
              -95.11494661938517,
              39.238611467245924
            ],
            [
              -95.68659764536194,
              39.36993833930496
            ],
            [
              -96.32081452396588,
              39.76417013491698
            ],
            [
              -96.61583389341737,
              40.2904142140547
            ],
            [
              -96.62621163747839,
              40.949180575923975
            ],
            [
              -96.34067678074891,
              41.30197492195893
            ],
            [
              -95.87653442406796,
              41.5676346740838
            ],
            [
              -94.53173012417683,
              42.00556284864789
            ],
            [
              -93.35625889469944,
              42.17303609369468
            ],
            [
              -91.17729733274315,
              42.31465543196299
            ],
            [
              -89.88425733484029,
              42.28311605854614
            ],
            [
              -87.61049391545963,
              41.98728731391638
            ],
            [
              -83.40929846575064,
              41.724134324320076
            ],
            [
              -82.37224091762347,
              41.567027921919724
            ],
            [
              -81.51823972480415,
              41.37344933664926
            ],
            [
              -80.91096066977296,
              41.106843703015656
            ],
            [
              -80.61909743366623,
              40.686256930706755
            ],
            [
              -80.57164820430212,
              40.19608103667782
            ],
            [
              -80.73464132732656,
              39.854912146314994
            ],
            [
              -80.98741603110497,
              39.697397847421705
            ],
            [
              -81.46092280570308,
              39.6014718371204
            ],
            [
              -82.8922785248466,
              39.66171421396333
            ],
            [
              -88.67605387717315,
              39.96422850007988
            ],
            [
              -92.36661507588951,
              39.572438013338704
            ],
            [
              -93.80165767479268,
              39.27877003560569
            ],
            [
              -95.11494661938517,
              39.238611467245924
            ]
          ]
        ]
      }
    },
    {
      "type": "Feature",
      "properties": {
        "dn": 3,
        "PRODUCT": "Day 1 Excessive Rainfall Potential Forecast",
        "VALID_TIME": "16Z 09/16/26 - 12Z 09/17/26",
        "OUTLOOK": "Moderate (At Least 40%)",
        "ISSUE_TIME": "2026-09-16 15:56:00",
        "START_TIME": "2026-09-16 16:00:00",
        "END_TIME": "2026-09-17 12:00:00",
        "Snippet": "16Z 09/16/26 - 12Z 09/17/26",
        "risk_norm": "MODERATE"
      },
      "geometry": {
        "type": "Polygon",
        "coordinates": [
          [
            [
              -111.25626601035012,
              31.781102057181826
            ],
            [
              -112.03063221485016,
              31.92844605474768
            ],
            [
              -112.73604875151452,
              32.3086450803523
            ],
            [
              -112.99108210379896,
              32.554272994715134
            ],
            [
              -113.01615310461298,
              33.05369351001358
            ],
            [
              -112.60003830023138,
              33.874262001914914
            ],
            [
              -112.1834787436709,
              34.37361244293196
            ],
            [
              -111.77716770938747,
              34.59738949523021
            ],
            [
              -110.93389640192486,
              34.862775527479414
            ],
            [
              -110.32858760732533,
              34.87499723460852
            ],
            [
              -109.85043460948977,
              34.6016879622921
            ],
            [
              -109.64603953565704,
              34.302861898112106
            ],
            [
              -109.9953962263446,
              32.816929448040746
            ],
            [
              -110.16129022031781,
              32.43687065797221
            ],
            [
              -110.43860250714903,
              32.09088164569581
            ],
            [
              -110.88541733992247,
              31.818639685026664
            ],
            [
              -111.25626601035012,
              31.781102057181826
            ]
          ]
        ]
      }
    },
    {
      "type": "Feature",
      "properties": {
        "dn": 3,
        "PRODUCT": "Day 1 Excessive Rainfall Potential Forecast",
        "VALID_TIME": "16Z 09/16/26 - 12Z 09/17/26",
        "OUTLOOK": "Moderate (At Least 40%)",
        "ISSUE_TIME": "2026-09-16 15:56:00",
        "START_TIME": "2026-09-16 16:00:00",
        "END_TIME": "2026-09-17 12:00:00",
        "Snippet": "16Z 09/16/26 - 12Z 09/17/26",
        "risk_norm": "MODERATE"
      },
      "geometry": {
        "type": "Polygon",
        "coordinates": [
          [
            [
              -105.62281881070318,
              32.892107208192485
            ],
            [
              -105.79270108913623,
              32.9717696270364
            ],
            [
              -105.907096130577,
              33.5989331752464
            ],
            [
              -105.78378233535733,
              34.01467567430211
            ],
            [
              -105.77275080879004,
              34.467626436238106
            ],
            [
              -105.6765416144112,
              34.60963161961599
            ],
            [
              -105.46264652987776,
              34.668542103659206
            ],
            [
              -105.22765172196985,
              34.50249550877371
            ],
            [
              -105.01379964012959,
              33.33935062257895
            ],
            [
              -105.09368573457797,
              33.01683897190706
            ],
            [
              -105.24684677151664,
              32.916450956596535
            ],
            [
              -105.62281881070318,
              32.892107208192485
            ]
          ]
        ]
      }
    }
  ]
}
