{
  "type": "FeatureCollection",
  "features": [
    {
      "type": "Feature",
      "properties": {
        "dn": 1,
        "PRODUCT": "Day 2 Excessive Rainfall Potential Forecast",
        "VALID_TIME": "12Z 09/17/26 - 12Z 09/18/26",
        "OUTLOOK": "Marginal (At Least 5%)",
        "ISSUE_TIME": "2026-09-16 07:41:00",
        "START_TIME": "2026-09-17 12:00:00",
        "END_TIME": "2026-09-18 12:00:00",
        "Snippet": "12Z 09/17/26 - 12Z 09/18/26",
        "risk_norm": "MARGINAL"
      },
      "geometry": {
        "type": "Polygon",
        "coordinates": [
          [
            [
              -110.95653789383776,
              31.17089174187611
            ],
            [
              -111.01666687522015,
              31.21144764563229
            ],
            [
              -110.8709147643652,
              32.09421955140701
            ],
            [
              -110.93365836208909,
              32.544189811305955
            ],
            [
              -111.0975740405522,
              32.938051134282745
            ],
            [
              -111.56393857795679,
              33.5283423605721
            ],
            [
              -112.04700799332062,
              33.841354684666676
            ],
            [
              -112.26942056478013,
              33.863346617457694
            ],
            [
              -112.57512850933614,
              34.05894923650846
            ],
            [
              -112.72563227037301,
              34.315478648446415
            ],
            [
              -112.90563659356407,
              34.7501972380749
            ],
            [
              -113.03643156503279,
              35.55223121597913
            ],
            [
              -112.9671953792596,
              36.14789756886052
            ],
            [
              -113.06638771381243,
              36.408260073042996
            ],
            [
              -113.31542913437355,
              36.56092287814806
            ],
            [
              -114.08008545746137,
              36.74753956233352
            ],
            [
              -114.22992180597439,
              36.95613692019625
            ],
            [
              -114.27744499236145,
              37.221275589132226
            ],
            [
              -113.87163219909553,
              37.493043959281515
            ],
            [
              -112.7803174824922,
              37.74546938635247
            ],
            [
              -112.31376313808923,
              38.0177484129113
            ],
            [
              -111.8176872062918,
              38.46917495080314
            ],
            [
              -111.64131856804138,
              38.79908091789449
            ],
            [
              -111.70370696746139,
              39.550869527990116
            ],
            [
              -111.61727271300846,
              40.09229216376759
            ],
            [
              -111.27742557726351,
              40.87651914276113
            ],
            [
              -110.77453468967231,
              41.40754763622763
            ],
            [
              -110.21489604289094,
              41.587662724933466
            ],
            [
              -109.32539764180216,
              41.528589012077866
            ],
            [
              -107.70740706090403,
              41.25439149803859
            ],
            [
              -107.01172122456485,
              41.30218683555307
            ],
            [
              -106.64164951723095,
              41.63276946940605
            ],
            [
              -106.54656822890756,
              42.33884405182698
            ],
            [
              -106.30737238621693,
              42.83323357311046
            ],
            [
              -104.78306768892635,
              44.21966553976944
            ],
            [
              -103.81262021834328,
              44.783305746623796
            ],
            [
              -102.16443837954837,
              45.36570844658054
            ],
            [
              -98.36638047303747,
              46.1496872391469
            ],
            [
              -96.16685718154943,
              46.42929621628149
            ],
            [
              -94.7553666859732,
              46.43260507793626
            ],
            [
              -94.14245037098324,
              46.346232795770455
            ],
            [
              -93.40961156805233,
              46.17217749655959
            ],
            [
              -92.31911184274955,
              45.77805970494004
            ],
            [
              -90.82876988066165,
              44.982910738202854
            ],
            [
              -90.61063140697082,
              44.46366112859362
            ],
            [
              -90.32682541285463,
              44.11292591044401
            ],
            [
              -89.52398408290468,
              43.48815861285541
            ],
            [
              -88.4118798653194,
              43.19247635927609
            ],
            [
              -85.65403215344489,
              42.813390429583166
            ],
            [
              -83.60794563055424,
              42.04355705534217
            ],
            [
              -82.92251091133191,
              41.86803690877835
            ],
            [
              -82.21745390789165,
              41.86356691886944
            ],
            [
              -80.9398672351448,
              42.16348161998136
            ],
            [
              -79.00050261263571,
              42.83516515831595
            ],
            [
              -77.77378247979036,
              43.379259809944244
            ],
            [
              -77.3969909790045,
              43.47462704479685
            ],
            [
              -76.268930288251,
              43.407808074581105
            ],
            [
              -75.60402609573094,
              43.1199606809785
            ],
            [
              -75.64621991991315,
              42.90554807735008
            ],
            [
              -75.7967864855116,
              42.74609233932067
            ],
            [
              -76.27954557150636,
              42.401321767083374
            ],
            [
              -76.87658079666399,
              42.06548035250685
            ],
            [
              -77.24857550023421,
              41.9703578388673
            ],
            [
              -77.77925548827417,
              41.62651347508288
            ],
            [
              -78.24950564442246,
              40.92111392994134
            ],
            [
              -78.92996239613696,
              39.565727727901326
            ],
            [
              -80.09199488579148,
              37.884964325170166
            ],
            [
              -80.65118997370371,
              37.52890001787203
            ],
            [
              -81.16552013938386,
              37.48185035540956
            ],
            [
              -81.61247951648976,
              37.51757064799205
            ],
            [
              -82.04364272699593,
              37.6851384035091
            ],
            [
              -84.9521781770302,
              39.17088307907167
            ],
            [
              -85.39929707417444,
              39.2847129426876
            ],
            [
              -89.55139988992522,
              39.72816404887412
            ],
            [
              -90.58683591021959,
              39.668839419487234
            ],
            [
              -92.19132054783559,
              39.701734543631126
            ],
            [
              -93.22096087347447,
              39.847476966568905
            ],
            [
              -94.13808565035895,
              40.03063403614749
            ],
            [
              -95.75166846803835,
              40.47119370904621
            ],
            [
              -97.79671646250739,
              41.328173608811284
            ],
            [
              -98.79463915433811,
              41.52869499910782
            ],
            [
              -100.89620018989878,
              41.51617104518286
            ],
            [
              -102.10463440996227,
              41.25371061306231
            ],
            [
              -102.61128847065315,
              41.01365354050725
            ],
            [
              -103.10863389764026,
              40.68422563552915
            ],
            [
              -103.7520943247827,
              40.08180358353237
            ],
            [
              -104.16471945799383,
              39.53042684899089
            ],
            [
              -104.4026060865854,
              38.98589903549687
            ],
            [
              -104.50121429133587,
              38.18012124707182
            ],
            [
              -104.3492941253851,
              36.445027770043886
            ],
            [
              -104.0568002517954,
              35.60761327636039
            ],
            [
              -103.93321051532185,
              34.08114751767894
            ],
            [
              -103.98056317704324,
              33.309314715831945
            ],
            [
              -104.10247228220435,
              32.80388476347642
            ],
            [
              -104.2452196999828,
              32.56887864485612
            ],
            [
              -105.394656998519,
              31.589166527393292
            ],
            [
              -105.5614262465007,
              31.077189896171628
            ],
            [
              -105.53769023063707,
              30.804404455106397
            ],
            [
              -106.055277882567,
              31.224775584563876
            ],
            [
              -106.50210402882288,
              31.421674705201944
            ],
            [
              -106.57207952163469,
              31.597888069269302
            ],
            [
              -106.78893953024682,
              31.62748502168065
            ],
            [
              -107.96246091385268,
              31.597367977657036
            ],
            [
              -108.07532152085008,
              31.177599435261552
            ],
            [
              -109.5056158029096,
              31.09829811405745
            ],
            [
              -109.80186344572574,
              31.14391472744886
            ],
            [
              -108.97630849782487,
              31.130850032815246
            ],
            [
              -108.07872992934661,
              31.207737299743084
            ],
            [
              -108.06133229003933,
              31.528770695221137
            ],
            [
              -107.96585227245663,
              31.627482834813662
            ],
            [
              -107.43047824338186,
              31.624728225883075
            ],
            [
              -107.1018002466886,
              32.05979457159817
            ],
            [
              -106.01293349490516,
              32.45684378412668
            ],
            [
              -105.1353471170334,
              32.877855881770124
            ],
            [
              -104.88590436753809,
              33.12057168439836
            ],
            [
              -104.62415959371897,
              33.860984042438425
            ],
            [
              -104.49388994758827,
              35.53825807786047
            ],
            [
              -104.64696320530875,
              36.652457857613356
            ],
            [
              -104.85007869937155,
              37.04392179111467
            ],
            [
              -106.80835236053711,
              39.54959594336761
            ],
            [
              -107.32685063775612,
              40.04541290615225
            ],
            [
              -107.82363912575488,
              40.32002337952419
            ],
            [
              -108.5065652320893,
              40.22505656581679
            ],
            [
              -109.36846299680728,
              39.75825867616105
            ],
            [
              -109.775221506159,
              39.36868035870156
            ],
            [
              -109.94582415310222,
              38.953549082838826
            ],
            [
              -109.83389432580124,
              38.159815209210365
            ],
            [
              -109.52035785244276,
              37.111549692292755
            ],
            [
              -108.98667840720711,
              36.03237946375191
            ],
            [
              -108.97336061025766,
              35.492310024658465
            ],
            [
              -109.33333220977923,
              35.281360416048294
            ],
            [
              -111.07523031377991,
              35.075780628320274
            ],
            [
              -111.46524540103292,
              34.71954889223725
            ],
            [
              -111.58148340103884,
              34.390207536014465
            ],
            [
              -111.34013666854239,
              33.869438787252946
            ],
            [
              -110.29388530738086,
              33.01645662624774
            ],
            [
              -109.91308520897539,
              32.596882738281145
            ],
            [
              -109.76040149082766,
              31.836019534590456
            ],
            [
              -109.8316869864751,
              31.1485069966578
            ],
            [
              -109.99550825996032,
              31.173732418290946
            ],
            [
              -110.95653789383776,
              31.17089174187611
            ]
          ],
          [
            [
              -104.32524538067621,
              40.66925759950648
            ],
            [
              -103.87463551791143,
              40.82417912488226
            ],
            [
              -103.60327334406466,
              41.05753775795583
            ],
            [
              -102.75508698041058,
              42.14623305740841
            ],
            [
              -102.20048150224595,
              42.604001833053154
            ],
            [
              -101.68479396868719,
              42.840711974673404
            ],
            [
              -99.74925950908215,
              43.20394794876454
            ],
            [
              -97.91253442310249,
              43.32829918887251
            ],
            [
              -97.320472739481,
              43.42307359615976
            ],
            [
              -94.70327207808822,
              43.4804630524758
            ],
            [
              -94.10739903560267,
              43.564939445833666
            ],
            [
              -93.68642459764257,
              43.8217298699519
            ],
            [
              -93.50332633039314,
              44.07877075190096
            ],
            [
              -93.49534934894166,
              44.59419592057785
            ],
            [
              -93.67238471716855,
              44.85257388923744
            ],
            [
              -94.2736235294359,
              45.240937149890804
            ],
            [
              -95.4263828987606,
              45.54032045812076
            ],
            [
              -96.6450960860043,
              45.70409248196445
            ],
            [
              -100.114124090497,
              45.643651677287906
            ],
            [
              -101.38214961054645,
              45.47810565240439
            ],
            [
              -102.15799935733395,
              45.28007853764125
            ],
            [
              -103.03347066672795,
              44.86015250911167
            ],
            [
              -103.6504478837571,
              44.31710163870481
            ],
            [
              -104.34616109522484,
              43.42009886060394
            ],
            [
              -104.95318772365711,
              42.34514866335022
            ],
            [
              -105.3731685610325,
              41.2714449078893
            ],
            [
              -105.33326103838671,
              40.87826355486623
            ],
            [
              -105.14181984661643,
              40.71276508715011
            ],
            [
              -104.84470543538038,
              40.641349446605325
            ],
            [
              -104.32524538067621,
              40.66925759950648
            ]
          ]
        ]
      }
    },
    {
      "type": "Feature",
      "properties": {
        "dn": 2,
        "PRODUCT": "Day 2 Excessive Rainfall Potential Forecast",
        "VALID_TIME": "12Z 09/17/26 - 12Z 09/18/26",
        "OUTLOOK": "Slight (At Least 15%)",
        "ISSUE_TIME": "2026-09-16 07:41:00",
        "START_TIME": "2026-09-17 12:00:00",
        "END_TIME": "2026-09-18 12:00:00",
        "Snippet": "12Z 09/17/26 - 12Z 09/18/26",
        "risk_norm": "SLIGHT"
      },
      "geometry": {
        "type": "Polygon",
        "coordinates": [
          [
            [
              -108.97630849782487,
              31.130850032815246
            ],
            [
              -109.83211350459752,
              31.14439344516815
            ],
            [
              -109.76040149082766,
              31.836019534590456
            ],
            [
              -109.91308520897539,
              32.596882738281145
            ],
            [
              -110.29388530738086,
              33.01645662624774
            ],
            [
              -111.34013666854239,
              33.869438787252946
            ],
            [
              -111.58148340103884,
              34.390207536014465
            ],
            [
              -111.46524540103292,
              34.71954889223725
            ],
            [
              -111.07523031377991,
              35.075780628320274
            ],
            [
              -109.33333220977923,
              35.281360416048294
            ],
            [
              -108.97336061025766,
              35.492310024658465
            ],
            [
              -108.98667840720711,
              36.03237946375191
            ],
            [
              -109.52035785244276,
              37.111549692292755
            ],
            [
              -109.83389432580124,
              38.159815209210365
            ],
            [
              -109.94582415310222,
              38.953549082838826
            ],
            [
              -109.775221506159,
              39.36868035870156
            ],
            [
              -109.36846299680728,
              39.75825867616105
            ],
            [
              -108.5065652320893,
              40.22505656581679
            ],
            [
              -107.82363912575488,
              40.32002337952419
            ],
            [
              -107.32685063775612,
              40.04541290615225
            ],
            [
              -106.80835236053711,
              39.54959594336761
            ],
            [
              -104.85007869937155,
              37.04392179111467
            ],
            [
              -104.64696320530875,
              36.652457857613356
            ],
            [
              -104.49388994758827,
              35.53825807786047
            ],
            [
              -104.62415959371897,
              33.860984042438425
            ],
            [
              -104.88590436753809,
              33.12057168439836
            ],
            [
              -105.1353471170334,
              32.877855881770124
            ],
            [
              -106.01293349490516,
              32.45684378412668
            ],
            [
              -107.1018002466886,
              32.05979457159817
            ],
            [
              -107.43047824338186,
              31.624728225883075
            ],
            [
              -107.96585227245663,
              31.627482834813662
            ],
            [
              -108.06133229003933,
              31.528770695221137
            ],
            [
              -108.07872992934661,
              31.207737299743084
            ],
            [
              -108.97630849782487,
              31.130850032815246
            ]
          ]
        ]
      }
    },
    {
      "type": "Feature",
      "properties": {
        "dn": 2,
        "PRODUCT": "Day 2 Excessive Rainfall Potential Forecast",
        "VALID_TIME": "12Z 09/17/26 - 12Z 09/18/26",
        "OUTLOOK": "Slight (At Least 15%)",
        "ISSUE_TIME": "2026-09-16 07:41:00",
        "START_TIME": "2026-09-17 12:00:00",
        "END_TIME": "2026-09-18 12:00:00",
        "Snippet": "12Z 09/17/26 - 12Z 09/18/26",
        "risk_norm": "SLIGHT"
      },
      "geometry": {
        "type": "Polygon",
        "coordinates": [
          [
            [
              -104.84470543538038,
              40.641349446605325
            ],
            [
              -105.14181984661643,
              40.71276508715011
            ],
            [
              -105.33326103838671,
              40.87826355486623
            ],
            [
              -105.3731685610325,
              41.2714449078893
            ],
            [
              -104.95318772365711,
              42.34514866335022
            ],
            [
              -104.34616109522484,
              43.42009886060394
            ],
            [
              -103.6504478837571,
              44.31710163870481
            ],
            [
              -103.03347066672795,
              44.86015250911167
            ],
            [
              -102.15799935733395,
              45.28007853764125
            ],
            [
              -101.38214961054645,
              45.47810565240439
            ],
            [
              -100.114124090497,
              45.643651677287906
            ],
            [
              -96.6450960860043,
              45.70409248196445
            ],
            [
              -95.4263828987606,
              45.54032045812076
            ],
            [
              -94.2736235294359,
              45.240937149890804
            ],
            [
              -93.67238471716855,
              44.85257388923744
            ],
            [
              -93.49534934894166,
              44.59419592057785
            ],
            [
              -93.50332633039314,
              44.07877075190096
            ],
            [
              -93.68642459764257,
              43.8217298699519
            ],
            [
              -94.10739903560267,
              43.564939445833666
            ],
            [
              -94.70327207808822,
              43.4804630524758
            ],
            [
              -97.320472739481,
              43.42307359615976
            ],
            [
              -97.91253442310249,
              43.32829918887251
            ],
            [
              -99.74925950908215,
              43.20394794876454
            ],
            [
              -101.68479396868719,
              42.840711974673404
            ],
            [
              -102.20048150224595,
              42.604001833053154
            ],
            [
              -102.75508698041058,
              42.14623305740841
            ],
            [
              -103.60327334406466,
              41.05753775795583
            ],
            [
              -103.87463551791143,
              40.82417912488226
            ],
            [
              -104.32524538067621,
              40.66925759950648
            ],
            [
              -104.84470543538038,
              40.641349446605325
            ]
          ]
        ]
      }
    }
  ]
}
