{
  "type": "FeatureCollection",
  "features": [
    {
      "type": "Feature",
      "properties": {
        "dn": 1,
        "PRODUCT": "Day 1 Excessive Rainfall Potential Forecast",
        "VALID_TIME": "16Z 08/01/26 - 12Z 08/02/26",
        "OUTLOOK": "Marginal (At Least 5%)",
        "ISSUE_TIME": "2026-08-01 15:52:00",
        "START_TIME": "2026-08-01 16:00:00",
        "END_TIME": "2026-08-02 12:00:00",
        "Snippet": "16Z 08/01/26 - 12Z 08/02/26",
        "risk_norm": "MARGINAL"
      },
      "geometry": {
        "type": "MultiPolygon",
        "coordinates": [
          [
            [
              [
                -85.6869547348701,
                29.437906280103434
              ],
              [
                -85.75758924982256,
                29.655452795826765
              ],
              [
                -85.96862488042487,
                29.86525609796954
              ],
              [
                -86.47913574849645,
                30.076363671681225
              ],
              [
                -87.70158905530097,
                29.894447696549744
              ],
              [
                -88.38566408006709,
                29.879326641562674
              ],
              [
                -88.44712950193036,
                29.700508416265503
              ],
              [
                -88.72582426544463,
                29.392829315223135
              ],
              [
                -88.6263269559462,
                29.297570372466986
              ],
              [
                -88.64102342874018,
                29.024471877489752
              ],
              [
                -88.91871418833526,
                28.715305866724048
              ],
              [
                -89.34058509721433,
                28.594433286198434
              ],
              [
                -89.69963740594949,
                28.698441485691408
              ],
              [
                -89.84552074321768,
                28.931472836935967
              ],
              [
                -90.11316001993794,
                28.757695011491165
              ],
              [
                -91.04999807871151,
                28.73885912208155
              ],
              [
                -91.6632844398196,
                29.11805931176347
              ],
              [
                -91.820891038045,
                29.075785756639466
              ],
              [
                -92.08032577742242,
                29.126467070091238
              ],
              [
                -92.1824269179349,
                29.21950606131329
              ],
              [
                -92.65216079556014,
                29.273796025730377
              ],
              [
                -92.59160806335238,
                29.682859008938298
              ],
              [
                -92.37593895562522,
                29.90796713825378
              ],
              [
                -91.84871393996993,
                29.989287905461023
              ],
              [
                -90.4819493527935,
                30.00132904672909
              ],
              [
                -89.5094398656846,
                30.562111445921982
              ],
              [
                -88.98209417741971,
                30.54282484090516
              ],
              [
                -88.64709389117114,
                30.892804717629673
              ],
              [
                -88.31288945978935,
                33.01275080864834
              ],
              [
                -87.12793683448653,
                36.07207205804853
              ],
              [
                -87.01369949545541,
                37.63315399971628
              ],
              [
                -87.1593283368506,
                37.95198992824211
              ],
              [
                -87.37077763162186,
                38.13875469274033
              ],
              [
                -88.80960737477898,
                38.68522464426563
              ],
              [
                -89.52421385024896,
                39.15248221321951
              ],
              [
                -90.18495941914279,
                39.70334824961992
              ],
              [
                -90.67324244977935,
                40.37711282761986
              ],
              [
                -90.82852001604158,
                40.820284524915095
              ],
              [
                -90.80880758345464,
                41.30205008300277
              ],
              [
                -90.61348344303295,
                41.778387373372055
              ],
              [
                -89.9811985778501,
                42.72024901246948
              ],
              [
                -88.91196938382402,
                43.77075532845225
              ],
              [
                -87.90707302574553,
                44.42569696852025
              ],
              [
                -86.27449389651265,
                45.17299501728729
              ],
              [
                -85.39879744950122,
                45.4306603583753
              ],
              [
                -84.5977654716051,
                45.51734026015106
              ],
              [
                -83.99199557768625,
                45.48374429903329
              ],
              [
                -83.03974404050221,
                45.29857867630742
              ],
              [
                -82.16864197835898,
                44.98486684942407
              ],
              [
                -82.11885901480534,
                44.894714907933434
              ],
              [
                -81.94410209198836,
                43.50058694901688
              ],
              [
                -82.27046455317858,
                42.827620362908796
              ],
              [
                -82.30364670049526,
                42.5683173966887
              ],
              [
                -82.44289354405349,
                42.40329847652661
              ],
              [
                -82.88485609396244,
                42.170957840231544
              ],
              [
                -82.90579323105966,
                41.99738564827912
              ],
              [
                -82.74756275819861,
                41.85631426876429
              ],
              [
                -82.51436228639966,
                41.84042133809318
              ],
              [
                -81.26070402531013,
                42.406627481895526
              ],
              [
                -79.49064979917506,
                42.746118206437984
              ],
              [
                -78.89084609819803,
                42.03657539617049
              ],
              [
                -78.7211788133991,
                41.62591310670485
              ],
              [
                -78.48340421312389,
                39.83536730083846
              ],
              [
                -78.68335379205907,
                38.562027390959514
              ],
              [
                -79.6480573709361,
                36.63341563979572
              ],
              [
                -79.99871989699355,
                36.12464541734649
              ],
              [
                -80.13274716422984,
                35.550088247394555
              ],
              [
                -80.02909146067314,
                35.088737741194024
              ],
              [
                -79.59550117997327,
                34.233108954928056
              ],
              [
                -79.06495489793102,
                33.7287723790869
              ],
              [
                -78.55164321658896,
                33.494623791967726
              ],
              [
                -78.85266302286722,
                33.29740433841915
              ],
              [
                -78.95741378027536,
                32.943546965180765
              ],
              [
                -80.49445341643577,
                31.950699855526654
              ],
              [
                -80.7406272890233,
                31.699283483611605
              ],
              [
                -81.13101592915555,
                30.68382020482289
              ],
              [
                -80.91979709382122,
                29.79593975750715
              ],
              [
                -80.22831009726261,
                28.585879083976433
              ],
              [
                -80.27895736516328,
                28.177831850492325
              ],
              [
                -79.78954500432337,
                27.119579459547793
              ],
              [
                -79.72225018624539,
                26.83709996097543
              ],
              [
                -79.83705590772036,
                25.51566625853706
              ],
              [
                -80.17146254650426,
                24.859740330306195
              ],
              [
                -80.670873277322,
                24.494230782657368
              ],
              [
                -81.70910591257864,
                24.223517368340733
              ],
              [
                -82.72013611643823,
                24.173080021327728
              ],
              [
                -83.26527655922753,
                24.26400876516199
              ],
              [
                -83.14535551376402,
                24.988271877247925
              ],
              [
                -82.38701590963649,
                24.972866704434747
              ],
              [
                -82.3238345877115,
                25.104258088866843
              ],
              [
                -82.59290722228265,
                25.448019724918527
              ],
              [
                -81.91407661823771,
                25.619706401004528
              ],
              [
                -82.1181065867413,
                26.09627964729339
              ],
              [
                -82.2642860577806,
                26.15368335589894
              ],
              [
                -82.53643912279504,
                26.498454800815157
              ],
              [
                -83.17876934092348,
                27.78744444256655
              ],
              [
                -83.15381030861391,
                28.380862621078116
              ],
              [
                -82.98060221557084,
                28.55055120976211
              ],
              [
                -83.01395862465998,
                28.736247728165278
              ],
              [
                -83.31569839360316,
                28.850914061571117
              ],
              [
                -83.35413602401009,
                28.991064967947402
              ],
              [
                -83.8852547480311,
                29.639303733683388
              ],
              [
                -84.08985618273041,
                29.69946174504495
              ],
              [
                -84.48398361684634,
                29.40681516021565
              ],
              [
                -84.84358360413941,
                29.308103987171943
              ],
              [
                -84.4812820376813,
                29.43709136693973
              ],
              [
                -84.08704660242334,
                29.72971841276218
              ],
              [
                -83.88239405729021,
                29.66955933444502
              ],
              [
                -83.31954023357689,
                28.988457089996903
              ],
              [
                -83.28114428453334,
                28.84829716069387
              ],
              [
                -82.97944458156196,
                28.733563113874293
              ],
              [
                -82.94614275006674,
                28.54785858865237
              ],
              [
                -83.11939598436211,
                28.378208193815713
              ],
              [
                -83.14173879777053,
                28.150532360236898
              ],
              [
                -82.3500277318762,
                28.270512792369473
              ],
              [
                -82.13405671188275,
                28.34419536528891
              ],
              [
                -81.84556734871288,
                28.595130222178447
              ],
              [
                -81.82163370435838,
                29.28001460129108
              ],
              [
                -82.10112015003726,
                30.081107588323928
              ],
              [
                -82.09848535270635,
                30.5835288093229
              ],
              [
                -81.5632150837882,
                31.54300177263473
              ],
              [
                -81.24892040239858,
                32.38207066587025
              ],
              [
                -80.66525741984587,
                34.87384743049906
              ],
              [
                -80.4015515702596,
                35.61909199055928
              ],
              [
                -80.29396163716164,
                36.42111697174016
              ],
              [
                -80.36255496937883,
                36.74202957239495
              ],
              [
                -80.51152725497286,
                36.890176627935475
              ],
              [
                -80.9176522588857,
                36.78975666986527
              ],
              [
                -82.90051563458555,
                35.594728164664424
              ],
              [
                -83.5603098593293,
                35.64140865865045
              ],
              [
                -83.85816856685885,
                35.97618029878273
              ],
              [
                -83.81709425344019,
                36.377955756977386
              ],
              [
                -83.59020812928556,
                36.94604624280369
              ],
              [
                -83.25389748491216,
                37.46049841675841
              ],
              [
                -82.29474392868967,
                38.419390328059755
              ],
              [
                -81.77879507215859,
                39.35986920316818
              ],
              [
                -81.74077304776965,
                40.11061454196814
              ],
              [
                -81.95532019110378,
                40.70082332613256
              ],
              [
                -82.31600621826848,
                41.07966569151722
              ],
              [
                -83.08036753495136,
                41.527377741357164
              ],
              [
                -84.43583851193347,
                42.005579204088875
              ],
              [
                -85.47632287119808,
                42.19392732019367
              ],
              [
                -87.23245920472982,
                42.320540565732706
              ],
              [
                -88.36021512951501,
                42.19059573699117
              ],
              [
                -88.90157987942412,
                41.99141758040536
              ],
              [
                -89.32938519868888,
                41.69914717624194
              ],
              [
                -89.64913376964758,
                41.183746998296826
              ],
              [
                -89.68561618426317,
                40.482349081665554
              ],
              [
                -89.41607021759378,
                40.12184851716803
              ],
              [
                -88.91604731598763,
                39.79612696563034
              ],
              [
                -86.80523975933264,
                38.86899072773068
              ],
              [
                -86.27475272539158,
                38.39919235553188
              ],
              [
                -86.07110423654782,
                38.12166706197559
              ],
              [
                -85.93601536244356,
                37.713311206095305
              ],
              [
                -85.92879879819719,
                37.13209797569769
              ],
              [
                -86.18724101883232,
                36.02521171273837
              ],
              [
                -86.45723702074349,
                35.40984403154165
              ],
              [
                -87.61337949790786,
                33.796854502851545
              ],
              [
                -87.747952905556,
                33.3958567423641
              ],
              [
                -87.72296466140813,
                32.94194537744357
              ],
              [
                -87.29084253112256,
                32.15078802304369
              ],
              [
                -87.038931049723,
                31.91090848619165
              ],
              [
                -86.77563973585379,
                31.85211315589154
              ],
              [
                -86.47998335284288,
                31.51880142763735
              ],
              [
                -86.32878170483403,
                30.691294918188277
              ],
              [
                -86.47743624583858,
                30.106972491989268
              ],
              [
                -85.96629504887629,
                29.895536185526645
              ],
              [
                -85.72275073279788,
                29.653383602072367
              ],
              [
                -85.68456105246398,
                29.468200879570126
              ],
              [
                -85.18853440097794,
                29.304451867153535
              ],
              [
                -85.6869547348701,
                29.437906280103434
              ]
            ]
          ],
          [
            [
              [
                -85.02064771267297,
                29.25949940854319
              ],
              [
                -85.16997802613622,
                29.299483309607655
              ],
              [
                -84.93087541778797,
                29.284142147275272
              ],
              [
                -85.02064771267297,
                29.25949940854319
              ]
            ]
          ]
        ]
      }
    },
    {
      "type": "Feature",
      "properties": {
        "dn": 1,
        "PRODUCT": "Day 1 Excessive Rainfall Potential Forecast",
        "VALID_TIME": "16Z 08/01/26 - 12Z 08/02/26",
        "OUTLOOK": "Marginal (At Least 5%)",
        "ISSUE_TIME": "2026-08-01 15:52:00",
        "START_TIME": "2026-08-01 16:00:00",
        "END_TIME": "2026-08-02 12:00:00",
        "Snippet": "16Z 08/01/26 - 12Z 08/02/26",
        "risk_norm": "MARGINAL"
      },
      "geometry": {
        "type": "Polygon",
        "coordinates": [
          [
            [
              -99.98834748700531,
              28.663207144197443
            ],
            [
              -100.782293524655,
              28.95491697228693
            ],
            [
              -101.49335118859003,
              29.56531773165455
            ],
            [
              -102.23344733225481,
              29.669508458585128
            ],
            [
              -103.34041781294518,
              30.480485009482837
            ],
            [
              -103.77176748001233,
              30.59369523838149
            ],
            [
              -104.13697673740904,
              30.52732464537424
            ],
            [
              -104.42984281126758,
              30.2373641454803
            ],
            [
              -104.6409708905057,
              29.584724204165806
            ],
            [
              -104.87761417462117,
              29.890359737728467
            ],
            [
              -104.90828457938767,
              30.253446935923108
            ],
            [
              -105.028860756658,
              30.4282232571379
            ],
            [
              -106.055277882567,
              31.224775584563876
            ],
            [
              -106.50210402882288,
              31.421674705201944
            ],
            [
              -106.57207952163469,
              31.597888069269302
            ],
            [
              -107.96578444528456,
              31.62688053767055
            ],
            [
              -108.06062585381395,
              31.52882876890281
            ],
            [
              -108.07866176117668,
              31.20713454245347
            ],
            [
              -108.97623571561925,
              31.13024758539512
            ],
            [
              -110.74074128027375,
              31.147760174953312
            ],
            [
              -110.40474705328238,
              32.231197345504846
            ],
            [
              -109.87744746896024,
              33.14645581359325
            ],
            [
              -109.44507028074585,
              33.59566681773462
            ],
            [
              -108.09472288528507,
              34.16353587049252
            ],
            [
              -107.75190274513864,
              34.50660524109275
            ],
            [
              -107.52123844830875,
              35.38265906287229
            ],
            [
              -107.44910841288679,
              37.1866017102695
            ],
            [
              -107.22071607992348,
              37.650803709716406
            ],
            [
              -106.85705738404754,
              37.945400332452415
            ],
            [
              -106.20601242332458,
              38.21218921004274
            ],
            [
              -105.18713107376203,
              38.23090726819627
            ],
            [
              -104.081242529441,
              37.89172703374675
            ],
            [
              -103.36332347647678,
              37.391877687172865
            ],
            [
              -102.8664916375542,
              36.74479435679347
            ],
            [
              -102.46488866238012,
              35.77640076779082
            ],
            [
              -102.22992035644761,
              33.034661400974834
            ],
            [
              -101.92480515929861,
              32.45885960925748
            ],
            [
              -101.52379938218465,
              32.02197201499173
            ],
            [
              -101.07852316494717,
              31.677231558743408
            ],
            [
              -100.36932655046535,
              31.339340786218738
            ],
            [
              -97.80249279263481,
              30.723844324067702
            ],
            [
              -97.11045848740953,
              30.461788192241812
            ],
            [
              -96.7361783915234,
              30.192504799194236
            ],
            [
              -96.46910144915363,
              29.876647836821967
            ],
            [
              -96.30762260967062,
              29.5138003589257
            ],
            [
              -96.30159314399323,
              28.96708420726046
            ],
            [
              -96.45660303676416,
              28.78245061691533
            ],
            [
              -97.02537639535724,
              28.593655768997777
            ],
            [
              -99.0491323072337,
              28.553832199967513
            ],
            [
              -99.98834748700531,
              28.663207144197443
            ]
          ],
          [
            [
              -104.27992598334036,
              31.65770832597702
            ],
            [
              -103.81520976866953,
              31.86597971445451
            ],
            [
              -103.31789744570784,
              32.39268587344912
            ],
            [
              -102.96521004829481,
              33.4981825119268
            ],
            [
              -102.93952808844948,
              34.67403357597223
            ],
            [
              -103.17265629018594,
              35.60837689233146
            ],
            [
              -103.65256146251899,
              36.078921822516534
            ],
            [
              -104.45363731636087,
              36.34991251321792
            ],
            [
              -105.22090027659226,
              36.21516570276732
            ],
            [
              -105.95989520850767,
              35.80826676661018
            ],
            [
              -106.25378450708064,
              35.42838718742324
            ],
            [
              -106.4770138988772,
              34.916873837344184
            ],
            [
              -106.74553838075708,
              33.81236827280063
            ],
            [
              -106.71059511676769,
              32.953100557300864
            ],
            [
              -106.49471034738954,
              32.42346925358894
            ],
            [
              -106.24530631528201,
              32.077396970181866
            ],
            [
              -105.78421932970474,
              31.74481101470011
            ],
            [
              -105.07702917050531,
              31.609175961861904
            ],
            [
              -104.27992598334036,
              31.65770832597702
            ]
          ]
        ]
      }
    },
    {
      "type": "Feature",
      "properties": {
        "dn": 2,
        "PRODUCT": "Day 1 Excessive Rainfall Potential Forecast",
        "VALID_TIME": "16Z 08/01/26 - 12Z 08/02/26",
        "OUTLOOK": "Slight (At Least 15%)",
        "ISSUE_TIME": "2026-08-01 15:52:00",
        "START_TIME": "2026-08-01 16:00:00",
        "END_TIME": "2026-08-02 12:00:00",
        "Snippet": "16Z 08/01/26 - 12Z 08/02/26",
        "risk_norm": "SLIGHT"
      },
      "geometry": {
        "type": "Polygon",
        "coordinates": [
          [
            [
              -83.14173879777053,
              28.150532360236898
            ],
            [
              -83.11939598436211,
              28.378208193815713
            ],
            [
              -82.94614275006674,
              28.54785858865237
            ],
            [
              -82.97944458156196,
              28.733563113874293
            ],
            [
              -83.28114428453334,
              28.84829716069387
            ],
            [
              -83.31954023357689,
              28.988457089996903
            ],
            [
              -83.88239405729021,
              29.66955933444502
            ],
            [
              -84.08704660242334,
              29.72971841276218
            ],
            [
              -84.4812820376813,
              29.43709136693973
            ],
            [
              -84.91394001320526,
              29.28305554770757
            ],
            [
              -85.17432942847834,
              29.299762501751
            ],
            [
              -85.68456105246398,
              29.468200879570126
            ],
            [
              -85.72275073279788,
              29.653383602072367
            ],
            [
              -85.96629504887629,
              29.895536185526645
            ],
            [
              -86.47743624583858,
              30.106972491989268
            ],
            [
              -86.32878170483403,
              30.691294918188277
            ],
            [
              -86.47998335284288,
              31.51880142763735
            ],
            [
              -86.77563973585379,
              31.85211315589154
            ],
            [
              -87.038931049723,
              31.91090848619165
            ],
            [
              -87.29084253112256,
              32.15078802304369
            ],
            [
              -87.72296466140813,
              32.94194537744357
            ],
            [
              -87.747952905556,
              33.3958567423641
            ],
            [
              -87.61337949790786,
              33.796854502851545
            ],
            [
              -86.45723702074349,
              35.40984403154165
            ],
            [
              -86.18724101883232,
              36.02521171273837
            ],
            [
              -85.92879879819719,
              37.13209797569769
            ],
            [
              -85.93601536244356,
              37.713311206095305
            ],
            [
              -86.07110423654782,
              38.12166706197559
            ],
            [
              -86.27475272539158,
              38.39919235553188
            ],
            [
              -86.80523975933264,
              38.86899072773068
            ],
            [
              -88.91604731598763,
              39.79612696563034
            ],
            [
              -89.41607021759378,
              40.12184851716803
            ],
            [
              -89.68561618426317,
              40.482349081665554
            ],
            [
              -89.64913376964758,
              41.183746998296826
            ],
            [
              -89.32938519868888,
              41.69914717624194
            ],
            [
              -88.90157987942412,
              41.99141758040536
            ],
            [
              -88.36021512951501,
              42.19059573699117
            ],
            [
              -87.23245920472982,
              42.320540565732706
            ],
            [
              -85.47632287119808,
              42.19392732019367
            ],
            [
              -84.43583851193347,
              42.005579204088875
            ],
            [
              -83.08036753495136,
              41.527377741357164
            ],
            [
              -82.31600621826848,
              41.07966569151722
            ],
            [
              -81.95532019110378,
              40.70082332613256
            ],
            [
              -81.74077304776965,
              40.11061454196814
            ],
            [
              -81.77879507215859,
              39.35986920316818
            ],
            [
              -82.29474392868967,
              38.419390328059755
            ],
            [
              -83.25389748491216,
              37.46049841675841
            ],
            [
              -83.59020812928556,
              36.94604624280369
            ],
            [
              -83.81709425344019,
              36.377955756977386
            ],
            [
              -83.85816856685885,
              35.97618029878273
            ],
            [
              -83.5603098593293,
              35.64140865865045
            ],
            [
              -82.90051563458555,
              35.594728164664424
            ],
            [
              -80.9176522588857,
              36.78975666986527
            ],
            [
              -80.51152725497286,
              36.890176627935475
            ],
            [
              -80.36255496937883,
              36.74202957239495
            ],
            [
              -80.29396163716164,
              36.42111697174016
            ],
            [
              -80.4015515702596,
              35.61909199055928
            ],
            [
              -80.66525741984587,
              34.87384743049906
            ],
            [
              -81.24892040239858,
              32.38207066587025
            ],
            [
              -81.5632150837882,
              31.54300177263473
            ],
            [
              -82.09848535270635,
              30.5835288093229
            ],
            [
              -82.10112015003726,
              30.081107588323928
            ],
            [
              -81.82163370435838,
              29.28001460129108
            ],
            [
              -81.84556734871288,
              28.595130222178447
            ],
            [
              -82.13405671188275,
              28.34419536528891
            ],
            [
              -82.3500277318762,
              28.270512792369473
            ],
            [
              -83.14173879777053,
              28.150532360236898
            ]
          ]
        ]
      }
    },
    {
      "type": "Feature",
      "properties": {
        "dn": 2,
        "PRODUCT": "Day 1 Excessive Rainfall Potential Forecast",
        "VALID_TIME": "16Z 08/01/26 - 12Z 08/02/26",
        "OUTLOOK": "Slight (At Least 15%)",
        "ISSUE_TIME": "2026-08-01 15:52:00",
        "START_TIME": "2026-08-01 16:00:00",
        "END_TIME": "2026-08-02 12:00:00",
        "Snippet": "16Z 08/01/26 - 12Z 08/02/26",
        "risk_norm": "SLIGHT"
      },
      "geometry": {
        "type": "Polygon",
        "coordinates": [
          [
            [
              -86.53319813522954,
              30.064404079427753
            ],
            [
              -86.53264069151375,
              30.06482994649115
            ],
            [
              -86.53232379879147,
              30.064356786832466
            ],
            [
              -86.53319813522954,
              30.064404079427753
            ]
          ]
        ]
      }
    },
    {
      "type": "Feature",
      "properties": {
        "dn": 2,
        "PRODUCT": "Day 1 Excessive Rainfall Potential Forecast",
        "VALID_TIME": "16Z 08/01/26 - 12Z 08/02/26",
        "OUTLOOK": "Slight (At Least 15%)",
        "ISSUE_TIME": "2026-08-01 15:52:00",
        "START_TIME": "2026-08-01 16:00:00",
        "END_TIME": "2026-08-02 12:00:00",
        "Snippet": "16Z 08/01/26 - 12Z 08/02/26",
        "risk_norm": "SLIGHT"
      },
      "geometry": {
        "type": "Polygon",
        "coordinates": [
          [
            [
              -105.07702917050531,
              31.609175961861904
            ],
            [
              -105.78421932970474,
              31.74481101470011
            ],
            [
              -106.24530631528201,
              32.077396970181866
            ],
            [
              -106.49471034738954,
              32.42346925358894
            ],
            [
              -106.71059511676769,
              32.953100557300864
            ],
            [
              -106.74553838075708,
              33.81236827280063
            ],
            [
              -106.4770138988772,
              34.916873837344184
            ],
            [
              -106.25378450708064,
              35.42838718742324
            ],
            [
              -105.95989520850767,
              35.80826676661018
            ],
            [
              -105.22090027659226,
              36.21516570276732
            ],
            [
              -104.45363731636087,
              36.34991251321792
            ],
            [
              -103.65256146251899,
              36.078921822516534
            ],
            [
              -103.17265629018594,
              35.60837689233146
            ],
            [
              -102.93952808844948,
              34.67403357597223
            ],
            [
              -102.96521004829481,
              33.4981825119268
            ],
            [
              -103.31789744570784,
              32.39268587344912
            ],
            [
              -103.81520976866953,
              31.86597971445451
            ],
            [
              -104.27992598334036,
              31.65770832597702
            ],
            [
              -105.07702917050531,
              31.609175961861904
            ]
          ]
        ]
      }
    }
  ]
}
