{"type": "FeatureCollection", "features": [{"type": "Feature", "properties": {"dn": 1, "PRODUCT": "Day 2 Excessive Rainfall Potential Forecast", "VALID_TIME": "12Z 08/02/26 - 12Z 08/03/26", "OUTLOOK": "Marginal (At Least 5%)", "ISSUE_TIME": "2026-08-01 08:49:00", "START_TIME": "2026-08-02 12:00:00", "END_TIME": "2026-08-03 12:00:00", "Snippet": "12Z 08/02/26 - 12Z 08/03/26"}, "geometry": {"type": "Polygon", "coordinates": [[[-88.38566408006709, 29.879326641562674], [-88.44712950193036, 29.700508416265503], [-88.72582426544463, 29.392829315223135], [-88.6263269559462, 29.297570372466986], [-88.64102342874018, 29.024471877489752], [-88.91871418833526, 28.715305866724048], [-89.34058509721433, 28.594433286198434], [-89.69963740594949, 28.698441485691408], [-89.84552074321768, 28.931472836935967], [-90.11316001993794, 28.757695011491165], [-91.04999807871151, 28.73885912208155], [-91.6632844398196, 29.11805931176347], [-91.820891038045, 29.075785756639466], [-92.23562519762255, 29.221373309270977], [-92.02012121719086, 29.446136687276013], [-91.54302176729712, 29.66405875778802], [-91.01478869122859, 29.788110102346], [-90.43651952448474, 29.81783319982599], [-89.47819871983657, 30.105764428070646], [-88.75905891765107, 30.761690857494894], [-87.00755884638218, 31.592591189893845], [-85.75511632924524, 32.56980586130778], [-85.08480935806521, 32.847543415554476], [-84.27064736219883, 33.47483806516414], [-83.60901088392353, 34.109209180033936], [-82.6570239707641, 35.305804179274375], [-82.23510823117802, 36.08511358241037], [-82.06371746253836, 37.06046931874032], [-82.2400483649097, 38.41535363159107], [-82.3723323907525, 38.73695201067047], [-82.7416774306278, 38.9849832996358], [-83.59278323058001, 39.04284868810665], [-84.16979167961496, 38.990857858446965], [-84.79441090339613, 39.028587801206996], [-85.29763550321925, 39.146069700594424], [-85.60845535238963, 39.51843435116412], [-85.85848338472994, 40.59116713551958], [-85.78382463123265, 41.42203496063007], [-85.63126501168928, 41.8082840773412], [-84.53978060395177, 43.27411489750926], [-82.99815539762777, 45.63740947426861], [-82.870173764792, 45.673009751197746], [-82.22531878468769, 45.45950388465304], [-81.91541276032169, 43.71539282780478], [-82.26529331701613, 42.56565839628956], [-82.40459972036747, 42.400665901903984], [-82.84663945746513, 42.16841398967161], [-82.8676419319711, 41.99484361455043], [-82.74410778353783, 41.88469552548327], [-82.51084229197022, 41.868800715003324], [-81.25680987703319, 42.43488770167811], [-79.54494433831698, 42.779223640446055], [-79.25451962691085, 42.98712238228089], [-79.36965339282024, 43.388993137508415], [-79.34223789033263, 43.56063792829649], [-79.23167894852583, 43.624035341827756], [-78.47832949157805, 43.819516468907636], [-76.97481554603866, 43.81090471634205], [-76.56799077419844, 44.26329105809036], [-75.65954320535909, 44.865468276251804], [-74.87625165684352, 45.20227565721804], [-72.86093087316067, 45.16696253125761], [-73.42980417532091, 44.276926653995226], [-73.54331701378686, 43.76687606674851], [-72.83589129553165, 42.895794100870084], [-71.82098558902815, 42.108381715103334], [-71.54104916330556, 42.02717293604425], [-71.50934769013072, 41.40253052303368], [-71.62936762867946, 40.88478382448561], [-71.85144027249964, 40.6903457077169], [-72.92568107586709, 40.337627715882476], [-73.57954567388487, 40.28460982894157], [-73.71015709341064, 40.21221992322814], [-73.76410335179118, 39.95120509236289], [-74.76192358367132, 39.31040225872334], [-75.69962629835068, 38.297986565324074], [-76.72309016177077, 37.33225424479211], [-78.21058740835444, 36.13497943603895], [-79.33000347441633, 35.340538706071854], [-80.78808200758567, 33.47910439328969], [-81.47250304584172, 32.31006626923083], [-81.70597981044712, 31.691825415092154], [-81.74144096344422, 30.91916984773716], [-81.51985553008255, 29.620255215346127], [-81.77207244971193, 28.313894780955426], [-81.91511321185781, 27.959493530667327], [-82.15494507834813, 27.658943683877933], [-82.87820927582507, 27.167210232740427], [-83.17876934092348, 27.78744444256655], [-83.15381030861391, 28.380862621078116], [-82.98060221557084, 28.55055120976211], [-83.01395862465998, 28.736247728165278], [-83.28382292732888, 28.817691227550913], [-83.35413602401009, 28.991064967947402], [-83.98540285520308, 29.692108922093063], [-84.08985618273041, 29.69946174504495], [-84.48398361684634, 29.40681516021565], [-84.91652730596495, 29.252765696468288], [-85.1768504001735, 29.269469043122005], [-85.6869547348701, 29.437906280103434], [-85.75758924982256, 29.655452795826765], [-85.96862488042487, 29.86525609796954], [-86.47913574849645, 30.076363671681225], [-86.52669437560098, 30.0692863673969], [-86.47693347956182, 30.106641226423196], [-85.96629504887629, 29.895536185526645], [-85.72275073279788, 29.653383602072367], [-85.68456105246398, 29.468200879570126], [-85.17432942847834, 29.299762501751], [-84.91394001320526, 29.28305554770757], [-84.4812820376813, 29.43709136693973], [-84.08704660242334, 29.72971841276218], [-83.88239405729021, 29.66955933444502], [-83.31954023357689, 28.988457089996903], [-83.28114428453334, 28.84829716069387], [-82.97944458156196, 28.733563113874293], [-82.94614275006674, 28.54785858865237], [-83.11939598436211, 28.378208193815713], [-83.14173879777053, 28.150532360236898], [-82.76718539189784, 28.25851897027501], [-82.4850224406888, 28.46525075597427], [-82.28154263364968, 28.906501447598146], [-82.19313917305504, 29.722897863401275], [-82.30556171768454, 30.14355778003624], [-82.4961505453449, 30.342127063966377], [-83.16008752015553, 30.576296268793477], [-84.31794087098557, 30.659253046116707], [-85.91348915434591, 30.577190855028142], [-86.23981842488864, 30.459004285389543], [-86.4116403770772, 30.28573397922757], [-86.53085691201028, 30.0686669311651], [-87.70158905530097, 29.894447696549744], [-88.38566408006709, 29.879326641562674]], [[-81.34570190147264, 40.47808144247485], [-80.6381009314724, 40.55484318785518], [-79.7125670972286, 40.52182605025306], [-79.412273919342, 40.584178398555515], [-78.96191536316167, 40.85401637636817], [-78.68295222354479, 41.13780301793338], [-77.92355204343453, 42.167749768063636], [-77.49847346522031, 42.565982633641234], [-76.7852711688148, 42.89014634067246], [-75.91546026217468, 43.06453241124847], [-75.51194377763612, 43.2851556162894], [-75.14011168585091, 43.63866151417672], [-73.90567440430921, 45.15478325019883], [-74.88222536617349, 45.17412168143099], [-75.1483843345122, 45.072435269667224], [-75.61971036471022, 44.861410951249134], [-76.52836823886129, 44.25940705899387], [-76.98009369040565, 43.7824203054212], [-78.48317008279612, 43.79099316766546], [-79.23629063111228, 43.595456879895025], [-79.33028071562686, 43.385677465399844], [-79.21531056961993, 42.98377400003856], [-79.54942632928727, 42.7504857326103], [-81.26078349772396, 42.40605074271628], [-82.51443412302065, 41.83984216713583], [-82.74763326788556, 41.855735059443475], [-82.90657182900024, 41.99743752651846], [-82.88563602531953, 42.171009755549086], [-82.44367505065932, 42.40335220253929], [-82.20715811982095, 42.86723551266875], [-83.7639308774907, 42.227618287610014], [-84.34259265911373, 41.78095483275423], [-84.44643311948441, 41.34874375793682], [-84.29977857087694, 41.076579270972225], [-83.86937306795045, 40.7419195123648], [-82.90427772581413, 40.54680607000883], [-81.34570190147264, 40.47808144247485]]]}}, {"type": "Feature", "properties": {"dn": 1, "PRODUCT": "Day 2 Excessive Rainfall Potential Forecast", "VALID_TIME": "12Z 08/02/26 - 12Z 08/03/26", "OUTLOOK": "Marginal (At Least 5%)", "ISSUE_TIME": "2026-08-01 08:49:00", "START_TIME": "2026-08-02 12:00:00", "END_TIME": "2026-08-03 12:00:00", "Snippet": "12Z 08/02/26 - 12Z 08/03/26"}, "geometry": {"type": "Polygon", "coordinates": [[[-108.97623571561925, 31.13024758539512], [-110.73956450880605, 31.14696319042524], [-111.56942260667803, 31.33735588144328], [-110.90524687584609, 31.95383696941574], [-110.7078781928548, 32.475313294211716], [-110.861448682591, 33.18919570904662], [-111.20039256527083, 33.65610434792298], [-111.23928732304334, 33.924997750738946], [-111.08526768644211, 34.757214975747765], [-110.86449106863073, 35.141002116114755], [-110.24526211895618, 35.47150175459045], [-108.26507087669435, 35.596423179346736], [-107.69504307914636, 35.46056506459389], [-107.27474792137882, 35.17550282900266], [-107.06163079709596, 34.739601316127974], [-106.96507244527388, 33.841686554875665], [-107.04916427001186, 33.608855495114284], [-107.73350285312324, 32.92092147007666], [-108.09494346572957, 32.300549074618445], [-108.18208581883981, 31.65556668879934], [-108.13053888474343, 31.203744623923217], [-108.97623571561925, 31.13024758539512]]]}}, {"type": "Feature", "properties": {"dn": 2, "PRODUCT": "Day 2 Excessive Rainfall Potential Forecast", "VALID_TIME": "12Z 08/02/26 - 12Z 08/03/26", "OUTLOOK": "Slight (At Least 15%)", "ISSUE_TIME": "2026-08-01 08:49:00", "START_TIME": "2026-08-02 12:00:00", "END_TIME": "2026-08-03 12:00:00", "Snippet": "12Z 08/02/26 - 12Z 08/03/26"}, "geometry": {"type": "Polygon", "coordinates": [[[-83.14173879777053, 28.150532360236898], [-83.11939598436211, 28.378208193815713], [-82.94614275006674, 28.54785858865237], [-82.97944458156196, 28.733563113874293], [-83.28114428453334, 28.84829716069387], [-83.31954023357689, 28.988457089996903], [-83.88239405729021, 29.66955933444502], [-84.08704660242334, 29.72971841276218], [-84.4812820376813, 29.43709136693973], [-84.91394001320526, 29.28305554770757], [-85.17432942847834, 29.299762501751], [-85.68456105246398, 29.468200879570126], [-85.72275073279788, 29.653383602072367], [-85.96629504887629, 29.895536185526645], [-86.47693347956182, 30.106641226423196], [-86.53319813522954, 30.064404079427753], [-86.4116403770772, 30.28573397922757], [-86.23981842488864, 30.459004285389543], [-85.91348915434591, 30.577190855028142], [-84.31794087098557, 30.659253046116707], [-83.16008752015553, 30.576296268793477], [-82.4961505453449, 30.342127063966377], [-82.30556171768454, 30.14355778003624], [-82.19313917305504, 29.722897863401275], [-82.28154263364968, 28.906501447598146], [-82.4850224406888, 28.46525075597427], [-82.76718539189784, 28.25851897027501], [-83.14173879777053, 28.150532360236898]]]}}, {"type": "Feature", "properties": {"dn": 2, "PRODUCT": "Day 2 Excessive Rainfall Potential Forecast", "VALID_TIME": "12Z 08/02/26 - 12Z 08/03/26", "OUTLOOK": "Slight (At Least 15%)", "ISSUE_TIME": "2026-08-01 08:49:00", "START_TIME": "2026-08-02 12:00:00", "END_TIME": "2026-08-03 12:00:00", "Snippet": "12Z 08/02/26 - 12Z 08/03/26"}, "geometry": {"type": "Polygon", "coordinates": [[[-82.90427772581413, 40.54680607000883], [-83.86937306795045, 40.7419195123648], [-84.29977857087694, 41.076579270972225], [-84.44643311948441, 41.34874375793682], [-84.34259265911373, 41.78095483275423], [-83.7639308774907, 42.227618287610014], [-82.20715811982095, 42.86723551266875], [-82.44367505065932, 42.40335220253929], [-82.88563602531953, 42.171009755549086], [-82.90657182900024, 41.99743752651846], [-82.74763326788556, 41.855735059443475], [-82.51443412302065, 41.83984216713583], [-81.26078349772396, 42.40605074271628], [-79.54942632928727, 42.7504857326103], [-79.21531056961993, 42.98377400003856], [-79.33028071562686, 43.385677465399844], [-79.23629063111228, 43.595456879895025], [-78.48317008279612, 43.79099316766546], [-76.98009369040565, 43.7824203054212], [-76.52836823886129, 44.25940705899387], [-75.61971036471022, 44.861410951249134], [-75.1483843345122, 45.072435269667224], [-74.88222536617349, 45.17412168143099], [-73.90567440430921, 45.15478325019883], [-75.14011168585091, 43.63866151417672], [-75.51194377763612, 43.2851556162894], [-75.91546026217468, 43.06453241124847], [-76.7852711688148, 42.89014634067246], [-77.49847346522031, 42.565982633641234], [-77.92355204343453, 42.167749768063636], [-78.68295222354479, 41.13780301793338], [-78.96191536316167, 40.85401637636817], [-79.412273919342, 40.584178398555515], [-79.7125670972286, 40.52182605025306], [-80.6381009314724, 40.55484318785518], [-81.34570190147264, 40.47808144247485], [-82.90427772581413, 40.54680607000883]]]}}]}