{
  "type": "FeatureCollection",
  "features": [
    {
      "type": "Feature",
      "properties": {
        "dn": 1,
        "PRODUCT": "Day 1 Excessive Rainfall Potential Forecast",
        "VALID_TIME": "16Z 09/12/26 - 12Z 09/13/26",
        "OUTLOOK": "Marginal (At Least 5%)",
        "ISSUE_TIME": "2026-09-12 15:50:00",
        "START_TIME": "2026-09-12 16:00:00",
        "END_TIME": "2026-09-13 12:00:00",
        "Snippet": "16Z 09/12/26 - 12Z 09/13/26",
        "risk_norm": "MARGINAL"
      },
      "geometry": {
        "type": "Polygon",
        "coordinates": [
          [
            [
              -82.45960317243043,
              25.25246009967183
            ],
            [
              -82.59290722228265,
              25.448019724918527
            ],
            [
              -82.07296306085372,
              25.541703191586556
            ],
            [
              -82.29349467239052,
              25.377015506578996
            ],
            [
              -82.45960317243043,
              25.25246009967183
            ]
          ]
        ]
      }
    },
    {
      "type": "Feature",
      "properties": {
        "dn": 1,
        "PRODUCT": "Day 1 Excessive Rainfall Potential Forecast",
        "VALID_TIME": "16Z 09/12/26 - 12Z 09/13/26",
        "OUTLOOK": "Marginal (At Least 5%)",
        "ISSUE_TIME": "2026-09-12 15:50:00",
        "START_TIME": "2026-09-12 16:00:00",
        "END_TIME": "2026-09-13 12:00:00",
        "Snippet": "16Z 09/12/26 - 12Z 09/13/26",
        "risk_norm": "MARGINAL"
      },
      "geometry": {
        "type": "Polygon",
        "coordinates": [
          [
            [
              -82.01884219694556,
              25.58200175699759
            ],
            [
              -81.91407661823771,
              25.619706401004528
            ],
            [
              -82.1181065867413,
              26.09627964729339
            ],
            [
              -82.4489989551686,
              26.353602289152548
            ],
            [
              -82.69804041945062,
              26.92440830933655
            ],
            [
              -83.05644772549002,
              27.45720815714832
            ],
            [
              -83.08961774572083,
              27.643082588978974
            ],
            [
              -82.37396502291679,
              28.044773133198248
            ],
            [
              -81.96744095682223,
              27.9648761960193
            ],
            [
              -81.59112288321346,
              27.61042724747521
            ],
            [
              -81.16289299166746,
              26.837873794963684
            ],
            [
              -81.0120566031797,
              26.364864700568383
            ],
            [
              -81.05393442965979,
              26.001372862690676
            ],
            [
              -81.23133542180975,
              25.788129046650912
            ],
            [
              -81.50495084934867,
              25.628415608860017
            ],
            [
              -81.66114985350578,
              25.596489960429825
            ],
            [
              -81.86275542212381,
              25.61429905336208
            ],
            [
              -81.91804739634321,
              25.57323563344253
            ],
            [
              -82.01884219694556,
              25.58200175699759
            ]
          ]
        ]
      }
    },
    {
      "type": "Feature",
      "properties": {
        "dn": 1,
        "PRODUCT": "Day 1 Excessive Rainfall Potential Forecast",
        "VALID_TIME": "16Z 09/12/26 - 12Z 09/13/26",
        "OUTLOOK": "Marginal (At Least 5%)",
        "ISSUE_TIME": "2026-09-12 15:50:00",
        "START_TIME": "2026-09-12 16:00:00",
        "END_TIME": "2026-09-13 12:00:00",
        "Snippet": "16Z 09/12/26 - 12Z 09/13/26",
        "risk_norm": "MARGINAL"
      },
      "geometry": {
        "type": "Polygon",
        "coordinates": [
          [
            [
              -89.69963740594949,
              28.698441485691408
            ],
            [
              -89.84552074321768,
              28.931472836935967
            ],
            [
              -90.11316001993794,
              28.757695011491165
            ],
            [
              -91.04999807871151,
              28.73885912208155
            ],
            [
              -91.6632844398196,
              29.11805931176347
            ],
            [
              -91.820891038045,
              29.075785756639466
            ],
            [
              -92.08032577742242,
              29.126467070091238
            ],
            [
              -92.1824269179349,
              29.21950606131329
            ],
            [
              -92.5476757470499,
              29.225702201592362
            ],
            [
              -93.22266304624043,
              29.462687779748723
            ],
            [
              -93.64152188695344,
              29.421353800567815
            ],
            [
              -93.69281404567275,
              29.60489244293439
            ],
            [
              -93.63835505857419,
              29.78656815189807
            ],
            [
              -93.31813227818755,
              30.10299671730104
            ],
            [
              -92.99958364198628,
              30.28126743189712
            ],
            [
              -91.23905114208203,
              30.976683587755915
            ],
            [
              -90.53679656729884,
              31.321985269060523
            ],
            [
              -89.93000013326507,
              31.847809548946906
            ],
            [
              -89.47507434417687,
              32.42245541675129
            ],
            [
              -89.00364183843811,
              33.22091259161092
            ],
            [
              -88.73537142567581,
              34.15993930787591
            ],
            [
              -87.81259902118472,
              35.78857716299963
            ],
            [
              -85.8760152576328,
              38.42308422320918
            ],
            [
              -84.86224364929954,
              39.52118317836853
            ],
            [
              -84.360903344609,
              39.93408638280285
            ],
            [
              -83.4898704085457,
              40.49875954850474
            ],
            [
              -81.56463156841815,
              41.46524996762084
            ],
            [
              -79.00444857366425,
              42.44196188392159
            ],
            [
              -78.0766159973074,
              42.66494954601041
            ],
            [
              -76.69965239763732,
              42.70783761311034
            ],
            [
              -75.05548549180956,
              42.57996768817954
            ],
            [
              -74.18617971406981,
              42.1747896953381
            ],
            [
              -73.72833668545363,
              41.812707392014836
            ],
            [
              -73.43941432577503,
              41.77839545741806
            ],
            [
              -72.57372407432514,
              41.938095385819906
            ],
            [
              -72.11162243862624,
              41.88008110218511
            ],
            [
              -71.412512996552,
              41.56822701166169
            ],
            [
              -71.12807764993877,
              41.26315014333822
            ],
            [
              -71.01766230197748,
              40.981349402669636
            ],
            [
              -71.09652577760603,
              40.90201227760623
            ],
            [
              -72.22289027187456,
              40.60488560655354
            ],
            [
              -72.80859393724711,
              40.338379645752106
            ],
            [
              -73.67298123944643,
              40.20771864327401
            ],
            [
              -73.85341372196022,
              39.51538921313792
            ],
            [
              -74.15853207390785,
              39.14956486953465
            ],
            [
              -74.70327736720743,
              38.72152557532674
            ],
            [
              -74.81286030368888,
              38.15090576064143
            ],
            [
              -75.06332677612373,
              37.73060143840943
            ],
            [
              -75.33487895241208,
              37.492098602666516
            ],
            [
              -75.36730145078597,
              37.31563663547625
            ],
            [
              -75.67687689907939,
              36.85521520589135
            ],
            [
              -75.1544672557628,
              35.70802908591141
            ],
            [
              -75.2825951709062,
              34.9969144108118
            ],
            [
              -75.68750146652499,
              34.90775557746928
            ],
            [
              -76.21169746698526,
              34.4240113310797
            ],
            [
              -76.51309507796557,
              34.27554934724023
            ],
            [
              -76.76864650647587,
              34.395268525245044
            ],
            [
              -77.11486706439331,
              34.297165663611125
            ],
            [
              -77.5412988933626,
              34.025999103894556
            ],
            [
              -77.64390130445592,
              33.71848101879983
            ],
            [
              -77.77339189423618,
              33.594818203961296
            ],
            [
              -77.94830693276285,
              33.522282812135245
            ],
            [
              -78.21036025873504,
              33.59520142264277
            ],
            [
              -78.49252021324526,
              33.53320121815604
            ],
            [
              -78.85266302286722,
              33.29740433841915
            ],
            [
              -78.95741378027536,
              32.943546965180765
            ],
            [
              -79.55527974686203,
              32.54559995002313
            ],
            [
              -82.26086848833963,
              32.00970258259994
            ],
            [
              -82.91400677155276,
              31.92396941631116
            ],
            [
              -83.8677786272808,
              32.03892469091657
            ],
            [
              -84.74500862242704,
              31.824831900585615
            ],
            [
              -85.1901040949397,
              31.62543533207271
            ],
            [
              -85.86982348264712,
              31.12080464337935
            ],
            [
              -86.7457970809692,
              30.02925972617565
            ],
            [
              -87.70158905530097,
              29.894447696549744
            ],
            [
              -88.38566408006709,
              29.879326641562674
            ],
            [
              -88.44712950193036,
              29.700508416265503
            ],
            [
              -88.72582426544463,
              29.392829315223135
            ],
            [
              -88.6263269559462,
              29.297570372466986
            ],
            [
              -88.64102342874018,
              29.024471877489752
            ],
            [
              -88.91871418833526,
              28.715305866724048
            ],
            [
              -89.44432342502064,
              28.59820281254282
            ],
            [
              -89.69963740594949,
              28.698441485691408
            ]
          ],
          [
            [
              -82.5433207539576,
              37.27520433702665
            ],
            [
              -82.19803289289985,
              37.33913513125746
            ],
            [
              -81.37199500429027,
              37.633286524338956
            ],
            [
              -78.87798311304492,
              39.160325405282165
            ],
            [
              -77.90066956942252,
              39.86804364404636
            ],
            [
              -77.236895640525,
              40.024451768564795
            ],
            [
              -76.90256125994418,
              39.94592025272078
            ],
            [
              -76.83522767142559,
              39.67240379139305
            ],
            [
              -78.37507232680169,
              38.35370133510144
            ],
            [
              -78.66789121011932,
              37.934080861590935
            ],
            [
              -78.70845914526193,
              37.66895339764772
            ],
            [
              -78.47721805538764,
              37.33238729044486
            ],
            [
              -78.21932120783472,
              37.17175022087501
            ],
            [
              -77.38666174857703,
              37.087087354549
            ],
            [
              -77.04227717399161,
              37.45631699481297
            ],
            [
              -76.65576493376233,
              38.71617291258067
            ],
            [
              -76.10317627144914,
              39.237898254241884
            ],
            [
              -75.53002648957582,
              39.531471537865876
            ],
            [
              -75.16522074646917,
              39.624288249634844
            ],
            [
              -73.81007407159086,
              39.73312114182254
            ],
            [
              -73.71091578430789,
              40.212311786084356
            ],
            [
              -73.57942472426011,
              40.285189222268976
            ],
            [
              -72.80232401321926,
              40.367310191683515
            ],
            [
              -72.34580712686962,
              40.57701219473316
            ],
            [
              -73.18529964500752,
              41.03840713720687
            ],
            [
              -76.09555683567417,
              41.81091197736353
            ],
            [
              -78.07717937502674,
              41.96298448362532
            ],
            [
              -78.84765189030341,
              41.94537550539853
            ],
            [
              -79.51477810802734,
              41.82792935662587
            ],
            [
              -80.46979477674658,
              41.33539640602355
            ],
            [
              -80.94168875820382,
              40.88846839012895
            ],
            [
              -81.63868666058394,
              40.45707153679563
            ],
            [
              -83.51062633217286,
              39.792669471374644
            ],
            [
              -84.07222757717159,
              39.38506865010262
            ],
            [
              -84.21345068104769,
              39.127664217897504
            ],
            [
              -84.24509183079418,
              38.81868251068046
            ],
            [
              -84.16806414581943,
              38.45797337282765
            ],
            [
              -83.73048859310639,
              37.76085924165895
            ],
            [
              -83.10152301724952,
              37.31519902724254
            ],
            [
              -82.5433207539576,
              37.27520433702665
            ]
          ]
        ]
      }
    },
    {
      "type": "Feature",
      "properties": {
        "dn": 1,
        "PRODUCT": "Day 1 Excessive Rainfall Potential Forecast",
        "VALID_TIME": "16Z 09/12/26 - 12Z 09/13/26",
        "OUTLOOK": "Marginal (At Least 5%)",
        "ISSUE_TIME": "2026-09-12 15:50:00",
        "START_TIME": "2026-09-12 16:00:00",
        "END_TIME": "2026-09-13 12:00:00",
        "Snippet": "16Z 09/12/26 - 12Z 09/13/26",
        "risk_norm": "MARGINAL"
      },
      "geometry": {
        "type": "Polygon",
        "coordinates": [
          [
            [
              -108.97623571561925,
              31.13024758539512
            ],
            [
              -110.95653789383776,
              31.17089174187611
            ],
            [
              -112.40760813945136,
              31.567553013781204
            ],
            [
              -112.1511731125642,
              32.00708289186799
            ],
            [
              -111.88620942557193,
              32.76588414771465
            ],
            [
              -111.45113718863367,
              33.13008630652381
            ],
            [
              -111.46953597871125,
              33.62897583480679
            ],
            [
              -111.6629916592552,
              33.83573231885497
            ],
            [
              -112.47296389977843,
              34.11451742886514
            ],
            [
              -112.71852095879451,
              34.27079042541226
            ],
            [
              -112.9310217074034,
              34.56574550003374
            ],
            [
              -113.07973787201392,
              35.13957598747453
            ],
            [
              -112.82087971363812,
              35.93756187323654
            ],
            [
              -112.18517965339066,
              36.86150146354584
            ],
            [
              -111.81792413434316,
              37.75243188162279
            ],
            [
              -111.59964949022743,
              38.53502572682194
            ],
            [
              -111.6258705375501,
              39.42476636233566
            ],
            [
              -111.44728751970214,
              39.75300481101044
            ],
            [
              -109.5591948173982,
              41.11376900999417
            ],
            [
              -108.5588599674649,
              41.4999429682439
            ],
            [
              -106.61418166395605,
              42.42274015697883
            ],
            [
              -105.81125842922336,
              42.64618496745111
            ],
            [
              -105.2816858770151,
              42.67654086414949
            ],
            [
              -104.90564020381329,
              42.478522805379555
            ],
            [
              -104.74157933612318,
              42.007293361367836
            ],
            [
              -104.76208292769128,
              41.61245472597396
            ],
            [
              -105.2246214087921,
              40.97245157398893
            ],
            [
              -105.3363246525663,
              40.349482155043646
            ],
            [
              -105.28384229664407,
              39.82250645301454
            ],
            [
              -104.885982492306,
              39.269701358917615
            ],
            [
              -104.5935564462674,
              38.57560105747036
            ],
            [
              -104.48935334380018,
              38.04709642463297
            ],
            [
              -104.55029132626534,
              37.46354237625111
            ],
            [
              -104.45636368593584,
              36.39418100866976
            ],
            [
              -104.16319064028295,
              35.556801321917725
            ],
            [
              -104.17345381616468,
              35.01581424650062
            ],
            [
              -104.60404759335209,
              34.26911591526759
            ],
            [
              -104.93524038207232,
              33.07220116448573
            ],
            [
              -105.26787895337222,
              32.55123525344254
            ],
            [
              -105.47375883435532,
              32.44708216011994
            ],
            [
              -106.64981438149675,
              32.36588765946863
            ],
            [
              -107.06751174157841,
              32.24395986258554
            ],
            [
              -107.75363530855014,
              31.644065090577392
            ],
            [
              -107.96578444528456,
              31.62688053767055
            ],
            [
              -108.06062585381395,
              31.52882876890281
            ],
            [
              -108.03506727048713,
              31.302893447660725
            ],
            [
              -108.1314928546348,
              31.202752880685438
            ],
            [
              -108.97623571561925,
              31.13024758539512
            ]
          ]
        ]
      }
    },
    {
      "type": "Feature",
      "properties": {
        "dn": 1,
        "PRODUCT": "Day 1 Excessive Rainfall Potential Forecast",
        "VALID_TIME": "16Z 09/12/26 - 12Z 09/13/26",
        "OUTLOOK": "Marginal (At Least 5%)",
        "ISSUE_TIME": "2026-09-12 15:50:00",
        "START_TIME": "2026-09-12 16:00:00",
        "END_TIME": "2026-09-13 12:00:00",
        "Snippet": "16Z 09/12/26 - 12Z 09/13/26",
        "risk_norm": "MARGINAL"
      },
      "geometry": {
        "type": "Polygon",
        "coordinates": [
          [
            [
              -96.75904515540816,
              35.12472640704054
            ],
            [
              -97.3102890270599,
              35.20787314284558
            ],
            [
              -97.97600307658992,
              35.42196427589793
            ],
            [
              -98.59203195555655,
              35.724139454058005
            ],
            [
              -98.99109529905726,
              36.03000495914183
            ],
            [
              -99.35176867702498,
              36.73755717865835
            ],
            [
              -99.63375999200409,
              38.11280369149686
            ],
            [
              -99.63134645429784,
              39.354763849313876
            ],
            [
              -99.41966789113171,
              39.75785391684269
            ],
            [
              -98.40796912832583,
              40.441942274702136
            ],
            [
              -97.95116628680213,
              40.62589849099517
            ],
            [
              -97.26000439396337,
              40.76770581737003
            ],
            [
              -96.27475883331365,
              40.7335415591136
            ],
            [
              -95.2320390878386,
              40.56227523755405
            ],
            [
              -94.02179953555503,
              40.163913883609276
            ],
            [
              -93.16662936892727,
              39.672214288154215
            ],
            [
              -92.60257186480318,
              39.222670720701565
            ],
            [
              -92.26941787321941,
              38.86358897119522
            ],
            [
              -92.1085358679657,
              38.50620138112145
            ],
            [
              -92.1253674849738,
              37.88425749721316
            ],
            [
              -92.36498553793052,
              37.30887810684403
            ],
            [
              -92.88514878931865,
              36.51198030959885
            ],
            [
              -93.56221503358034,
              35.891137087277336
            ],
            [
              -94.22803139339513,
              35.62636993301369
            ],
            [
              -95.44106927690643,
              35.313240163880714
            ],
            [
              -96.75904515540816,
              35.12472640704054
            ]
          ]
        ]
      }
    },
    {
      "type": "Feature",
      "properties": {
        "dn": 2,
        "PRODUCT": "Day 1 Excessive Rainfall Potential Forecast",
        "VALID_TIME": "16Z 09/12/26 - 12Z 09/13/26",
        "OUTLOOK": "Slight (At Least 15%)",
        "ISSUE_TIME": "2026-09-12 15:50:00",
        "START_TIME": "2026-09-12 16:00:00",
        "END_TIME": "2026-09-13 12:00:00",
        "Snippet": "16Z 09/12/26 - 12Z 09/13/26",
        "risk_norm": "SLIGHT"
      },
      "geometry": {
        "type": "Polygon",
        "coordinates": [
          [
            [
              -83.10152301724952,
              37.31519902724254
            ],
            [
              -83.73048859310639,
              37.76085924165895
            ],
            [
              -84.16806414581943,
              38.45797337282765
            ],
            [
              -84.24509183079418,
              38.81868251068046
            ],
            [
              -84.21345068104769,
              39.127664217897504
            ],
            [
              -84.07222757717159,
              39.38506865010262
            ],
            [
              -83.51062633217286,
              39.792669471374644
            ],
            [
              -81.63868666058394,
              40.45707153679563
            ],
            [
              -80.94168875820382,
              40.88846839012895
            ],
            [
              -80.46979477674658,
              41.33539640602355
            ],
            [
              -79.51477810802734,
              41.82792935662587
            ],
            [
              -78.84765189030341,
              41.94537550539853
            ],
            [
              -78.07717937502674,
              41.96298448362532
            ],
            [
              -76.09555683567417,
              41.81091197736353
            ],
            [
              -73.18529964500752,
              41.03840713720687
            ],
            [
              -72.34580712686962,
              40.57701219473316
            ],
            [
              -72.80232401321926,
              40.367310191683515
            ],
            [
              -73.57942472426011,
              40.285189222268976
            ],
            [
              -73.71091578430789,
              40.212311786084356
            ],
            [
              -73.81007407159086,
              39.73312114182254
            ],
            [
              -75.16522074646917,
              39.624288249634844
            ],
            [
              -75.53002648957582,
              39.531471537865876
            ],
            [
              -76.10317627144914,
              39.237898254241884
            ],
            [
              -76.65576493376233,
              38.71617291258067
            ],
            [
              -77.04227717399161,
              37.45631699481297
            ],
            [
              -77.38666174857703,
              37.087087354549
            ],
            [
              -78.21932120783472,
              37.17175022087501
            ],
            [
              -78.47721805538764,
              37.33238729044486
            ],
            [
              -78.70845914526193,
              37.66895339764772
            ],
            [
              -78.66789121011932,
              37.934080861590935
            ],
            [
              -78.37507232680169,
              38.35370133510144
            ],
            [
              -76.83522767142559,
              39.67240379139305
            ],
            [
              -76.90256125994418,
              39.94592025272078
            ],
            [
              -77.236895640525,
              40.024451768564795
            ],
            [
              -77.90066956942252,
              39.86804364404636
            ],
            [
              -78.87798311304492,
              39.160325405282165
            ],
            [
              -81.37199500429027,
              37.633286524338956
            ],
            [
              -82.19803289289985,
              37.33913513125746
            ],
            [
              -82.5433207539576,
              37.27520433702665
            ],
            [
              -83.10152301724952,
              37.31519902724254
            ]
          ]
        ]
      }
    }
  ]
}
