{"type": "FeatureCollection", "features": [{"type": "Feature", "properties": {"dn": 1, "PRODUCT": "Day 2 Excessive Rainfall Potential Forecast", "VALID_TIME": "12Z 09/13/26 - 12Z 09/14/26", "OUTLOOK": "Marginal (At Least 5%)", "ISSUE_TIME": "2026-09-12 07:37:00", "START_TIME": "2026-09-13 12:00:00", "END_TIME": "2026-09-14 12:00:00", "Snippet": "12Z 09/13/26 - 12Z 09/14/26"}, "geometry": {"type": "Polygon", "coordinates": [[[-108.97623571561925, 31.13024758539512], [-110.73956450880605, 31.14696319042524], [-111.28534598770817, 31.228769081486856], [-111.68142265881059, 31.37131416856984], [-111.77303725165248, 32.367086703040506], [-111.73891706689585, 33.23711642972762], [-111.62358700627259, 33.93161493302616], [-111.24640356782595, 35.10383469245348], [-110.23831441949069, 37.407614354231264], [-109.64023126844677, 38.399816758051834], [-109.52584432792575, 38.810978022322], [-109.48973553032567, 39.792218949270456], [-109.36103950774107, 40.11301166743458], [-108.8520228478114, 40.64076363657603], [-108.20609161000993, 41.04240234655258], [-107.42827947614214, 41.36177921571371], [-106.96398623641676, 41.39320529685901], [-106.77336862500984, 41.273126603948995], [-106.55474987998596, 40.89156047700205], [-106.05067563243799, 37.81979024639023], [-105.86622178632676, 37.116178174281465], [-104.82737118980614, 35.563898126625915], [-104.72488911112328, 35.02936919564374], [-104.80580956210149, 34.0763278242033], [-105.03293522150543, 33.56468794125785], [-105.4286376111904, 33.13089396670199], [-107.00942247494186, 32.20283731248801], [-107.48345907542571, 31.619963620796412], [-107.96578444528456, 31.62688053767055], [-108.06062585381395, 31.52882876890281], [-108.07866176117668, 31.20713454245347], [-108.97623571561925, 31.13024758539512]]]}}, {"type": "Feature", "properties": {"dn": 1, "PRODUCT": "Day 2 Excessive Rainfall Potential Forecast", "VALID_TIME": "12Z 09/13/26 - 12Z 09/14/26", "OUTLOOK": "Marginal (At Least 5%)", "ISSUE_TIME": "2026-09-12 07:37:00", "START_TIME": "2026-09-13 12:00:00", "END_TIME": "2026-09-14 12:00:00", "Snippet": "12Z 09/13/26 - 12Z 09/14/26"}, "geometry": {"type": "Polygon", "coordinates": [[[-95.22568150665943, 37.64018120676631], [-96.12949200539057, 38.03714498979961], [-97.96590883236036, 39.12457286088156], [-100.32558850045457, 40.657001942025744], [-101.29731168137084, 41.37220585980637], [-102.75531479821336, 42.88617037797967], [-103.50864397460448, 44.065046078391866], [-103.68178641949959, 44.65965851495888], [-103.61128215412721, 45.22008011432772], [-103.39941792362862, 45.5712111436133], [-102.99844368476288, 45.88730843670739], [-102.05207871071087, 46.306144228758775], [-101.32887179389833, 46.500270036770054], [-100.40837561179569, 46.527708346251664], [-99.84704472066863, 46.37299468496383], [-95.42090938144347, 44.3000796591865], [-93.51310853624986, 43.47607786786002], [-91.99005412542186, 42.67799100539077], [-90.33290264530427, 41.46543582831262], [-89.55685003488519, 40.69828042183465], [-89.0270038421976, 39.84450455176548], [-88.89373460141361, 39.17675541953658], [-89.04031616404816, 38.60541013676234], [-89.46264002088384, 38.13060611574082], [-90.33003723251053, 37.71029674222011], [-91.29538356349397, 37.46650592331118], [-92.08351654828691, 37.39260822968341], [-93.87860526508102, 37.41384564838986], [-95.22568150665943, 37.64018120676631]], [[-94.26125909809447, 38.88298895890295], [-93.86211240361682, 38.96942119636635], [-92.94177064003192, 39.447593752339145], [-92.59198864152899, 39.708548510276145], [-92.17759046199117, 40.187308070769085], [-92.17037505286625, 40.45118951600242], [-92.28005274846845, 40.67261373440908], [-92.96370799732007, 41.25213170480962], [-93.54066806629686, 41.607571765495166], [-95.76637624060766, 42.43987403398456], [-96.5338892300178, 42.56545592785731], [-97.59504219282744, 42.5535527141564], [-98.00371456573798, 42.41691019115738], [-98.34002494467138, 41.88790828524215], [-98.31709148820339, 41.18888162086259], [-97.94920198540377, 40.537171286578456], [-97.47529933123243, 40.06036810003284], [-96.48665994955714, 39.364980716618774], [-95.74155820042573, 39.060100798363905], [-94.94389887810138, 38.88454666227281], [-94.26125909809447, 38.88298895890295]]]}}, {"type": "Feature", "properties": {"dn": 1, "PRODUCT": "Day 2 Excessive Rainfall Potential Forecast", "VALID_TIME": "12Z 09/13/26 - 12Z 09/14/26", "OUTLOOK": "Marginal (At Least 5%)", "ISSUE_TIME": "2026-09-12 07:37:00", "START_TIME": "2026-09-13 12:00:00", "END_TIME": "2026-09-14 12:00:00", "Snippet": "12Z 09/13/26 - 12Z 09/14/26"}, "geometry": {"type": "Polygon", "coordinates": [[[-69.44305336651598, 41.91936207217273], [-69.55241479439489, 41.49044848315646], [-69.48148100216909, 41.30224108066546], [-69.60378002774304, 41.052290131318514], [-69.9775637217937, 40.89691470263725], [-70.3768770012669, 40.95278175752549], [-71.03589015795623, 40.909278873620366], [-72.80859393724711, 40.338379645752106], [-73.58547220549744, 40.25621955589821], [-73.74615141836583, 40.03825003115087], [-73.85341372196022, 39.51538921313792], [-74.06838853177722, 39.316851674466584], [-74.5816970800447, 39.64589759476807], [-75.00009203204658, 40.185294911650494], [-74.97225247664883, 40.626677982095934], [-74.46323411141061, 41.410920548770996], [-73.76007820850847, 41.94803885211095], [-71.59912400468198, 43.049960252910424], [-70.69834989184233, 43.28485994064326], [-70.34787260754824, 43.23827269498298], [-70.0777645184163, 43.113824559601454], [-70.13090977604622, 42.89982771004321], [-70.02148461269356, 42.620077911372434], [-69.9806164555971, 42.57056992717271], [-70.55547577331443, 42.648773991252384], [-71.23584793674839, 42.56224814745774], [-72.14856238690709, 42.23791239749365], [-73.16083802809108, 41.699734002294264], [-73.7232932338701, 41.28029582071598], [-73.95886077585313, 40.99784381931763], [-74.00897508026006, 40.47065111058067], [-73.73839066702462, 40.08146017986125], [-73.71091578430789, 40.212311786084356], [-73.57942472426011, 40.285189222268976], [-72.80232401321926, 40.367310191683515], [-71.52632178640927, 40.82635707313515], [-70.66582279065514, 40.97775622505534], [-69.97046407349346, 40.925654692482], [-69.6418281258076, 41.05772641344726], [-69.51961588273812, 41.307695778370416], [-69.59062411422764, 41.49588250517834], [-69.48141906355886, 41.92480590676998], [-69.91610652926516, 42.49242213093053], [-69.44305336651598, 41.91936207217273]]]}}, {"type": "Feature", "properties": {"dn": 2, "PRODUCT": "Day 2 Excessive Rainfall Potential Forecast", "VALID_TIME": "12Z 09/13/26 - 12Z 09/14/26", "OUTLOOK": "Slight (At Least 15%)", "ISSUE_TIME": "2026-09-12 07:37:00", "START_TIME": "2026-09-13 12:00:00", "END_TIME": "2026-09-14 12:00:00", "Snippet": "12Z 09/13/26 - 12Z 09/14/26"}, "geometry": {"type": "Polygon", "coordinates": [[[-94.94389887810138, 38.88454666227281], [-95.74155820042573, 39.060100798363905], [-96.48665994955714, 39.364980716618774], [-97.47529933123243, 40.06036810003284], [-97.94920198540377, 40.537171286578456], [-98.31709148820339, 41.18888162086259], [-98.34002494467138, 41.88790828524215], [-98.00371456573798, 42.41691019115738], [-97.59504219282744, 42.5535527141564], [-96.5338892300178, 42.56545592785731], [-95.76637624060766, 42.43987403398456], [-93.54066806629686, 41.607571765495166], [-92.96370799732007, 41.25213170480962], [-92.28005274846845, 40.67261373440908], [-92.17037505286625, 40.45118951600242], [-92.17759046199117, 40.187308070769085], [-92.59198864152899, 39.708548510276145], [-92.94177064003192, 39.447593752339145], [-93.86211240361682, 38.96942119636635], [-94.26125909809447, 38.88298895890295], [-94.94389887810138, 38.88454666227281]]]}}, {"type": "Feature", "properties": {"dn": 2, "PRODUCT": "Day 2 Excessive Rainfall Potential Forecast", "VALID_TIME": "12Z 09/13/26 - 12Z 09/14/26", "OUTLOOK": "Slight (At Least 15%)", "ISSUE_TIME": "2026-09-12 07:37:00", "START_TIME": "2026-09-13 12:00:00", "END_TIME": "2026-09-14 12:00:00", "Snippet": "12Z 09/13/26 - 12Z 09/14/26"}, "geometry": {"type": "Polygon", "coordinates": [[[-73.73839066702462, 40.08146017986125], [-74.00897508026006, 40.47065111058067], [-73.95886077585313, 40.99784381931763], [-73.7232932338701, 41.28029582071598], [-73.16083802809108, 41.699734002294264], [-72.14856238690709, 42.23791239749365], [-71.23584793674839, 42.56224814745774], [-70.55547577331443, 42.648773991252384], [-69.97541073045375, 42.56986173849047], [-69.48141906355886, 41.92480590676998], [-69.59062411422764, 41.49588250517834], [-69.51961588273812, 41.307695778370416], [-69.6418281258076, 41.05772641344726], [-69.97046407349346, 40.925654692482], [-70.66582279065514, 40.97775622505534], [-71.52632178640927, 40.82635707313515], [-72.80232401321926, 40.367310191683515], [-73.57942472426011, 40.285189222268976], [-73.71091578430789, 40.212311786084356], [-73.73839066702462, 40.08146017986125]]]}}]}