{"type": "FeatureCollection", "features": [{"type": "Feature", "properties": {"dn": 1, "PRODUCT": "Day 1 Excessive Rainfall Potential Forecast", "VALID_TIME": "16Z 09/11/26 - 12Z 09/12/26", "OUTLOOK": "Marginal (At Least 5%)", "ISSUE_TIME": "2026-09-11 15:57:00", "START_TIME": "2026-09-11 16:00:00", "END_TIME": "2026-09-12 12:00:00", "Snippet": "16Z 09/11/26 - 12Z 09/12/26"}, "geometry": {"type": "Polygon", "coordinates": [[[-89.44432342502064, 28.59820281254282], [-89.69963740594949, 28.698441485691408], [-89.84552074321768, 28.931472836935967], [-90.11316001993794, 28.757695011491165], [-91.04999807871151, 28.73885912208155], [-91.6632844398196, 29.11805931176347], [-91.820891038045, 29.075785756639466], [-92.02704861223334, 29.171033883543263], [-92.54112562128475, 29.590982531012546], [-92.84771161825877, 30.005302332540733], [-92.89289009883521, 30.415438058341405], [-92.28776137908325, 31.49687684168402], [-92.16241940839585, 32.26585382672236], [-92.47574580075283, 32.58732011356045], [-93.60049493823642, 32.872628707176375], [-93.86841065178297, 33.01045474510434], [-94.08333361863224, 33.23882147134592], [-94.29551332460036, 33.87223308175581], [-94.29153694391047, 34.503436120437634], [-94.06582990413457, 35.35702387613075], [-93.67233495184693, 36.027435412635825], [-93.33477491679041, 36.2941167379108], [-92.88711161110203, 36.46815253496223], [-91.71131667844656, 36.71774749606663], [-89.6325172365715, 37.02224868398491], [-88.78200224045534, 37.216627616779434], [-87.45847163267642, 37.698838888525664], [-86.71474565440819, 37.84285097998688], [-84.55434447477506, 37.99249925519769], [-82.98598324853685, 37.84513735069649], [-81.97123863073595, 37.81559762804324], [-79.24396390552425, 38.25748244413613], [-78.80825330710245, 38.12745519343608], [-77.8232984655006, 37.17834973536643], [-76.14125801371372, 36.45641416834607], [-76.06209776788597, 36.266662978727275], [-76.70190643504569, 35.795251401818796], [-77.74759860126387, 35.1819731892245], [-79.79505785434179, 34.386966878400926], [-82.88208945249916, 33.23991201019633], [-83.68094062737302, 32.84395459195771], [-84.48970112414897, 32.2638346201541], [-85.31425824906518, 31.40644100945559], [-85.57078714732647, 30.87552812774279], [-85.72345820291262, 30.292114822811296], [-86.06763025312853, 29.946373845810413], [-86.47697752494051, 30.10603567532834], [-87.70158905530097, 29.894447696549744], [-88.38566408006709, 29.879326641562674], [-88.44712950193036, 29.700508416265503], [-88.72582426544463, 29.392829315223135], [-88.6263269559462, 29.297570372466986], [-88.64102342874018, 29.024471877489752], [-88.91871418833526, 28.715305866724048], [-89.44432342502064, 28.59820281254282]]]}}, {"type": "Feature", "properties": {"dn": 1, "PRODUCT": "Day 1 Excessive Rainfall Potential Forecast", "VALID_TIME": "16Z 09/11/26 - 12Z 09/12/26", "OUTLOOK": "Marginal (At Least 5%)", "ISSUE_TIME": "2026-09-11 15:57:00", "START_TIME": "2026-09-11 16:00:00", "END_TIME": "2026-09-12 12:00:00", "Snippet": "16Z 09/11/26 - 12Z 09/12/26"}, "geometry": {"type": "Polygon", "coordinates": [[[-110.95246701233582, 31.141421864001877], [-112.40760813945136, 31.567553013781204], [-112.34957295096811, 31.894115139751214], [-111.8060469467752, 32.95669872638525], [-111.76558408716623, 33.416519472909776], [-112.04822195696289, 33.84213691541815], [-112.86245636672531, 34.48237281838255], [-113.2063095540845, 34.89873486236901], [-113.42413113069604, 35.8718533091218], [-113.41708840996058, 36.82144260304337], [-113.10846545531791, 37.665085056023926], [-112.5701285322963, 38.52829325141477], [-112.32411869703712, 38.777622186099755], [-112.0071587353116, 38.943021728405], [-110.97334822908229, 39.308523288469935], [-109.6611450638179, 39.37918075408591], [-108.60886640544021, 39.242118469667446], [-108.24573407138928, 39.09226271353109], [-107.79889533966336, 38.72438937117478], [-107.44317410605427, 38.12624747661296], [-107.58953798017343, 37.44499660983936], [-108.36163148783868, 36.39852882167315], [-108.61541047270913, 35.74759406861959], [-108.44006818231277, 34.76839826799914], [-108.0184126147724, 33.987489540315075], [-107.84834170863952, 33.45678975784321], [-107.73350285312324, 32.92092147007666], [-107.73154884358789, 32.42089615199637], [-107.93718366158966, 31.85799387634932], [-108.34182505131244, 31.18604284158873], [-108.97623571561925, 31.13024758539512], [-110.95246701233582, 31.141421864001877]], [[-109.99509797756728, 31.174685314101474], [-110.44864817067773, 31.770581771383327], [-110.73267688556454, 31.880143425861878], [-111.26274135487884, 31.82676723841059], [-111.56889519900534, 31.337411299361303], [-110.9566209730521, 31.171493167955166], [-109.99509797756728, 31.174685314101474]]]}}, {"type": "Feature", "properties": {"dn": 1, "PRODUCT": "Day 1 Excessive Rainfall Potential Forecast", "VALID_TIME": "16Z 09/11/26 - 12Z 09/12/26", "OUTLOOK": "Marginal (At Least 5%)", "ISSUE_TIME": "2026-09-11 15:57:00", "START_TIME": "2026-09-11 16:00:00", "END_TIME": "2026-09-12 12:00:00", "Snippet": "16Z 09/11/26 - 12Z 09/12/26"}, "geometry": {"type": "Polygon", "coordinates": [[[-95.90780807829222, 45.02528451105674], [-96.39583395297238, 45.236820505411146], [-96.5818602143075, 45.49129363522779], [-96.59041656302107, 46.00162367394567], [-96.29197356291813, 46.512272406938294], [-95.68239141157207, 47.14806065394047], [-94.8149492929161, 47.94602189690829], [-93.93391699674756, 48.48637308957938], [-93.36380226645501, 48.773565061997004], [-93.11109855296515, 48.81290701903468], [-92.17215374465744, 48.621581111565646], [-91.55338717723258, 48.36235512177859], [-90.79581669030371, 48.47312785740178], [-90.43147554759152, 48.2296437183932], [-89.30214337811577, 48.24204707176449], [-89.75013043442074, 46.99574696155339], [-90.52934292569881, 46.21155669643671], [-91.1599601425152, 45.79944597407345], [-92.33116076362685, 45.35056838380684], [-93.18454185514217, 45.14705517130969], [-94.15470335883839, 44.98281133062833], [-95.3028934860676, 44.94166545579834], [-95.90780807829222, 45.02528451105674]], [[-93.21719614978893, 46.634831982429475], [-92.72006317423175, 46.840815381721185], [-91.07702014267873, 47.78208062712126], [-90.56213600175816, 48.1064565758094], [-90.49343967032489, 48.230191237337976], [-90.79711406026152, 48.44539410927577], [-91.55444951577299, 48.33459070454825], [-92.17302791149893, 48.59387551675527], [-92.36149723202941, 48.59652697524415], [-92.80537797484106, 48.43533100609551], [-93.6926054122703, 47.858239879663664], [-94.13485174045442, 47.23147891540337], [-94.20004033085353, 46.8527355020671], [-94.0162791987442, 46.68266928200397], [-93.70978871747447, 46.596411099644754], [-93.21719614978893, 46.634831982429475]]]}}, {"type": "Feature", "properties": {"dn": 1, "PRODUCT": "Day 1 Excessive Rainfall Potential Forecast", "VALID_TIME": "16Z 09/11/26 - 12Z 09/12/26", "OUTLOOK": "Marginal (At Least 5%)", "ISSUE_TIME": "2026-09-11 15:57:00", "START_TIME": "2026-09-11 16:00:00", "END_TIME": "2026-09-12 12:00:00", "Snippet": "16Z 09/11/26 - 12Z 09/12/26"}, "geometry": {"type": "Polygon", "coordinates": [[[-89.23945043221845, 48.28201263183924], [-89.23814590853614, 48.282810235324284], [-89.23694794113726, 48.28194181388955], [-89.23945043221845, 48.28201263183924]]]}}, {"type": "Feature", "properties": {"dn": 2, "PRODUCT": "Day 1 Excessive Rainfall Potential Forecast", "VALID_TIME": "16Z 09/11/26 - 12Z 09/12/26", "OUTLOOK": "Slight (At Least 15%)", "ISSUE_TIME": "2026-09-11 15:57:00", "START_TIME": "2026-09-11 16:00:00", "END_TIME": "2026-09-12 12:00:00", "Snippet": "16Z 09/11/26 - 12Z 09/12/26"}, "geometry": {"type": "Polygon", "coordinates": [[[-110.9566209730521, 31.171493167955166], [-111.56889519900534, 31.337411299361303], [-111.26274135487884, 31.82676723841059], [-110.73267688556454, 31.880143425861878], [-110.44864817067773, 31.770581771383327], [-109.99509797756728, 31.174685314101474], [-110.9566209730521, 31.171493167955166]]]}}, {"type": "Feature", "properties": {"dn": 2, "PRODUCT": "Day 1 Excessive Rainfall Potential Forecast", "VALID_TIME": "16Z 09/11/26 - 12Z 09/12/26", "OUTLOOK": "Slight (At Least 15%)", "ISSUE_TIME": "2026-09-11 15:57:00", "START_TIME": "2026-09-11 16:00:00", "END_TIME": "2026-09-12 12:00:00", "Snippet": "16Z 09/11/26 - 12Z 09/12/26"}, "geometry": {"type": "Polygon", "coordinates": [[[-93.70978871747447, 46.596411099644754], [-94.0162791987442, 46.68266928200397], [-94.20004033085353, 46.8527355020671], [-94.13485174045442, 47.23147891540337], [-93.6926054122703, 47.858239879663664], [-92.80537797484106, 48.43533100609551], [-92.36149723202941, 48.59652697524415], [-92.17302791149893, 48.59387551675527], [-91.55444951577299, 48.33459070454825], [-90.79711406026152, 48.44539410927577], [-90.49343967032489, 48.230191237337976], [-90.56213600175816, 48.1064565758094], [-91.07702014267873, 47.78208062712126], [-92.72006317423175, 46.840815381721185], [-93.21719614978893, 46.634831982429475], [-93.70978871747447, 46.596411099644754]]]}}]}