{
  "type": "FeatureCollection",
  "features": [
    {
      "type": "Feature",
      "properties": {
        "dn": 1,
        "PRODUCT": "Day 2 Excessive Rainfall Potential Forecast",
        "VALID_TIME": "12Z 09/12/26 - 12Z 09/13/26",
        "OUTLOOK": "Marginal (At Least 5%)",
        "ISSUE_TIME": "2026-09-11 07:47:00",
        "START_TIME": "2026-09-12 12:00:00",
        "END_TIME": "2026-09-13 12:00:00",
        "Snippet": "12Z 09/12/26 - 12Z 09/13/26",
        "risk_norm": "MARGINAL"
      },
      "geometry": {
        "type": "Polygon",
        "coordinates": [
          [
            [
              -82.45960317243043,
              25.25246009967183
            ],
            [
              -82.59290722228265,
              25.448019724918527
            ],
            [
              -82.07296306085372,
              25.541703191586556
            ],
            [
              -82.29349467239052,
              25.377015506578996
            ],
            [
              -82.45960317243043,
              25.25246009967183
            ]
          ]
        ]
      }
    },
    {
      "type": "Feature",
      "properties": {
        "dn": 1,
        "PRODUCT": "Day 2 Excessive Rainfall Potential Forecast",
        "VALID_TIME": "12Z 09/12/26 - 12Z 09/13/26",
        "OUTLOOK": "Marginal (At Least 5%)",
        "ISSUE_TIME": "2026-09-11 07:47:00",
        "START_TIME": "2026-09-12 12:00:00",
        "END_TIME": "2026-09-13 12:00:00",
        "Snippet": "12Z 09/12/26 - 12Z 09/13/26",
        "risk_norm": "MARGINAL"
      },
      "geometry": {
        "type": "Polygon",
        "coordinates": [
          [
            [
              -82.01884219694556,
              25.58200175699759
            ],
            [
              -81.91407661823771,
              25.619706401004528
            ],
            [
              -82.1181065867413,
              26.09627964729339
            ],
            [
              -82.4489989551686,
              26.353602289152548
            ],
            [
              -83.17876934092348,
              27.78744444256655
            ],
            [
              -83.1382030221505,
              28.19650971277051
            ],
            [
              -82.86553656669928,
              28.313494621588518
            ],
            [
              -82.40143204321537,
              28.27611495408272
            ],
            [
              -81.86964087337272,
              27.91067207090662
            ],
            [
              -81.45797583555616,
              27.41516817446764
            ],
            [
              -81.08209326674616,
              26.646831466057023
            ],
            [
              -81.0120566031797,
              26.364864700568383
            ],
            [
              -81.11486815820871,
              25.915168478573182
            ],
            [
              -81.50495084934867,
              25.628415608860017
            ],
            [
              -81.66114985350578,
              25.596489960429825
            ],
            [
              -81.86275542212381,
              25.61429905336208
            ],
            [
              -81.91804739634321,
              25.57323563344253
            ],
            [
              -82.01884219694556,
              25.58200175699759
            ]
          ]
        ]
      }
    },
    {
      "type": "Feature",
      "properties": {
        "dn": 1,
        "PRODUCT": "Day 2 Excessive Rainfall Potential Forecast",
        "VALID_TIME": "12Z 09/12/26 - 12Z 09/13/26",
        "OUTLOOK": "Marginal (At Least 5%)",
        "ISSUE_TIME": "2026-09-11 07:47:00",
        "START_TIME": "2026-09-12 12:00:00",
        "END_TIME": "2026-09-13 12:00:00",
        "Snippet": "12Z 09/12/26 - 12Z 09/13/26",
        "risk_norm": "MARGINAL"
      },
      "geometry": {
        "type": "Polygon",
        "coordinates": [
          [
            [
              -89.84552074321768,
              28.931472836935967
            ],
            [
              -90.11316001993794,
              28.757695011491165
            ],
            [
              -91.04999807871151,
              28.73885912208155
            ],
            [
              -91.6632844398196,
              29.11805931176347
            ],
            [
              -91.820891038045,
              29.075785756639466
            ],
            [
              -92.08032577742242,
              29.126467070091238
            ],
            [
              -92.1824269179349,
              29.21950606131329
            ],
            [
              -92.5476757470499,
              29.225702201592362
            ],
            [
              -93.22266304624043,
              29.462687779748723
            ],
            [
              -93.58870427310148,
              29.466435775146778
            ],
            [
              -93.74655305788035,
              29.376680902494464
            ],
            [
              -93.95557214162247,
              29.378224519021607
            ],
            [
              -94.37482954012549,
              29.152669880948693
            ],
            [
              -94.6874912450883,
              29.655595856394097
            ],
            [
              -94.68664345614947,
              29.97427036278197
            ],
            [
              -94.63369567716767,
              30.110683461874903
            ],
            [
              -94.36850084456582,
              30.338231421677868
            ],
            [
              -93.83895656521089,
              30.608082489818955
            ],
            [
              -92.34820841985066,
              31.13548667778803
            ],
            [
              -91.38803667862886,
              31.2982238644402
            ],
            [
              -91.01165644922224,
              31.425472797665762
            ],
            [
              -90.4119075743854,
              31.81701262565149
            ],
            [
              -89.8543766658733,
              32.344393670165196
            ],
            [
              -89.27350156276704,
              33.23067851135979
            ],
            [
              -89.16135726790682,
              34.35615551588351
            ],
            [
              -88.70508911779599,
              36.63159351994512
            ],
            [
              -88.45294367513301,
              37.114029414934386
            ],
            [
              -87.67219341521592,
              37.885532226143695
            ],
            [
              -86.59919640342186,
              38.5939998607636
            ],
            [
              -84.4964885832516,
              39.72193998077486
            ],
            [
              -82.145118457984,
              40.58315242059379
            ],
            [
              -80.5394154044848,
              41.25386414379682
            ],
            [
              -79.43196334202555,
              41.60152231984922
            ],
            [
              -78.8312470311564,
              41.68067085827179
            ],
            [
              -77.67183618514923,
              41.573058768757285
            ],
            [
              -76.76959997408647,
              41.351577760296784
            ],
            [
              -75.96201972194771,
              41.26767068518442
            ],
            [
              -73.216209715274,
              41.44174385300078
            ],
            [
              -72.30601619686757,
              41.28432807408541
            ],
            [
              -71.93395053727615,
              41.10337273000493
            ],
            [
              -71.69642759367659,
              40.849078883113776
            ],
            [
              -71.66052271452041,
              40.754393579774046
            ],
            [
              -72.80244941169983,
              40.366731580764885
            ],
            [
              -73.57954567388487,
              40.28460982894157
            ],
            [
              -73.71015709341064,
              40.21221992322814
            ],
            [
              -73.85341372196022,
              39.51538921313792
            ],
            [
              -74.15853207390785,
              39.14956486953465
            ],
            [
              -74.70327736720743,
              38.72152557532674
            ],
            [
              -74.81286030368888,
              38.15090576064143
            ],
            [
              -75.06332677612373,
              37.73060143840943
            ],
            [
              -75.33487895241208,
              37.492098602666516
            ],
            [
              -75.36730145078597,
              37.31563663547625
            ],
            [
              -75.67687689907939,
              36.85521520589135
            ],
            [
              -75.1544672557628,
              35.70802908591141
            ],
            [
              -75.18832632580406,
              35.21279599680805
            ],
            [
              -75.2838402153967,
              34.996154828329274
            ],
            [
              -75.68750146652499,
              34.90775557746928
            ],
            [
              -76.21169746698526,
              34.4240113310797
            ],
            [
              -76.51309507796557,
              34.27554934724023
            ],
            [
              -76.76864650647587,
              34.395268525245044
            ],
            [
              -77.11486706439331,
              34.297165663611125
            ],
            [
              -77.5412988933626,
              34.025999103894556
            ],
            [
              -77.7115248092838,
              33.63466331486307
            ],
            [
              -77.94830693276285,
              33.522282812135245
            ],
            [
              -77.99526709697264,
              33.572751840595316
            ],
            [
              -78.37836769065561,
              33.567026823234485
            ],
            [
              -78.85386489681626,
              33.2966142532836
            ],
            [
              -80.3761381087255,
              33.30514686715231
            ],
            [
              -81.64542602244005,
              33.14240212595852
            ],
            [
              -82.76450346925533,
              32.8223163508606
            ],
            [
              -83.72122201057266,
              32.43790383185327
            ],
            [
              -84.90465802063234,
              31.83503129429858
            ],
            [
              -85.75675958783766,
              31.205287401758408
            ],
            [
              -86.7457970809692,
              30.02925972617565
            ],
            [
              -87.70158905530097,
              29.894447696549744
            ],
            [
              -88.38566408006709,
              29.879326641562674
            ],
            [
              -88.44712950193036,
              29.700508416265503
            ],
            [
              -88.72582426544463,
              29.392829315223135
            ],
            [
              -88.6263269559462,
              29.297570372466986
            ],
            [
              -88.64102342874018,
              29.024471877489752
            ],
            [
              -88.91871418833526,
              28.715305866724048
            ],
            [
              -89.44432342502064,
              28.59820281254282
            ],
            [
              -89.69963740594949,
              28.698441485691408
            ],
            [
              -89.84552074321768,
              28.931472836935967
            ]
          ],
          [
            [
              -81.88106539600544,
              37.62842656323621
            ],
            [
              -81.09006584828515,
              38.058363605338535
            ],
            [
              -80.75609516429225,
              38.43302181401712
            ],
            [
              -80.23256372176259,
              39.32487299118607
            ],
            [
              -79.55456529083781,
              40.02141580114008
            ],
            [
              -79.63682417817093,
              40.25061910893422
            ],
            [
              -80.14613247722247,
              40.338360575382616
            ],
            [
              -81.39190859593177,
              40.12878767837322
            ],
            [
              -82.05521708672444,
              39.91307906441976
            ],
            [
              -82.8043927555093,
              39.434379807532956
            ],
            [
              -83.5700800098811,
              38.73106002609814
            ],
            [
              -83.90887775004417,
              38.21873733354522
            ],
            [
              -83.84731371109413,
              37.72384269005456
            ],
            [
              -83.70718956226396,
              37.44641230338365
            ],
            [
              -83.49725988769308,
              37.29766574705753
            ],
            [
              -82.98984959263582,
              37.307346882015935
            ],
            [
              -81.88106539600544,
              37.62842656323621
            ]
          ],
          [
            [
              -77.30206256957779,
              37.258280438844174
            ],
            [
              -77.09791853759455,
              37.462192526917214
            ],
            [
              -76.91944901113582,
              37.8477187890114
            ],
            [
              -76.82150818886392,
              38.4203640202538
            ],
            [
              -76.2884950722091,
              39.16862257090307
            ],
            [
              -75.95080628163102,
              39.44405143949732
            ],
            [
              -74.98679188198885,
              39.648569306871
            ],
            [
              -74.79059756648068,
              39.76030612383859
            ],
            [
              -74.76499766554802,
              39.89113552928147
            ],
            [
              -74.95886999502977,
              40.09202256874679
            ],
            [
              -75.81345958898376,
              40.187204769720424
            ],
            [
              -76.62547494773203,
              39.87356444437936
            ],
            [
              -77.14943762000591,
              39.52658874408769
            ],
            [
              -77.89021392487615,
              38.52987115321842
            ],
            [
              -78.01732874040327,
              38.09482417841849
            ],
            [
              -77.87156015269295,
              37.586841842023375
            ],
            [
              -77.52431118612913,
              37.28135309023518
            ],
            [
              -77.30206256957779,
              37.258280438844174
            ]
          ]
        ]
      }
    },
    {
      "type": "Feature",
      "properties": {
        "dn": 1,
        "PRODUCT": "Day 2 Excessive Rainfall Potential Forecast",
        "VALID_TIME": "12Z 09/12/26 - 12Z 09/13/26",
        "OUTLOOK": "Marginal (At Least 5%)",
        "ISSUE_TIME": "2026-09-11 07:47:00",
        "START_TIME": "2026-09-12 12:00:00",
        "END_TIME": "2026-09-13 12:00:00",
        "Snippet": "12Z 09/12/26 - 12Z 09/13/26",
        "risk_norm": "MARGINAL"
      },
      "geometry": {
        "type": "Polygon",
        "coordinates": [
          [
            [
              -108.97623571561925,
              31.13024758539512
            ],
            [
              -110.95653789383776,
              31.17089174187611
            ],
            [
              -112.40760813945136,
              31.567553013781204
            ],
            [
              -112.1511731125642,
              32.00708289186799
            ],
            [
              -111.88620942557193,
              32.76588414771465
            ],
            [
              -111.45113718863367,
              33.13008630652381
            ],
            [
              -111.46953597871125,
              33.62897583480679
            ],
            [
              -111.6629916592552,
              33.83573231885497
            ],
            [
              -112.47296389977843,
              34.11451742886514
            ],
            [
              -112.71852095879451,
              34.27079042541226
            ],
            [
              -112.9310217074034,
              34.56574550003374
            ],
            [
              -113.07973787201392,
              35.13957598747453
            ],
            [
              -112.82087971363812,
              35.93756187323654
            ],
            [
              -112.18517965339066,
              36.86150146354584
            ],
            [
              -111.81792413434316,
              37.75243188162279
            ],
            [
              -111.59964949022743,
              38.53502572682194
            ],
            [
              -111.6258705375501,
              39.42476636233566
            ],
            [
              -111.44728751970214,
              39.75300481101044
            ],
            [
              -109.5591948173982,
              41.11376900999417
            ],
            [
              -108.5588599674649,
              41.4999429682439
            ],
            [
              -106.61418166395605,
              42.42274015697883
            ],
            [
              -105.81125842922336,
              42.64618496745111
            ],
            [
              -105.2816858770151,
              42.67654086414949
            ],
            [
              -104.90564020381329,
              42.478522805379555
            ],
            [
              -104.74157933612318,
              42.007293361367836
            ],
            [
              -104.76208292769128,
              41.61245472597396
            ],
            [
              -105.2246214087921,
              40.97245157398893
            ],
            [
              -105.3363246525663,
              40.349482155043646
            ],
            [
              -105.28384229664407,
              39.82250645301454
            ],
            [
              -104.885982492306,
              39.269701358917615
            ],
            [
              -104.5935564462674,
              38.57560105747036
            ],
            [
              -104.48935334380018,
              38.04709642463297
            ],
            [
              -104.55029132626534,
              37.46354237625111
            ],
            [
              -104.45636368593584,
              36.39418100866976
            ],
            [
              -104.16319064028295,
              35.556801321917725
            ],
            [
              -104.17345381616468,
              35.01581424650062
            ],
            [
              -104.60404759335209,
              34.26911591526759
            ],
            [
              -104.93524038207232,
              33.07220116448573
            ],
            [
              -105.26787895337222,
              32.55123525344254
            ],
            [
              -105.47375883435532,
              32.44708216011994
            ],
            [
              -106.64981438149675,
              32.36588765946863
            ],
            [
              -107.06751174157841,
              32.24395986258554
            ],
            [
              -107.75363530855014,
              31.644065090577392
            ],
            [
              -107.96578444528456,
              31.62688053767055
            ],
            [
              -108.06062585381395,
              31.52882876890281
            ],
            [
              -108.03506727048713,
              31.302893447660725
            ],
            [
              -108.1314928546348,
              31.202752880685438
            ],
            [
              -108.97623571561925,
              31.13024758539512
            ]
          ]
        ]
      }
    },
    {
      "type": "Feature",
      "properties": {
        "dn": 1,
        "PRODUCT": "Day 2 Excessive Rainfall Potential Forecast",
        "VALID_TIME": "12Z 09/12/26 - 12Z 09/13/26",
        "OUTLOOK": "Marginal (At Least 5%)",
        "ISSUE_TIME": "2026-09-11 07:47:00",
        "START_TIME": "2026-09-12 12:00:00",
        "END_TIME": "2026-09-13 12:00:00",
        "Snippet": "12Z 09/12/26 - 12Z 09/13/26",
        "risk_norm": "MARGINAL"
      },
      "geometry": {
        "type": "Polygon",
        "coordinates": [
          [
            [
              -96.88497243169685,
              36.066017846619886
            ],
            [
              -97.55298149244652,
              36.19160863290412
            ],
            [
              -98.56294696674587,
              36.53146027697053
            ],
            [
              -99.19319882398038,
              36.96507124160482
            ],
            [
              -99.48907621905214,
              37.359359803499196
            ],
            [
              -99.61644953028339,
              37.71263815764567
            ],
            [
              -99.61384138795052,
              38.956815947431124
            ],
            [
              -99.47132292347588,
              39.62409262471183
            ],
            [
              -99.09645082335837,
              40.29455351912817
            ],
            [
              -98.70446534315188,
              40.6557945601635
            ],
            [
              -98.19338860520095,
              40.97286845520691
            ],
            [
              -97.56052468308195,
              41.202099964790754
            ],
            [
              -96.80667820296532,
              41.34254591028065
            ],
            [
              -93.71917988328184,
              41.34704147612028
            ],
            [
              -92.7319024545709,
              41.20601840355439
            ],
            [
              -91.98358885365332,
              40.93207501172337
            ],
            [
              -91.36471277500371,
              40.348589454844465
            ],
            [
              -91.15205978239241,
              39.85949726665669
            ],
            [
              -91.17796564854898,
              39.15309092272484
            ],
            [
              -91.41957533060926,
              38.7595228214087
            ],
            [
              -92.1746364100474,
              38.195505176020944
            ],
            [
              -95.11192908429771,
              36.39006315466317
            ],
            [
              -95.77697488799213,
              36.11961771432708
            ],
            [
              -96.88497243169685,
              36.066017846619886
            ]
          ]
        ]
      }
    },
    {
      "type": "Feature",
      "properties": {
        "dn": 2,
        "PRODUCT": "Day 2 Excessive Rainfall Potential Forecast",
        "VALID_TIME": "12Z 09/12/26 - 12Z 09/13/26",
        "OUTLOOK": "Slight (At Least 15%)",
        "ISSUE_TIME": "2026-09-11 07:47:00",
        "START_TIME": "2026-09-12 12:00:00",
        "END_TIME": "2026-09-13 12:00:00",
        "Snippet": "12Z 09/12/26 - 12Z 09/13/26",
        "risk_norm": "SLIGHT"
      },
      "geometry": {
        "type": "Polygon",
        "coordinates": [
          [
            [
              -83.49725988769308,
              37.29766574705753
            ],
            [
              -83.70718956226396,
              37.44641230338365
            ],
            [
              -83.84731371109413,
              37.72384269005456
            ],
            [
              -83.90887775004417,
              38.21873733354522
            ],
            [
              -83.5700800098811,
              38.73106002609814
            ],
            [
              -82.8043927555093,
              39.434379807532956
            ],
            [
              -82.05521708672444,
              39.91307906441976
            ],
            [
              -81.39190859593177,
              40.12878767837322
            ],
            [
              -80.14613247722247,
              40.338360575382616
            ],
            [
              -79.63682417817093,
              40.25061910893422
            ],
            [
              -79.55456529083781,
              40.02141580114008
            ],
            [
              -80.23256372176259,
              39.32487299118607
            ],
            [
              -80.75609516429225,
              38.43302181401712
            ],
            [
              -81.09006584828515,
              38.058363605338535
            ],
            [
              -81.88106539600544,
              37.62842656323621
            ],
            [
              -82.98984959263582,
              37.307346882015935
            ],
            [
              -83.49725988769308,
              37.29766574705753
            ]
          ]
        ]
      }
    },
    {
      "type": "Feature",
      "properties": {
        "dn": 2,
        "PRODUCT": "Day 2 Excessive Rainfall Potential Forecast",
        "VALID_TIME": "12Z 09/12/26 - 12Z 09/13/26",
        "OUTLOOK": "Slight (At Least 15%)",
        "ISSUE_TIME": "2026-09-11 07:47:00",
        "START_TIME": "2026-09-12 12:00:00",
        "END_TIME": "2026-09-13 12:00:00",
        "Snippet": "12Z 09/12/26 - 12Z 09/13/26",
        "risk_norm": "SLIGHT"
      },
      "geometry": {
        "type": "Polygon",
        "coordinates": [
          [
            [
              -77.52431118612913,
              37.28135309023518
            ],
            [
              -77.87156015269295,
              37.586841842023375
            ],
            [
              -78.01732874040327,
              38.09482417841849
            ],
            [
              -77.89021392487615,
              38.52987115321842
            ],
            [
              -77.14943762000591,
              39.52658874408769
            ],
            [
              -76.62547494773203,
              39.87356444437936
            ],
            [
              -75.81345958898376,
              40.187204769720424
            ],
            [
              -74.95886999502977,
              40.09202256874679
            ],
            [
              -74.76499766554802,
              39.89113552928147
            ],
            [
              -74.79059756648068,
              39.76030612383859
            ],
            [
              -74.98679188198885,
              39.648569306871
            ],
            [
              -75.95080628163102,
              39.44405143949732
            ],
            [
              -76.2884950722091,
              39.16862257090307
            ],
            [
              -76.82150818886392,
              38.4203640202538
            ],
            [
              -76.91944901113582,
              37.8477187890114
            ],
            [
              -77.09791853759455,
              37.462192526917214
            ],
            [
              -77.30206256957779,
              37.258280438844174
            ],
            [
              -77.52431118612913,
              37.28135309023518
            ]
          ]
        ]
      }
    }
  ]
}
