{"type": "FeatureCollection", "features": [{"type": "Feature", "properties": {"dn": 1, "PRODUCT": "Day 1 Excessive Rainfall Potential Forecast", "VALID_TIME": "16Z 09/05/26 - 12Z 09/06/26", "OUTLOOK": "Marginal (At Least 5%)", "ISSUE_TIME": "2026-09-05 15:47:00", "START_TIME": "2026-09-05 16:00:00", "END_TIME": "2026-09-06 12:00:00", "Snippet": "16Z 09/05/26 - 12Z 09/06/26"}, "geometry": {"type": "Polygon", "coordinates": [[[-80.42819918944882, 24.83822311490076], [-80.7231957573419, 24.91275353602025], [-81.43452326741118, 25.346558077098763], [-81.94012402154453, 25.8514656258073], [-82.01201380391339, 26.133051623605038], [-81.8777989934388, 26.90149054654885], [-81.65959083105857, 27.478837201205145], [-80.87690764019887, 28.417537801659158], [-80.37286846649697, 28.692336295175064], [-80.26957026165606, 28.682486338971017], [-80.22831009726261, 28.585879083976433], [-80.27895736516328, 28.177831850492325], [-79.72225018624539, 26.83709996097543], [-79.82008651795032, 25.65186736984973], [-79.91545384251842, 25.293733558916493], [-80.17146254650426, 24.859740330306195], [-80.42819918944882, 24.83822311490076]]]}}, {"type": "Feature", "properties": {"dn": 1, "PRODUCT": "Day 1 Excessive Rainfall Potential Forecast", "VALID_TIME": "16Z 09/05/26 - 12Z 09/06/26", "OUTLOOK": "Marginal (At Least 5%)", "ISSUE_TIME": "2026-09-05 15:47:00", "START_TIME": "2026-09-05 16:00:00", "END_TIME": "2026-09-06 12:00:00", "Snippet": "16Z 09/05/26 - 12Z 09/06/26"}, "geometry": {"type": "Polygon", "coordinates": [[[-96.08722758514108, 28.192632432795804], [-96.3495266153272, 28.419537198041564], [-96.61548818332689, 28.918547022234627], [-96.78397187466132, 29.73678288076578], [-96.79438171656886, 30.419318777153364], [-96.59093514866434, 30.9670580834191], [-96.06708688053247, 31.607198647637205], [-95.69482391092332, 31.882366570517103], [-95.21464271706, 32.06510932126783], [-93.98431365925913, 32.107362927934304], [-93.39779877753021, 31.96654337676325], [-92.49851090499013, 31.546635543198338], [-91.8647755848601, 31.353779196710867], [-90.9679916068029, 31.151797520263273], [-89.96064183858905, 31.122940535161717], [-89.42194541066101, 31.286693549581155], [-89.09076561670206, 31.546431025344745], [-88.45962482403256, 32.33892390246463], [-88.12642027489267, 32.50731742453251], [-87.74543467503689, 32.58126027255612], [-85.71256435892005, 32.43116353043901], [-85.08620320987882, 32.21192875537258], [-84.16822259529874, 31.697431445338076], [-83.68494895607381, 31.161739491662072], [-83.44007673034281, 30.41413130977547], [-83.43696797338498, 29.91157256133265], [-83.69432982510064, 29.427808502095115], [-83.88245127110501, 29.66895422242978], [-84.08710279402948, 29.729113279407834], [-84.4813360692646, 29.436485842805258], [-84.91399175906047, 29.282449750682755], [-85.17437984791225, 29.29915663257841], [-85.68460892611208, 29.46759498758081], [-85.72344750313837, 29.653424985947463], [-85.96634164550724, 29.894930583775515], [-86.47697752494051, 30.10603567532834], [-87.70158905530097, 29.894447696549744], [-88.38566408006709, 29.879326641562674], [-88.44712950193036, 29.700508416265503], [-88.72582426544463, 29.392829315223135], [-88.6263269559462, 29.297570372466986], [-88.64102342874018, 29.024471877489752], [-88.91871418833526, 28.715305866724048], [-89.34058509721433, 28.594433286198434], [-89.69963740594949, 28.698441485691408], [-89.84552074321768, 28.931472836935967], [-90.11316001993794, 28.757695011491165], [-91.04999807871151, 28.73885912208155], [-91.6632844398196, 29.11805931176347], [-91.820891038045, 29.075785756639466], [-92.08032577742242, 29.126467070091238], [-92.1824269179349, 29.21950606131329], [-92.5476757470499, 29.225702201592362], [-93.22266304624043, 29.462687779748723], [-93.58870427310148, 29.466435775146778], [-94.26995427925398, 29.24334244579901], [-95.20831027943626, 28.561200309284196], [-96.08722758514108, 28.192632432795804]]]}}, {"type": "Feature", "properties": {"dn": 1, "PRODUCT": "Day 1 Excessive Rainfall Potential Forecast", "VALID_TIME": "16Z 09/05/26 - 12Z 09/06/26", "OUTLOOK": "Marginal (At Least 5%)", "ISSUE_TIME": "2026-09-05 15:47:00", "START_TIME": "2026-09-05 16:00:00", "END_TIME": "2026-09-06 12:00:00", "Snippet": "16Z 09/05/26 - 12Z 09/06/26"}, "geometry": {"type": "Polygon", "coordinates": [[[-104.4733397466578, 29.45805031415491], [-104.87761417462117, 29.890359737728467], [-104.90828457938767, 30.253446935923108], [-105.028860756658, 30.4282232571379], [-106.055277882567, 31.224775584563876], [-106.50210402882288, 31.421674705201944], [-106.57207952163469, 31.597888069269302], [-107.96578444528456, 31.62688053767055], [-108.06062585381395, 31.52882876890281], [-108.07866176117668, 31.20713454245347], [-109.50931757052109, 31.12780594303685], [-110.73956450880605, 31.14696319042524], [-111.28534598770817, 31.228769081486856], [-111.33760447788927, 31.590117421496444], [-111.2034552136043, 31.78759843029447], [-110.5797488464598, 31.941312502254856], [-110.24510168065308, 32.24652654587504], [-110.02646085306856, 33.0416330099102], [-110.03269078168007, 33.90472338684537], [-109.84534614354247, 34.14972526763828], [-109.32094833054778, 34.33256237717399], [-108.23501911784383, 34.42396113595454], [-107.37999207144452, 34.62643713460502], [-107.04328918137811, 35.05711246627924], [-107.0324140100609, 35.463926095345236], [-106.90639670355337, 35.83341165238658], [-106.28087726652107, 36.23751958679631], [-105.92592298627572, 36.57441609422696], [-105.5414144683006, 37.22707828667592], [-105.00348261662698, 37.48314008026921], [-104.3352127567614, 37.565679736808434], [-103.84159183498204, 37.725837452790685], [-103.47413033037907, 38.05557706837853], [-103.2335524663843, 38.60114015138369], [-103.03441366815287, 39.71842224185771], [-103.06240558781258, 40.81910246451343], [-103.26065949898987, 41.11751553099893], [-103.05164101417236, 41.43477416973662], [-102.88380109761968, 41.529756549277266], [-102.5341834032748, 41.5446533076721], [-101.93931431136703, 41.39334072270624], [-101.28000656481902, 41.11075516614705], [-100.92907781487526, 41.078817213794984], [-99.85078886733754, 41.636389262870686], [-99.61923106900917, 41.686132824075514], [-99.08989407461723, 41.61144536573786], [-98.66893001366873, 41.31342575434684], [-98.65949604986925, 41.05078781376882], [-98.81732560521284, 40.60860389790787], [-99.30088626100458, 39.71665105183907], [-100.73848752740459, 37.67871557960668], [-101.22201156333739, 37.25935426022857], [-102.37552884923318, 36.90028423051928], [-102.96249929476473, 36.515422039102845], [-103.83293262252361, 35.57465783872676], [-104.51822453598142, 34.54513555480002], [-104.64680066637224, 34.131004066651805], [-104.65074918842178, 33.54256289025243], [-104.51311677232475, 32.55323327975004], [-104.36517416339905, 32.06233776405734], [-104.1158169164573, 31.622175554359], [-103.15100591863714, 30.81015232341309], [-102.96771728860573, 30.455180296336206], [-102.95225329044095, 30.228136706876427], [-103.0355066421777, 29.904776935664355], [-103.33471055487033, 29.66011553727157], [-103.95155472346495, 29.48896552870722], [-104.4733397466578, 29.45805031415491]]]}}, {"type": "Feature", "properties": {"dn": 1, "PRODUCT": "Day 1 Excessive Rainfall Potential Forecast", "VALID_TIME": "16Z 09/05/26 - 12Z 09/06/26", "OUTLOOK": "Marginal (At Least 5%)", "ISSUE_TIME": "2026-09-05 15:47:00", "START_TIME": "2026-09-05 16:00:00", "END_TIME": "2026-09-06 12:00:00", "Snippet": "16Z 09/05/26 - 12Z 09/06/26"}, "geometry": {"type": "MultiPolygon", "coordinates": [[[[-77.50604924338721, 34.02221024179338], [-77.60874437314557, 33.71471100202884], [-77.7778791007044, 33.565547930438235], [-77.95274596875981, 33.49300196525466], [-77.99969594913043, 33.54347372629753], [-78.38269705127462, 33.537737940718245], [-78.67217702862747, 33.415815460146064], [-78.85266302286722, 33.29740433841915], [-78.95741378027536, 32.943546965180765], [-79.79278512070758, 32.38601404352038], [-82.11883380322881, 33.27169237194847], [-82.7893878464835, 33.595885409124875], [-84.16588786902005, 34.55305826588031], [-85.63243112159839, 35.36446223899689], [-86.2047228668381, 35.80058082445417], [-86.61298020686655, 36.271490744499644], [-87.31030173766328, 37.423593940057515], [-87.36548099212388, 38.22842538583763], [-86.8342657601182, 39.97743179747671], [-86.43193965503654, 40.663647543060016], [-86.0575521247053, 40.95398436342302], [-85.34228387623725, 41.13654643408146], [-84.29910765973658, 41.077418282227704], [-83.21951836187975, 40.83368495077832], [-81.55230068670434, 40.22998132510181], [-79.72749902115169, 39.63796615030762], [-78.10735725752116, 38.95421476026684], [-76.13877565855609, 37.764058205895715], [-75.35920578307434, 37.35976454433401], [-75.67687689907939, 36.85521520589135], [-75.61511937942755, 36.72779981253526], [-76.5902486105724, 37.45332512420636], [-77.64630346346387, 37.923565202162614], [-78.23420499271121, 37.80241939485292], [-78.50564177102252, 37.514797214936955], [-78.67787749849286, 37.1271180748134], [-79.3389752460939, 34.11791479543133], [-79.18604433896962, 33.64879000257126], [-79.04313010628324, 33.49788734714579], [-78.61304931997833, 33.45504296314883], [-78.37827933635727, 33.56762455553073], [-77.99517671223474, 33.57334935313201], [-77.9482163401915, 33.52288038043892], [-77.77330031859398, 33.59541555648216], [-77.64461879285001, 33.71855795791758], [-77.54201827397435, 34.02607642761089], [-77.14669159419863, 34.25071630195979], [-77.50604924338721, 34.02221024179338]]], [[[-75.24711970735581, 34.99265195274225], [-75.69258775655094, 34.8786593344872], [-76.17636920109427, 34.41994090223707], [-76.51793781172255, 34.24637167594707], [-76.77342781215607, 34.36609377873327], [-77.11310824773165, 34.26979965533943], [-76.93811085622775, 34.36923992600652], [-76.76854892880894, 34.39586392823509], [-76.51299624666441, 34.27614480991967], [-76.33598779051458, 34.346979512730535], [-75.68739766468772, 34.908349378346486], [-75.28331915995825, 34.99700139975197], [-75.220274623113, 35.14137963685894], [-75.24711970735581, 34.99265195274225]]], [[[-75.11876789305349, 35.70374929632649], [-75.17788481161901, 35.37622853644216], [-75.15519581418542, 35.70811642855602], [-75.45594898205798, 36.399406462125036], [-75.11876789305349, 35.70374929632649]]]]}}, {"type": "Feature", "properties": {"dn": 2, "PRODUCT": "Day 1 Excessive Rainfall Potential Forecast", "VALID_TIME": "16Z 09/05/26 - 12Z 09/06/26", "OUTLOOK": "Slight (At Least 15%)", "ISSUE_TIME": "2026-09-05 15:47:00", "START_TIME": "2026-09-05 16:00:00", "END_TIME": "2026-09-06 12:00:00", "Snippet": "16Z 09/05/26 - 12Z 09/06/26"}, "geometry": {"type": "Polygon", "coordinates": [[[-79.04313010628324, 33.49788734714579], [-79.18604433896962, 33.64879000257126], [-79.3389752460939, 34.11791479543133], [-78.67787749849286, 37.1271180748134], [-78.50564177102252, 37.514797214936955], [-78.23420499271121, 37.80241939485292], [-77.64630346346387, 37.923565202162614], [-76.5902486105724, 37.45332512420636], [-75.59101869397529, 36.70986818176698], [-75.15519581418542, 35.70811642855602], [-75.18905165108072, 35.21288333701816], [-75.28331915995825, 34.99700139975197], [-75.68739766468772, 34.908349378346486], [-76.33598779051458, 34.346979512730535], [-76.51299624666441, 34.27614480991967], [-76.76854892880894, 34.39586392823509], [-76.93811085622775, 34.36923992600652], [-77.54201827397435, 34.02607642761089], [-77.64461879285001, 33.71855795791758], [-77.77330031859398, 33.59541555648216], [-77.9482163401915, 33.52288038043892], [-77.99517671223474, 33.57334935313201], [-78.37827933635727, 33.56762455553073], [-78.61304931997833, 33.45504296314883], [-79.04313010628324, 33.49788734714579]]]}}]}