{
  "type": "FeatureCollection",
  "features": [
    {
      "type": "Feature",
      "properties": {
        "dn": 1,
        "PRODUCT": "Day 2 Excessive Rainfall Potential Forecast",
        "VALID_TIME": "12Z 09/06/26 - 12Z 09/07/26",
        "OUTLOOK": "Marginal (At Least 5%)",
        "ISSUE_TIME": "2026-09-05 07:33:00",
        "START_TIME": "2026-09-06 12:00:00",
        "END_TIME": "2026-09-07 12:00:00",
        "Snippet": "12Z 09/06/26 - 12Z 09/07/26",
        "risk_norm": "MARGINAL"
      },
      "geometry": {
        "type": "Polygon",
        "coordinates": [
          [
            [
              -81.13101592915555,
              30.68382020482289
            ],
            [
              -80.91979709382122,
              29.79593975750715
            ],
            [
              -80.3146780406514,
              28.731739519934028
            ],
            [
              -80.37309233188805,
              28.690523189098446
            ],
            [
              -81.66570162609065,
              28.80780563734866
            ],
            [
              -83.60005588843545,
              29.328571548402632
            ],
            [
              -83.98262333699651,
              29.721758924327382
            ],
            [
              -84.08710279402948,
              29.729113279407834
            ],
            [
              -84.3126185569891,
              29.562034589859515
            ],
            [
              -84.4691604249817,
              29.57271112571314
            ],
            [
              -85.28951967037918,
              29.808653949936733
            ],
            [
              -85.96634164550724,
              29.894930583775515
            ],
            [
              -86.47697752494051,
              30.10603567532834
            ],
            [
              -86.9556140294765,
              30.04019144235152
            ],
            [
              -89.99012517272779,
              30.43981111445047
            ],
            [
              -90.40816082057974,
              30.543580776257357
            ],
            [
              -90.87491325501377,
              30.783919720989324
            ],
            [
              -91.07821790017498,
              31.062769127418594
            ],
            [
              -91.0689928261354,
              31.33515475976182
            ],
            [
              -90.90000584281574,
              31.60335741243557
            ],
            [
              -90.68087585891145,
              31.734658990156316
            ],
            [
              -88.60352743275521,
              31.66477294695471
            ],
            [
              -87.47727085408593,
              31.75183343526324
            ],
            [
              -85.90551931560502,
              32.03344958044059
            ],
            [
              -85.17750133102416,
              32.39927620114907
            ],
            [
              -84.65647419429432,
              32.81969501758294
            ],
            [
              -83.86182284098095,
              33.764471025682965
            ],
            [
              -83.15044744370415,
              35.34181949955882
            ],
            [
              -82.76189971584104,
              35.854430399941
            ],
            [
              -81.69058078413923,
              36.89692006678219
            ],
            [
              -81.38916796105364,
              37.053352479588305
            ],
            [
              -80.77156140168343,
              37.047447469562975
            ],
            [
              -80.61560591300504,
              36.9435453679642
            ],
            [
              -80.87527889170505,
              36.245987525809376
            ],
            [
              -80.87780922477279,
              35.795572213440344
            ],
            [
              -80.7909973562368,
              35.607718947745695
            ],
            [
              -80.35178057828739,
              35.163813085662014
            ],
            [
              -80.09068843248403,
              35.04998228140535
            ],
            [
              -79.3816141254039,
              34.98432297255864
            ],
            [
              -79.09627268533097,
              35.04758722242675
            ],
            [
              -77.90937945207227,
              35.9246088616163
            ],
            [
              -77.49667799815187,
              36.06253648629491
            ],
            [
              -76.58067092294178,
              36.1899272003792
            ],
            [
              -75.39577087142266,
              36.23590580212667
            ],
            [
              -75.1544672557628,
              35.70802908591141
            ],
            [
              -75.2825951709062,
              34.9969144108118
            ],
            [
              -75.68750146652499,
              34.90775557746928
            ],
            [
              -76.21169746698526,
              34.4240113310797
            ],
            [
              -76.51309507796557,
              34.27554934724023
            ],
            [
              -76.76864650647587,
              34.395268525245044
            ],
            [
              -77.11486706439331,
              34.297165663611125
            ],
            [
              -77.5412988933626,
              34.025999103894556
            ],
            [
              -77.64390130445592,
              33.71848101879983
            ],
            [
              -77.77339189423618,
              33.594818203961296
            ],
            [
              -77.94830693276285,
              33.522282812135245
            ],
            [
              -78.21036025873504,
              33.59520142264277
            ],
            [
              -78.49252021324526,
              33.53320121815604
            ],
            [
              -78.85266302286722,
              33.29740433841915
            ],
            [
              -78.88472710036379,
              33.07294193926657
            ],
            [
              -79.10192511956834,
              32.821218881211564
            ],
            [
              -80.45975156681814,
              31.947531694041075
            ],
            [
              -80.77017919367151,
              31.61068153649363
            ],
            [
              -80.89102067194749,
              31.30028272600198
            ],
            [
              -80.80549449720593,
              31.6138478307439
            ],
            [
              -80.49516161744837,
              31.950764511883545
            ],
            [
              -79.13756622033969,
              32.82474524232784
            ],
            [
              -79.92243102909316,
              33.03731190183807
            ],
            [
              -80.22650585428684,
              33.20194897814811
            ],
            [
              -81.2078682894316,
              34.06031822779086
            ],
            [
              -81.57081248243252,
              34.22653932213275
            ],
            [
              -82.23221972330599,
              34.18896078634887
            ],
            [
              -82.48499849862812,
              33.89097479020116
            ],
            [
              -82.51997826147672,
              33.576298831990094
            ],
            [
              -82.38975085648843,
              32.79428232912959
            ],
            [
              -81.88889415561277,
              31.980446251997247
            ],
            [
              -81.02516798495692,
              31.130828557343
            ],
            [
              -80.91108686286046,
              31.248739813093714
            ],
            [
              -81.13101592915555,
              30.68382020482289
            ]
          ]
        ]
      }
    },
    {
      "type": "Feature",
      "properties": {
        "dn": 1,
        "PRODUCT": "Day 2 Excessive Rainfall Potential Forecast",
        "VALID_TIME": "12Z 09/06/26 - 12Z 09/07/26",
        "OUTLOOK": "Marginal (At Least 5%)",
        "ISSUE_TIME": "2026-09-05 07:33:00",
        "START_TIME": "2026-09-06 12:00:00",
        "END_TIME": "2026-09-07 12:00:00",
        "Snippet": "12Z 09/06/26 - 12Z 09/07/26",
        "risk_norm": "MARGINAL"
      },
      "geometry": {
        "type": "Polygon",
        "coordinates": [
          [
            [
              -110.73956450880605,
              31.14696319042524
            ],
            [
              -111.1811023900453,
              31.240407704969968
            ],
            [
              -111.05177148169628,
              31.847772038073018
            ],
            [
              -110.73274313561694,
              32.65522588010871
            ],
            [
              -110.1281252772884,
              33.39604843519348
            ],
            [
              -108.71164957340156,
              36.05517535287753
            ],
            [
              -108.59620018523769,
              36.46965077895963
            ],
            [
              -108.62459510426167,
              37.14107643063323
            ],
            [
              -108.78710304132363,
              37.53138454589273
            ],
            [
              -109.03838295336378,
              37.73387894096543
            ],
            [
              -109.60998235167241,
              37.775487691281995
            ],
            [
              -110.46642073663827,
              37.430981385065024
            ],
            [
              -110.84584443032138,
              36.94761298451259
            ],
            [
              -111.21171084917793,
              36.011514766198864
            ],
            [
              -111.55027875442136,
              35.66104343695601
            ],
            [
              -112.00872776967489,
              35.38841495864131
            ],
            [
              -112.53357159989706,
              35.19764969603754
            ],
            [
              -113.96447990150374,
              35.12995315587504
            ],
            [
              -114.56955299667412,
              34.786369522744934
            ],
            [
              -115.0595847951602,
              34.13584596355693
            ],
            [
              -115.473558686884,
              32.48313659852913
            ],
            [
              -116.81523369190025,
              32.39679633717296
            ],
            [
              -117.59126395505561,
              32.472202913074405
            ],
            [
              -117.71623716112067,
              32.54720122600829
            ],
            [
              -117.79715530039311,
              32.94883466042036
            ],
            [
              -117.99290583161597,
              33.10438561459955
            ],
            [
              -118.23197248410614,
              33.206655649842304
            ],
            [
              -118.62942288815674,
              33.010823593008205
            ],
            [
              -118.87498286466361,
              33.38858892893066
            ],
            [
              -119.43660457457403,
              33.946733392781056
            ],
            [
              -119.56189580812905,
              34.01855591577729
            ],
            [
              -119.77715188807969,
              33.986638411942806
            ],
            [
              -119.23074282479357,
              34.52832071853838
            ],
            [
              -118.23037471893225,
              35.31295015703792
            ],
            [
              -116.92212476718048,
              36.58196996032338
            ],
            [
              -115.89987167143941,
              37.705946939522796
            ],
            [
              -113.79941865630104,
              39.6508232467006
            ],
            [
              -113.40826322870764,
              40.047503889479884
            ],
            [
              -113.14298985176677,
              40.518956039326355
            ],
            [
              -113.3276252374509,
              40.898722319165515
            ],
            [
              -114.28773241999488,
              41.63762728624049
            ],
            [
              -114.41227415680068,
              41.97696227174019
            ],
            [
              -114.3970804377369,
              42.813357133600256
            ],
            [
              -114.48098416591257,
              42.93591190404893
            ],
            [
              -114.86551041261129,
              43.06908895927384
            ],
            [
              -116.03653528749935,
              42.93891616922167
            ],
            [
              -117.98684167752691,
              42.04272129994734
            ],
            [
              -120.2632640832239,
              41.382198652382144
            ],
            [
              -121.58962961720694,
              41.01058106054355
            ],
            [
              -122.15865041635317,
              40.92427837788784
            ],
            [
              -122.616426345634,
              41.07812622609095
            ],
            [
              -122.93906194611809,
              41.38540302645083
            ],
            [
              -123.26698105273822,
              41.914068826882655
            ],
            [
              -123.34699771482099,
              42.61330779278403
            ],
            [
              -122.81472843479601,
              44.765811147334524
            ],
            [
              -122.3597144342089,
              45.747083074443275
            ],
            [
              -122.23145278778497,
              46.37153997608449
            ],
            [
              -121.79770097122328,
              46.82060091596232
            ],
            [
              -121.47084916939639,
              46.99399429788951
            ],
            [
              -121.16787124862881,
              47.03460902252447
            ],
            [
              -120.9374969356247,
              46.89262636273021
            ],
            [
              -120.89065319836998,
              46.7269427854755
            ],
            [
              -121.02829997208572,
              46.105072549158294
            ],
            [
              -120.43495789554025,
              45.75272101847777
            ],
            [
              -120.11307694518456,
              45.70852810204638
            ],
            [
              -119.05558917638709,
              45.93008886738006
            ],
            [
              -118.37584373117201,
              46.18581522001832
            ],
            [
              -117.7231325027119,
              46.563777040724204
            ],
            [
              -117.37047877362212,
              46.903127498892935
            ],
            [
              -117.2889178763497,
              47.33898256416259
            ],
            [
              -117.6795292172612,
              48.39783467259615
            ],
            [
              -117.97069946115423,
              48.78681667684381
            ],
            [
              -118.01402794383938,
              49.203111614643845
            ],
            [
              -114.9980886059723,
              49.18334626790042
            ],
            [
              -111.2947108417315,
              49.17543712777201
            ],
            [
              -105.56873875913875,
              49.131896152874084
            ],
            [
              -99.61715085507376,
              49.142976536466
            ],
            [
              -95.50672436238419,
              49.15240911350793
            ],
            [
              -95.44662942889883,
              49.52344789590666
            ],
            [
              -95.12787396064387,
              49.5247110113451
            ],
            [
              -94.99961189337019,
              48.52992410640184
            ],
            [
              -94.75018208902466,
              47.90414091287097
            ],
            [
              -93.64461863019787,
              46.76533164100993
            ],
            [
              -93.22961625092026,
              45.915138197713325
            ],
            [
              -93.19780607880048,
              44.37703300933351
            ],
            [
              -93.34721263111089,
              42.65086196712837
            ],
            [
              -93.39134245950189,
              39.89408569937694
            ],
            [
              -93.51564801648463,
              39.23279732716531
            ],
            [
              -93.80554327955906,
              38.83659745953231
            ],
            [
              -94.09213176406762,
              38.70447587360685
            ],
            [
              -94.60324429853152,
              38.706394995401894
            ],
            [
              -95.17144709359457,
              38.88402828690185
            ],
            [
              -95.74457933517871,
              39.325940923919006
            ],
            [
              -96.49855142542759,
              40.115367336627074
            ],
            [
              -96.9644954011315,
              40.461950353831575
            ],
            [
              -97.66422183211749,
              40.71648715359028
            ],
            [
              -98.71391481575523,
              40.917236353340954
            ],
            [
              -99.1316023115189,
              41.172036561339674
            ],
            [
              -99.15656935312252,
              41.78379173209046
            ],
            [
              -98.56242932568097,
              43.1876160448754
            ],
            [
              -98.551309447757,
              44.524101125163035
            ],
            [
              -98.82748471615012,
              45.41723140563054
            ],
            [
              -99.14762853186161,
              45.79397722459549
            ],
            [
              -99.71370731352573,
              46.16259094824008
            ],
            [
              -101.72419965760426,
              46.866031166504506
            ],
            [
              -104.30555564707097,
              47.35235644307679
            ],
            [
              -105.29913218044568,
              47.34571793329109
            ],
            [
              -106.0303354863628,
              47.22229487839843
            ],
            [
              -107.7534250415272,
              46.65341926484193
            ],
            [
              -108.26834089084075,
              46.364404832109265
            ],
            [
              -108.70581315057308,
              45.99418739388046
            ],
            [
              -108.89883801953773,
              45.63860451792418
            ],
            [
              -109.06529433320065,
              45.11202619146666
            ],
            [
              -109.13592677796507,
              43.942222642745016
            ],
            [
              -108.95354692081953,
              43.08758054699507
            ],
            [
              -107.60881061995396,
              40.4674745012002
            ],
            [
              -107.14033686181048,
              38.949688278303796
            ],
            [
              -106.86375186379753,
              38.52381562689413
            ],
            [
              -106.5020097828841,
              38.3264117195336
            ],
            [
              -105.24350735915496,
              38.22756404010192
            ],
            [
              -104.18225382246743,
              37.75252341695022
            ],
            [
              -103.34261726985724,
              37.124731109368
            ],
            [
              -103.13810605843308,
              36.64235273480553
            ],
            [
              -103.47854760342645,
              35.9975635435405
            ],
            [
              -104.89982157952409,
              34.52258449325328
            ],
            [
              -105.18166828903621,
              34.008099199198824
            ],
            [
              -105.43594905640387,
              33.22202373826261
            ],
            [
              -105.80650041086656,
              32.56220772821565
            ],
            [
              -106.67820345651589,
              31.590117875959166
            ],
            [
              -107.96578444528456,
              31.62688053767055
            ],
            [
              -108.06062585381395,
              31.52882876890281
            ],
            [
              -108.07866176117668,
              31.20713454245347
            ],
            [
              -108.97623571561925,
              31.13024758539512
            ],
            [
              -110.73956450880605,
              31.14696319042524
            ]
          ],
          [
            [
              -113.23336682009267,
              36.0733581050493
            ],
            [
              -113.09023704638415,
              36.224995372385116
            ],
            [
              -112.93610110673006,
              36.64790784774411
            ],
            [
              -112.16443301345038,
              37.448448795788856
            ],
            [
              -111.21066273272585,
              38.61669181426812
            ],
            [
              -110.92931991227296,
              39.40067396078361
            ],
            [
              -110.98313178125709,
              39.75145767645785
            ],
            [
              -111.11128506119061,
              39.82902751030212
            ],
            [
              -111.74497512248757,
              39.814187264285245
            ],
            [
              -112.23551440143797,
              39.633244070877744
            ],
            [
              -114.30868401505975,
              38.02812649699603
            ],
            [
              -115.70334570186004,
              36.69081366585579
            ],
            [
              -115.70753342712217,
              36.41874851104828
            ],
            [
              -115.45361048913101,
              36.26843624859372
            ],
            [
              -115.17085106613877,
              36.25756605000315
            ],
            [
              -114.49642030458045,
              36.56373447236262
            ],
            [
              -114.16573735891804,
              36.6018555039551
            ],
            [
              -113.85971347998507,
              36.456304857345536
            ],
            [
              -113.45299572644504,
              36.04918840919116
            ],
            [
              -113.23336682009267,
              36.0733581050493
            ]
          ]
        ]
      }
    },
    {
      "type": "Feature",
      "properties": {
        "dn": 2,
        "PRODUCT": "Day 2 Excessive Rainfall Potential Forecast",
        "VALID_TIME": "12Z 09/06/26 - 12Z 09/07/26",
        "OUTLOOK": "Slight (At Least 15%)",
        "ISSUE_TIME": "2026-09-05 07:33:00",
        "START_TIME": "2026-09-06 12:00:00",
        "END_TIME": "2026-09-07 12:00:00",
        "Snippet": "12Z 09/06/26 - 12Z 09/07/26",
        "risk_norm": "SLIGHT"
      },
      "geometry": {
        "type": "Polygon",
        "coordinates": [
          [
            [
              -81.02516798495692,
              31.130828557343
            ],
            [
              -81.88889415561277,
              31.980446251997247
            ],
            [
              -82.38975085648843,
              32.79428232912959
            ],
            [
              -82.51997826147672,
              33.576298831990094
            ],
            [
              -82.48499849862812,
              33.89097479020116
            ],
            [
              -82.23221972330599,
              34.18896078634887
            ],
            [
              -81.57081248243252,
              34.22653932213275
            ],
            [
              -81.2078682894316,
              34.06031822779086
            ],
            [
              -80.22650585428684,
              33.20194897814811
            ],
            [
              -79.92243102909316,
              33.03731190183807
            ],
            [
              -79.13756622033969,
              32.82474524232784
            ],
            [
              -80.49516161744837,
              31.950764511883545
            ],
            [
              -80.80549449720593,
              31.6138478307439
            ],
            [
              -80.90272069486379,
              31.257386864912466
            ],
            [
              -81.02516798495692,
              31.130828557343
            ]
          ]
        ]
      }
    },
    {
      "type": "Feature",
      "properties": {
        "dn": 2,
        "PRODUCT": "Day 2 Excessive Rainfall Potential Forecast",
        "VALID_TIME": "12Z 09/06/26 - 12Z 09/07/26",
        "OUTLOOK": "Slight (At Least 15%)",
        "ISSUE_TIME": "2026-09-05 07:33:00",
        "START_TIME": "2026-09-06 12:00:00",
        "END_TIME": "2026-09-07 12:00:00",
        "Snippet": "12Z 09/06/26 - 12Z 09/07/26",
        "risk_norm": "SLIGHT"
      },
      "geometry": {
        "type": "Polygon",
        "coordinates": [
          [
            [
              -113.45299572644504,
              36.04918840919116
            ],
            [
              -113.85971347998507,
              36.456304857345536
            ],
            [
              -114.16573735891804,
              36.6018555039551
            ],
            [
              -114.49642030458045,
              36.56373447236262
            ],
            [
              -115.17085106613877,
              36.25756605000315
            ],
            [
              -115.45361048913101,
              36.26843624859372
            ],
            [
              -115.70753342712217,
              36.41874851104828
            ],
            [
              -115.70334570186004,
              36.69081366585579
            ],
            [
              -114.30868401505975,
              38.02812649699603
            ],
            [
              -112.23551440143797,
              39.633244070877744
            ],
            [
              -111.74497512248757,
              39.814187264285245
            ],
            [
              -111.11128506119061,
              39.82902751030212
            ],
            [
              -110.98313178125709,
              39.75145767645785
            ],
            [
              -110.92931991227296,
              39.40067396078361
            ],
            [
              -111.21066273272585,
              38.61669181426812
            ],
            [
              -112.16443301345038,
              37.448448795788856
            ],
            [
              -112.93610110673006,
              36.64790784774411
            ],
            [
              -113.09023704638415,
              36.224995372385116
            ],
            [
              -113.23336682009267,
              36.0733581050493
            ],
            [
              -113.45299572644504,
              36.04918840919116
            ]
          ]
        ]
      }
    }
  ]
}
