{
  "type": "FeatureCollection",
  "features": [
    {
      "type": "Feature",
      "properties": {
        "dn": 1,
        "PRODUCT": "Day 1 Excessive Rainfall Potential Forecast",
        "VALID_TIME": "12Z 10/09/26 - 12Z 10/10/26",
        "OUTLOOK": "Marginal (At Least 5%)",
        "ISSUE_TIME": "2026-10-09 08:22:00",
        "START_TIME": "2026-10-09 12:00:00",
        "END_TIME": "2026-10-10 12:00:00",
        "Snippet": "12Z 10/09/26 - 12Z 10/10/26",
        "risk_norm": "MARGINAL"
      },
      "geometry": {
        "type": "Polygon",
        "coordinates": [
          [
            [
              -83.12008427084714,
              28.378261282360956
            ],
            [
              -83.11896106695674,
              28.379090293812872
            ],
            [
              -83.118019480465,
              28.378101670543757
            ],
            [
              -83.12008427084714,
              28.378261282360956
            ]
          ]
        ]
      }
    },
    {
      "type": "Feature",
      "properties": {
        "dn": 1,
        "PRODUCT": "Day 1 Excessive Rainfall Potential Forecast",
        "VALID_TIME": "12Z 10/09/26 - 12Z 10/10/26",
        "OUTLOOK": "Marginal (At Least 5%)",
        "ISSUE_TIME": "2026-10-09 08:22:00",
        "START_TIME": "2026-10-09 12:00:00",
        "END_TIME": "2026-10-10 12:00:00",
        "Snippet": "12Z 10/09/26 - 12Z 10/10/26",
        "risk_norm": "MARGINAL"
      },
      "geometry": {
        "type": "MultiPolygon",
        "coordinates": [
          [
            [
              [
                -85.9693383913366,
                29.85598282115516
              ],
              [
                -86.4798101933577,
                30.06709117054148
              ],
              [
                -87.70401077729491,
                29.855469840529768
              ],
              [
                -88.38733618876296,
                29.84962085241296
              ],
              [
                -88.41293545579818,
                29.69906613997842
              ],
              [
                -88.72582426544463,
                29.392829315223135
              ],
              [
                -88.6263269559462,
                29.297570372466986
              ],
              [
                -88.64102342874018,
                29.024471877489752
              ],
              [
                -88.69272593825586,
                29.072207821350567
              ],
              [
                -89.02275432832091,
                29.76920223423583
              ],
              [
                -89.11618146475391,
                31.047417447327838
              ],
              [
                -89.53947765700416,
                32.197928862694404
              ],
              [
                -89.90509869226274,
                33.61348777183415
              ],
              [
                -89.88258805256511,
                34.10955569862295
              ],
              [
                -89.76114962587926,
                34.376393585620434
              ],
              [
                -89.47068242154796,
                34.727472288887896
              ],
              [
                -88.95531807882857,
                35.1155636459751
              ],
              [
                -88.56073093651959,
                35.280679531352455
              ],
              [
                -87.79442652513198,
                35.204162246283964
              ],
              [
                -86.88439586680576,
                34.84671006675544
              ],
              [
                -86.15090611081897,
                34.40285464136662
              ],
              [
                -85.72640509728231,
                34.243878959898325
              ],
              [
                -83.69366504335868,
                34.34218772527671
              ],
              [
                -83.07025168567586,
                34.02636485810274
              ],
              [
                -82.18773797286553,
                33.14274837160989
              ],
              [
                -81.87579600559607,
                33.02680780350547
              ],
              [
                -81.59682384966267,
                33.09474856223045
              ],
              [
                -80.3830965435844,
                33.67111078484113
              ],
              [
                -79.87989309504442,
                33.76128322256152
              ],
              [
                -79.33446200074602,
                33.755009794564714
              ],
              [
                -78.96999301604646,
                33.62847716900194
              ],
              [
                -78.67217702862747,
                33.415815460146064
              ],
              [
                -78.85266302286722,
                33.29740433841915
              ],
              [
                -78.95741378027536,
                32.943546965180765
              ],
              [
                -80.49445341643577,
                31.950699855526654
              ],
              [
                -80.8799255035581,
                31.43795482648714
              ],
              [
                -81.12021116667621,
                30.77425779181026
              ],
              [
                -81.06926742590505,
                30.312625737486528
              ],
              [
                -80.75520059408946,
                29.414626373216457
              ],
              [
                -80.4474181553467,
                28.927734526051523
              ],
              [
                -81.01632463648757,
                29.43747438191336
              ],
              [
                -81.41155775516546,
                29.65567666681411
              ],
              [
                -81.87063674589461,
                29.78659634654731
              ],
              [
                -82.19870294273149,
                29.676704281596713
              ],
              [
                -82.43048053986185,
                29.467829500167593
              ],
              [
                -82.98839232060898,
                28.641800005157737
              ],
              [
                -83.02637609553368,
                28.782066470177625
              ],
              [
                -83.28183536671474,
                28.848349498711404
              ],
              [
                -83.32023214938555,
                28.98850924755592
              ],
              [
                -83.46083675351436,
                29.137237014485866
              ],
              [
                -83.08987859713577,
                29.702647853622047
              ],
              [
                -82.88183075198513,
                30.189278020589008
              ],
              [
                -82.71991667220242,
                31.22649182951322
              ],
              [
                -82.81178666032378,
                31.871556240979263
              ],
              [
                -83.05567510541186,
                32.617899401888856
              ],
              [
                -83.2371986293928,
                32.94929855531618
              ],
              [
                -83.58184544892383,
                33.29218813695184
              ],
              [
                -84.47703982282981,
                33.57942489721172
              ],
              [
                -85.34191005796164,
                33.63313637160275
              ],
              [
                -85.67390065608744,
                33.5619824136064
              ],
              [
                -86.16051350910972,
                33.58918475947475
              ],
              [
                -87.15403088202339,
                34.13737763548372
              ],
              [
                -87.79506326648182,
                34.347419571186926
              ],
              [
                -88.06752124224202,
                34.359158136730294
              ],
              [
                -88.56844205270924,
                34.199057199652955
              ],
              [
                -89.07800236633037,
                33.856621951279976
              ],
              [
                -89.25464474166566,
                33.591817075353845
              ],
              [
                -89.27980062367678,
                33.09513601941862
              ],
              [
                -89.15066612218591,
                32.45629941957849
              ],
              [
                -88.73029165492643,
                31.30539515051569
              ],
              [
                -88.68601148996369,
                30.166020634352186
              ],
              [
                -88.50355038867283,
                29.65728239229178
              ],
              [
                -88.38562995539984,
                29.879932882157583
              ],
              [
                -87.70330473589726,
                29.866833646949562
              ],
              [
                -86.4789843425072,
                30.07844525356971
              ],
              [
                -85.96846470450589,
                29.867337853989106
              ],
              [
                -85.75519410177712,
                29.655310538756154
              ],
              [
                -85.73759877693406,
                29.569531404898942
              ],
              [
                -85.76825854566137,
                29.656086486414054
              ],
              [
                -85.9693383913366,
                29.85598282115516
              ]
            ]
          ],
          [
            [
              [
                -85.698291205895,
                29.458562856971906
              ],
              [
                -85.60911432098457,
                29.402681546128605
              ],
              [
                -85.68768780010699,
                29.428628559016754
              ],
              [
                -85.698291205895,
                29.458562856971906
              ]
            ]
          ],
          [
            [
              [
                -84.91731966437261,
                29.2434894295263
              ],
              [
                -85.17762244775516,
                29.260191671416877
              ],
              [
                -85.53404557626752,
                29.37789188798407
              ],
              [
                -85.22229773875871,
                29.315792378981293
              ],
              [
                -85.17431367240525,
                29.29995183586741
              ],
              [
                -85.12779129031702,
                29.296966894600317
              ],
              [
                -84.91634942958773,
                29.25484812374099
              ],
              [
                -84.48379788327874,
                29.408896649427888
              ],
              [
                -84.39334381574,
                29.46546614323538
              ],
              [
                -84.48481097546563,
                29.397543071906338
              ],
              [
                -84.91731966437261,
                29.2434894295263
              ]
            ]
          ],
          [
            [
              [
                -84.03230676614285,
                29.691256798063726
              ],
              [
                -83.98256661213516,
                29.722364026413818
              ],
              [
                -83.49171711454585,
                29.16990142947185
              ],
              [
                -83.98540285520308,
                29.692108922093063
              ],
              [
                -84.03230676614285,
                29.691256798063726
              ]
            ]
          ]
        ]
      }
    },
    {
      "type": "Feature",
      "properties": {
        "dn": 1,
        "PRODUCT": "Day 1 Excessive Rainfall Potential Forecast",
        "VALID_TIME": "12Z 10/09/26 - 12Z 10/10/26",
        "OUTLOOK": "Marginal (At Least 5%)",
        "ISSUE_TIME": "2026-10-09 08:22:00",
        "START_TIME": "2026-10-09 12:00:00",
        "END_TIME": "2026-10-10 12:00:00",
        "Snippet": "12Z 10/09/26 - 12Z 10/10/26",
        "risk_norm": "MARGINAL"
      },
      "geometry": {
        "type": "Polygon",
        "coordinates": [
          [
            [
              -80.35720559139945,
              28.82749919826685
            ],
            [
              -80.35605908838153,
              28.828307492311218
            ],
            [
              -80.35513713473935,
              28.82730269845023
            ],
            [
              -80.35720559139945,
              28.82749919826685
            ]
          ]
        ]
      }
    },
    {
      "type": "Feature",
      "properties": {
        "dn": 1,
        "PRODUCT": "Day 1 Excessive Rainfall Potential Forecast",
        "VALID_TIME": "12Z 10/09/26 - 12Z 10/10/26",
        "OUTLOOK": "Marginal (At Least 5%)",
        "ISSUE_TIME": "2026-10-09 08:22:00",
        "START_TIME": "2026-10-09 12:00:00",
        "END_TIME": "2026-10-10 12:00:00",
        "Snippet": "12Z 10/09/26 - 12Z 10/10/26",
        "risk_norm": "MARGINAL"
      },
      "geometry": {
        "type": "Polygon",
        "coordinates": [
          [
            [
              -80.40332753580829,
              28.877722875023604
            ],
            [
              -80.40218086200865,
              28.87853146196349
            ],
            [
              -80.40125812787097,
              28.877527003445664
            ],
            [
              -80.40332753580829,
              28.877722875023604
            ]
          ]
        ]
      }
    },
    {
      "type": "Feature",
      "properties": {
        "dn": 2,
        "PRODUCT": "Day 1 Excessive Rainfall Potential Forecast",
        "VALID_TIME": "12Z 10/09/26 - 12Z 10/10/26",
        "OUTLOOK": "Slight (At Least 15%)",
        "ISSUE_TIME": "2026-10-09 08:22:00",
        "START_TIME": "2026-10-09 12:00:00",
        "END_TIME": "2026-10-10 12:00:00",
        "Snippet": "12Z 10/09/26 - 12Z 10/10/26",
        "risk_norm": "SLIGHT"
      },
      "geometry": {
        "type": "Polygon",
        "coordinates": [
          [
            [
              -85.58610243279975,
              29.38826150355771
            ],
            [
              -85.71727688028659,
              29.47045993515884
            ],
            [
              -85.75519410177712,
              29.655310538756154
            ],
            [
              -85.96846470450589,
              29.867337853989106
            ],
            [
              -86.4789843425072,
              30.07844525356971
            ],
            [
              -87.70330473589726,
              29.866833646949562
            ],
            [
              -88.38562995539984,
              29.879932882157583
            ],
            [
              -88.50355038867283,
              29.65728239229178
            ],
            [
              -88.68601148996369,
              30.166020634352186
            ],
            [
              -88.73029165492643,
              31.30539515051569
            ],
            [
              -89.15066612218591,
              32.45629941957849
            ],
            [
              -89.27980062367678,
              33.09513601941862
            ],
            [
              -89.25464474166566,
              33.591817075353845
            ],
            [
              -89.07800236633037,
              33.856621951279976
            ],
            [
              -88.56844205270924,
              34.199057199652955
            ],
            [
              -88.06752124224202,
              34.359158136730294
            ],
            [
              -87.79506326648182,
              34.347419571186926
            ],
            [
              -87.15403088202339,
              34.13737763548372
            ],
            [
              -86.16051350910972,
              33.58918475947475
            ],
            [
              -85.67390065608744,
              33.5619824136064
            ],
            [
              -85.34191005796164,
              33.63313637160275
            ],
            [
              -84.47703982282981,
              33.57942489721172
            ],
            [
              -83.58184544892383,
              33.29218813695184
            ],
            [
              -83.2371986293928,
              32.94929855531618
            ],
            [
              -83.05567510541186,
              32.617899401888856
            ],
            [
              -82.81178666032378,
              31.871556240979263
            ],
            [
              -82.71991667220242,
              31.22649182951322
            ],
            [
              -82.88183075198513,
              30.189278020589008
            ],
            [
              -83.08987859713577,
              29.702647853622047
            ],
            [
              -83.46162633090005,
              29.136033548260556
            ],
            [
              -83.98256661213516,
              29.722364026413818
            ],
            [
              -84.48379788327874,
              29.408896649427888
            ],
            [
              -84.91634942958773,
              29.25484812374099
            ],
            [
              -85.12779129031702,
              29.296966894600317
            ],
            [
              -84.9139238426255,
              29.283244859277787
            ],
            [
              -84.4812651528115,
              29.4372805932318
            ],
            [
              -84.03033007737552,
              29.77171846549922
            ],
            [
              -83.84770829395202,
              30.03279957959858
            ],
            [
              -83.70798931751445,
              30.38800786802294
            ],
            [
              -83.71668219176534,
              30.84486848336361
            ],
            [
              -83.74747231823851,
              31.075041839621562
            ],
            [
              -83.88882270177659,
              31.267518170503052
            ],
            [
              -84.09202594012835,
              31.372758218628732
            ],
            [
              -84.82614318469122,
              31.512618416954684
            ],
            [
              -85.52747052554129,
              31.419501479599585
            ],
            [
              -85.89887363277127,
              31.441243886136593
            ],
            [
              -86.9887309313208,
              31.863599581571247
            ],
            [
              -87.3648209789085,
              31.83662289350571
            ],
            [
              -87.75236496618797,
              31.627371519485145
            ],
            [
              -87.92863735282283,
              31.362597042839727
            ],
            [
              -88.0674133778014,
              30.822902363966122
            ],
            [
              -87.94196272913466,
              30.270942957192858
            ],
            [
              -87.75415409940828,
              29.89780611888968
            ],
            [
              -86.47691971538097,
              30.10683046114033
            ],
            [
              -85.9662804874291,
              29.89572543607389
            ],
            [
              -85.72253299206646,
              29.653370669611412
            ],
            [
              -85.68454609194893,
              29.468390220816804
            ],
            [
              -85.22229773875871,
              29.315792378981293
            ],
            [
              -85.58610243279975,
              29.38826150355771
            ]
          ]
        ]
      }
    },
    {
      "type": "Feature",
      "properties": {
        "dn": 3,
        "PRODUCT": "Day 1 Excessive Rainfall Potential Forecast",
        "VALID_TIME": "12Z 10/09/26 - 12Z 10/10/26",
        "OUTLOOK": "Moderate (At Least 40%)",
        "ISSUE_TIME": "2026-10-09 08:22:00",
        "START_TIME": "2026-10-09 12:00:00",
        "END_TIME": "2026-10-10 12:00:00",
        "Snippet": "12Z 10/09/26 - 12Z 10/10/26",
        "risk_norm": "MODERATE"
      },
      "geometry": {
        "type": "Polygon",
        "coordinates": [
          [
            [
              -85.17431367240525,
              29.29995183586741
            ],
            [
              -85.68454609194893,
              29.468390220816804
            ],
            [
              -85.72253299206646,
              29.653370669611412
            ],
            [
              -85.9662804874291,
              29.89572543607389
            ],
            [
              -86.47691971538097,
              30.10683046114033
            ],
            [
              -87.75415409940828,
              29.89780611888968
            ],
            [
              -87.94196272913466,
              30.270942957192858
            ],
            [
              -88.0674133778014,
              30.822902363966122
            ],
            [
              -87.92863735282283,
              31.362597042839727
            ],
            [
              -87.75236496618797,
              31.627371519485145
            ],
            [
              -87.3648209789085,
              31.83662289350571
            ],
            [
              -86.9887309313208,
              31.863599581571247
            ],
            [
              -85.89887363277127,
              31.441243886136593
            ],
            [
              -85.52747052554129,
              31.419501479599585
            ],
            [
              -84.82614318469122,
              31.512618416954684
            ],
            [
              -84.09202594012835,
              31.372758218628732
            ],
            [
              -83.88882270177659,
              31.267518170503052
            ],
            [
              -83.74747231823851,
              31.075041839621562
            ],
            [
              -83.71668219176534,
              30.84486848336361
            ],
            [
              -83.70798931751445,
              30.38800786802294
            ],
            [
              -83.84770829395202,
              30.03279957959858
            ],
            [
              -84.03033007737552,
              29.77171846549922
            ],
            [
              -84.4812651528115,
              29.4372805932318
            ],
            [
              -84.9139238426255,
              29.283244859277787
            ],
            [
              -85.12779129031702,
              29.296966894600317
            ],
            [
              -85.127791290317,
              29.296966894600313
            ],
            [
              -85.17431367240525,
              29.29995183586741
            ]
          ]
        ]
      }
    }
  ]
}
