{
  "type": "FeatureCollection",
  "features": [
    {
      "type": "Feature",
      "properties": {
        "dn": 1,
        "PRODUCT": "Day 2 Excessive Rainfall Potential Forecast",
        "VALID_TIME": "12Z 10/10/26 - 12Z 10/11/26",
        "OUTLOOK": "Marginal (At Least 5%)",
        "ISSUE_TIME": "2026-10-09 08:38:00",
        "START_TIME": "2026-10-10 12:00:00",
        "END_TIME": "2026-10-11 12:00:00",
        "Snippet": "12Z 10/10/26 - 12Z 10/11/26",
        "risk_norm": "MARGINAL"
      },
      "geometry": {
        "type": "MultiPolygon",
        "coordinates": [
          [
            [
              [
                -81.12021116667621,
                30.77425779181026
              ],
              [
                -81.06926742590505,
                30.312625737486528
              ],
              [
                -80.75520059408946,
                29.414626373216457
              ],
              [
                -80.22831009726261,
                28.585879083976433
              ],
              [
                -80.27895736516328,
                28.177831850492325
              ],
              [
                -79.78954500432337,
                27.119579459547793
              ],
              [
                -79.72225018624539,
                26.83709996097543
              ],
              [
                -79.80171281857538,
                26.615322659974893
              ],
              [
                -80.08466261189187,
                26.41286114693099
              ],
              [
                -80.6077987001828,
                26.325889487994452
              ],
              [
                -81.11455895472572,
                26.373420587769033
              ],
              [
                -81.85567415515683,
                26.62336215509559
              ],
              [
                -82.17407597309173,
                26.513994300068102
              ],
              [
                -82.35610706174242,
                26.253175719623318
              ],
              [
                -83.05644772549002,
                27.45720815714832
              ],
              [
                -83.0428546274088,
                27.5936080096715
              ],
              [
                -83.17876934092348,
                27.78744444256655
              ],
              [
                -83.15381030861391,
                28.380862621078116
              ],
              [
                -82.98060221557084,
                28.55055120976211
              ],
              [
                -83.01395862465998,
                28.736247728165278
              ],
              [
                -83.31569839360316,
                28.850914061571117
              ],
              [
                -83.35413602401009,
                28.991064967947402
              ],
              [
                -83.8852547480311,
                29.639303733683388
              ],
              [
                -84.08985618273041,
                29.69946174504495
              ],
              [
                -84.48398361684634,
                29.40681516021565
              ],
              [
                -84.91652730596495,
                29.252765696468288
              ],
              [
                -85.1768504001735,
                29.269469043122005
              ],
              [
                -85.6855806141147,
                29.468566171687318
              ],
              [
                -85.7614333881443,
                29.83822508901239
              ],
              [
                -85.4368987663231,
                30.594046906796247
              ],
              [
                -85.3844949351319,
                31.228633982202357
              ],
              [
                -85.77817360786223,
                32.29781564567097
              ],
              [
                -86.17355528323219,
                32.72762904998329
              ],
              [
                -86.70383192264565,
                32.84651477278237
              ],
              [
                -88.60152757203399,
                32.66111842611878
              ],
              [
                -89.02878320692673,
                32.72284907816134
              ],
              [
                -89.76770438166761,
                33.066396947729075
              ],
              [
                -90.18367127936973,
                33.441174955127494
              ],
              [
                -90.48480460553947,
                34.037023369950795
              ],
              [
                -90.45010258357942,
                34.89247717154455
              ],
              [
                -90.32158346288983,
                35.33873142949435
              ],
              [
                -89.84168944671603,
                36.17749631328624
              ],
              [
                -89.13342934693586,
                36.960134319382014
              ],
              [
                -86.93005261954289,
                38.7420939460597
              ],
              [
                -84.44333405906882,
                40.82121990063496
              ],
              [
                -83.3229293939498,
                41.45590789462019
              ],
              [
                -82.7104629588127,
                41.67850066955509
              ],
              [
                -82.29219627174572,
                41.7373259969131
              ],
              [
                -81.78545888612419,
                41.569393340471535
              ],
              [
                -81.3607762680143,
                41.229197053458776
              ],
              [
                -81.11302775946767,
                40.90186417944123
              ],
              [
                -80.99380477850939,
                40.495306986228044
              ],
              [
                -81.12214310319666,
                39.97450923283156
              ],
              [
                -81.419925370276,
                39.46558926220112
              ],
              [
                -82.66349301161323,
                38.17856392152901
              ],
              [
                -83.06584732653235,
                37.62635527207548
              ],
              [
                -83.13955389185466,
                36.9598910692592
              ],
              [
                -82.85169169456796,
                36.53644516394133
              ],
              [
                -82.62999695283098,
                36.52029238904838
              ],
              [
                -82.45348182516898,
                36.597066552433375
              ],
              [
                -81.04905981801058,
                37.5180454807758
              ],
              [
                -80.15699132027665,
                38.24842934126296
              ],
              [
                -79.34077051254481,
                38.75770322084626
              ],
              [
                -78.92565890231796,
                38.85352844146994
              ],
              [
                -78.586932839488,
                38.821764020224684
              ],
              [
                -78.1637866414613,
                38.6023978402482
              ],
              [
                -78.12764060386664,
                38.46382865577253
              ],
              [
                -78.29533620329131,
                37.76355920698997
              ],
              [
                -78.89183279312893,
                37.192557571164556
              ],
              [
                -79.18599050363758,
                36.7256542415383
              ],
              [
                -79.16960353972425,
                36.453922504621424
              ],
              [
                -78.92736318943221,
                36.20635512090403
              ],
              [
                -78.49349304004852,
                36.11894249251103
              ],
              [
                -77.34092976434586,
                36.67815133559216
              ],
              [
                -76.98735484767167,
                36.7759275298556
              ],
              [
                -76.18309088397125,
                36.86834212452608
              ],
              [
                -75.85147378069382,
                36.83094162437115
              ],
              [
                -75.59028308763476,
                36.70978305090726
              ],
              [
                -75.1544672557628,
                35.70802908591141
              ],
              [
                -75.14015026989361,
                35.47945563031913
              ],
              [
                -75.2825951709062,
                34.9969144108118
              ],
              [
                -75.46363721499982,
                34.93480038300456
              ],
              [
                -75.52327897285393,
                35.207310584637895
              ],
              [
                -75.70244837587485,
                35.4557543078931
              ],
              [
                -76.00677144413474,
                35.626993377940025
              ],
              [
                -76.38950315107542,
                35.67040419290145
              ],
              [
                -77.1301384129932,
                35.570733742959824
              ],
              [
                -78.46343532850746,
                35.2113106917749
              ],
              [
                -79.59503540917916,
                34.641628929841154
              ],
              [
                -79.82471906623805,
                34.57240477203658
              ],
              [
                -80.25951953336849,
                34.61205682527686
              ],
              [
                -80.75128152155177,
                35.06222611293718
              ],
              [
                -80.78865037865263,
                35.201057281879706
              ],
              [
                -80.71343973294147,
                35.781551277534405
              ],
              [
                -80.489502968592,
                36.21300092340797
              ],
              [
                -80.22659793754357,
                36.50522801549392
              ],
              [
                -80.19626986628188,
                36.72750270673032
              ],
              [
                -80.35101804926079,
                36.83138472461234
              ],
              [
                -80.79502129398954,
                36.86933651495247
              ],
              [
                -81.48939210375502,
                36.70174591343595
              ],
              [
                -83.61068379085735,
                35.68989667382968
              ],
              [
                -83.88136321454418,
                35.753201612116285
              ],
              [
                -84.29589417500776,
                36.05018463566676
              ],
              [
                -84.51258022659479,
                36.10884611389969
              ],
              [
                -86.068805192091,
                36.10920183301018
              ],
              [
                -87.20239753966872,
                36.56928424696882
              ],
              [
                -87.69972254858928,
                36.636330514354256
              ],
              [
                -88.21160841647824,
                36.47854951769392
              ],
              [
                -88.67170848596362,
                36.22758584293928
              ],
              [
                -89.43190624826411,
                35.49109949703184
              ],
              [
                -89.80048733504663,
                34.693154664461666
              ],
              [
                -89.82971302779771,
                34.06276081929995
              ],
              [
                -89.57956970764211,
                33.602968512903566
              ],
              [
                -89.21385778187351,
                33.31859248089885
              ],
              [
                -88.63247541983921,
                33.070487898476486
              ],
              [
                -88.25530229341665,
                33.05518994325205
              ],
              [
                -86.87036369872213,
                33.5348353458627
              ],
              [
                -86.21466613440727,
                33.59121591482309
              ],
              [
                -85.53451069501416,
                33.281244890368065
              ],
              [
                -84.83311084263536,
                32.649382069729036
              ],
              [
                -84.65562659281856,
                32.22919903100533
              ],
              [
                -84.67559334288514,
                31.411663703489882
              ],
              [
                -84.93723458183842,
                30.243600222396456
              ],
              [
                -85.275257301298,
                29.35209799593223
              ],
              [
                -84.91394001320526,
                29.28305554770757
              ],
              [
                -84.4812820376813,
                29.43709136693973
              ],
              [
                -84.08704660242334,
                29.72971841276218
              ],
              [
                -83.88239405729021,
                29.66955933444502
              ],
              [
                -83.31954023357689,
                28.988457089996903
              ],
              [
                -83.28114428453334,
                28.84829716069387
              ],
              [
                -82.97944458156196,
                28.733563113874293
              ],
              [
                -82.94614275006674,
                28.54785858865237
              ],
              [
                -83.11939598436211,
                28.378208193815713
              ],
              [
                -83.15979019973946,
                27.968737654425425
              ],
              [
                -82.68217923447999,
                28.572747655610453
              ],
              [
                -82.34636627480909,
                29.277984352582664
              ],
              [
                -82.3823817718056,
                29.921239811005442
              ],
              [
                -82.62424965445524,
                30.62583754125077
              ],
              [
                -82.56618362929483,
                31.16886663616098
              ],
              [
                -82.30024784194526,
                31.64929528781774
              ],
              [
                -81.90388102637992,
                31.844536510224284
              ],
              [
                -81.74452533128421,
                31.831337962239637
              ],
              [
                -80.9877978594347,
                31.09066784240686
              ],
              [
                -81.12021116667621,
                30.77425779181026
              ]
            ]
          ],
          [
            [
              [
                -78.81759787441108,
                33.29389121380424
              ],
              [
                -78.92245450308135,
                32.94005331803102
              ],
              [
                -80.45975156681814,
                31.947531694041075
              ],
              [
                -80.77017919367151,
                31.61068153649363
              ],
              [
                -80.82921836412935,
                31.46960366976779
              ],
              [
                -80.7413340831997,
                31.699347082842287
              ],
              [
                -80.49516161744837,
                31.950764511883545
              ],
              [
                -78.95812723491197,
                32.94361826410218
              ],
              [
                -78.85337863814183,
                33.29747603483985
              ],
              [
                -78.53962672313557,
                33.47588003456054
              ],
              [
                -78.81759787441108,
                33.29389121380424
              ]
            ]
          ],
          [
            [
              [
                -76.17636920109427,
                34.41994090223707
              ],
              [
                -76.51793781172255,
                34.24637167594707
              ],
              [
                -76.77342781215607,
                34.36609377873327
              ],
              [
                -77.11955399511409,
                34.26797238615109
              ],
              [
                -77.50604924338721,
                34.02221024179338
              ],
              [
                -77.67639172792956,
                33.630907018572174
              ],
              [
                -77.95274596875981,
                33.49300196525466
              ],
              [
                -78.21473424746615,
                33.5659192832868
              ],
              [
                -78.48625235498712,
                33.506229493176775
              ],
              [
                -78.37827933635727,
                33.56762455553073
              ],
              [
                -77.99517671223474,
                33.57334935313201
              ],
              [
                -77.9482163401915,
                33.52288038043892
              ],
              [
                -77.77330031859398,
                33.59541555648216
              ],
              [
                -77.64461879285001,
                33.71855795791758
              ],
              [
                -77.54201827397435,
                34.02607642761089
              ],
              [
                -77.11477141274594,
                34.29776144478377
              ],
              [
                -76.76854892880894,
                34.39586392823509
              ],
              [
                -76.51299624666441,
                34.27614480991967
              ],
              [
                -76.21241845200345,
                34.42409440105609
              ],
              [
                -75.77862415314938,
                34.824206269796164
              ],
              [
                -76.17636920109427,
                34.41994090223707
              ]
            ]
          ],
          [
            [
              [
                -75.77426567736987,
                34.828226326983646
              ],
              [
                -75.68739766468772,
                34.908349378346486
              ],
              [
                -75.49264057446238,
                34.92484957027937
              ],
              [
                -75.77426567736987,
                34.828226326983646
              ]
            ]
          ]
        ]
      }
    },
    {
      "type": "Feature",
      "properties": {
        "dn": 1,
        "PRODUCT": "Day 2 Excessive Rainfall Potential Forecast",
        "VALID_TIME": "12Z 10/10/26 - 12Z 10/11/26",
        "OUTLOOK": "Marginal (At Least 5%)",
        "ISSUE_TIME": "2026-10-09 08:38:00",
        "START_TIME": "2026-10-10 12:00:00",
        "END_TIME": "2026-10-11 12:00:00",
        "Snippet": "12Z 10/10/26 - 12Z 10/11/26",
        "risk_norm": "MARGINAL"
      },
      "geometry": {
        "type": "Polygon",
        "coordinates": [
          [
            [
              -111.28534598770817,
              31.228769081486856
            ],
            [
              -112.85666913077567,
              31.69968378108532
            ],
            [
              -114.6757015466769,
              32.26302203800554
            ],
            [
              -114.97332359793585,
              32.41008378436571
            ],
            [
              -115.05679202879364,
              32.581849836099614
            ],
            [
              -115.79180706434614,
              32.441952570601686
            ],
            [
              -116.81523369190025,
              32.39679633717296
            ],
            [
              -117.4765435101777,
              32.442515256444786
            ],
            [
              -117.71623716112067,
              32.54720122600829
            ],
            [
              -117.79715530039311,
              32.94883466042036
            ],
            [
              -117.99290583161597,
              33.10438561459955
            ],
            [
              -118.17874666791658,
              33.21435329258515
            ],
            [
              -118.47937699163337,
              33.078818068063526
            ],
            [
              -118.51788882885103,
              33.25769948655074
            ],
            [
              -118.42324205251587,
              33.59259684532129
            ],
            [
              -118.15719931432267,
              33.90679976824914
            ],
            [
              -117.52332445206257,
              34.316273888090926
            ],
            [
              -117.0566582365766,
              34.744394498864416
            ],
            [
              -116.6166359739004,
              35.89510027673462
            ],
            [
              -115.54242490584868,
              37.02696021599905
            ],
            [
              -115.20809909098641,
              37.653544734257025
            ],
            [
              -114.97031314327815,
              37.90753324755313
            ],
            [
              -114.61238311793767,
              38.12878045563947
            ],
            [
              -112.4587394902598,
              38.89812048638307
            ],
            [
              -111.78098123745039,
              39.321740407863615
            ],
            [
              -110.80266695700793,
              40.07933690159411
            ],
            [
              -110.23734606092233,
              40.17336119516646
            ],
            [
              -109.86107780847372,
              39.9829824330167
            ],
            [
              -109.46300465442167,
              39.61690905013353
            ],
            [
              -108.77797367553823,
              39.22795433859753
            ],
            [
              -108.58476748671258,
              39.065245086595034
            ],
            [
              -108.49407688993637,
              38.80525685214026
            ],
            [
              -108.70796877740716,
              38.25329165761977
            ],
            [
              -109.31973598110635,
              37.30809412592077
            ],
            [
              -109.38962781705601,
              36.988013362720146
            ],
            [
              -109.30132816267006,
              36.32105459969707
            ],
            [
              -109.61019564396291,
              35.70833292882024
            ],
            [
              -110.44722525555856,
              34.54655029941764
            ],
            [
              -110.47661531059711,
              34.36239234417194
            ],
            [
              -110.34351284474555,
              34.19347775771204
            ],
            [
              -109.79666475803462,
              33.79015928549201
            ],
            [
              -109.59970435650506,
              33.535476242642446
            ],
            [
              -109.39217244643449,
              33.190476019514655
            ],
            [
              -109.28165946979713,
              32.74540372858725
            ],
            [
              -109.69997612132009,
              31.795991895131113
            ],
            [
              -110.31186766614573,
              31.143345958615935
            ],
            [
              -111.28534598770817,
              31.228769081486856
            ]
          ],
          [
            [
              -114.97052178281366,
              33.324850161813146
            ],
            [
              -114.71870682842906,
              33.44720237708254
            ],
            [
              -114.38997813984294,
              34.08034687601812
            ],
            [
              -114.24380381402774,
              34.82582940655859
            ],
            [
              -114.23608418387668,
              35.417099045524964
            ],
            [
              -114.35369289994468,
              36.08321382491053
            ],
            [
              -114.57470898734485,
              36.374647249782036
            ],
            [
              -115.07759230790501,
              36.36024908318069
            ],
            [
              -115.74068353271605,
              36.00723681361186
            ],
            [
              -116.13892892528659,
              35.45699907774362
            ],
            [
              -116.42680776103147,
              34.64575066205636
            ],
            [
              -116.46805831499263,
              34.00137960670852
            ],
            [
              -116.35458725106162,
              33.6964910543163
            ],
            [
              -116.01894304542252,
              33.37429670954891
            ],
            [
              -115.39819284318823,
              33.27123443437446
            ],
            [
              -114.97052178281366,
              33.324850161813146
            ]
          ]
        ]
      }
    },
    {
      "type": "Feature",
      "properties": {
        "dn": 2,
        "PRODUCT": "Day 2 Excessive Rainfall Potential Forecast",
        "VALID_TIME": "12Z 10/10/26 - 12Z 10/11/26",
        "OUTLOOK": "Slight (At Least 15%)",
        "ISSUE_TIME": "2026-10-09 08:38:00",
        "START_TIME": "2026-10-10 12:00:00",
        "END_TIME": "2026-10-11 12:00:00",
        "Snippet": "12Z 10/10/26 - 12Z 10/11/26",
        "risk_norm": "SLIGHT"
      },
      "geometry": {
        "type": "Polygon",
        "coordinates": [
          [
            [
              -83.15979019973946,
              27.968737654425425
            ],
            [
              -83.11939598436211,
              28.378208193815713
            ],
            [
              -82.94614275006674,
              28.54785858865237
            ],
            [
              -82.97944458156196,
              28.733563113874293
            ],
            [
              -83.28114428453334,
              28.84829716069387
            ],
            [
              -83.31954023357689,
              28.988457089996903
            ],
            [
              -83.88239405729021,
              29.66955933444502
            ],
            [
              -84.08704660242334,
              29.72971841276218
            ],
            [
              -84.4812820376813,
              29.43709136693973
            ],
            [
              -84.91394001320526,
              29.28305554770757
            ],
            [
              -85.275257301298,
              29.35209799593223
            ],
            [
              -84.93723458183842,
              30.243600222396456
            ],
            [
              -84.67559334288514,
              31.411663703489882
            ],
            [
              -84.65562659281856,
              32.22919903100533
            ],
            [
              -84.83311084263536,
              32.649382069729036
            ],
            [
              -85.53451069501416,
              33.281244890368065
            ],
            [
              -86.21466613440727,
              33.59121591482309
            ],
            [
              -86.87036369872213,
              33.5348353458627
            ],
            [
              -88.25530229341665,
              33.05518994325205
            ],
            [
              -88.63247541983921,
              33.070487898476486
            ],
            [
              -89.21385778187351,
              33.31859248089885
            ],
            [
              -89.57956970764211,
              33.602968512903566
            ],
            [
              -89.82971302779771,
              34.06276081929995
            ],
            [
              -89.80048733504663,
              34.693154664461666
            ],
            [
              -89.43190624826411,
              35.49109949703184
            ],
            [
              -88.67170848596362,
              36.22758584293928
            ],
            [
              -88.21160841647824,
              36.47854951769392
            ],
            [
              -87.69972254858928,
              36.636330514354256
            ],
            [
              -87.20239753966872,
              36.56928424696882
            ],
            [
              -86.068805192091,
              36.10920183301018
            ],
            [
              -84.51258022659479,
              36.10884611389969
            ],
            [
              -84.29589417500776,
              36.05018463566676
            ],
            [
              -83.88136321454418,
              35.753201612116285
            ],
            [
              -83.61068379085735,
              35.68989667382968
            ],
            [
              -81.48939210375502,
              36.70174591343595
            ],
            [
              -80.79502129398954,
              36.86933651495247
            ],
            [
              -80.35101804926079,
              36.83138472461234
            ],
            [
              -80.19626986628188,
              36.72750270673032
            ],
            [
              -80.22659793754357,
              36.50522801549392
            ],
            [
              -80.489502968592,
              36.21300092340797
            ],
            [
              -80.71343973294147,
              35.781551277534405
            ],
            [
              -80.78865037865263,
              35.201057281879706
            ],
            [
              -80.75128152155177,
              35.06222611293718
            ],
            [
              -80.25951953336849,
              34.61205682527686
            ],
            [
              -79.82471906623805,
              34.57240477203658
            ],
            [
              -79.59503540917916,
              34.641628929841154
            ],
            [
              -78.46343532850746,
              35.2113106917749
            ],
            [
              -77.1301384129932,
              35.570733742959824
            ],
            [
              -76.38950315107542,
              35.67040419290145
            ],
            [
              -76.00677144413474,
              35.626993377940025
            ],
            [
              -75.70244837587485,
              35.4557543078931
            ],
            [
              -75.52327897285393,
              35.207310584637895
            ],
            [
              -75.46202701917777,
              34.92744320903912
            ],
            [
              -75.68739766468772,
              34.908349378346486
            ],
            [
              -76.21241845200345,
              34.42409440105609
            ],
            [
              -76.51299624666441,
              34.27614480991967
            ],
            [
              -76.76854892880894,
              34.39586392823509
            ],
            [
              -77.11477141274594,
              34.29776144478377
            ],
            [
              -77.54201827397435,
              34.02607642761089
            ],
            [
              -77.64461879285001,
              33.71855795791758
            ],
            [
              -77.77330031859398,
              33.59541555648216
            ],
            [
              -77.9482163401915,
              33.52288038043892
            ],
            [
              -77.99517671223474,
              33.57334935313201
            ],
            [
              -78.37827933635727,
              33.56762455553073
            ],
            [
              -78.85337863814183,
              33.29747603483985
            ],
            [
              -78.95812723491197,
              32.94361826410218
            ],
            [
              -80.49516161744837,
              31.950764511883545
            ],
            [
              -80.7413340831997,
              31.699347082842287
            ],
            [
              -80.97788506595089,
              31.080965393096278
            ],
            [
              -81.74452533128421,
              31.831337962239637
            ],
            [
              -81.90388102637992,
              31.844536510224284
            ],
            [
              -82.30024784194526,
              31.64929528781774
            ],
            [
              -82.56618362929483,
              31.16886663616098
            ],
            [
              -82.62424965445524,
              30.62583754125077
            ],
            [
              -82.3823817718056,
              29.921239811005442
            ],
            [
              -82.34636627480909,
              29.277984352582664
            ],
            [
              -82.68217923447999,
              28.572747655610453
            ],
            [
              -83.15979019973946,
              27.968737654425425
            ]
          ]
        ]
      }
    },
    {
      "type": "Feature",
      "properties": {
        "dn": 2,
        "PRODUCT": "Day 2 Excessive Rainfall Potential Forecast",
        "VALID_TIME": "12Z 10/10/26 - 12Z 10/11/26",
        "OUTLOOK": "Slight (At Least 15%)",
        "ISSUE_TIME": "2026-10-09 08:38:00",
        "START_TIME": "2026-10-10 12:00:00",
        "END_TIME": "2026-10-11 12:00:00",
        "Snippet": "12Z 10/10/26 - 12Z 10/11/26",
        "risk_norm": "SLIGHT"
      },
      "geometry": {
        "type": "Polygon",
        "coordinates": [
          [
            [
              -115.39819284318823,
              33.27123443437446
            ],
            [
              -116.01894304542252,
              33.37429670954891
            ],
            [
              -116.35458725106162,
              33.6964910543163
            ],
            [
              -116.46805831499263,
              34.00137960670852
            ],
            [
              -116.42680776103147,
              34.64575066205636
            ],
            [
              -116.13892892528659,
              35.45699907774362
            ],
            [
              -115.74068353271605,
              36.00723681361186
            ],
            [
              -115.07759230790501,
              36.36024908318069
            ],
            [
              -114.57470898734485,
              36.374647249782036
            ],
            [
              -114.35369289994468,
              36.08321382491053
            ],
            [
              -114.23608418387668,
              35.417099045524964
            ],
            [
              -114.24380381402774,
              34.82582940655859
            ],
            [
              -114.38997813984294,
              34.08034687601812
            ],
            [
              -114.71870682842906,
              33.44720237708254
            ],
            [
              -114.97052178281366,
              33.324850161813146
            ],
            [
              -115.39819284318823,
              33.27123443437446
            ]
          ]
        ]
      }
    }
  ]
}
