{
  "type": "FeatureCollection",
  "features": [
    {
      "type": "Feature",
      "properties": {
        "dn": 1,
        "PRODUCT": "Day 1 Excessive Rainfall Potential Forecast",
        "VALID_TIME": "16Z 08/12/26 - 12Z 08/13/26",
        "OUTLOOK": "Marginal (At Least 5%)",
        "ISSUE_TIME": "2026-08-12 15:38:00",
        "START_TIME": "2026-08-12 16:00:00",
        "END_TIME": "2026-08-13 12:00:00",
        "Snippet": "16Z 08/12/26 - 12Z 08/13/26",
        "risk_norm": "MARGINAL"
      },
      "geometry": {
        "type": "Polygon",
        "coordinates": [
          [
            [
              -83.8960752189921,
              30.080992169412845
            ],
            [
              -84.508765694069,
              30.30583043725964
            ],
            [
              -85.01077335385274,
              30.612226829037844
            ],
            [
              -85.39201627310732,
              31.13802603104627
            ],
            [
              -85.7745287699719,
              32.34301918169275
            ],
            [
              -86.10677959053923,
              32.90626840327604
            ],
            [
              -87.05279941436179,
              34.04168435654087
            ],
            [
              -88.96874999239961,
              35.878313035397724
            ],
            [
              -90.79563112400017,
              37.32111004699791
            ],
            [
              -94.54184542691806,
              39.76763844882095
            ],
            [
              -95.86607670081229,
              40.33876034510835
            ],
            [
              -97.08087610997413,
              40.50458706953875
            ],
            [
              -99.33131230228972,
              40.420116519852435
            ],
            [
              -101.72449680052661,
              39.904868746122396
            ],
            [
              -102.679964677377,
              39.60074088024395
            ],
            [
              -103.67586454087986,
              39.15576235365546
            ],
            [
              -104.53802735398986,
              38.57777984426245
            ],
            [
              -105.87968295526521,
              37.249615535284896
            ],
            [
              -106.37220156854666,
              36.58975722613738
            ],
            [
              -106.78920913510102,
              35.7967142587167
            ],
            [
              -106.95589529968291,
              35.2890799333099
            ],
            [
              -107.18634366409036,
              33.870585629041216
            ],
            [
              -107.2712527767783,
              31.63650567638337
            ],
            [
              -107.96578444528456,
              31.62688053767055
            ],
            [
              -108.06062585381395,
              31.52882876890281
            ],
            [
              -108.07866176117668,
              31.20713454245347
            ],
            [
              -109.5056158029096,
              31.09829811405745
            ],
            [
              -110.73554955973741,
              31.117486416569804
            ],
            [
              -111.28118954581055,
              31.199311046051452
            ],
            [
              -114.38768258073324,
              32.16099216884709
            ],
            [
              -114.850323126095,
              32.332944393135755
            ],
            [
              -115.05679202879364,
              32.581849836099614
            ],
            [
              -115.79180706434614,
              32.441952570601686
            ],
            [
              -116.93096722528124,
              32.42770726091262
            ],
            [
              -116.82237034656401,
              32.99292453258022
            ],
            [
              -116.82698940093171,
              33.86201602662423
            ],
            [
              -116.92098472470208,
              34.89941385830787
            ],
            [
              -117.11763869547214,
              35.60168331251473
            ],
            [
              -117.28976117085436,
              35.89688882498105
            ],
            [
              -117.79201781026156,
              36.41933598491645
            ],
            [
              -118.73281751026148,
              37.10524491291603
            ],
            [
              -119.36201250163087,
              37.377134514685444
            ],
            [
              -119.84138205526503,
              37.71601064104806
            ],
            [
              -120.13178095100356,
              38.216269618646066
            ],
            [
              -120.36317584218251,
              39.17479011043396
            ],
            [
              -120.33589277055968,
              39.53865433676502
            ],
            [
              -120.23070374528733,
              39.823386500164226
            ],
            [
              -119.78443250600189,
              40.1570190635159
            ],
            [
              -118.99084582331336,
              40.26722644694701
            ],
            [
              -115.00279164413422,
              40.185857685432
            ],
            [
              -113.74767663989513,
              40.32369159968128
            ],
            [
              -111.13812571454467,
              41.110776875833295
            ],
            [
              -110.09843655526632,
              41.20135854325991
            ],
            [
              -109.27630724562691,
              41.180555047924955
            ],
            [
              -106.73173337521222,
              41.40846880103228
            ],
            [
              -105.99061423083702,
              41.586695152970854
            ],
            [
              -105.39151326184121,
              42.015076008326425
            ],
            [
              -105.24266021755395,
              42.28554733495056
            ],
            [
              -105.12380374255098,
              42.85846033600925
            ],
            [
              -105.22183942716995,
              43.80699337205196
            ],
            [
              -105.72344501847572,
              44.55545379226899
            ],
            [
              -106.37722738755092,
              44.98934849613164
            ],
            [
              -107.01137578122966,
              45.20797469683711
            ],
            [
              -109.3390509398695,
              45.30554707805625
            ],
            [
              -110.09595616743823,
              45.46208583239937
            ],
            [
              -110.62058325715883,
              45.67746434945804
            ],
            [
              -112.05847915053886,
              46.497671987084516
            ],
            [
              -113.22158556835305,
              47.37141080309538
            ],
            [
              -114.11465316825199,
              48.34422114934149
            ],
            [
              -114.55081765085983,
              49.18448913625842
            ],
            [
              -109.3182106158621,
              49.15544399587822
            ],
            [
              -105.56873875913875,
              49.131896152874084
            ],
            [
              -104.55977819776024,
              49.1809708311983
            ],
            [
              -104.30302876765943,
              49.15120177156021
            ],
            [
              -103.69862378659525,
              48.80383285506492
            ],
            [
              -102.02728903333025,
              48.40995136145345
            ],
            [
              -100.20042184961602,
              48.29792095129057
            ],
            [
              -98.62180904563388,
              47.998154905384
            ],
            [
              -97.67701292906884,
              47.7199634683511
            ],
            [
              -97.04504603756149,
              47.34898418917341
            ],
            [
              -96.78815056917323,
              46.88845819380362
            ],
            [
              -96.5865428909357,
              45.91672174838446
            ],
            [
              -96.33699956713156,
              45.53574622766953
            ],
            [
              -95.48327433626136,
              44.771797634212255
            ],
            [
              -94.46120463003002,
              44.21382442668512
            ],
            [
              -92.85295076297537,
              43.72867351226244
            ],
            [
              -88.44344493114723,
              42.71630000552811
            ],
            [
              -83.04630517727763,
              40.822182982831336
            ],
            [
              -81.45487622112996,
              40.08981043017747
            ],
            [
              -80.45407913126535,
              39.3888110785405
            ],
            [
              -80.05517382653338,
              38.9536348932378
            ],
            [
              -79.79226577766379,
              38.39532413783068
            ],
            [
              -79.79306130092682,
              37.99295057316128
            ],
            [
              -79.96763583178206,
              37.560477995792155
            ],
            [
              -80.72402510945186,
              36.54821691770256
            ],
            [
              -82.0626937949314,
              35.170142837671435
            ],
            [
              -82.47731528635632,
              34.433780768653335
            ],
            [
              -82.71460712349783,
              33.77250114467377
            ],
            [
              -82.7391293149095,
              33.54765250748765
            ],
            [
              -82.62175020472279,
              33.13028755478875
            ],
            [
              -82.38411221924436,
              32.840200256126614
            ],
            [
              -81.9277329705902,
              32.57635753632041
            ],
            [
              -81.44671002708924,
              32.536416786605734
            ],
            [
              -80.33264955276113,
              32.80259582220177
            ],
            [
              -79.85127416586721,
              32.7579115775229
            ],
            [
              -79.49460987487991,
              32.58622833927434
            ],
            [
              -80.49445341643577,
              31.950699855526654
            ],
            [
              -80.7406272890233,
              31.699283483611605
            ],
            [
              -81.12021116667621,
              30.77425779181026
            ],
            [
              -80.91979709382122,
              29.79593975750715
            ],
            [
              -80.4474181553467,
              28.927734526051523
            ],
            [
              -80.88442521983698,
              28.784076863467824
            ],
            [
              -81.45352553790916,
              28.835126879901996
            ],
            [
              -82.05505496337682,
              29.069904973290598
            ],
            [
              -83.8960752189921,
              30.080992169412845
            ]
          ],
          [
            [
              -108.87171460443753,
              31.596782255531863
            ],
            [
              -108.73703436964958,
              33.156652964790474
            ],
            [
              -108.39873921408375,
              33.50253687672334
            ],
            [
              -107.98302680687091,
              33.67247311142775
            ],
            [
              -107.79211717243605,
              33.914766570520875
            ],
            [
              -107.6925675494835,
              34.963303104241525
            ],
            [
              -107.75443801942454,
              35.50021159479065
            ],
            [
              -107.97705803722803,
              35.97873609976086
            ],
            [
              -108.70582383368861,
              36.46119352033061
            ],
            [
              -109.53954399949846,
              36.8408501424106
            ],
            [
              -110.86006547651422,
              37.03665491822824
            ],
            [
              -111.10803592484098,
              37.19257014678947
            ],
            [
              -111.92819386088627,
              38.10021403335679
            ],
            [
              -112.42028088818645,
              38.32016294145096
            ],
            [
              -112.99613873319295,
              38.35040389705064
            ],
            [
              -114.95582359516803,
              38.13355097895415
            ],
            [
              -115.97271732773575,
              37.78664225271726
            ],
            [
              -116.23657397923127,
              37.392624601044005
            ],
            [
              -116.17848803829492,
              36.812483135956334
            ],
            [
              -115.78344949637899,
              36.22811966282179
            ],
            [
              -114.78064311320355,
              35.03476952806662
            ],
            [
              -114.33716542744567,
              34.72345697122354
            ],
            [
              -113.91957159245021,
              34.544869293303435
            ],
            [
              -112.2431752472444,
              34.04852774602318
            ],
            [
              -111.8119168978976,
              33.7303116687411
            ],
            [
              -111.47023257710403,
              33.26477482054663
            ],
            [
              -111.345062457883,
              32.77632965363332
            ],
            [
              -111.42722930904456,
              32.22044748797383
            ],
            [
              -111.63395452251633,
              31.787847529063274
            ],
            [
              -111.95768679543825,
              31.43340953767806
            ],
            [
              -110.9566209730521,
              31.171493167955166
            ],
            [
              -109.13961236999107,
              31.162276428300956
            ],
            [
              -108.87171460443753,
              31.596782255531863
            ]
          ],
          [
            [
              -85.06460984974531,
              34.92619838660467
            ],
            [
              -84.45032390135269,
              35.02341798840632
            ],
            [
              -83.41895860969557,
              35.4054229003368
            ],
            [
              -82.11257654876549,
              36.165728553096656
            ],
            [
              -81.73801455276178,
              36.496356066352064
            ],
            [
              -81.46109710351345,
              36.923582126431754
            ],
            [
              -81.3380743364024,
              37.45188104233064
            ],
            [
              -81.33742873606266,
              37.89943048699196
            ],
            [
              -81.46070149699267,
              38.26664564102818
            ],
            [
              -82.18781394481705,
              39.301518414726054
            ],
            [
              -83.2421832164979,
              40.128843410909745
            ],
            [
              -84.38888785053062,
              40.774421958495246
            ],
            [
              -85.95712684855586,
              41.431236988794495
            ],
            [
              -88.01427868865032,
              42.090480047312
            ],
            [
              -91.80188523933728,
              43.02143062121738
            ],
            [
              -99.0168565618982,
              44.17148929803121
            ],
            [
              -100.99539804784266,
              44.16209271254877
            ],
            [
              -101.6479191364015,
              44.05409460994375
            ],
            [
              -101.93820356497102,
              43.91385864230899
            ],
            [
              -101.98250636258003,
              43.69639879633769
            ],
            [
              -101.78887554411489,
              43.48741859956163
            ],
            [
              -100.36456890717452,
              42.49318004716697
            ],
            [
              -100.17668576695229,
              42.2809682223729
            ],
            [
              -100.102439707923,
              41.97795220523398
            ],
            [
              -100.36745222300237,
              41.446001846941165
            ],
            [
              -100.29718656712764,
              41.22871267830928
            ],
            [
              -100.00644871794952,
              41.237025263645165
            ],
            [
              -99.02798971992824,
              41.52409082282869
            ],
            [
              -98.33078952268242,
              41.625669391481836
            ],
            [
              -96.9281185037763,
              41.60231853622647
            ],
            [
              -95.11721759361517,
              41.262714705482644
            ],
            [
              -93.0932154896335,
              40.55091994524158
            ],
            [
              -92.18177148641905,
              40.05480264448655
            ],
            [
              -90.84288900560678,
              39.01260504810931
            ],
            [
              -89.76834476001765,
              37.69495193142199
            ],
            [
              -88.74679984509673,
              36.8564287750242
            ],
            [
              -86.72491800437531,
              35.512919595863565
            ],
            [
              -85.92919512575719,
              35.11115963000086
            ],
            [
              -85.39286462077466,
              34.9456271311777
            ],
            [
              -85.06460984974531,
              34.92619838660467
            ]
          ]
        ]
      }
    },
    {
      "type": "Feature",
      "properties": {
        "dn": 1,
        "PRODUCT": "Day 1 Excessive Rainfall Potential Forecast",
        "VALID_TIME": "16Z 08/12/26 - 12Z 08/13/26",
        "OUTLOOK": "Marginal (At Least 5%)",
        "ISSUE_TIME": "2026-08-12 15:38:00",
        "START_TIME": "2026-08-12 16:00:00",
        "END_TIME": "2026-08-13 12:00:00",
        "Snippet": "16Z 08/12/26 - 12Z 08/13/26",
        "risk_norm": "MARGINAL"
      },
      "geometry": {
        "type": "Polygon",
        "coordinates": [
          [
            [
              -114.62360654897255,
              49.21852256047717
            ],
            [
              -114.62253698350733,
              49.219460121529956
            ],
            [
              -114.62110187661644,
              49.21876101428988
            ],
            [
              -114.62360654897255,
              49.21852256047717
            ]
          ]
        ]
      }
    },
    {
      "type": "Feature",
      "properties": {
        "dn": 2,
        "PRODUCT": "Day 1 Excessive Rainfall Potential Forecast",
        "VALID_TIME": "16Z 08/12/26 - 12Z 08/13/26",
        "OUTLOOK": "Slight (At Least 15%)",
        "ISSUE_TIME": "2026-08-12 15:38:00",
        "START_TIME": "2026-08-12 16:00:00",
        "END_TIME": "2026-08-13 12:00:00",
        "Snippet": "16Z 08/12/26 - 12Z 08/13/26",
        "risk_norm": "SLIGHT"
      },
      "geometry": {
        "type": "Polygon",
        "coordinates": [
          [
            [
              -110.9566209730521,
              31.171493167955166
            ],
            [
              -111.95768679543825,
              31.43340953767806
            ],
            [
              -111.63395452251633,
              31.787847529063274
            ],
            [
              -111.42722930904456,
              32.22044748797383
            ],
            [
              -111.345062457883,
              32.77632965363332
            ],
            [
              -111.47023257710403,
              33.26477482054663
            ],
            [
              -111.8119168978976,
              33.7303116687411
            ],
            [
              -112.2431752472444,
              34.04852774602318
            ],
            [
              -113.91957159245021,
              34.544869293303435
            ],
            [
              -114.33716542744567,
              34.72345697122354
            ],
            [
              -114.78064311320355,
              35.03476952806662
            ],
            [
              -115.78344949637899,
              36.22811966282179
            ],
            [
              -116.17848803829492,
              36.812483135956334
            ],
            [
              -116.23657397923127,
              37.392624601044005
            ],
            [
              -115.97271732773575,
              37.78664225271726
            ],
            [
              -114.95582359516803,
              38.13355097895415
            ],
            [
              -112.99613873319295,
              38.35040389705064
            ],
            [
              -112.42028088818645,
              38.32016294145096
            ],
            [
              -111.92819386088627,
              38.10021403335679
            ],
            [
              -111.10803592484098,
              37.19257014678947
            ],
            [
              -110.86006547651422,
              37.03665491822824
            ],
            [
              -109.53954399949846,
              36.8408501424106
            ],
            [
              -108.70582383368861,
              36.46119352033061
            ],
            [
              -107.97705803722803,
              35.97873609976086
            ],
            [
              -107.75443801942454,
              35.50021159479065
            ],
            [
              -107.6925675494835,
              34.963303104241525
            ],
            [
              -107.79211717243605,
              33.914766570520875
            ],
            [
              -107.98302680687091,
              33.67247311142775
            ],
            [
              -108.39873921408375,
              33.50253687672334
            ],
            [
              -108.73703436964958,
              33.156652964790474
            ],
            [
              -108.87171460443753,
              31.596782255531863
            ],
            [
              -109.13961236999107,
              31.162276428300956
            ],
            [
              -110.9566209730521,
              31.171493167955166
            ]
          ]
        ]
      }
    },
    {
      "type": "Feature",
      "properties": {
        "dn": 2,
        "PRODUCT": "Day 1 Excessive Rainfall Potential Forecast",
        "VALID_TIME": "16Z 08/12/26 - 12Z 08/13/26",
        "OUTLOOK": "Slight (At Least 15%)",
        "ISSUE_TIME": "2026-08-12 15:38:00",
        "START_TIME": "2026-08-12 16:00:00",
        "END_TIME": "2026-08-13 12:00:00",
        "Snippet": "16Z 08/12/26 - 12Z 08/13/26",
        "risk_norm": "SLIGHT"
      },
      "geometry": {
        "type": "Polygon",
        "coordinates": [
          [
            [
              -85.92919512575719,
              35.11115963000086
            ],
            [
              -86.72491800437531,
              35.512919595863565
            ],
            [
              -88.74679984509673,
              36.8564287750242
            ],
            [
              -89.76834476001765,
              37.69495193142199
            ],
            [
              -90.84288900560678,
              39.01260504810931
            ],
            [
              -92.18177148641905,
              40.05480264448655
            ],
            [
              -93.0932154896335,
              40.55091994524158
            ],
            [
              -95.11721759361517,
              41.262714705482644
            ],
            [
              -96.9281185037763,
              41.60231853622647
            ],
            [
              -98.33078952268242,
              41.625669391481836
            ],
            [
              -99.02798971992824,
              41.52409082282869
            ],
            [
              -100.00644871794952,
              41.237025263645165
            ],
            [
              -100.29718656712764,
              41.22871267830928
            ],
            [
              -100.36745222300237,
              41.446001846941165
            ],
            [
              -100.102439707923,
              41.97795220523398
            ],
            [
              -100.17668576695229,
              42.2809682223729
            ],
            [
              -100.36456890717452,
              42.49318004716697
            ],
            [
              -101.78887554411489,
              43.48741859956163
            ],
            [
              -101.98250636258003,
              43.69639879633769
            ],
            [
              -101.93820356497102,
              43.91385864230899
            ],
            [
              -101.6479191364015,
              44.05409460994375
            ],
            [
              -100.99539804784266,
              44.16209271254877
            ],
            [
              -99.0168565618982,
              44.17148929803121
            ],
            [
              -91.80188523933728,
              43.02143062121738
            ],
            [
              -88.01427868865032,
              42.090480047312
            ],
            [
              -85.95712684855586,
              41.431236988794495
            ],
            [
              -84.38888785053062,
              40.774421958495246
            ],
            [
              -83.2421832164979,
              40.128843410909745
            ],
            [
              -82.18781394481705,
              39.301518414726054
            ],
            [
              -81.46070149699267,
              38.26664564102818
            ],
            [
              -81.33742873606266,
              37.89943048699196
            ],
            [
              -81.3380743364024,
              37.45188104233064
            ],
            [
              -81.46109710351345,
              36.923582126431754
            ],
            [
              -81.73801455276178,
              36.496356066352064
            ],
            [
              -82.11257654876549,
              36.165728553096656
            ],
            [
              -83.41895860969557,
              35.4054229003368
            ],
            [
              -84.45032390135269,
              35.02341798840632
            ],
            [
              -85.06460984974531,
              34.92619838660467
            ],
            [
              -85.39286462077466,
              34.9456271311777
            ],
            [
              -85.92919512575719,
              35.11115963000086
            ]
          ],
          [
            [
              -84.26169569059999,
              37.526778534400165
            ],
            [
              -84.12697410216495,
              37.74184886268524
            ],
            [
              -84.53244271848054,
              38.21320155383209
            ],
            [
              -84.79838208846083,
              38.98530978927869
            ],
            [
              -84.61960625689309,
              40.214527728602896
            ],
            [
              -85.09912994748588,
              40.638856852486064
            ],
            [
              -85.76813281783116,
              40.93860675875588
            ],
            [
              -86.17342861024129,
              40.95902450681006
            ],
            [
              -86.35851686802341,
              40.83603110415253
            ],
            [
              -86.37326574921745,
              40.66082142728656
            ],
            [
              -85.69995768051261,
              39.12450728060831
            ],
            [
              -85.39470771341082,
              38.08522807353669
            ],
            [
              -85.14166707837389,
              37.758483029493924
            ],
            [
              -84.49003960844709,
              37.496301221684455
            ],
            [
              -84.26169569059999,
              37.526778534400165
            ]
          ]
        ]
      }
    },
    {
      "type": "Feature",
      "properties": {
        "dn": 3,
        "PRODUCT": "Day 1 Excessive Rainfall Potential Forecast",
        "VALID_TIME": "16Z 08/12/26 - 12Z 08/13/26",
        "OUTLOOK": "Moderate (At Least 40%)",
        "ISSUE_TIME": "2026-08-12 15:38:00",
        "START_TIME": "2026-08-12 16:00:00",
        "END_TIME": "2026-08-13 12:00:00",
        "Snippet": "16Z 08/12/26 - 12Z 08/13/26",
        "risk_norm": "MODERATE"
      },
      "geometry": {
        "type": "Polygon",
        "coordinates": [
          [
            [
              -84.49003960844709,
              37.496301221684455
            ],
            [
              -85.14166707837389,
              37.758483029493924
            ],
            [
              -85.39470771341082,
              38.08522807353669
            ],
            [
              -85.69995768051261,
              39.12450728060831
            ],
            [
              -86.37326574921745,
              40.66082142728656
            ],
            [
              -86.35851686802341,
              40.83603110415253
            ],
            [
              -86.17342861024129,
              40.95902450681006
            ],
            [
              -85.76813281783116,
              40.93860675875588
            ],
            [
              -85.09912994748588,
              40.638856852486064
            ],
            [
              -84.61960625689309,
              40.214527728602896
            ],
            [
              -84.79838208846083,
              38.98530978927869
            ],
            [
              -84.53244271848054,
              38.21320155383209
            ],
            [
              -84.12697410216495,
              37.74184886268524
            ],
            [
              -84.26169569059999,
              37.526778534400165
            ],
            [
              -84.49003960844709,
              37.496301221684455
            ]
          ]
        ]
      }
    }
  ]
}
