{"type": "FeatureCollection", "features": [{"type": "Feature", "properties": {"dn": 1, "PRODUCT": "Day 2 Excessive Rainfall Potential Forecast", "VALID_TIME": "12Z 08/13/26 - 12Z 08/14/26", "OUTLOOK": "Marginal (At Least 5%)", "ISSUE_TIME": "2026-08-12 08:28:00", "START_TIME": "2026-08-13 12:00:00", "END_TIME": "2026-08-14 12:00:00", "Snippet": "12Z 08/13/26 - 12Z 08/14/26"}, "geometry": {"type": "Polygon", "coordinates": [[[-105.028860756658, 30.4282232571379], [-106.055277882567, 31.224775584563876], [-106.50210402882288, 31.421674705201944], [-106.57207952163469, 31.597888069269302], [-107.96578444528456, 31.62688053767055], [-108.06062585381395, 31.52882876890281], [-108.07866176117668, 31.20713454245347], [-109.5056158029096, 31.09829811405745], [-110.95246701233582, 31.141421864001877], [-112.18167861548214, 31.49982104348347], [-112.37855597048755, 32.43933655484325], [-111.87969575581789, 33.450174537428175], [-111.9739729964844, 33.713428914202325], [-112.85796409418535, 34.11822994015304], [-115.08631324592518, 35.496577604217656], [-118.69589100606973, 37.20017883695826], [-119.10714235120109, 37.505199914031685], [-119.64609799700688, 38.10637044056731], [-120.1318670833442, 38.9383823908981], [-120.28710721420815, 39.81522045584635], [-120.16778384515406, 40.99560833199401], [-119.978179647953, 41.42317051253819], [-119.56624682384097, 41.92499854880753], [-119.08869106035536, 42.166477029804156], [-117.8432782349403, 42.1952236037206], [-115.80228112696658, 42.3962742247574], [-115.03920792415394, 42.74519866244625], [-114.64941435994501, 43.18062900993066], [-114.55860215991036, 43.6269733026587], [-115.09022339906011, 45.60786083223458], [-115.05059112488253, 45.998826878716095], [-114.70868709186588, 46.71839996368707], [-114.80013566838377, 47.43263695633298], [-115.10339856047497, 47.95291852065114], [-115.95448416655228, 48.62549233915449], [-116.21481630352912, 49.18705539903576], [-109.3182106158621, 49.15544399587822], [-108.69326538030545, 49.224952699674404], [-105.57195781616721, 49.158843619127914], [-103.07679105312755, 49.17510641107188], [-105.56867306409735, 49.13134620458319], [-108.8778072669637, 49.18494051267326], [-109.03602324705844, 48.17151952169899], [-108.97590609470195, 47.37604362728698], [-108.25111075016213, 46.23874964674107], [-107.72449639620086, 45.07702833502239], [-107.24313334576398, 43.68573372179057], [-106.58450663788352, 42.16171030341066], [-106.41727417572463, 41.20821282400517], [-106.53183865359996, 40.67282591322371], [-106.85952682026341, 39.98895608796321], [-107.76006263690519, 38.86079409310278], [-108.22516929364727, 38.46950961026828], [-108.36643919102508, 38.235516466565386], [-108.38368190067435, 37.92145164774283], [-108.09939237818065, 37.451308132643106], [-107.6813844065112, 37.25857771027221], [-106.37848285974465, 37.17171597104965], [-105.25779922419349, 37.19834716500121], [-104.29275055545601, 37.07492601619108], [-103.57061916411934, 37.15764922071259], [-103.14664278374661, 37.49168370625528], [-102.73985057872387, 38.09018431749178], [-102.50170120929542, 38.72317665973851], [-102.42872637763344, 39.30270602320974], [-102.498210525364, 40.27159453597587], [-102.72010445046362, 40.92206067265045], [-102.83500497352246, 41.662285383626134], [-102.6088675596336, 42.54448973712517], [-101.76985053580798, 44.09240856258263], [-101.57415542465515, 44.744036709494935], [-101.60498850688961, 46.06622547673732], [-101.80378953055751, 47.1172529833793], [-101.71396967630898, 47.58295815351572], [-101.76669189377183, 48.29278878536265], [-102.33703144086799, 49.1799279552031], [-101.07554818628721, 49.188149946620236], [-101.0014204427464, 48.108019132647996], [-100.63464519334838, 47.2379574952025], [-100.02282314042799, 46.240581654071576], [-99.43981923701962, 45.57465341658294], [-98.94062071555194, 45.245099962162215], [-98.57073895518437, 45.08142072093267], [-97.71783983922144, 44.88153239311195], [-95.84322165711968, 44.55624640422462], [-91.12003713066883, 43.787110178159956], [-86.09795097096662, 42.48724556618363], [-81.68643506106123, 41.43034755428689], [-77.5196917179547, 40.40910884700473], [-75.55304377751555, 40.0256113732161], [-73.79991713565609, 39.77699632105729], [-73.85341372196022, 39.51538921313792], [-74.0106454017726, 39.31078381042013], [-74.70327736720743, 38.72152557532674], [-74.81286030368888, 38.15090576064143], [-75.66100038532956, 36.94365311235639], [-75.47406850958477, 36.424218126693034], [-75.85154935602144, 36.51301691290248], [-76.68876526550356, 36.87717943838353], [-77.67127590974125, 37.07104757390846], [-78.94867789760991, 37.19705497131045], [-80.08027622982462, 37.16573806700977], [-80.96177507996934, 36.88193384452816], [-81.8048643352367, 36.41079624760351], [-83.73464979726866, 35.56187048922546], [-84.24704179563773, 35.41562290653606], [-85.0832621766873, 35.33255111126734], [-86.06109865414739, 35.52310984079614], [-87.06832920452689, 36.11324735673629], [-87.64826131952834, 36.58886142062541], [-88.21260884839323, 37.3726075348718], [-89.11650397843324, 38.29702715574075], [-89.82223739296711, 38.89576174359574], [-90.76942734174858, 39.40822614291446], [-92.18775170652022, 39.83404233097112], [-93.96379100251731, 40.205845078104815], [-95.52174605863544, 40.69166643915492], [-97.09157610612922, 41.03116491757228], [-98.07992036745102, 41.060776250133664], [-99.51402013435828, 40.63541332831205], [-100.41349389107373, 40.126255818639216], [-100.85014022090921, 39.716170046080805], [-101.72139261580055, 38.088457182610405], [-102.60689046185647, 37.02514224581753], [-103.67017153094675, 36.30108105933982], [-104.95056061163872, 35.69068214685397], [-105.55440761146004, 35.06867090538473], [-105.97154668691424, 34.27360883037527], [-106.00066033713446, 33.45666084970069], [-105.92055923516804, 33.190020676879705], [-105.6712220843287, 32.84370059527328], [-104.58345927322253, 32.09574448786745], [-103.43238932713065, 31.75170902533537], [-102.69670090516385, 31.15153635774741], [-102.22761753238929, 30.445422508285052], [-102.0231915714419, 29.680034304126846], [-102.49208393197327, 29.611684267347027], [-102.67353584704607, 29.193135991427127], [-102.96863089913445, 28.90342939769026], [-103.43615605750442, 28.87863360121877], [-104.64208958358151, 29.585567873281928], [-104.87761417462117, 29.890359737728467], [-104.90828457938767, 30.253446935923108], [-105.028860756658, 30.4282232571379]], [[-109.09050896755751, 32.944270362321106], [-108.58176274812696, 33.214778183517545], [-107.78018440186503, 33.32556014633817], [-107.52595858461501, 33.48157639475002], [-107.43748354595104, 33.670264317373224], [-107.30014579531588, 34.90268982082298], [-107.40990820961852, 35.39102815885057], [-107.66583605203063, 35.687771465684555], [-107.89098574105023, 35.715556187877304], [-108.41883612449082, 35.49339674358503], [-108.83425420919068, 34.826191779664555], [-109.13224702708087, 34.57499867393639], [-109.40407612034694, 34.55135246503236], [-110.31625968765482, 34.78584252013676], [-110.64904955898169, 34.79979460010383], [-110.91466813704346, 34.7289635491594], [-111.23675468847932, 34.28863279486899], [-111.25175349611187, 34.01463538792093], [-110.61129709478965, 33.350107426242936], [-110.5802782810712, 33.12557164769403], [-111.10424036140367, 31.842461396509304], [-111.23329022435014, 31.23504789670938], [-110.73964644654218, 31.1475647572386], [-109.50939311679888, 31.12840814362826], [-109.2507144819047, 31.197955900576034], [-109.13656301768461, 31.573393994203634], [-109.20618008638903, 32.57001233938982], [-109.09050896755751, 32.944270362321106]], [[-80.80396160105195, 37.22832634913565], [-80.25355778615533, 37.54064797856474], [-79.91201458531216, 37.95871504525764], [-79.4336902928848, 38.89899921000387], [-79.44459848533111, 39.211868804776984], [-79.79091675517238, 39.598612072985766], [-80.43124304399792, 39.96350841841841], [-82.69479539498488, 40.84193187268512], [-87.29452568518909, 42.27958064272791], [-89.50075723180065, 42.83725533030275], [-91.1455184252688, 43.13892079454179], [-93.5170219652366, 43.21625842096983], [-94.94154273831687, 43.092304232146354], [-96.0654425467093, 42.872585808312515], [-96.6532453047345, 42.6512922238285], [-97.00177025884808, 42.34314269800437], [-96.99225712143765, 41.86401815324939], [-96.69366257527798, 41.517696328422716], [-95.58186743863625, 41.086648975922465], [-93.8431591691402, 40.689124333359445], [-90.17158054069267, 39.967293059216196], [-88.47407932087066, 39.515186161107934], [-84.46389982539934, 37.76248011787224], [-83.21321263206356, 37.322977757525116], [-82.44727784920693, 37.13370098987944], [-81.6119269302329, 37.06976527606396], [-80.80396160105195, 37.22832634913565]], [[-116.62171262344243, 37.61423743389228], [-115.70287466455964, 37.86379882466352], [-114.62962022523415, 38.529365067493515], [-114.3407987741208, 38.83125075223429], [-114.43016286442688, 39.3131358564646], [-114.73080568285948, 39.68111020421164], [-115.12247950446933, 39.904525887295954], [-115.67712590481891, 40.062933390385076], [-118.15825675300866, 40.46751732630293], [-118.95426896588228, 40.36113886812357], [-119.66064031975526, 40.12925000606431], [-119.96856951527518, 39.95120953296595], [-120.06815026539807, 39.39772154093449], [-119.95302212097089, 38.91932238940054], [-119.50936070039258, 38.26160368299047], [-118.98029056459978, 37.70423655212794], [-118.6537626735359, 37.52349274239199], [-117.67485768604018, 37.47659698316473], [-116.62171262344243, 37.61423743389228]]]}}, {"type": "Feature", "properties": {"dn": 2, "PRODUCT": "Day 2 Excessive Rainfall Potential Forecast", "VALID_TIME": "12Z 08/13/26 - 12Z 08/14/26", "OUTLOOK": "Slight (At Least 15%)", "ISSUE_TIME": "2026-08-12 08:28:00", "START_TIME": "2026-08-13 12:00:00", "END_TIME": "2026-08-14 12:00:00", "Snippet": "12Z 08/13/26 - 12Z 08/14/26"}, "geometry": {"type": "Polygon", "coordinates": [[[-109.50939311679888, 31.12840814362826], [-110.73964644654218, 31.1475647572386], [-111.23329022435014, 31.23504789670938], [-111.10424036140367, 31.842461396509304], [-110.5802782810712, 33.12557164769403], [-110.61129709478965, 33.350107426242936], [-111.25175349611187, 34.01463538792093], [-111.23675468847932, 34.28863279486899], [-110.91466813704346, 34.7289635491594], [-110.64904955898169, 34.79979460010383], [-110.31625968765482, 34.78584252013676], [-109.40407612034694, 34.55135246503236], [-109.13224702708087, 34.57499867393639], [-108.83425420919068, 34.826191779664555], [-108.41883612449082, 35.49339674358503], [-107.89098574105023, 35.715556187877304], [-107.66583605203063, 35.687771465684555], [-107.40990820961852, 35.39102815885057], [-107.30014579531588, 34.90268982082298], [-107.43748354595104, 33.670264317373224], [-107.52595858461501, 33.48157639475002], [-107.78018440186503, 33.32556014633817], [-108.58176274812696, 33.214778183517545], [-109.09050896755751, 32.944270362321106], [-109.20618008638903, 32.57001233938982], [-109.13656301768461, 31.573393994203634], [-109.2507144819047, 31.197955900576034], [-109.50939311679888, 31.12840814362826]]]}}, {"type": "Feature", "properties": {"dn": 2, "PRODUCT": "Day 2 Excessive Rainfall Potential Forecast", "VALID_TIME": "12Z 08/13/26 - 12Z 08/14/26", "OUTLOOK": "Slight (At Least 15%)", "ISSUE_TIME": "2026-08-12 08:28:00", "START_TIME": "2026-08-13 12:00:00", "END_TIME": "2026-08-14 12:00:00", "Snippet": "12Z 08/13/26 - 12Z 08/14/26"}, "geometry": {"type": "Polygon", "coordinates": [[[-104.29275055545601, 37.07492601619108], [-105.25779922419349, 37.19834716500121], [-106.37848285974465, 37.17171597104965], [-107.6813844065112, 37.25857771027221], [-108.09939237818065, 37.451308132643106], [-108.38368190067435, 37.92145164774283], [-108.36643919102508, 38.235516466565386], [-108.22516929364727, 38.46950961026828], [-107.76006263690519, 38.86079409310278], [-106.85952682026341, 39.98895608796321], [-106.53183865359996, 40.67282591322371], [-106.41727417572463, 41.20821282400517], [-106.58450663788352, 42.16171030341066], [-107.24313334576398, 43.68573372179057], [-107.72449639620086, 45.07702833502239], [-108.25111075016213, 46.23874964674107], [-108.97590609470195, 47.37604362728698], [-109.03602324705844, 48.17151952169899], [-108.8778072669637, 49.18494051267326], [-105.56867306409735, 49.13134620458319], [-102.34222492763122, 49.18800620535982], [-101.76669189377183, 48.29278878536265], [-101.71396967630898, 47.58295815351572], [-101.80378953055751, 47.1172529833793], [-101.60498850688961, 46.06622547673732], [-101.57415542465515, 44.744036709494935], [-101.76985053580798, 44.09240856258263], [-102.6088675596336, 42.54448973712517], [-102.83500497352246, 41.662285383626134], [-102.72010445046362, 40.92206067265045], [-102.498210525364, 40.27159453597587], [-102.42872637763344, 39.30270602320974], [-102.50170120929542, 38.72317665973851], [-102.73985057872387, 38.09018431749178], [-103.14664278374661, 37.49168370625528], [-103.57061916411934, 37.15764922071259], [-104.29275055545601, 37.07492601619108]]]}}, {"type": "Feature", "properties": {"dn": 2, "PRODUCT": "Day 2 Excessive Rainfall Potential Forecast", "VALID_TIME": "12Z 08/13/26 - 12Z 08/14/26", "OUTLOOK": "Slight (At Least 15%)", "ISSUE_TIME": "2026-08-12 08:28:00", "START_TIME": "2026-08-13 12:00:00", "END_TIME": "2026-08-14 12:00:00", "Snippet": "12Z 08/13/26 - 12Z 08/14/26"}, "geometry": {"type": "Polygon", "coordinates": [[[-82.44727784920693, 37.13370098987944], [-83.21321263206356, 37.322977757525116], [-84.46389982539934, 37.76248011787224], [-88.47407932087066, 39.515186161107934], [-90.17158054069267, 39.967293059216196], [-93.8431591691402, 40.689124333359445], [-95.58186743863625, 41.086648975922465], [-96.69366257527798, 41.517696328422716], [-96.99225712143765, 41.86401815324939], [-97.00177025884808, 42.34314269800437], [-96.6532453047345, 42.6512922238285], [-96.0654425467093, 42.872585808312515], [-94.94154273831687, 43.092304232146354], [-93.5170219652366, 43.21625842096983], [-91.1455184252688, 43.13892079454179], [-89.50075723180065, 42.83725533030275], [-87.29452568518909, 42.27958064272791], [-82.69479539498488, 40.84193187268512], [-80.43124304399792, 39.96350841841841], [-79.79091675517238, 39.598612072985766], [-79.44459848533111, 39.211868804776984], [-79.4336902928848, 38.89899921000387], [-79.91201458531216, 37.95871504525764], [-80.25355778615533, 37.54064797856474], [-80.80396160105195, 37.22832634913565], [-81.6119269302329, 37.06976527606396], [-82.44727784920693, 37.13370098987944]]]}}, {"type": "Feature", "properties": {"dn": 2, "PRODUCT": "Day 2 Excessive Rainfall Potential Forecast", "VALID_TIME": "12Z 08/13/26 - 12Z 08/14/26", "OUTLOOK": "Slight (At Least 15%)", "ISSUE_TIME": "2026-08-12 08:28:00", "START_TIME": "2026-08-13 12:00:00", "END_TIME": "2026-08-14 12:00:00", "Snippet": "12Z 08/13/26 - 12Z 08/14/26"}, "geometry": {"type": "Polygon", "coordinates": [[[-117.67485768604018, 37.47659698316473], [-118.6537626735359, 37.52349274239199], [-118.98029056459978, 37.70423655212794], [-119.50936070039258, 38.26160368299047], [-119.95302212097089, 38.91932238940054], [-120.06815026539807, 39.39772154093449], [-119.96856951527518, 39.95120953296595], [-119.66064031975526, 40.12925000606431], [-118.95426896588228, 40.36113886812357], [-118.15825675300866, 40.46751732630293], [-115.67712590481891, 40.062933390385076], [-115.12247950446933, 39.904525887295954], [-114.73080568285948, 39.68111020421164], [-114.43016286442688, 39.3131358564646], [-114.3407987741208, 38.83125075223429], [-114.62962022523415, 38.529365067493515], [-115.70287466455964, 37.86379882466352], [-116.62171262344243, 37.61423743389228], [-117.67485768604018, 37.47659698316473]]]}}]}