{
  "type": "FeatureCollection",
  "features": [
    {
      "type": "Feature",
      "properties": {
        "dn": 1,
        "PRODUCT": "Day 1 Excessive Rainfall Potential Forecast",
        "VALID_TIME": "12Z 10/06/26 - 12Z 10/07/26",
        "OUTLOOK": "Marginal (At Least 5%)",
        "ISSUE_TIME": "2026-10-06 08:16:00",
        "START_TIME": "2026-10-06 12:00:00",
        "END_TIME": "2026-10-07 12:00:00",
        "Snippet": "12Z 10/06/26 - 12Z 10/07/26",
        "risk_norm": "MARGINAL"
      },
      "geometry": {
        "type": "Polygon",
        "coordinates": [
          [
            [
              -80.72807296990963,
              25.740171682131642
            ],
            [
              -81.55559098656136,
              26.092054384503108
            ],
            [
              -81.85922946373996,
              26.11887423656764
            ],
            [
              -82.12201506172948,
              26.049809193597493
            ],
            [
              -82.4489989551686,
              26.353602289152548
            ],
            [
              -83.17876934092348,
              27.78744444256655
            ],
            [
              -83.12008427084714,
              28.378261282360956
            ],
            [
              -82.94683193937682,
              28.547912441074573
            ],
            [
              -82.98013486242392,
              28.7336168061601
            ],
            [
              -83.28183536671474,
              28.848349498711404
            ],
            [
              -83.32023214938555,
              28.98850924755592
            ],
            [
              -83.88245127110501,
              29.66895422242978
            ],
            [
              -84.08710279402948,
              29.729113279407834
            ],
            [
              -84.4813360692646,
              29.436485842805258
            ],
            [
              -84.91399175906047,
              29.282449750682755
            ],
            [
              -85.58389861099434,
              29.415868001418172
            ],
            [
              -85.6855806141147,
              29.468566171687318
            ],
            [
              -85.72344750313837,
              29.653424985947463
            ],
            [
              -86.06763025312853,
              29.946373845810413
            ],
            [
              -86.47697752494051,
              30.10603567532834
            ],
            [
              -86.85070066964333,
              30.03476074720216
            ],
            [
              -86.882121097012,
              30.356363478370017
            ],
            [
              -86.76412726287079,
              30.53246899113901
            ],
            [
              -84.63395702106284,
              30.680851214944937
            ],
            [
              -83.18505404228192,
              30.852417756830178
            ],
            [
              -81.97542989744679,
              31.21342716323363
            ],
            [
              -81.60084998669826,
              31.683902171031082
            ],
            [
              -80.62427294971776,
              31.780948644840546
            ],
            [
              -80.80478819113524,
              31.613784504858923
            ],
            [
              -81.12021116667621,
              30.77425779181026
            ],
            [
              -81.06926742590505,
              30.312625737486528
            ],
            [
              -80.75520059408946,
              29.414626373216457
            ],
            [
              -80.22831009726261,
              28.585879083976433
            ],
            [
              -80.27895736516328,
              28.177831850492325
            ],
            [
              -79.72225018624539,
              26.83709996097543
            ],
            [
              -79.80875256297016,
              25.742665040834684
            ],
            [
              -80.22409479839635,
              25.69134110280219
            ],
            [
              -80.72807296990963,
              25.740171682131642
            ]
          ]
        ]
      }
    }
  ]
}
