{
  "type": "FeatureCollection",
  "features": [
    {
      "type": "Feature",
      "properties": {
        "dn": 1,
        "PRODUCT": "Day 2 Excessive Rainfall Potential Forecast",
        "VALID_TIME": "12Z 10/07/26 - 12Z 10/08/26",
        "OUTLOOK": "Marginal (At Least 5%)",
        "ISSUE_TIME": "2026-10-06 08:16:00",
        "START_TIME": "2026-10-07 12:00:00",
        "END_TIME": "2026-10-08 12:00:00",
        "Snippet": "12Z 10/07/26 - 12Z 10/08/26",
        "risk_norm": "MARGINAL"
      },
      "geometry": {
        "type": "Polygon",
        "coordinates": [
          [
            [
              -80.6090742419686,
              25.453129795614284
            ],
            [
              -80.83949288820777,
              25.658863341877506
            ],
            [
              -81.51509900000742,
              25.99661505762145
            ],
            [
              -81.71734531937906,
              26.014617793327087
            ],
            [
              -82.03538944959944,
              25.90469427478644
            ],
            [
              -82.1181065867413,
              26.09627964729339
            ],
            [
              -82.4489989551686,
              26.353602289152548
            ],
            [
              -83.17876934092348,
              27.78744444256655
            ],
            [
              -83.12008427084714,
              28.378261282360956
            ],
            [
              -82.94683193937682,
              28.547912441074573
            ],
            [
              -82.98013486242392,
              28.7336168061601
            ],
            [
              -83.28088857068678,
              28.847362681859316
            ],
            [
              -83.32023214938555,
              28.98850924755592
            ],
            [
              -83.55664140942969,
              29.23575944169868
            ],
            [
              -82.30457242281994,
              29.18395526969262
            ],
            [
              -81.66169168955334,
              29.77066705548093
            ],
            [
              -81.33286557041177,
              29.879413927232576
            ],
            [
              -80.90891126878657,
              29.88649541060639
            ],
            [
              -80.75520059408946,
              29.414626373216457
            ],
            [
              -80.22831009726261,
              28.585879083976433
            ],
            [
              -80.27895736516328,
              28.177831850492325
            ],
            [
              -79.72225018624539,
              26.83709996097543
            ],
            [
              -79.83140364393854,
              25.561067204448754
            ],
            [
              -80.20684306668646,
              25.41388088496755
            ],
            [
              -80.6090742419686,
              25.453129795614284
            ]
          ]
        ]
      }
    }
  ]
}
