{"type": "FeatureCollection", "features": [{"type": "Feature", "properties": {"dn": 1, "PRODUCT": "Day 1 Excessive Rainfall Potential Forecast", "VALID_TIME": "16Z 08/26/26 - 12Z 08/27/26", "OUTLOOK": "Marginal (At Least 5%)", "ISSUE_TIME": "2026-08-26 15:58:00", "START_TIME": "2026-08-26 16:00:00", "END_TIME": "2026-08-27 12:00:00", "Snippet": "16Z 08/26/26 - 12Z 08/27/26"}, "geometry": {"type": "Polygon", "coordinates": [[[-82.49218236952682, 25.43963850193269], [-81.91407661823771, 25.619706401004528], [-82.1181065867413, 26.09627964729339], [-82.2642860577806, 26.15368335589894], [-82.53643912279504, 26.498454800815157], [-83.17876934092348, 27.78744444256655], [-83.12008427084714, 28.378261282360956], [-82.94683193937682, 28.547912441074573], [-82.98013486242392, 28.7336168061601], [-83.28183536671474, 28.848349498711404], [-83.32023214938555, 28.98850924755592], [-83.88245127110501, 29.66895422242978], [-84.08710279402948, 29.729113279407834], [-84.4813360692646, 29.436485842805258], [-84.91399175906047, 29.282449750682755], [-85.17437984791225, 29.29915663257841], [-85.68460892611208, 29.46759498758081], [-85.72344750313837, 29.653424985947463], [-85.96634164550724, 29.894930583775515], [-86.47697752494051, 30.10603567532834], [-87.70158905530097, 29.894447696549744], [-88.38566408006709, 29.879326641562674], [-88.44712950193036, 29.700508416265503], [-88.72582426544463, 29.392829315223135], [-88.6263269559462, 29.297570372466986], [-88.64102342874018, 29.024471877489752], [-88.91871418833526, 28.715305866724048], [-89.44432342502064, 28.59820281254282], [-89.69963740594949, 28.698441485691408], [-89.84552074321768, 28.931472836935967], [-90.11316001993794, 28.757695011491165], [-91.04999807871151, 28.73885912208155], [-91.6632844398196, 29.11805931176347], [-91.820891038045, 29.075785756639466], [-92.08032577742242, 29.126467070091238], [-92.1824269179349, 29.21950606131329], [-92.5476757470499, 29.225702201592362], [-92.85912582853999, 29.32143788453534], [-93.21612351891079, 29.96441685502019], [-93.83821097017126, 30.789010670764], [-94.62832054660456, 31.473276603434417], [-97.37401258914312, 33.042221253222486], [-97.81658991904087, 33.44296148208872], [-98.21591487882652, 34.15794420820828], [-98.2888742324179, 34.78735733556352], [-98.09105579606245, 35.55550495165974], [-97.71940544215221, 36.14508836373046], [-97.0638936757101, 36.73712854087108], [-95.05712261663777, 37.864695464350326], [-92.79069798129372, 38.472749465979625], [-90.83177563756458, 39.27881665905445], [-88.8849087796333, 40.32548248120705], [-87.9041654729566, 41.16724972120142], [-87.00573638483986, 42.22315651674673], [-86.66189916223321, 42.81733808180001], [-86.50316567338864, 43.28749431721883], [-86.43565017924352, 44.06252232300339], [-86.51770117543943, 44.49678318113232], [-86.7247607420066, 44.89228033921618], [-87.275996706476, 45.556699920061746], [-87.59377019298354, 46.16491204579688], [-87.5568183393187, 46.629774698787614], [-87.26208432636658, 47.209555721161195], [-86.58549626088994, 47.813563815300775], [-84.73989015635206, 47.01191955312738], [-84.4656190618454, 46.70142113603843], [-84.03619341073075, 46.678017196651], [-83.9475002665983, 46.37525121077926], [-83.78046803989592, 46.23911349639294], [-83.41434701639541, 46.217760887354615], [-83.30178637194973, 46.125093227664394], [-83.28420977432239, 45.78389575727251], [-82.22531878468769, 45.45950388465304], [-81.91541276032169, 43.71539282780478], [-82.30364670049526, 42.5683173966887], [-82.44289354405349, 42.40329847652661], [-82.88485609396244, 42.170957840231544], [-82.90579323105966, 41.99738564827912], [-82.74756275819861, 41.85631426876429], [-82.51436228639966, 41.84042133809318], [-82.08310919928968, 41.98459920227446], [-82.48201212497897, 41.61810235064758], [-83.23856011232378, 40.65782749294037], [-83.62333517747149, 40.32997314301394], [-84.92128804039527, 39.480293701286385], [-85.30049445558693, 39.1027535249648], [-85.82490798319682, 38.3313746596713], [-86.27289230023774, 34.227832945258974], [-86.08043801068986, 33.90105158477755], [-85.66267281950459, 33.697587354348606], [-85.06356841453804, 33.70736289168333], [-84.51501796731532, 34.350689918881926], [-84.08774903278777, 35.36106483231248], [-83.77237231430351, 35.74544485346272], [-82.87158815979234, 36.35816568556796], [-82.23695995614713, 36.53586189806519], [-81.69399929075276, 36.40384646645462], [-81.53790058726808, 35.85021011601304], [-81.08907686559533, 35.45331791280178], [-80.35770752217435, 35.11912147676495], [-79.55141462774222, 34.955060192247636], [-78.23124752834194, 34.91646395717453], [-77.37287812605992, 35.098821399446386], [-76.88733323635452, 35.3626688576359], [-76.22028084883158, 36.01312929032181], [-75.60759723077484, 36.30588382766685], [-75.39483256502876, 36.23489034359577], [-75.1544672557628, 35.70802908591141], [-75.2825951709062, 34.9969144108118], [-75.68750146652499, 34.90775557746928], [-76.21169746698526, 34.4240113310797], [-76.51309507796557, 34.27554934724023], [-76.76864650647587, 34.395268525245044], [-77.11486706439331, 34.297165663611125], [-77.5412988933626, 34.025999103894556], [-77.64390130445592, 33.71848101879983], [-77.77339189423618, 33.594818203961296], [-77.94830693276285, 33.522282812135245], [-78.21036025873504, 33.59520142264277], [-78.49252021324526, 33.53320121815604], [-78.85266302286722, 33.29740433841915], [-78.95741378027536, 32.943546965180765], [-80.49445341643577, 31.950699855526654], [-80.80478819113524, 31.613784504858923], [-81.12021116667621, 30.77425779181026], [-81.06926742590505, 30.312625737486528], [-80.75520059408946, 29.414626373216457], [-80.22831009726261, 28.585879083976433], [-80.27895736516328, 28.177831850492325], [-79.78954500432337, 27.119579459547793], [-79.72225018624539, 26.83709996097543], [-79.7917199942816, 25.878856364606552], [-79.90422372981932, 25.3845435405142], [-80.18416505617566, 25.181824861374526], [-80.56227035045475, 24.989135812862926], [-80.87344843327185, 24.92707997971343], [-81.32441405180221, 24.96915286040453], [-82.49218236952682, 25.43963850193269]], [[-89.71018744736166, 30.795097816709855], [-89.23008696910001, 30.86924544769424], [-88.79743784303673, 31.03478137784039], [-88.01763228990806, 31.639235393478508], [-87.54223104533601, 32.389613016788054], [-87.2483634177292, 33.55376144874474], [-87.20162498890132, 34.22952517281326], [-87.26694055909779, 34.86417801641002], [-87.55016456314353, 35.55236037372219], [-87.91609156196445, 35.88326702284528], [-88.39995097201538, 36.127429792293434], [-89.39486278916323, 36.20844900561984], [-90.01094848970733, 36.09339951245274], [-91.18855963128894, 35.720621096207736], [-93.47028270169584, 34.543344578644], [-93.91160067584151, 34.18588968377406], [-94.13267159102065, 33.78118008294775], [-94.13716485386347, 33.193907645584005], [-94.0305485982759, 32.96672458480764], [-93.81590125243915, 32.874805104407216], [-93.11584015656884, 32.86815136906358], [-92.84832049960562, 32.774286838362485], [-92.58560121094804, 32.49932856668129], [-92.28296228706, 31.67835631948598], [-91.86604136708185, 31.307024617995204], [-91.34357567076401, 31.023222619294362], [-90.66176412021176, 30.82413078764768], [-89.71018744736166, 30.795097816709855]]]}}, {"type": "Feature", "properties": {"dn": 1, "PRODUCT": "Day 1 Excessive Rainfall Potential Forecast", "VALID_TIME": "16Z 08/26/26 - 12Z 08/27/26", "OUTLOOK": "Marginal (At Least 5%)", "ISSUE_TIME": "2026-08-26 15:58:00", "START_TIME": "2026-08-26 16:00:00", "END_TIME": "2026-08-27 12:00:00", "Snippet": "16Z 08/26/26 - 12Z 08/27/26"}, "geometry": {"type": "Polygon", "coordinates": [[[-103.19510128102054, 32.171125669617744], [-104.05675041129872, 32.21549601894636], [-104.98822759708453, 32.43263881736675], [-105.3307585932942, 32.638930997420644], [-106.15459798976666, 33.354556305599466], [-106.4916778988485, 33.46703098519502], [-107.96743012089871, 33.53715901910676], [-109.25199937932366, 33.7925333917789], [-110.16985965316324, 34.1180540379121], [-110.77514039163786, 34.515305261238936], [-111.22016681001216, 34.92523416641713], [-111.8939459390238, 35.717772814500734], [-112.34252763919318, 36.43962007008026], [-112.87806437060945, 37.644505419593614], [-112.98220935621379, 38.26180013428681], [-112.87351602119801, 38.63133671557015], [-112.21480359665338, 39.5012956906296], [-111.86726217791107, 41.263341313198715], [-111.50282494250852, 42.26450160924383], [-111.05284219095422, 42.78683458593655], [-110.61038504118217, 42.999474956484384], [-110.31178017099101, 43.37202493770812], [-110.51277613195487, 45.38687507244364], [-110.47322109613306, 45.51876430501251], [-110.19737186277135, 45.712920288762845], [-109.77358236598683, 45.745752961589496], [-109.51825542820049, 45.679506838890006], [-108.96980721537453, 45.29071852509517], [-108.50526740043779, 44.59320393957401], [-108.36305152313948, 43.56559790007274], [-108.07999575868664, 43.23831911525173], [-107.75788164650083, 43.04421947130786], [-106.84668849311045, 42.88731088455413], [-105.96227125941707, 42.94192639028838], [-104.88679171616361, 42.87217382940744], [-103.98197127058101, 42.70100829157996], [-102.82791866752925, 42.31840571391349], [-102.2186528274076, 42.03821751794791], [-101.17325900455677, 41.28889390129312], [-100.55573840668666, 40.65087002702964], [-100.05220724365549, 39.82913627774011], [-99.59997462487642, 38.69116749214095], [-99.5204984919674, 38.1602839898428], [-100.0058297240495, 36.4509197144921], [-100.04454213838807, 34.87811360045766], [-100.36079467297215, 33.469328816627325], [-100.75673050895287, 32.731564447646136], [-101.27762714440036, 32.393870252319324], [-102.17953666204805, 32.219908478166445], [-103.19510128102054, 32.171125669617744]]]}}, {"type": "Feature", "properties": {"dn": 1, "PRODUCT": "Day 1 Excessive Rainfall Potential Forecast", "VALID_TIME": "16Z 08/26/26 - 12Z 08/27/26", "OUTLOOK": "Marginal (At Least 5%)", "ISSUE_TIME": "2026-08-26 15:58:00", "START_TIME": "2026-08-26 16:00:00", "END_TIME": "2026-08-27 12:00:00", "Snippet": "16Z 08/26/26 - 12Z 08/27/26"}, "geometry": {"type": "Polygon", "coordinates": [[[-82.01587349591892, 42.06737551561376], [-82.01459310010723, 42.068159709256015], [-82.01353741825177, 42.06720890246206], [-82.01587349591892, 42.06737551561376]]]}}, {"type": "Feature", "properties": {"dn": 2, "PRODUCT": "Day 1 Excessive Rainfall Potential Forecast", "VALID_TIME": "16Z 08/26/26 - 12Z 08/27/26", "OUTLOOK": "Slight (At Least 15%)", "ISSUE_TIME": "2026-08-26 15:58:00", "START_TIME": "2026-08-26 16:00:00", "END_TIME": "2026-08-27 12:00:00", "Snippet": "16Z 08/26/26 - 12Z 08/27/26"}, "geometry": {"type": "Polygon", "coordinates": [[[-90.66176412021176, 30.82413078764768], [-91.34357567076401, 31.023222619294362], [-91.86604136708185, 31.307024617995204], [-92.28296228706, 31.67835631948598], [-92.58560121094804, 32.49932856668129], [-92.84832049960562, 32.774286838362485], [-93.11584015656884, 32.86815136906358], [-93.81590125243915, 32.874805104407216], [-94.0305485982759, 32.96672458480764], [-94.13716485386347, 33.193907645584005], [-94.13267159102065, 33.78118008294775], [-93.91160067584151, 34.18588968377406], [-93.47028270169584, 34.543344578644], [-91.18855963128894, 35.720621096207736], [-90.01094848970733, 36.09339951245274], [-89.39486278916323, 36.20844900561984], [-88.39995097201538, 36.127429792293434], [-87.91609156196445, 35.88326702284528], [-87.55016456314353, 35.55236037372219], [-87.26694055909779, 34.86417801641002], [-87.20162498890132, 34.22952517281326], [-87.2483634177292, 33.55376144874474], [-87.54223104533601, 32.389613016788054], [-88.01763228990806, 31.639235393478508], [-88.79743784303673, 31.03478137784039], [-89.23008696910001, 30.86924544769424], [-89.71018744736166, 30.795097816709855], [-90.66176412021176, 30.82413078764768]]]}}]}