{
  "type": "FeatureCollection",
  "features": [
    {
      "type": "Feature",
      "properties": {
        "dn": 1,
        "PRODUCT": "Day 2 Excessive Rainfall Potential Forecast",
        "VALID_TIME": "12Z 08/27/26 - 12Z 08/28/26",
        "OUTLOOK": "Marginal (At Least 5%)",
        "ISSUE_TIME": "2026-08-26 08:32:00",
        "START_TIME": "2026-08-27 12:00:00",
        "END_TIME": "2026-08-28 12:00:00",
        "Snippet": "12Z 08/27/26 - 12Z 08/28/26",
        "risk_norm": "MARGINAL"
      },
      "geometry": {
        "type": "Polygon",
        "coordinates": [
          [
            [
              -89.84552074321768,
              28.931472836935967
            ],
            [
              -90.11316001993794,
              28.757695011491165
            ],
            [
              -91.04999807871151,
              28.73885912208155
            ],
            [
              -91.6632844398196,
              29.11805931176347
            ],
            [
              -91.820891038045,
              29.075785756639466
            ],
            [
              -92.08032577742242,
              29.126467070091238
            ],
            [
              -92.1824269179349,
              29.21950606131329
            ],
            [
              -92.5476757470499,
              29.225702201592362
            ],
            [
              -93.22266304624043,
              29.462687779748723
            ],
            [
              -93.58870427310148,
              29.466435775146778
            ],
            [
              -94.00821015312226,
              29.333012814778165
            ],
            [
              -94.4765565940164,
              29.973708717600545
            ],
            [
              -94.52779710407967,
              30.292391737525396
            ],
            [
              -94.36610949005133,
              30.97379150142137
            ],
            [
              -93.93567907818829,
              31.697970136009147
            ],
            [
              -93.4481663691964,
              32.193720609698424
            ],
            [
              -93.12401754358773,
              32.371519756885085
            ],
            [
              -92.20494153229004,
              32.675224416905756
            ],
            [
              -91.60296795428336,
              33.025774030354654
            ],
            [
              -90.54455285121122,
              33.90324334965249
            ],
            [
              -89.91452796861633,
              34.60660201484741
            ],
            [
              -87.9569427556618,
              36.10985686934411
            ],
            [
              -87.32927874755761,
              36.351461058983645
            ],
            [
              -86.3725096832111,
              36.48446738686882
            ],
            [
              -85.80241156010864,
              36.63362932742073
            ],
            [
              -85.21466230544353,
              36.959024207666104
            ],
            [
              -84.24052513267591,
              37.749027470917355
            ],
            [
              -83.70171007241179,
              38.02773849918445
            ],
            [
              -81.30296299122078,
              38.611982109555925
            ],
            [
              -80.49494514603371,
              38.67986775692389
            ],
            [
              -79.40145421145574,
              39.1198315165595
            ],
            [
              -78.76853488925367,
              39.506348638618896
            ],
            [
              -78.35063243280052,
              39.95609305800035
            ],
            [
              -78.15821115491984,
              40.4257659634308
            ],
            [
              -77.96276215724983,
              41.59990519722141
            ],
            [
              -77.74307839736132,
              42.19461795628982
            ],
            [
              -77.35267283297745,
              42.72715746764827
            ],
            [
              -76.65590392756498,
              43.27108797343256
            ],
            [
              -73.79271429683938,
              44.840085372337015
            ],
            [
              -72.98044492443009,
              45.180806374133425
            ],
            [
              -71.88555073461235,
              45.137713181158034
            ],
            [
              -71.6755236825875,
              45.242119450045706
            ],
            [
              -71.49644401397217,
              45.22011948072589
            ],
            [
              -70.83464047828153,
              44.92005581906878
            ],
            [
              -70.7521034593253,
              44.51678422794621
            ],
            [
              -71.0125256144703,
              43.7199650818519
            ],
            [
              -71.5397948027535,
              43.041511822460386
            ],
            [
              -71.88590464587053,
              42.33665458797954
            ],
            [
              -72.13890019391062,
              42.0153398089474
            ],
            [
              -72.78400586078445,
              41.52074456116599
            ],
            [
              -73.40235856601929,
              40.84236875825009
            ],
            [
              -73.60797544944799,
              40.42255819079291
            ],
            [
              -73.52129252301467,
              40.27841054542815
            ],
            [
              -73.71015709341064,
              40.21221992322814
            ],
            [
              -73.85341372196022,
              39.51538921313792
            ],
            [
              -74.15853207390785,
              39.14956486953465
            ],
            [
              -74.70327736720743,
              38.72152557532674
            ],
            [
              -74.81286030368888,
              38.15090576064143
            ],
            [
              -75.66100038532956,
              36.94365311235639
            ],
            [
              -75.1544672557628,
              35.70802908591141
            ],
            [
              -75.2825951709062,
              34.9969144108118
            ],
            [
              -75.68750146652499,
              34.90775557746928
            ],
            [
              -76.21169746698526,
              34.4240113310797
            ],
            [
              -76.51309507796557,
              34.27554934724023
            ],
            [
              -76.76864650647587,
              34.395268525245044
            ],
            [
              -77.11486706439331,
              34.297165663611125
            ],
            [
              -77.5412988933626,
              34.025999103894556
            ],
            [
              -77.64390130445592,
              33.71848101879983
            ],
            [
              -77.77339189423618,
              33.594818203961296
            ],
            [
              -77.94830693276285,
              33.522282812135245
            ],
            [
              -78.21036025873504,
              33.59520142264277
            ],
            [
              -78.49252021324526,
              33.53320121815604
            ],
            [
              -78.85266302286722,
              33.29740433841915
            ],
            [
              -78.95741378027536,
              32.943546965180765
            ],
            [
              -80.49445341643577,
              31.950699855526654
            ],
            [
              -80.80478819113524,
              31.613784504858923
            ],
            [
              -81.12021116667621,
              30.77425779181026
            ],
            [
              -81.06926742590505,
              30.312625737486528
            ],
            [
              -81.25846881475526,
              30.054953814534016
            ],
            [
              -81.48973253889031,
              29.89126198054175
            ],
            [
              -81.85540244760385,
              29.92252285000053
            ],
            [
              -83.08286646865295,
              30.29514808067781
            ],
            [
              -83.45467432973645,
              30.277337121881796
            ],
            [
              -84.27122781256861,
              30.015882819548313
            ],
            [
              -84.4999651182544,
              29.804058809920846
            ],
            [
              -84.58848330972324,
              29.39893104406978
            ],
            [
              -84.91399175906047,
              29.282449750682755
            ],
            [
              -85.17437984791225,
              29.29915663257841
            ],
            [
              -85.68460892611208,
              29.46759498758081
            ],
            [
              -85.72344750313837,
              29.653424985947463
            ],
            [
              -85.96634164550724,
              29.894930583775515
            ],
            [
              -86.32292148983578,
              30.051969542572788
            ],
            [
              -87.70343417682017,
              29.864750282439278
            ],
            [
              -88.38733618876296,
              29.84962085241296
            ],
            [
              -88.41293545579818,
              29.69906613997842
            ],
            [
              -88.72582426544463,
              29.392829315223135
            ],
            [
              -88.6263269559462,
              29.297570372466986
            ],
            [
              -88.64102342874018,
              29.024471877489752
            ],
            [
              -88.75231791862551,
              28.8921197993824
            ],
            [
              -88.91871418833526,
              28.715305866724048
            ],
            [
              -89.44432342502064,
              28.59820281254282
            ],
            [
              -89.69963740594949,
              28.698441485691408
            ],
            [
              -89.84552074321768,
              28.931472836935967
            ]
          ],
          [
            [
              -88.44819313373591,
              29.700249359581065
            ],
            [
              -88.38562995539984,
              29.879932882157583
            ],
            [
              -87.70155139975977,
              29.89505376622549
            ],
            [
              -86.5326953940706,
              30.064072970474648
            ],
            [
              -86.36474073681943,
              30.191983154030524
            ],
            [
              -86.06755618366735,
              30.63112769347212
            ],
            [
              -85.45962769635008,
              32.233724818381866
            ],
            [
              -84.99342374007897,
              32.65898888295397
            ],
            [
              -84.02606699472588,
              33.185952581098235
            ],
            [
              -82.67172480460724,
              33.1790606466709
            ],
            [
              -81.72583649260474,
              33.37704624270403
            ],
            [
              -81.60215791026718,
              33.50306493985185
            ],
            [
              -81.58074367924262,
              33.682834011384756
            ],
            [
              -81.8800121373637,
              34.38703840386916
            ],
            [
              -82.12629977037881,
              34.63326185403036
            ],
            [
              -82.6015745104663,
              34.80540997939085
            ],
            [
              -83.85744454492156,
              34.89511527581005
            ],
            [
              -85.51374203829027,
              34.81821428197103
            ],
            [
              -86.72031322342866,
              34.83810652560026
            ],
            [
              -87.83224315964189,
              34.61970725765554
            ],
            [
              -88.9543580659094,
              34.12348573412918
            ],
            [
              -89.46682964895176,
              33.689561534620964
            ],
            [
              -90.43233848650188,
              32.6337827288532
            ],
            [
              -91.91362345467923,
              31.535453318223993
            ],
            [
              -92.3508333032154,
              31.043751974692338
            ],
            [
              -92.62603184627949,
              30.54808484214617
            ],
            [
              -92.68241442047079,
              30.366985773147245
            ],
            [
              -92.58173592447315,
              30.137962870785763
            ],
            [
              -92.3739352843982,
              29.997615988507548
            ],
            [
              -91.80119591541965,
              29.804829357357967
            ],
            [
              -90.60405108790492,
              29.547924464522794
            ],
            [
              -89.61051662653627,
              29.516713498906682
            ],
            [
              -88.44819313373591,
              29.700249359581065
            ]
          ],
          [
            [
              -75.90221455440647,
              39.394107250446275
            ],
            [
              -75.39959564399334,
              39.60656372679404
            ],
            [
              -74.81039902853375,
              40.252667941888355
            ],
            [
              -74.53540952375737,
              40.754437910516785
            ],
            [
              -73.53370436329354,
              41.61189948441573
            ],
            [
              -73.42306990018518,
              42.12926036702038
            ],
            [
              -73.81987712030306,
              42.22011178940937
            ],
            [
              -74.32022748855343,
              42.10154440801825
            ],
            [
              -75.73976436033337,
              41.50859466100143
            ],
            [
              -76.20945233347302,
              41.2045042127693
            ],
            [
              -76.49541109429622,
              40.924704422478456
            ],
            [
              -76.82622136422937,
              40.38272748159329
            ],
            [
              -76.9412292045798,
              39.72788814315892
            ],
            [
              -76.85004236255367,
              39.58441354279597
            ],
            [
              -76.63853980344373,
              39.47317891133411
            ],
            [
              -75.90221455440647,
              39.394107250446275
            ]
          ]
        ]
      }
    },
    {
      "type": "Feature",
      "properties": {
        "dn": 1,
        "PRODUCT": "Day 2 Excessive Rainfall Potential Forecast",
        "VALID_TIME": "12Z 08/27/26 - 12Z 08/28/26",
        "OUTLOOK": "Marginal (At Least 5%)",
        "ISSUE_TIME": "2026-08-26 08:32:00",
        "START_TIME": "2026-08-27 12:00:00",
        "END_TIME": "2026-08-28 12:00:00",
        "Snippet": "12Z 08/27/26 - 12Z 08/28/26",
        "risk_norm": "MARGINAL"
      },
      "geometry": {
        "type": "Polygon",
        "coordinates": [
          [
            [
              -108.97623571561925,
              31.13024758539512
            ],
            [
              -110.73956450880605,
              31.14696319042524
            ],
            [
              -111.62097859667585,
              31.331023602214263
            ],
            [
              -111.74072248951573,
              31.410789345804087
            ],
            [
              -111.85284306644849,
              31.81046382022746
            ],
            [
              -111.83957429413326,
              32.08606199621437
            ],
            [
              -111.63966302178248,
              32.56358035462738
            ],
            [
              -111.07500739759578,
              33.1689558669118
            ],
            [
              -108.63224479314664,
              34.97959618689031
            ],
            [
              -107.79245889819859,
              35.812823555707205
            ],
            [
              -107.66860371762883,
              36.18242629711095
            ],
            [
              -107.79410833994567,
              37.25057085184289
            ],
            [
              -107.55790363677444,
              38.11790162935516
            ],
            [
              -106.47642381632241,
              39.12802230632732
            ],
            [
              -105.92471219547652,
              39.872402299383154
            ],
            [
              -105.29317053494174,
              40.48515415130697
            ],
            [
              -103.9128387309886,
              41.26276770126488
            ],
            [
              -101.75584844846072,
              42.143179470778
            ],
            [
              -100.5382353054002,
              42.445393374000496
            ],
            [
              -100.12628286162831,
              42.45735462600093
            ],
            [
              -99.64728611179841,
              42.296034594658025
            ],
            [
              -99.21452730413094,
              41.826115136870534
            ],
            [
              -98.94980244361997,
              41.044642044500726
            ],
            [
              -98.84560160735097,
              39.815433555036954
            ],
            [
              -98.98397152349236,
              38.92804675579593
            ],
            [
              -99.28567869849698,
              37.943862390004874
            ],
            [
              -99.54664435548389,
              37.44705092193096
            ],
            [
              -99.97787488763164,
              37.03233471304634
            ],
            [
              -100.84162980570476,
              36.46879594480631
            ],
            [
              -101.04652588668486,
              36.14784612919809
            ],
            [
              -101.17232745384251,
              35.42482668855712
            ],
            [
              -101.0760266931932,
              33.67020837898415
            ],
            [
              -101.31910049864224,
              33.16337891014933
            ],
            [
              -101.7327664901817,
              32.82875377754215
            ],
            [
              -102.8365161258076,
              32.41602101513623
            ],
            [
              -103.52571372918615,
              32.29006960714374
            ],
            [
              -106.8699687233804,
              31.894685639718666
            ],
            [
              -107.48836088676461,
              31.665147363917896
            ],
            [
              -107.96578444528456,
              31.62688053767055
            ],
            [
              -108.06062585381395,
              31.52882876890281
            ],
            [
              -108.0401710061519,
              31.348089048585216
            ],
            [
              -108.23714302478366,
              31.19393662204789
            ],
            [
              -108.97623571561925,
              31.13024758539512
            ]
          ]
        ]
      }
    },
    {
      "type": "Feature",
      "properties": {
        "dn": 2,
        "PRODUCT": "Day 2 Excessive Rainfall Potential Forecast",
        "VALID_TIME": "12Z 08/27/26 - 12Z 08/28/26",
        "OUTLOOK": "Slight (At Least 15%)",
        "ISSUE_TIME": "2026-08-26 08:32:00",
        "START_TIME": "2026-08-27 12:00:00",
        "END_TIME": "2026-08-28 12:00:00",
        "Snippet": "12Z 08/27/26 - 12Z 08/28/26",
        "risk_norm": "SLIGHT"
      },
      "geometry": {
        "type": "Polygon",
        "coordinates": [
          [
            [
              -90.60405108790492,
              29.547924464522794
            ],
            [
              -91.80119591541965,
              29.804829357357967
            ],
            [
              -92.3739352843982,
              29.997615988507548
            ],
            [
              -92.58173592447315,
              30.137962870785763
            ],
            [
              -92.68241442047079,
              30.366985773147245
            ],
            [
              -92.62603184627949,
              30.54808484214617
            ],
            [
              -92.3508333032154,
              31.043751974692338
            ],
            [
              -91.91362345467923,
              31.535453318223993
            ],
            [
              -90.43233848650188,
              32.6337827288532
            ],
            [
              -89.46682964895176,
              33.689561534620964
            ],
            [
              -88.9543580659094,
              34.12348573412918
            ],
            [
              -87.83224315964189,
              34.61970725765554
            ],
            [
              -86.72031322342866,
              34.83810652560026
            ],
            [
              -85.51374203829027,
              34.81821428197103
            ],
            [
              -83.85744454492156,
              34.89511527581005
            ],
            [
              -82.6015745104663,
              34.80540997939085
            ],
            [
              -82.12629977037881,
              34.63326185403036
            ],
            [
              -81.8800121373637,
              34.38703840386916
            ],
            [
              -81.58074367924262,
              33.682834011384756
            ],
            [
              -81.60215791026718,
              33.50306493985185
            ],
            [
              -81.72583649260474,
              33.37704624270403
            ],
            [
              -82.67172480460724,
              33.1790606466709
            ],
            [
              -84.02606699472588,
              33.185952581098235
            ],
            [
              -84.99342374007897,
              32.65898888295397
            ],
            [
              -85.45962769635008,
              32.233724818381866
            ],
            [
              -86.06755618366735,
              30.63112769347212
            ],
            [
              -86.36474073681943,
              30.191983154030524
            ],
            [
              -86.5326953940706,
              30.064072970474648
            ],
            [
              -87.70155139975977,
              29.89505376622549
            ],
            [
              -88.38562995539984,
              29.879932882157583
            ],
            [
              -88.44819313373591,
              29.700249359581065
            ],
            [
              -89.61051662653627,
              29.516713498906682
            ],
            [
              -90.60405108790492,
              29.547924464522794
            ]
          ]
        ]
      }
    },
    {
      "type": "Feature",
      "properties": {
        "dn": 2,
        "PRODUCT": "Day 2 Excessive Rainfall Potential Forecast",
        "VALID_TIME": "12Z 08/27/26 - 12Z 08/28/26",
        "OUTLOOK": "Slight (At Least 15%)",
        "ISSUE_TIME": "2026-08-26 08:32:00",
        "START_TIME": "2026-08-27 12:00:00",
        "END_TIME": "2026-08-28 12:00:00",
        "Snippet": "12Z 08/27/26 - 12Z 08/28/26",
        "risk_norm": "SLIGHT"
      },
      "geometry": {
        "type": "Polygon",
        "coordinates": [
          [
            [
              -76.63853980344373,
              39.47317891133411
            ],
            [
              -76.85004236255367,
              39.58441354279597
            ],
            [
              -76.9412292045798,
              39.72788814315892
            ],
            [
              -76.82622136422937,
              40.38272748159329
            ],
            [
              -76.49541109429622,
              40.924704422478456
            ],
            [
              -76.20945233347302,
              41.2045042127693
            ],
            [
              -75.73976436033337,
              41.50859466100143
            ],
            [
              -74.32022748855343,
              42.10154440801825
            ],
            [
              -73.81987712030306,
              42.22011178940937
            ],
            [
              -73.42306990018518,
              42.12926036702038
            ],
            [
              -73.53370436329354,
              41.61189948441573
            ],
            [
              -74.53540952375737,
              40.754437910516785
            ],
            [
              -74.81039902853375,
              40.252667941888355
            ],
            [
              -75.39959564399334,
              39.60656372679404
            ],
            [
              -75.90221455440647,
              39.394107250446275
            ],
            [
              -76.63853980344373,
              39.47317891133411
            ]
          ]
        ]
      }
    }
  ]
}
