{
  "type": "FeatureCollection",
  "features": [
    {
      "type": "Feature",
      "properties": {
        "dn": 1,
        "PRODUCT": "Day 1 Excessive Rainfall Potential Forecast",
        "VALID_TIME": "12Z 10/08/26 - 12Z 10/09/26",
        "OUTLOOK": "Marginal (At Least 5%)",
        "ISSUE_TIME": "2026-10-08 08:18:00",
        "START_TIME": "2026-10-08 12:00:00",
        "END_TIME": "2026-10-09 12:00:00",
        "Snippet": "12Z 10/08/26 - 12Z 10/09/26",
        "risk_norm": "MARGINAL"
      },
      "geometry": {
        "type": "Polygon",
        "coordinates": [
          [
            [
              -82.31017778420686,
              26.20343696834554
            ],
            [
              -82.53643912279504,
              26.498454800815157
            ],
            [
              -83.17876934092348,
              27.78744444256655
            ],
            [
              -83.12008427084714,
              28.378261282360956
            ],
            [
              -82.94683193937682,
              28.547912441074573
            ],
            [
              -82.98013486242392,
              28.7336168061601
            ],
            [
              -83.28088857068678,
              28.847362681859316
            ],
            [
              -83.50576346193378,
              29.231079952252962
            ],
            [
              -82.58287380797053,
              29.52674232612418
            ],
            [
              -81.58325333760997,
              29.53512625013628
            ],
            [
              -80.92073144303326,
              29.796939874667835
            ],
            [
              -80.22831009726261,
              28.585879083976433
            ],
            [
              -80.27895736516328,
              28.177831850492325
            ],
            [
              -79.72225018624539,
              26.83709996097543
            ],
            [
              -79.78529432861231,
              26.337894945876556
            ],
            [
              -80.12932374977584,
              26.049640933870627
            ],
            [
              -80.33144425073208,
              26.069500411854204
            ],
            [
              -80.84519283522187,
              26.48614540120465
            ],
            [
              -81.19003529552239,
              26.609905650636506
            ],
            [
              -81.97693832068792,
              26.450322571961017
            ],
            [
              -82.31017778420686,
              26.20343696834554
            ]
          ]
        ]
      }
    }
  ]
}
