{
  "type": "FeatureCollection",
  "features": [
    {
      "type": "Feature",
      "properties": {
        "dn": 1,
        "PRODUCT": "Day 2 Excessive Rainfall Potential Forecast",
        "VALID_TIME": "12Z 10/09/26 - 12Z 10/10/26",
        "OUTLOOK": "Marginal (At Least 5%)",
        "ISSUE_TIME": "2026-10-08 08:18:00",
        "START_TIME": "2026-10-09 12:00:00",
        "END_TIME": "2026-10-10 12:00:00",
        "Snippet": "12Z 10/09/26 - 12Z 10/10/26",
        "risk_norm": "MARGINAL"
      },
      "geometry": {
        "type": "Polygon",
        "coordinates": [
          [
            [
              -89.47500632053853,
              30.19581925932875
            ],
            [
              -90.26125041850993,
              31.585615455048195
            ],
            [
              -90.35125811186978,
              31.996765079830684
            ],
            [
              -90.31430908248478,
              32.90211207790601
            ],
            [
              -90.12958096279507,
              33.43956177303745
            ],
            [
              -89.89897908163887,
              33.748848065417654
            ],
            [
              -88.88273513008713,
              34.437119087396475
            ],
            [
              -88.04229053878203,
              34.76440107358267
            ],
            [
              -87.54109374307575,
              34.8776948511689
            ],
            [
              -86.87783035701972,
              34.93652845433188
            ],
            [
              -85.72862077432548,
              34.87598835898579
            ],
            [
              -84.93701966264263,
              34.51357244728578
            ],
            [
              -83.62099399433004,
              34.51801068687061
            ],
            [
              -82.21385519593323,
              33.87081542146996
            ],
            [
              -80.09536418282183,
              33.372245449921785
            ],
            [
              -79.52271295762515,
              33.1819158373045
            ],
            [
              -79.01726862397777,
              32.90394897475249
            ],
            [
              -80.49445341643577,
              31.950699855526654
            ],
            [
              -80.7406272890233,
              31.699283483611605
            ],
            [
              -81.12021116667621,
              30.77425779181026
            ],
            [
              -80.91979709382122,
              29.79593975750715
            ],
            [
              -80.36189069587242,
              28.781173461999845
            ],
            [
              -81.4272691378929,
              29.51974079815202
            ],
            [
              -82.17890743525399,
              29.8580050932963
            ],
            [
              -82.44498811680442,
              29.833944425986452
            ],
            [
              -82.72405259769465,
              29.6742244169455
            ],
            [
              -83.20532557863845,
              29.071280484661212
            ],
            [
              -83.28088857068678,
              28.847362681859316
            ],
            [
              -83.32023214938555,
              28.98850924755592
            ],
            [
              -83.98540285520308,
              29.692108922093063
            ],
            [
              -84.08985618273041,
              29.69946174504495
            ],
            [
              -84.48398361684634,
              29.40681516021565
            ],
            [
              -84.8092982156248,
              29.28211857226821
            ],
            [
              -85.17762244775516,
              29.260191671416877
            ],
            [
              -85.68768780010699,
              29.428628559016754
            ],
            [
              -85.76825854566137,
              29.656086486414054
            ],
            [
              -85.9693383913366,
              29.85598282115516
            ],
            [
              -86.4798101933577,
              30.06709117054148
            ],
            [
              -87.70401077729491,
              29.855469840529768
            ],
            [
              -88.38733618876296,
              29.84962085241296
            ],
            [
              -88.41293545579818,
              29.69906613997842
            ],
            [
              -88.6917159591019,
              29.39144751268868
            ],
            [
              -88.59224730851146,
              29.296166584286254
            ],
            [
              -88.60702212882808,
              29.023070829575545
            ],
            [
              -88.91871418833526,
              28.715305866724048
            ],
            [
              -89.2346456953342,
              28.636149623753315
            ],
            [
              -89.3001070735219,
              29.460527703588138
            ],
            [
              -89.47500632053853,
              30.19581925932875
            ]
          ],
          [
            [
              -88.62702245895507,
              29.297599021205357
            ],
            [
              -88.72652035332919,
              29.392857515274873
            ],
            [
              -88.44782733960653,
              29.700537850475445
            ],
            [
              -88.38562995539984,
              29.879932882157583
            ],
            [
              -88.22900384481775,
              29.87692598426844
            ],
            [
              -88.2285786541542,
              29.873508435069667
            ],
            [
              -88.18996325546759,
              29.87617648557201
            ],
            [
              -87.70330473589726,
              29.866833646949562
            ],
            [
              -86.4789843425072,
              30.07844525356971
            ],
            [
              -85.96846470450589,
              29.867337853989106
            ],
            [
              -85.75519410177712,
              29.655310538756154
            ],
            [
              -85.68679016920467,
              29.439989033816747
            ],
            [
              -85.17667708336947,
              29.27155171840273
            ],
            [
              -84.80831728524024,
              29.293476004936267
            ],
            [
              -84.4812820376813,
              29.43709136693973
            ],
            [
              -84.08704660242334,
              29.72971841276218
            ],
            [
              -83.88239405729021,
              29.66955933444502
            ],
            [
              -83.74261198381102,
              29.477022258878034
            ],
            [
              -83.61978549269188,
              30.746674385392982
            ],
            [
              -83.60527088642458,
              31.975800734825025
            ],
            [
              -83.71613635805899,
              32.48390565483359
            ],
            [
              -83.98481317344758,
              33.04749007073031
            ],
            [
              -84.22845043187307,
              33.33650742439738
            ],
            [
              -85.27617189426168,
              33.76501638139181
            ],
            [
              -85.57466512495505,
              34.0991663296392
            ],
            [
              -85.83521786344339,
              34.249553130614466
            ],
            [
              -86.53232500935114,
              34.42252669694022
            ],
            [
              -87.07738963244388,
              34.44973404309489
            ],
            [
              -88.23918693245675,
              34.2309362528597
            ],
            [
              -88.90974412045848,
              33.94122013151535
            ],
            [
              -89.1935329183835,
              33.725236218600905
            ],
            [
              -89.60545356643723,
              33.061065079254
            ],
            [
              -89.75500525379472,
              32.15977667284882
            ],
            [
              -89.6179454682908,
              31.655978663500093
            ],
            [
              -88.89386064520376,
              30.219801558744077
            ],
            [
              -88.81033302067736,
              29.806497249435637
            ],
            [
              -88.86206507363067,
              28.804945803526234
            ],
            [
              -88.64171733282002,
              29.024500470304336
            ],
            [
              -88.62702245895507,
              29.297599021205357
            ]
          ]
        ]
      }
    },
    {
      "type": "Feature",
      "properties": {
        "dn": 1,
        "PRODUCT": "Day 2 Excessive Rainfall Potential Forecast",
        "VALID_TIME": "12Z 10/09/26 - 12Z 10/10/26",
        "OUTLOOK": "Marginal (At Least 5%)",
        "ISSUE_TIME": "2026-10-08 08:18:00",
        "START_TIME": "2026-10-09 12:00:00",
        "END_TIME": "2026-10-10 12:00:00",
        "Snippet": "12Z 10/09/26 - 12Z 10/10/26",
        "risk_norm": "MARGINAL"
      },
      "geometry": {
        "type": "Polygon",
        "coordinates": [
          [
            [
              -80.27071594683542,
              28.68167854809876
            ],
            [
              -80.26957026165606,
              28.682486338971017
            ],
            [
              -80.26865016969384,
              28.6814808587509
            ],
            [
              -80.27071594683542,
              28.68167854809876
            ]
          ]
        ]
      }
    },
    {
      "type": "Feature",
      "properties": {
        "dn": 1,
        "PRODUCT": "Day 2 Excessive Rainfall Potential Forecast",
        "VALID_TIME": "12Z 10/09/26 - 12Z 10/10/26",
        "OUTLOOK": "Marginal (At Least 5%)",
        "ISSUE_TIME": "2026-10-08 08:18:00",
        "START_TIME": "2026-10-09 12:00:00",
        "END_TIME": "2026-10-10 12:00:00",
        "Snippet": "12Z 10/09/26 - 12Z 10/10/26",
        "risk_norm": "MARGINAL"
      },
      "geometry": {
        "type": "Polygon",
        "coordinates": [
          [
            [
              -80.31674476751347,
              28.731936582602827
            ],
            [
              -80.31559891097638,
              28.732744667781397
            ],
            [
              -80.3146780406514,
              28.731739519934028
            ],
            [
              -80.31674476751347,
              28.731936582602827
            ]
          ]
        ]
      }
    },
    {
      "type": "Feature",
      "properties": {
        "dn": 2,
        "PRODUCT": "Day 2 Excessive Rainfall Potential Forecast",
        "VALID_TIME": "12Z 10/09/26 - 12Z 10/10/26",
        "OUTLOOK": "Slight (At Least 15%)",
        "ISSUE_TIME": "2026-10-08 08:18:00",
        "START_TIME": "2026-10-09 12:00:00",
        "END_TIME": "2026-10-10 12:00:00",
        "Snippet": "12Z 10/09/26 - 12Z 10/10/26",
        "risk_norm": "SLIGHT"
      },
      "geometry": {
        "type": "Polygon",
        "coordinates": [
          [
            [
              -88.38562995539984,
              29.879932882157583
            ],
            [
              -88.44782733960653,
              29.700537850475445
            ],
            [
              -88.72652035332919,
              29.392857515274873
            ],
            [
              -88.62702245895507,
              29.297599021205357
            ],
            [
              -88.64171733282002,
              29.024500470304336
            ],
            [
              -88.86206507363067,
              28.804945803526234
            ],
            [
              -88.81033302067736,
              29.806497249435637
            ],
            [
              -88.89386064520376,
              30.219801558744077
            ],
            [
              -89.6179454682908,
              31.655978663500093
            ],
            [
              -89.75500525379472,
              32.15977667284882
            ],
            [
              -89.60545356643723,
              33.061065079254
            ],
            [
              -89.1935329183835,
              33.725236218600905
            ],
            [
              -88.90974412045848,
              33.94122013151535
            ],
            [
              -88.23918693245675,
              34.2309362528597
            ],
            [
              -87.07738963244388,
              34.44973404309489
            ],
            [
              -86.53232500935114,
              34.42252669694022
            ],
            [
              -85.83521786344339,
              34.249553130614466
            ],
            [
              -85.57466512495505,
              34.0991663296392
            ],
            [
              -85.27617189426168,
              33.76501638139181
            ],
            [
              -84.22845043187307,
              33.33650742439738
            ],
            [
              -83.98481317344758,
              33.04749007073031
            ],
            [
              -83.71613635805899,
              32.48390565483359
            ],
            [
              -83.60527088642458,
              31.975800734825025
            ],
            [
              -83.61978549269188,
              30.746674385392982
            ],
            [
              -83.74261198381102,
              29.477022258878034
            ],
            [
              -83.88239405729021,
              29.66955933444502
            ],
            [
              -84.08704660242334,
              29.72971841276218
            ],
            [
              -84.4812820376813,
              29.43709136693973
            ],
            [
              -84.80831728524024,
              29.293476004936267
            ],
            [
              -85.17667708336947,
              29.27155171840273
            ],
            [
              -85.68679016920467,
              29.439989033816747
            ],
            [
              -85.75519410177712,
              29.655310538756154
            ],
            [
              -85.96846470450589,
              29.867337853989106
            ],
            [
              -86.4789843425072,
              30.07844525356971
            ],
            [
              -87.70330473589726,
              29.866833646949562
            ],
            [
              -88.18996325546759,
              29.87617648557201
            ],
            [
              -87.43658619157061,
              29.928229503853572
            ],
            [
              -86.47691971538097,
              30.10683046114033
            ],
            [
              -85.9662804874291,
              29.89572543607389
            ],
            [
              -85.72253299206646,
              29.653370669611412
            ],
            [
              -85.68454609194893,
              29.468390220816804
            ],
            [
              -85.17431367240525,
              29.29995183586741
            ],
            [
              -84.80586495927885,
              29.321869586606454
            ],
            [
              -84.72983783811992,
              29.59104997166839
            ],
            [
              -84.6740484469636,
              30.22646995552463
            ],
            [
              -84.79587238248236,
              30.644932574356265
            ],
            [
              -84.94235335540391,
              30.791296822535774
            ],
            [
              -86.26698800696748,
              31.50741371203372
            ],
            [
              -86.78852321496569,
              31.67162197240987
            ],
            [
              -87.69607523157504,
              31.67042008527563
            ],
            [
              -88.24184964105535,
              31.4671550178628
            ],
            [
              -88.33681751913339,
              30.743498484237165
            ],
            [
              -88.22900384481775,
              29.87692598426844
            ],
            [
              -88.38562995539984,
              29.879932882157583
            ]
          ]
        ]
      }
    },
    {
      "type": "Feature",
      "properties": {
        "dn": 3,
        "PRODUCT": "Day 2 Excessive Rainfall Potential Forecast",
        "VALID_TIME": "12Z 10/09/26 - 12Z 10/10/26",
        "OUTLOOK": "Moderate (At Least 40%)",
        "ISSUE_TIME": "2026-10-08 08:18:00",
        "START_TIME": "2026-10-09 12:00:00",
        "END_TIME": "2026-10-10 12:00:00",
        "Snippet": "12Z 10/09/26 - 12Z 10/10/26",
        "risk_norm": "MODERATE"
      },
      "geometry": {
        "type": "Polygon",
        "coordinates": [
          [
            [
              -85.17431367240525,
              29.29995183586741
            ],
            [
              -85.68454609194893,
              29.468390220816804
            ],
            [
              -85.72253299206646,
              29.653370669611412
            ],
            [
              -85.9662804874291,
              29.89572543607389
            ],
            [
              -86.47691971538097,
              30.10683046114033
            ],
            [
              -87.43658619157061,
              29.928229503853572
            ],
            [
              -88.18996325546759,
              29.87617648557201
            ],
            [
              -88.2285786541542,
              29.873508435069667
            ],
            [
              -88.33681751913339,
              30.743498484237165
            ],
            [
              -88.24184964105535,
              31.4671550178628
            ],
            [
              -87.69607523157504,
              31.67042008527563
            ],
            [
              -86.78852321496569,
              31.67162197240987
            ],
            [
              -86.26698800696748,
              31.50741371203372
            ],
            [
              -84.94235335540391,
              30.791296822535774
            ],
            [
              -84.79587238248236,
              30.644932574356265
            ],
            [
              -84.6740484469636,
              30.22646995552463
            ],
            [
              -84.72983783811992,
              29.59104997166839
            ],
            [
              -84.80586495927885,
              29.321869586606454
            ],
            [
              -85.17431367240525,
              29.29995183586741
            ]
          ]
        ]
      }
    }
  ]
}
