{"type": "FeatureCollection", "features": [{"type": "Feature", "properties": {"dn": 1, "PRODUCT": "Day 1 Excessive Rainfall Potential Forecast", "VALID_TIME": "18Z 07/23/26 - 12Z 07/24/26", "OUTLOOK": "Marginal (At Least 5%)", "ISSUE_TIME": "2026-07-23 18:54:00", "START_TIME": "2026-07-23 18:54:00", "END_TIME": "2026-07-24 12:00:00", "Snippet": "18Z 07/23/26 - 12Z 07/24/26"}, "geometry": {"type": "Polygon", "coordinates": [[[-98.50835150119245, 26.055627890140723], [-99.02246103525674, 26.22559474752472], [-99.28593535644875, 26.447758383796], [-99.61603427988923, 27.07775546575369], [-99.68320292614735, 27.486816625138623], [-99.78964240199022, 27.574860797245268], [-99.64137283206557, 27.76300828512242], [-98.77968564693886, 28.243117908705955], [-96.7699312044533, 28.872185164317493], [-96.14642158859466, 28.96922165333519], [-95.1569554153125, 28.973382787028015], [-94.79152569469468, 28.88125007771577], [-95.20831027943626, 28.561200309284196], [-95.98412972350866, 28.2389437172858], [-96.54768263467437, 27.87021159181288], [-96.85231101677168, 27.547345142825293], [-97.00135575211544, 27.225891849229644], [-97.04956838052047, 27.042603917847618], [-96.941216495586, 26.678673268833606], [-97.09311065744421, 26.538712686594828], [-97.80003292255579, 26.207501850968374], [-98.50835150119245, 26.055627890140723]]]}}, {"type": "Feature", "properties": {"dn": 1, "PRODUCT": "Day 1 Excessive Rainfall Potential Forecast", "VALID_TIME": "18Z 07/23/26 - 12Z 07/24/26", "OUTLOOK": "Marginal (At Least 5%)", "ISSUE_TIME": "2026-07-23 18:54:00", "START_TIME": "2026-07-23 18:54:00", "END_TIME": "2026-07-24 12:00:00", "Snippet": "18Z 07/23/26 - 12Z 07/24/26"}, "geometry": {"type": "Polygon", "coordinates": [[[-90.63965663110584, 31.41387845935485], [-91.21395488033734, 31.74639922629741], [-91.83984020695749, 32.3051437016331], [-92.09738961952166, 32.71769444036064], [-92.0893045966775, 33.0343560272644], [-91.86240020686463, 33.43707827850478], [-90.96994205817076, 34.14083680990531], [-90.36375281365875, 34.30523221819714], [-89.37830258172923, 34.36463164553234], [-88.43846428302466, 34.55526907880396], [-83.23263035232353, 36.11414591184052], [-81.58885962134002, 36.35049942023078], [-79.33630688040742, 36.47046658024213], [-76.90236758134769, 36.947130044226064], [-75.67782319759552, 36.85622672569431], [-75.11876789305349, 35.70374929632649], [-75.24711970735581, 34.99265195274225], [-75.69258775655094, 34.8786593344872], [-76.17636920109427, 34.41994090223707], [-76.51793781172255, 34.24637167594707], [-76.77342781215607, 34.36609377873327], [-77.11955399511409, 34.26797238615109], [-77.50604924338721, 34.02221024179338], [-77.67639172792956, 33.630907018572174], [-77.95274596875981, 33.49300196525466], [-78.21473424746615, 33.5659192832868], [-78.55164321658896, 33.494623791967726], [-78.85266302286722, 33.29740433841915], [-78.8859263762099, 33.07215115610875], [-79.45695347537438, 33.26478489045146], [-80.58541892451285, 33.36939821038509], [-82.45170569798802, 33.207069140791056], [-83.56002271781068, 32.97162587432602], [-84.62240066063193, 32.58959449506427], [-88.40627241798529, 31.38225763600624], [-89.3203457691324, 31.190361955500567], [-90.06286778812071, 31.215242471573898], [-90.63965663110584, 31.41387845935485]], [[-86.27741133313855, 32.77910011458641], [-85.18843549398603, 32.897893753683405], [-83.06881940566447, 33.52643268745154], [-80.61845457751899, 33.963106861456836], [-79.64594332558887, 33.87424731407384], [-78.65378323375263, 33.55002236482833], [-78.2102709936589, 33.595799017323515], [-77.9482163401915, 33.52288038043892], [-77.71224181094408, 33.63473997397105], [-77.54201827397435, 34.02607642761089], [-77.11477141274594, 34.29776144478377], [-76.76854892880894, 34.39586392823509], [-76.51299624666441, 34.27614480991967], [-76.21241845200345, 34.42409440105609], [-75.68739766468772, 34.908349378346486], [-75.28331915995825, 34.99700139975197], [-75.15519581418542, 35.70811642855602], [-75.52089088010038, 36.476245838983324], [-76.3473779944075, 36.57027099189586], [-78.96018797485418, 35.98344542691368], [-81.37386131898778, 35.837332273143396], [-82.71067430619215, 35.80608066261689], [-85.58502978111999, 35.273059077115875], [-87.44691800778108, 34.6475702553959], [-87.84379052005224, 34.439796175075905], [-88.41895851182831, 33.966896595514434], [-88.59988063525054, 33.65778812958086], [-88.56630020193836, 33.29463822472053], [-88.20142881070257, 33.052932688509365], [-87.51318534931733, 32.841264960674316], [-86.27741133313855, 32.77910011458641]]]}}, {"type": "Feature", "properties": {"dn": 1, "PRODUCT": "Day 1 Excessive Rainfall Potential Forecast", "VALID_TIME": "18Z 07/23/26 - 12Z 07/24/26", "OUTLOOK": "Marginal (At Least 5%)", "ISSUE_TIME": "2026-07-23 18:54:00", "START_TIME": "2026-07-23 18:54:00", "END_TIME": "2026-07-24 12:00:00", "Snippet": "18Z 07/23/26 - 12Z 07/24/26"}, "geometry": {"type": "Polygon", "coordinates": [[[-109.27294146102567, 33.51916373902162], [-109.40363851236154, 33.689269443031186], [-109.49047177908848, 34.36204844723633], [-109.3169627253779, 35.14674173296661], [-109.3435925738607, 35.77664744462832], [-109.64085722285903, 36.336771146223285], [-110.1014523824858, 36.8359936857037], [-110.53299418405828, 37.11059851032875], [-112.13559423924548, 36.91068277419956], [-112.58584555805976, 36.90936741826209], [-113.176639642542, 37.07200397379388], [-113.43748427728359, 37.26983898009201], [-113.48319430998981, 37.534861925014106], [-113.26526512883981, 37.917853016340516], [-112.09226427435186, 39.1131474766521], [-111.01188529461044, 39.92646164463171], [-110.46427454969098, 40.90465014132493], [-110.25877558191786, 41.09963966631578], [-109.92497817088038, 41.21586733656712], [-108.99905133367048, 41.29040724734746], [-108.79799439818879, 41.52486856689946], [-108.7754679404759, 41.7899870184273], [-108.93993123010796, 42.12805774725261], [-110.11470563654494, 43.25763492608716], [-110.35883722054525, 43.67239047294865], [-110.46748523889202, 44.35669547226742], [-110.16202897018223, 44.72761796425019], [-109.76224470007239, 44.888284534707864], [-109.22182751658619, 44.92935393311003], [-108.45862359376845, 44.683536292576896], [-107.81590012051633, 44.856980079845904], [-105.70985860612606, 44.98669295410964], [-104.7968863704538, 44.94985440664394], [-103.81262021834328, 44.783305746623796], [-102.63115078940011, 44.36179033943124], [-101.99302398252743, 43.86868774941646], [-101.72765134285413, 43.4896346031294], [-101.69824771130628, 43.05762964956231], [-101.79878149471536, 42.793554707668484], [-101.70759359139781, 42.31841505855522], [-100.79466825624603, 41.7834880894951], [-99.60929329265014, 41.46779328394386], [-98.268208196666, 41.496990429066194], [-96.93230681533917, 41.82190534189875], [-96.1124533337338, 41.785128213749566], [-95.35095227356494, 41.52615120446848], [-94.651859919406, 41.17616963308139], [-94.13106450991235, 40.86761238722084], [-93.4998536447523, 40.335422102205925], [-93.33178774696125, 40.025753772024316], [-93.34233918955047, 39.36388942169442], [-93.51938930393044, 38.96729052257002], [-94.03782767832323, 38.305693001021], [-95.0007776420063, 37.72939285842136], [-95.78662923571922, 37.46029420626251], [-96.68189351203337, 37.27545033909429], [-99.69268575077464, 36.90639891474058], [-101.14319213827329, 36.86000840902845], [-102.96249723752706, 37.27616704128932], [-103.52527640464538, 37.29359289012745], [-104.02111308119851, 37.17859807970649], [-104.53917247243353, 36.70340754634735], [-105.33956329464641, 35.12733677068374], [-106.02589338579311, 34.26995731816738], [-107.12905594259009, 33.32984003403298], [-107.54478809833047, 33.16193491692042], [-108.0821979398545, 33.11927769187154], [-108.92072012136671, 33.32178658324083], [-109.27294146102567, 33.51916373902162]], [[-95.50913588600868, 38.12945520605387], [-94.6593220135168, 38.75173031684134], [-94.37314361159652, 39.10525066944052], [-94.37129240127635, 39.41479040632999], [-94.4847718928349, 39.59183757416964], [-95.11577654990141, 39.98995715181326], [-97.02831905286149, 40.77004227523501], [-97.95493716002635, 40.75714222757357], [-98.92909250372695, 40.474745040925235], [-99.09587449123053, 40.294566895491016], [-99.08718107283171, 40.074566574653396], [-98.90138956579699, 39.72594923458828], [-98.54393976273342, 39.335903547090965], [-97.43848569341397, 38.5127262088934], [-96.98006240153943, 38.252156417494454], [-96.29825393516826, 37.99192791682388], [-95.84697337221694, 37.994741738994065], [-95.50913588600868, 38.12945520605387]], [[-103.1315254034413, 38.027129108030614], [-102.29845145168665, 38.242533151686345], [-101.81239139127669, 38.61840418979107], [-101.71027579918471, 38.79993654026579], [-101.78981918370722, 39.15152959809498], [-103.10120973176082, 40.5974528179396], [-103.905156548433, 41.17495944947828], [-104.68002154277877, 41.35433630039831], [-105.37708565497982, 41.3155489111523], [-105.77420720953948, 41.20440669924237], [-106.32478057974242, 40.90670314857864], [-106.67990390158091, 40.44268753789557], [-106.62548413957663, 39.960296901375365], [-106.26750780522762, 39.31916653702649], [-105.61755617216201, 38.560296990882634], [-105.13062456659343, 38.232902968903346], [-104.49043994001299, 38.04659084500641], [-103.1315254034413, 38.027129108030614]]]}}, {"type": "Feature", "properties": {"dn": 2, "PRODUCT": "Day 1 Excessive Rainfall Potential Forecast", "VALID_TIME": "18Z 07/23/26 - 12Z 07/24/26", "OUTLOOK": "Slight (At Least 15%)", "ISSUE_TIME": "2026-07-23 18:54:00", "START_TIME": "2026-07-23 18:54:00", "END_TIME": "2026-07-24 12:00:00", "Snippet": "18Z 07/23/26 - 12Z 07/24/26"}, "geometry": {"type": "Polygon", "coordinates": [[[-87.51318534931733, 32.841264960674316], [-88.20142881070257, 33.052932688509365], [-88.56630020193836, 33.29463822472053], [-88.59988063525054, 33.65778812958086], [-88.41895851182831, 33.966896595514434], [-87.84379052005224, 34.439796175075905], [-87.44691800778108, 34.6475702553959], [-85.58502978111999, 35.273059077115875], [-82.71067430619215, 35.80608066261689], [-81.37386131898778, 35.837332273143396], [-78.96018797485418, 35.98344542691368], [-76.3473779944075, 36.57027099189586], [-75.52089088010038, 36.476245838983324], [-75.15519581418542, 35.70811642855602], [-75.28331915995825, 34.99700139975197], [-75.68739766468772, 34.908349378346486], [-76.21241845200345, 34.42409440105609], [-76.51299624666441, 34.27614480991967], [-76.76854892880894, 34.39586392823509], [-77.11477141274594, 34.29776144478377], [-77.54201827397435, 34.02607642761089], [-77.71224181094408, 33.63473997397105], [-77.9482163401915, 33.52288038043892], [-78.2102709936589, 33.595799017323515], [-78.65378323375263, 33.55002236482833], [-79.64594332558887, 33.87424731407384], [-80.61845457751899, 33.963106861456836], [-83.06881940566447, 33.52643268745154], [-85.18843549398603, 32.897893753683405], [-86.27741133313855, 32.77910011458641], [-87.51318534931733, 32.841264960674316]]]}}, {"type": "Feature", "properties": {"dn": 2, "PRODUCT": "Day 1 Excessive Rainfall Potential Forecast", "VALID_TIME": "18Z 07/23/26 - 12Z 07/24/26", "OUTLOOK": "Slight (At Least 15%)", "ISSUE_TIME": "2026-07-23 18:54:00", "START_TIME": "2026-07-23 18:54:00", "END_TIME": "2026-07-24 12:00:00", "Snippet": "18Z 07/23/26 - 12Z 07/24/26"}, "geometry": {"type": "Polygon", "coordinates": [[[-96.29825393516826, 37.99192791682388], [-96.98006240153943, 38.252156417494454], [-97.43848569341397, 38.5127262088934], [-98.54393976273342, 39.335903547090965], [-98.90138956579699, 39.72594923458828], [-99.08718107283171, 40.074566574653396], [-99.09587449123053, 40.294566895491016], [-98.92909250372695, 40.474745040925235], [-97.95493716002635, 40.75714222757357], [-97.02831905286149, 40.77004227523501], [-95.11577654990141, 39.98995715181326], [-94.4847718928349, 39.59183757416964], [-94.37129240127635, 39.41479040632999], [-94.37314361159652, 39.10525066944052], [-94.6593220135168, 38.75173031684134], [-95.50913588600868, 38.12945520605387], [-95.84697337221694, 37.994741738994065], [-96.29825393516826, 37.99192791682388]]]}}, {"type": "Feature", "properties": {"dn": 2, "PRODUCT": "Day 1 Excessive Rainfall Potential Forecast", "VALID_TIME": "18Z 07/23/26 - 12Z 07/24/26", "OUTLOOK": "Slight (At Least 15%)", "ISSUE_TIME": "2026-07-23 18:54:00", "START_TIME": "2026-07-23 18:54:00", "END_TIME": "2026-07-24 12:00:00", "Snippet": "18Z 07/23/26 - 12Z 07/24/26"}, "geometry": {"type": "Polygon", "coordinates": [[[-104.49043994001299, 38.04659084500641], [-105.13062456659343, 38.232902968903346], [-105.61755617216201, 38.560296990882634], [-106.26750780522762, 39.31916653702649], [-106.62548413957663, 39.960296901375365], [-106.67990390158091, 40.44268753789557], [-106.32478057974242, 40.90670314857864], [-105.77420720953948, 41.20440669924237], [-105.37708565497982, 41.3155489111523], [-104.68002154277877, 41.35433630039831], [-103.905156548433, 41.17495944947828], [-103.10120973176082, 40.5974528179396], [-101.78981918370722, 39.15152959809498], [-101.71027579918471, 38.79993654026579], [-101.81239139127669, 38.61840418979107], [-102.29845145168665, 38.242533151686345], [-103.1315254034413, 38.027129108030614], [-104.49043994001299, 38.04659084500641]]]}}]}