{"type": "FeatureCollection", "features": [{"type": "Feature", "properties": {"dn": 1, "PRODUCT": "Day 2 Excessive Rainfall Potential Forecast", "VALID_TIME": "12Z 07/24/26 - 12Z 07/25/26", "OUTLOOK": "Marginal (At Least 5%)", "ISSUE_TIME": "2026-07-23 19:34:00", "START_TIME": "2026-07-24 12:00:00", "END_TIME": "2026-07-25 12:00:00", "Snippet": "12Z 07/24/26 - 12Z 07/25/26"}, "geometry": {"type": "MultiPolygon", "coordinates": [[[[-78.38269705127462, 33.537737940718245], [-78.81759787441108, 33.29389121380424], [-78.92245450308135, 32.94005331803102], [-80.45975156681814, 31.947531694041075], [-80.80478819113524, 31.613784504858923], [-80.97793980749383, 31.08051353045219], [-81.41590625780354, 30.981851554241427], [-81.78498524870261, 31.01322265461192], [-82.33664034128728, 31.33308011813955], [-82.57139967938348, 32.12616967526922], [-82.8710434872157, 32.33029784016668], [-83.35166201382411, 32.36599507455803], [-85.32290877541706, 31.951917676526257], [-86.07273422788506, 31.95018707379574], [-86.70607227029838, 32.07520421747264], [-89.13159412161616, 32.81723206915259], [-90.29644668367659, 33.30792613102501], [-91.78670508882878, 34.15709367369065], [-92.21560972310618, 34.48139397652218], [-93.18198394064036, 35.52935968097188], [-93.8369447434843, 36.07257773964555], [-94.55594340426366, 36.434270183703724], [-95.2235483486931, 36.613652297760886], [-95.66910091626156, 36.61247490693047], [-96.05764398933644, 36.476285470542386], [-96.94515491393861, 36.33409730051363], [-97.27842026649112, 36.32991495942013], [-97.5582175131519, 36.41543325077923], [-97.96299939479664, 36.946343969162214], [-98.15002672032047, 37.61223445631881], [-98.17903278177094, 38.589919195781185], [-97.74946083115303, 39.526934632166316], [-96.68193503632745, 40.773192981501694], [-95.87315293866271, 41.174389672941544], [-94.82633151449487, 41.17642235724989], [-92.91979828553313, 40.55030047592525], [-90.71040299464154, 39.45276774009935], [-89.82540054071299, 38.80806840198162], [-89.55964986652906, 38.4448637600687], [-89.17501386260335, 37.184983703076995], [-88.7131958565728, 36.452770164935465], [-87.88878427369639, 35.432282000983356], [-87.5229549554735, 35.14712006260736], [-87.09366654747157, 34.99205481107392], [-86.7068736698162, 35.01815787486245], [-85.97659160456986, 35.20520375587153], [-84.419294188123, 35.92360056375211], [-83.67460773162263, 36.14462255740273], [-82.74071243302491, 36.0338350693601], [-81.90823849561264, 36.01571754227172], [-81.04761418272652, 36.21630854105234], [-79.69298716724195, 36.32319862355406], [-78.4539925446963, 36.7462513953117], [-77.90079423499164, 36.69094376164747], [-77.58342997027793, 36.56818018894919], [-77.02423831803779, 36.554331445311284], [-75.66194730772449, 36.944664373291154], [-75.48078862406483, 36.380682137057676], [-75.45184339800969, 36.32655823635072], [-76.3685271091183, 36.120703865604575], [-77.7856291836652, 36.00179481668847], [-78.36920212604151, 35.835161707538454], [-79.73870705578517, 35.19830747564824], [-80.65416009191385, 34.96381135061392], [-81.75159770963008, 35.010419854483544], [-82.06897251026392, 35.1259278172915], [-82.83566639459238, 35.68011781661099], [-83.10587304701951, 35.74468039148618], [-83.5603098593293, 35.64140865865045], [-84.90044431065184, 34.9171364863822], [-85.41217540504385, 34.722098113181815], [-86.63120765705614, 34.562991788409036], [-87.72594293431851, 34.569946563716265], [-88.42523608265063, 34.77966279192006], [-88.95779123975404, 35.07019842383367], [-90.1251894646425, 36.006625065451], [-90.65211741202572, 36.69293025191396], [-91.33268051401863, 38.00266065784539], [-91.71242917994145, 38.499136144673436], [-92.26710311361343, 38.996889047822485], [-93.50861808244602, 39.80736240948375], [-94.42466708847067, 40.20925757334467], [-95.17385755810069, 40.34210355501713], [-96.038697548248, 40.29516405173031], [-96.49733990848915, 40.07133447773604], [-96.66076958709667, 39.496423904672724], [-96.59614123579438, 39.01055121240605], [-96.4187262308084, 38.52452082385076], [-96.13100769188927, 38.12694057129073], [-94.83286062404423, 37.150266326238075], [-93.61015808604874, 36.47432172163352], [-93.11709774200705, 36.066937396697824], [-92.25418628842822, 35.112214429532926], [-91.66437871373454, 34.605844484081544], [-90.75736430489891, 33.99873893221991], [-89.59202384878904, 33.33164505780135], [-87.53097985000919, 32.57007705186419], [-86.15492764111437, 32.273202887536954], [-85.18149998553669, 32.35273701131068], [-84.18967163423957, 32.60692037608616], [-83.26109293179894, 32.723474981990684], [-82.292180412816, 32.69522151556291], [-81.98650531584065, 32.53427959261292], [-81.3621191628054, 31.8901760433014], [-80.95933819752842, 31.67270269055908], [-80.80033242368319, 31.658556268720737], [-80.49516161744837, 31.950764511883545], [-78.95812723491197, 32.94361826410218], [-78.85337863814183, 33.29747603483985], [-78.49243248898624, 33.53379906716586], [-78.2102709936589, 33.595799017323515], [-78.0210740342229, 33.543153570267954], [-78.38269705127462, 33.537737940718245]]], [[[-75.11876789305349, 35.70374929632649], [-75.24711970735581, 34.99265195274225], [-75.69258775655094, 34.8786593344872], [-76.17636920109427, 34.41994090223707], [-76.51793781172255, 34.24637167594707], [-76.77342781215607, 34.36609377873327], [-77.11955399511409, 34.26797238615109], [-77.50604924338721, 34.02221024179338], [-77.60874437314557, 33.71471100202884], [-77.7778791007044, 33.565547930438235], [-77.95274596875981, 33.49300196525466], [-77.99182806789635, 33.53501566479408], [-77.9482163401915, 33.52288038043892], [-77.77330031859398, 33.59541555648216], [-77.64461879285001, 33.71855795791758], [-77.54201827397435, 34.02607642761089], [-77.11477141274594, 34.29776144478377], [-76.76854892880894, 34.39586392823509], [-76.51299624666441, 34.27614480991967], [-76.21241845200345, 34.42409440105609], [-75.68739766468772, 34.908349378346486], [-75.28331915995825, 34.99700139975197], [-75.15519581418542, 35.70811642855602], [-75.33457885088524, 36.1072884095089], [-75.11876789305349, 35.70374929632649]]]]}}, {"type": "Feature", "properties": {"dn": 1, "PRODUCT": "Day 2 Excessive Rainfall Potential Forecast", "VALID_TIME": "12Z 07/24/26 - 12Z 07/25/26", "OUTLOOK": "Marginal (At Least 5%)", "ISSUE_TIME": "2026-07-23 19:34:00", "START_TIME": "2026-07-24 12:00:00", "END_TIME": "2026-07-25 12:00:00", "Snippet": "12Z 07/24/26 - 12Z 07/25/26"}, "geometry": {"type": "Polygon", "coordinates": [[[-105.32142666122317, 32.54780122489598], [-105.76362511302523, 32.655929189109614], [-105.95038812535901, 32.91574908848871], [-106.2500232710113, 33.75677588050908], [-106.54233573677227, 33.96186483204105], [-107.02497574285749, 33.88167441649176], [-107.72123363982772, 33.284354950792284], [-107.92615810346837, 33.177273106464014], [-108.24860849359327, 33.15113500147956], [-109.03386660494867, 33.357441631811085], [-109.78656426342275, 33.290338193318824], [-110.38957443277164, 33.32497797919119], [-111.34600385000519, 33.913395050288266], [-112.66323463004159, 34.2758769752878], [-113.34710310016109, 34.74682328421039], [-113.84053850730383, 35.37195372039584], [-113.91715613381615, 35.81646405346226], [-113.82058212375503, 36.55105468330699], [-113.69187915576263, 37.106782699298165], [-113.43515919615413, 37.58504948224399], [-112.6641094296348, 38.07163025333438], [-111.95708346276467, 38.27739871060618], [-111.2135205076149, 38.25966353001812], [-109.98322164311328, 38.01355503545541], [-108.63590337073812, 38.12592783645998], [-108.36598794906001, 38.23644441119892], [-108.16384015900437, 38.42960251308686], [-107.689919871858, 39.22161533030498], [-107.06765818095677, 39.79868609081421], [-106.14725810474843, 40.34541526371445], [-105.62965425100772, 40.37715961510004], [-105.37179250399313, 40.12672656723466], [-105.15647446727611, 39.69718309411885], [-105.0104540708093, 38.77431126280169], [-105.06057584825778, 38.10376637622448], [-105.44145515956201, 37.36655764526191], [-105.3040525114629, 37.106480423816734], [-104.77479881677738, 36.82526313434225], [-103.80639526186614, 36.60968867493102], [-103.45434737758829, 36.40267937042488], [-103.34074390595505, 35.64500968024154], [-103.10170040946554, 35.38784141414294], [-102.71993096191792, 35.45100479656157], [-100.83799862228278, 36.38022894118376], [-100.45151909175708, 36.437981242742474], [-100.22168438128932, 36.30998530590827], [-99.86672572604805, 35.82740345154881], [-99.74458916589435, 35.561530943075276], [-99.72919282257023, 35.20240767445682], [-99.88017960848416, 34.88305110803232], [-100.14475981540903, 34.648918552266245], [-102.18323050334813, 33.98579419747899], [-103.07057647154934, 33.446816481103745], [-103.81621352258811, 33.2721415580276], [-104.2475648680118, 33.248076685494645], [-104.70191268206729, 33.49332007643055], [-104.86393353390909, 33.483552551553956], [-104.95900598722751, 33.34272843023469], [-105.06063155662875, 32.65606841548268], [-105.32142666122317, 32.54780122489598]]]}}, {"type": "Feature", "properties": {"dn": 1, "PRODUCT": "Day 2 Excessive Rainfall Potential Forecast", "VALID_TIME": "12Z 07/24/26 - 12Z 07/25/26", "OUTLOOK": "Marginal (At Least 5%)", "ISSUE_TIME": "2026-07-23 19:34:00", "START_TIME": "2026-07-24 12:00:00", "END_TIME": "2026-07-25 12:00:00", "Snippet": "12Z 07/24/26 - 12Z 07/25/26"}, "geometry": {"type": "Polygon", "coordinates": [[[-75.5999492803243, 36.98175687187603], [-75.59868344225944, 36.982513671435434], [-75.597736780093, 36.981502207049964], [-75.5999492803243, 36.98175687187603]]]}}, {"type": "Feature", "properties": {"dn": 2, "PRODUCT": "Day 2 Excessive Rainfall Potential Forecast", "VALID_TIME": "12Z 07/24/26 - 12Z 07/25/26", "OUTLOOK": "Slight (At Least 15%)", "ISSUE_TIME": "2026-07-23 19:34:00", "START_TIME": "2026-07-24 12:00:00", "END_TIME": "2026-07-25 12:00:00", "Snippet": "12Z 07/24/26 - 12Z 07/25/26"}, "geometry": {"type": "Polygon", "coordinates": [[[-80.95933819752842, 31.67270269055908], [-81.3621191628054, 31.8901760433014], [-81.98650531584065, 32.53427959261292], [-82.292180412816, 32.69522151556291], [-83.26109293179894, 32.723474981990684], [-84.18967163423957, 32.60692037608616], [-85.18149998553669, 32.35273701131068], [-86.15492764111437, 32.273202887536954], [-87.53097985000919, 32.57007705186419], [-89.59202384878904, 33.33164505780135], [-90.75736430489891, 33.99873893221991], [-91.66437871373454, 34.605844484081544], [-92.25418628842822, 35.112214429532926], [-93.11709774200705, 36.066937396697824], [-93.61015808604874, 36.47432172163352], [-94.83286062404423, 37.150266326238075], [-96.13100769188927, 38.12694057129073], [-96.4187262308084, 38.52452082385076], [-96.59614123579438, 39.01055121240605], [-96.66076958709667, 39.496423904672724], [-96.49733990848915, 40.07133447773604], [-96.038697548248, 40.29516405173031], [-95.17385755810069, 40.34210355501713], [-94.42466708847067, 40.20925757334467], [-93.50861808244602, 39.80736240948375], [-92.26710311361343, 38.996889047822485], [-91.71242917994145, 38.499136144673436], [-91.33268051401863, 38.00266065784539], [-90.65211741202572, 36.69293025191396], [-90.1251894646425, 36.006625065451], [-88.95779123975404, 35.07019842383367], [-88.42523608265063, 34.77966279192006], [-87.72594293431851, 34.569946563716265], [-86.63120765705614, 34.562991788409036], [-85.41217540504385, 34.722098113181815], [-84.90044431065184, 34.9171364863822], [-83.5603098593293, 35.64140865865045], [-83.10587304701951, 35.74468039148618], [-82.83566639459238, 35.68011781661099], [-82.06897251026392, 35.1259278172915], [-81.75159770963008, 35.010419854483544], [-80.65416009191385, 34.96381135061392], [-79.73870705578517, 35.19830747564824], [-78.36920212604151, 35.835161707538454], [-77.7856291836652, 36.00179481668847], [-76.3685271091183, 36.120703865604575], [-75.4348327045982, 36.33037822960002], [-75.15519581418542, 35.70811642855602], [-75.28331915995825, 34.99700139975197], [-75.68739766468772, 34.908349378346486], [-76.21241845200345, 34.42409440105609], [-76.51299624666441, 34.27614480991967], [-76.76854892880894, 34.39586392823509], [-77.11477141274594, 34.29776144478377], [-77.54201827397435, 34.02607642761089], [-77.64461879285001, 33.71855795791758], [-77.77330031859398, 33.59541555648216], [-77.9482163401915, 33.52288038043892], [-78.2102709936589, 33.595799017323515], [-78.49243248898624, 33.53379906716586], [-78.85337863814183, 33.29747603483985], [-78.95812723491197, 32.94361826410218], [-80.49516161744837, 31.950764511883545], [-80.80033242368319, 31.658556268720737], [-80.95933819752842, 31.67270269055908]]]}}]}