{"type": "FeatureCollection", "features": [{"type": "Feature", "properties": {"dn": 1, "PRODUCT": "Day 1 Excessive Rainfall Potential Forecast", "VALID_TIME": "16Z 08/02/26 - 12Z 08/03/26", "OUTLOOK": "Marginal (At Least 5%)", "ISSUE_TIME": "2026-08-02 15:50:00", "START_TIME": "2026-08-02 16:00:00", "END_TIME": "2026-08-03 12:00:00", "Snippet": "16Z 08/02/26 - 12Z 08/03/26"}, "geometry": {"type": "MultiPolygon", "coordinates": [[[[-85.96862488042487, 29.86525609796954], [-86.47913574849645, 30.076363671681225], [-87.70158905530097, 29.894447696549744], [-88.38566408006709, 29.879326641562674], [-88.44712950193036, 29.700508416265503], [-88.72582426544463, 29.392829315223135], [-88.6263269559462, 29.297570372466986], [-88.64102342874018, 29.024471877489752], [-88.91871418833526, 28.715305866724048], [-89.34058509721433, 28.594433286198434], [-89.69963740594949, 28.698441485691408], [-89.84552074321768, 28.931472836935967], [-90.11316001993794, 28.757695011491165], [-91.04999807871151, 28.73885912208155], [-91.6632844398196, 29.11805931176347], [-91.820891038045, 29.075785756639466], [-92.08032577742242, 29.126467070091238], [-92.1824269179349, 29.21950606131329], [-92.5476757470499, 29.225702201592362], [-93.32724384305915, 29.46384643980668], [-93.32504522194134, 29.692455172068293], [-93.16396910159652, 29.873679961084605], [-92.6899535193783, 29.958444140192604], [-92.21201606920371, 30.17824356403506], [-90.03501812012202, 30.62506698201142], [-88.63604701272367, 31.075211492862387], [-87.26429576736889, 31.741630916209626], [-86.09080678955891, 32.40722330384207], [-85.35066293603428, 32.908139805117784], [-84.7606181967091, 33.46119601379819], [-84.37746160520369, 34.0704925088128], [-83.23619320447278, 36.60775298086305], [-83.03686821826295, 37.40064114167137], [-82.94321464935007, 38.73309193284892], [-83.16883694409081, 39.76957982919064], [-83.47665983995087, 40.098753292116896], [-83.74910938799313, 40.248814639947504], [-84.7574745068285, 40.57444886877513], [-84.97636087014745, 40.71987924397489], [-85.22755998488422, 41.1294655126287], [-85.17704335416742, 41.65295636814056], [-84.90483204034827, 42.031741057742856], [-83.31264386923127, 43.07057182930107], [-81.97931884739083, 44.15254170511035], [-81.91541276032169, 43.71539282780478], [-82.09182501152102, 42.98939631206375], [-82.28488318746142, 42.62600625560658], [-82.01586739174203, 43.41923400221301], [-82.71648441481823, 43.075449879010066], [-83.63267987103046, 42.350066729733925], [-83.91051974872173, 41.973894158311516], [-83.9344235734845, 41.75651312511602], [-83.79336954602944, 41.440979880817984], [-83.20455400671996, 40.96344614571487], [-82.41706126102808, 40.733559083210956], [-81.98976489956988, 40.43852734276485], [-81.90267967143772, 40.21114861075947], [-82.02931082566883, 39.200965785269155], [-81.7995597719818, 38.29296340385246], [-81.61899058276092, 37.92166042474907], [-81.31605865610042, 37.628809212802494], [-80.56927804809837, 37.29824963854488], [-79.95654271792792, 37.24503689659853], [-79.49212083715204, 37.33789275025167], [-78.43605700898078, 37.95660290606525], [-77.90335603934253, 38.44170864008671], [-77.64799487915256, 38.95260397558761], [-77.22680646000595, 41.08744729450689], [-76.85685250144668, 41.84442540158876], [-75.96456799485043, 42.80739834383279], [-74.14284827736898, 43.79133715374806], [-73.57722948678311, 44.16321719232486], [-73.1757718162916, 44.59549987666753], [-72.92661443959625, 45.1601873944872], [-71.88555073461235, 45.137713181158034], [-71.6755236825875, 45.242119450045706], [-71.78815453938147, 44.77772341906478], [-71.85783520853052, 44.7428008367937], [-72.25066313629395, 43.086941205217535], [-72.32135200331089, 42.2591523569202], [-72.21633885600356, 41.93668565459539], [-71.78753480919461, 41.4840786472471], [-70.91365904226045, 40.922734685497986], [-71.52645491524046, 40.825780774043466], [-72.80244941169983, 40.366731580764885], [-73.57954567388487, 40.28460982894157], [-73.71015709341064, 40.21221992322814], [-73.85341372196022, 39.51538921313792], [-74.15853207390785, 39.14956486953465], [-74.70327736720743, 38.72152557532674], [-74.81286030368888, 38.15090576064143], [-75.66100038532956, 36.94365311235639], [-75.36395280295014, 36.0954508263993], [-75.33255475331408, 36.04529005553894], [-75.7647723262324, 36.05211846645412], [-76.35163290568643, 35.89257300391778], [-76.78795662620117, 35.623606329665], [-77.18138512986015, 35.258676284901036], [-78.05560395312617, 34.26213003164248], [-78.15026145367653, 33.63538033682904], [-77.9482163401915, 33.52288038043892], [-77.71224181094408, 33.63473997397105], [-77.54201827397435, 34.02607642761089], [-77.11477141274594, 34.29776144478377], [-76.76854892880894, 34.39586392823509], [-76.51299624666441, 34.27614480991967], [-76.21241845200345, 34.42409440105609], [-75.68739766468772, 34.908349378346486], [-75.28331915995825, 34.99700139975197], [-75.18812997049666, 35.319468097938824], [-75.24711970735581, 34.99265195274225], [-75.69258775655094, 34.8786593344872], [-76.17636920109427, 34.41994090223707], [-76.51793781172255, 34.24637167594707], [-76.77342781215607, 34.36609377873327], [-77.11955399511409, 34.26797238615109], [-77.50604924338721, 34.02221024179338], [-77.60874437314557, 33.71471100202884], [-77.7778791007044, 33.565547930438235], [-77.95274596875981, 33.49300196525466], [-78.21036025873504, 33.59520142264277], [-78.49252021324526, 33.53320121815604], [-78.85266302286722, 33.29740433841915], [-78.95741378027536, 32.943546965180765], [-80.49445341643577, 31.950699855526654], [-80.80478819113524, 31.613784504858923], [-81.12021116667621, 30.77425779181026], [-81.06926742590505, 30.312625737486528], [-80.75520059408946, 29.414626373216457], [-80.22831009726261, 28.585879083976433], [-80.27895736516328, 28.177831850492325], [-79.72225018624539, 26.83709996097543], [-79.83705590772036, 25.51566625853706], [-80.0492359105366, 25.03138136682195], [-80.17146254650426, 24.859740330306195], [-80.670873277322, 24.494230782657368], [-80.9859265476488, 24.386510904189212], [-81.70910591257864, 24.223517368340733], [-82.72013611643823, 24.173080021327728], [-83.26527655922753, 24.26400876516199], [-83.14535551376402, 24.988271877247925], [-82.38701590963649, 24.972866704434747], [-82.3238345877115, 25.104258088866843], [-82.59290722228265, 25.448019724918527], [-81.91407661823771, 25.619706401004528], [-82.1181065867413, 26.09627964729339], [-82.2642860577806, 26.15368335589894], [-82.53643912279504, 26.498454800815157], [-83.17876934092348, 27.78744444256655], [-83.15381030861391, 28.380862621078116], [-82.98060221557084, 28.55055120976211], [-83.01395862465998, 28.736247728165278], [-83.31569839360316, 28.850914061571117], [-83.35413602401009, 28.991064967947402], [-83.8852547480311, 29.639303733683388], [-84.08985618273041, 29.69946174504495], [-84.48398361684634, 29.40681516021565], [-84.84358360413941, 29.308103987171943], [-84.4812820376813, 29.43709136693973], [-84.08704660242334, 29.72971841276218], [-83.88239405729021, 29.66955933444502], [-83.31954023357689, 28.988457089996903], [-83.28114428453334, 28.84829716069387], [-82.97944458156196, 28.733563113874293], [-82.94614275006674, 28.54785858865237], [-83.11939598436211, 28.378208193815713], [-83.14173879777053, 28.150532360236898], [-82.66408030743584, 28.250267078855504], [-82.38657746388277, 28.411403237887015], [-81.94064771757911, 29.152764797701586], [-81.87508398520734, 29.74214331028837], [-82.00652781526732, 29.981827028964474], [-82.29618960006194, 30.23465154566022], [-83.10749765821808, 30.572323084483916], [-84.3137794262117, 30.704572406314007], [-86.37759888971947, 30.73998121007295], [-86.64468949918435, 30.708830056835943], [-86.97744535010425, 30.497945993340306], [-87.11601703240981, 30.00337797895589], [-86.47693347956182, 30.106641226423196], [-86.32287667005356, 30.05257510163349], [-85.96629504887629, 29.895536185526645], [-85.72275073279788, 29.653383602072367], [-85.68456105246398, 29.468200879570126], [-85.18853440097794, 29.304451867153535], [-85.6869547348701, 29.437906280103434], [-85.75758924982256, 29.655452795826765], [-85.96862488042487, 29.86525609796954]]], [[[-82.40459972036747, 42.400665901903984], [-82.84663945746513, 42.16841398967161], [-82.8676419319711, 41.99484361455043], [-82.74410778353783, 41.88469552548327], [-82.38879663915237, 41.90416967042471], [-81.25680987703319, 42.43488770167811], [-79.54494433831698, 42.779223640446055], [-79.25451962691085, 42.98712238228089], [-79.36965339282024, 43.388993137508415], [-79.3035861977337, 43.557386460125336], [-78.91923204943369, 43.69931718061865], [-78.48307327097176, 43.79156363369032], [-76.97481554603866, 43.81090471634205], [-76.56799077419844, 44.26329105809036], [-75.65954320535909, 44.865468276251804], [-74.87625165684352, 45.20227565721804], [-73.5471916218246, 45.173584253789706], [-74.88222536617349, 45.17412168143099], [-75.61971036471022, 44.861410951249134], [-76.52836823886129, 44.25940705899387], [-76.98009369040565, 43.7824203054212], [-77.88405571038861, 43.78022297126463], [-78.00301394131641, 43.443081430448444], [-78.1425474621001, 43.3255572250699], [-79.32295629350472, 43.42900212313399], [-79.21531056961993, 42.98377400003856], [-79.54942632928727, 42.7504857326103], [-81.26078349772396, 42.40605074271628], [-82.39242474026004, 41.87521942236109], [-82.74763326788556, 41.855735059443475], [-82.90657182900024, 41.99743752651846], [-82.88563602531953, 42.171009755549086], [-82.44367505065932, 42.40335220253929], [-82.33432537487099, 42.532942083697726], [-82.40459972036747, 42.400665901903984]]], [[[-75.15252857201139, 35.516707693096635], [-75.30387964361418, 35.99947938819732], [-75.11876789305349, 35.70374929632649], [-75.15252857201139, 35.516707693096635]]], [[[-84.93087541778797, 29.284142147275272], [-85.02064771267297, 29.25949940854319], [-85.16997802613622, 29.299483309607655], [-84.93087541778797, 29.284142147275272]]]]}}, {"type": "Feature", "properties": {"dn": 1, "PRODUCT": "Day 1 Excessive Rainfall Potential Forecast", "VALID_TIME": "16Z 08/02/26 - 12Z 08/03/26", "OUTLOOK": "Marginal (At Least 5%)", "ISSUE_TIME": "2026-08-02 15:50:00", "START_TIME": "2026-08-02 16:00:00", "END_TIME": "2026-08-03 12:00:00", "Snippet": "16Z 08/02/26 - 12Z 08/03/26"}, "geometry": {"type": "Polygon", "coordinates": [[[-97.23023106743004, 25.668726873049444], [-97.74194273594556, 25.888736343436992], [-98.14909531772862, 25.92647175917468], [-99.02246103525674, 26.22559474752472], [-99.28593535644875, 26.447758383796], [-99.44887726647175, 26.71723071908369], [-99.67433456186515, 27.258707232758216], [-99.68320292614735, 27.486816625138623], [-100.00298958790927, 27.750707804687732], [-100.38812450825944, 28.285568005112605], [-99.56960869715127, 28.586744811279594], [-98.8475871161111, 28.743266574484778], [-97.54835342023456, 28.770139044222848], [-96.55821858786706, 28.600901107080666], [-95.9313447109507, 28.240184401208943], [-96.44661309104285, 27.961548732883163], [-96.85231101677168, 27.547345142825293], [-97.04956838052047, 27.042603917847618], [-96.88941797420924, 26.633653415681245], [-96.77723624327665, 25.949801960648816], [-97.03061492512109, 25.854312576223087], [-97.23023106743004, 25.668726873049444]]]}}, {"type": "Feature", "properties": {"dn": 1, "PRODUCT": "Day 1 Excessive Rainfall Potential Forecast", "VALID_TIME": "16Z 08/02/26 - 12Z 08/03/26", "OUTLOOK": "Marginal (At Least 5%)", "ISSUE_TIME": "2026-08-02 15:50:00", "START_TIME": "2026-08-02 16:00:00", "END_TIME": "2026-08-03 12:00:00", "Snippet": "16Z 08/02/26 - 12Z 08/03/26"}, "geometry": {"type": "Polygon", "coordinates": [[[-103.43615605750442, 28.87863360121877], [-104.64208958358151, 29.585567873281928], [-104.87761417462117, 29.890359737728467], [-104.90828457938767, 30.253446935923108], [-105.028860756658, 30.4282232571379], [-106.055277882567, 31.224775584563876], [-106.50210402882288, 31.421674705201944], [-106.57207952163469, 31.597888069269302], [-107.96578444528456, 31.62688053767055], [-108.06062585381395, 31.52882876890281], [-108.07866176117668, 31.20713454245347], [-109.50931757052109, 31.12780594303685], [-110.95653789383776, 31.17089174187611], [-112.40760813945136, 31.567553013781204], [-111.76576785892048, 31.95770312222603], [-111.53406198518122, 32.20940537052468], [-111.36660149129015, 32.54611526448995], [-111.30509266551189, 32.8715612995698], [-111.36998578608382, 33.320506471268104], [-111.53654633909386, 33.71313334993833], [-111.5222822726321, 33.98739383431963], [-111.41947342726984, 34.40655820467869], [-111.22780068124756, 34.60806465345783], [-109.00864618518135, 34.90281529382405], [-108.4692649029719, 35.44373263051149], [-107.59556846229334, 36.996460858043555], [-107.18435572776784, 37.34107146854762], [-106.31372904523606, 37.624777389027514], [-105.14063928934462, 37.743060789917386], [-104.73557516583213, 37.63264799678745], [-104.42659098715339, 37.336352110053376], [-104.0867786562893, 36.63873800876164], [-104.00173644616028, 35.61059922374239], [-104.79009499383125, 33.89634615370382], [-104.8629321675478, 33.48451921988298], [-104.73894755032656, 32.675878178851605], [-104.58988026340509, 32.18533150384811], [-104.33939866683744, 31.745638069332422], [-103.21341968107112, 30.94349731410866], [-102.39795765157693, 29.79949519807628], [-102.38652971804669, 29.617636768035254], [-102.540464226531, 29.564651167053935], [-102.67353584704607, 29.193135991427127], [-102.96863089913445, 28.90342939769026], [-103.43615605750442, 28.87863360121877]]]}}, {"type": "Feature", "properties": {"dn": 1, "PRODUCT": "Day 1 Excessive Rainfall Potential Forecast", "VALID_TIME": "16Z 08/02/26 - 12Z 08/03/26", "OUTLOOK": "Marginal (At Least 5%)", "ISSUE_TIME": "2026-08-02 15:50:00", "START_TIME": "2026-08-02 16:00:00", "END_TIME": "2026-08-03 12:00:00", "Snippet": "16Z 08/02/26 - 12Z 08/03/26"}, "geometry": {"type": "Polygon", "coordinates": [[[-71.57553652474223, 45.40222554568607], [-71.56368609436876, 45.4449145239306], [-71.5731445463027, 45.40193242732139], [-71.57553652474223, 45.40222554568607]]]}}, {"type": "Feature", "properties": {"dn": 2, "PRODUCT": "Day 1 Excessive Rainfall Potential Forecast", "VALID_TIME": "16Z 08/02/26 - 12Z 08/03/26", "OUTLOOK": "Slight (At Least 15%)", "ISSUE_TIME": "2026-08-02 15:50:00", "START_TIME": "2026-08-02 16:00:00", "END_TIME": "2026-08-03 12:00:00", "Snippet": "16Z 08/02/26 - 12Z 08/03/26"}, "geometry": {"type": "Polygon", "coordinates": [[[-83.14173879777053, 28.150532360236898], [-83.11939598436211, 28.378208193815713], [-82.94614275006674, 28.54785858865237], [-82.97944458156196, 28.733563113874293], [-83.28114428453334, 28.84829716069387], [-83.31954023357689, 28.988457089996903], [-83.88239405729021, 29.66955933444502], [-84.08704660242334, 29.72971841276218], [-84.4812820376813, 29.43709136693973], [-84.91394001320526, 29.28305554770757], [-85.17432942847834, 29.299762501751], [-85.68456105246398, 29.468200879570126], [-85.72275073279788, 29.653383602072367], [-85.96629504887629, 29.895536185526645], [-86.32287667005356, 30.05257510163349], [-86.47693347956182, 30.106641226423196], [-87.11601703240981, 30.00337797895589], [-86.97744535010425, 30.497945993340306], [-86.64468949918435, 30.708830056835943], [-86.37759888971947, 30.73998121007295], [-84.3137794262117, 30.704572406314007], [-83.10749765821808, 30.572323084483916], [-82.29618960006194, 30.23465154566022], [-82.00652781526732, 29.981827028964474], [-81.87508398520734, 29.74214331028837], [-81.94064771757911, 29.152764797701586], [-82.38657746388277, 28.411403237887015], [-82.66408030743584, 28.250267078855504], [-83.14173879777053, 28.150532360236898]]]}}, {"type": "Feature", "properties": {"dn": 2, "PRODUCT": "Day 1 Excessive Rainfall Potential Forecast", "VALID_TIME": "16Z 08/02/26 - 12Z 08/03/26", "OUTLOOK": "Slight (At Least 15%)", "ISSUE_TIME": "2026-08-02 15:50:00", "START_TIME": "2026-08-02 16:00:00", "END_TIME": "2026-08-03 12:00:00", "Snippet": "16Z 08/02/26 - 12Z 08/03/26"}, "geometry": {"type": "Polygon", "coordinates": [[[-77.9482163401915, 33.52288038043892], [-78.15026145367653, 33.63538033682904], [-78.05560395312617, 34.26213003164248], [-77.18138512986015, 35.258676284901036], [-76.78795662620117, 35.623606329665], [-76.35163290568643, 35.89257300391778], [-75.7647723262324, 36.05211846645412], [-75.31817024613463, 36.045062801183754], [-75.14087730805318, 35.479543103565774], [-75.28331915995825, 34.99700139975197], [-75.68739766468772, 34.908349378346486], [-76.21241845200345, 34.42409440105609], [-76.51299624666441, 34.27614480991967], [-76.76854892880894, 34.39586392823509], [-77.11477141274594, 34.29776144478377], [-77.54201827397435, 34.02607642761089], [-77.71224181094408, 33.63473997397105], [-77.9482163401915, 33.52288038043892]]]}}, {"type": "Feature", "properties": {"dn": 2, "PRODUCT": "Day 1 Excessive Rainfall Potential Forecast", "VALID_TIME": "16Z 08/02/26 - 12Z 08/03/26", "OUTLOOK": "Slight (At Least 15%)", "ISSUE_TIME": "2026-08-02 15:50:00", "START_TIME": "2026-08-02 16:00:00", "END_TIME": "2026-08-03 12:00:00", "Snippet": "16Z 08/02/26 - 12Z 08/03/26"}, "geometry": {"type": "Polygon", "coordinates": [[[-80.56927804809837, 37.29824963854488], [-81.31605865610042, 37.628809212802494], [-81.61899058276092, 37.92166042474907], [-81.7995597719818, 38.29296340385246], [-82.02931082566883, 39.200965785269155], [-81.90267967143772, 40.21114861075947], [-81.98976489956988, 40.43852734276485], [-82.41706126102808, 40.733559083210956], [-83.20455400671996, 40.96344614571487], [-83.79336954602944, 41.440979880817984], [-83.9344235734845, 41.75651312511602], [-83.91051974872173, 41.973894158311516], [-83.63267987103046, 42.350066729733925], [-82.71648441481823, 43.075449879010066], [-82.01586739174203, 43.41923400221301], [-82.30442942260709, 42.568371662002974], [-82.44367505065932, 42.40335220253929], [-82.88563602531953, 42.171009755549086], [-82.90657182900024, 41.99743752651846], [-82.74763326788556, 41.855735059443475], [-82.39242474026004, 41.87521942236109], [-81.26078349772396, 42.40605074271628], [-79.54942632928727, 42.7504857326103], [-79.21531056961993, 42.98377400003856], [-79.32295629350472, 43.42900212313399], [-78.1425474621001, 43.3255572250699], [-78.00301394131641, 43.443081430448444], [-77.88405571038861, 43.78022297126463], [-76.98009369040565, 43.7824203054212], [-76.52836823886129, 44.25940705899387], [-75.61971036471022, 44.861410951249134], [-74.88222536617349, 45.17412168143099], [-72.92081459363263, 45.173332101115484], [-73.1757718162916, 44.59549987666753], [-73.57722948678311, 44.16321719232486], [-74.14284827736898, 43.79133715374806], [-75.96456799485043, 42.80739834383279], [-76.85685250144668, 41.84442540158876], [-77.22680646000595, 41.08744729450689], [-77.64799487915256, 38.95260397558761], [-77.90335603934253, 38.44170864008671], [-78.43605700898078, 37.95660290606525], [-79.49212083715204, 37.33789275025167], [-79.95654271792792, 37.24503689659853], [-80.56927804809837, 37.29824963854488]]]}}]}