{"type": "FeatureCollection", "features": [{"type": "Feature", "properties": {"dn": 1, "PRODUCT": "Day 2 Excessive Rainfall Potential Forecast", "VALID_TIME": "12Z 08/03/26 - 12Z 08/04/26", "OUTLOOK": "Marginal (At Least 5%)", "ISSUE_TIME": "2026-08-02 08:58:00", "START_TIME": "2026-08-03 12:00:00", "END_TIME": "2026-08-04 12:00:00", "Snippet": "12Z 08/03/26 - 12Z 08/04/26"}, "geometry": {"type": "Polygon", "coordinates": [[[-83.28382292732888, 28.817691227550913], [-83.7724368092369, 29.489628803308985], [-83.31954023357689, 28.988457089996903], [-83.28082868585736, 28.84796822174317], [-82.97944458156196, 28.733563113874293], [-82.94584423306985, 28.547377450795615], [-82.68274319937613, 28.572334978278654], [-82.51280244074887, 28.696471272564082], [-82.32850512569505, 28.956141850153305], [-82.03162061144221, 29.75526255796113], [-82.06882294866186, 29.89555336702031], [-82.31586751382277, 30.0534414597418], [-83.35413053494251, 30.225599506625198], [-83.85707296305843, 29.942133168629212], [-83.98306063467263, 29.72270343696932], [-83.92306727386251, 29.656315265716895], [-84.03486143390579, 29.725444852050085], [-84.4813360692646, 29.436485842805258], [-84.91399175906047, 29.282449750682755], [-85.17437984791225, 29.29915663257841], [-85.68460892611208, 29.46759498758081], [-85.72344750313837, 29.653424985947463], [-85.96731918863988, 29.895899406152306], [-84.42735666110507, 30.62149980045897], [-83.22736211231532, 31.492939023563572], [-82.6925246408043, 31.998987627359032], [-82.14279919002203, 32.59282998507619], [-81.50138632421623, 33.44929901870992], [-80.42533758953668, 35.03375301047215], [-78.9088785583813, 36.33896158827268], [-78.56594149372083, 36.756314928172664], [-78.59436367259165, 36.93912694483047], [-78.98447720658825, 37.33520458739194], [-79.34849057545598, 37.54863993984682], [-79.84467051820026, 37.63833943855571], [-80.48965283086353, 37.47038893959685], [-80.88048558908005, 37.50325650786303], [-81.08766069405, 37.65555730404966], [-81.22696753138511, 37.89058008815476], [-81.15801289269825, 38.42112397921494], [-80.53044728768344, 39.26088409862281], [-79.94256923056172, 39.74536795286993], [-79.14176513687737, 40.07434934776528], [-78.11516455864762, 40.68734369541607], [-75.74073922758228, 42.43306054390196], [-73.75049193252596, 43.659639980003064], [-72.45564811010557, 44.29308965394885], [-71.84996341225224, 44.78529878735606], [-71.5052711482849, 45.43688321310969], [-70.91366164768066, 45.579717800497654], [-70.57622010939406, 45.92610409675092], [-70.223124011811, 46.78530386514592], [-69.36321849579707, 47.61692557619974], [-68.52010158572003, 47.46428406925875], [-68.22797322951953, 47.59611889672744], [-67.65686742395188, 47.17427021222508], [-67.4804491690983, 46.50364932003513], [-67.55774921842674, 45.82209336517042], [-67.24914242920676, 45.60386279836561], [-67.18057241058808, 45.42068924624156], [-66.95442564786461, 45.343055660791535], [-66.6899599487325, 44.77949309545812], [-67.23826018804331, 44.379432096049186], [-67.29921538641231, 44.1690468673581], [-68.19409450383115, 43.81603555294271], [-68.3697914904479, 43.84134327804543], [-68.8602961015326, 43.603499387071416], [-69.72092454783335, 43.327483995658945], [-70.10930004617522, 42.9850581797129], [-69.85485072207551, 42.33177992011856], [-69.480651749618, 41.92469703007804], [-69.58985992783097, 41.49577382473789], [-69.51885318512674, 41.30758668441631], [-69.64106716384632, 41.057617687804694], [-69.97060606645945, 40.92507989268513], [-70.37002540716928, 40.980953857927666], [-71.02922283131235, 40.937482386212295], [-72.80244941169983, 40.366731580764885], [-73.57954567388487, 40.28460982894157], [-73.71015709341064, 40.21221992322814], [-73.85341372196022, 39.51538921313792], [-74.15853207390785, 39.14956486953465], [-74.70327736720743, 38.72152557532674], [-74.81286030368888, 38.15090576064143], [-75.66100038532956, 36.94365311235639], [-75.28639988812122, 35.90508838959212], [-75.11876789305349, 35.70374929632649], [-75.14560742948693, 35.55505234829663], [-75.15519581418542, 35.70811642855602], [-75.24873785053599, 35.81041967500305], [-75.68655550566427, 35.86191294824458], [-76.03833527002432, 35.7665442072063], [-76.91609034354383, 35.18447189314721], [-77.94057844655563, 34.29557910512262], [-79.132190544191, 33.64352770617695], [-79.52337260053328, 33.18106891970527], [-79.62592998196092, 32.826676777201044], [-79.59029424436666, 32.686140664602036], [-78.8730529307271, 33.162401847175325], [-78.85337863814183, 33.29747603483985], [-78.49243248898624, 33.53379906716586], [-78.2102709936589, 33.595799017323515], [-77.9482163401915, 33.52288038043892], [-77.77330031859398, 33.59541555648216], [-77.64461879285001, 33.71855795791758], [-77.54201827397435, 34.02607642761089], [-77.11477141274594, 34.29776144478377], [-76.76854892880894, 34.39586392823509], [-76.51299624666441, 34.27614480991967], [-76.21241845200345, 34.42409440105609], [-75.68739766468772, 34.908349378346486], [-75.28331915995825, 34.99700139975197], [-75.18812997049666, 35.319468097938824], [-75.24711970735581, 34.99265195274225], [-75.69258775655094, 34.8786593344872], [-76.17636920109427, 34.41994090223707], [-76.51793781172255, 34.24637167594707], [-76.77342781215607, 34.36609377873327], [-77.11955399511409, 34.26797238615109], [-77.50604924338721, 34.02221024179338], [-77.60874437314557, 33.71471100202884], [-77.7778791007044, 33.565547930438235], [-77.95274596875981, 33.49300196525466], [-78.21473424746615, 33.5659192832868], [-78.49681870193751, 33.50390661667525], [-78.81759787441108, 33.29389121380424], [-78.92245450308135, 32.94005331803102], [-80.49445341643577, 31.950699855526654], [-80.80478819113524, 31.613784504858923], [-81.12021116667621, 30.77425779181026], [-81.06926742590505, 30.312625737486528], [-80.75520059408946, 29.414626373216457], [-80.22831009726261, 28.585879083976433], [-80.27895736516328, 28.177831850492325], [-79.72225018624539, 26.83709996097543], [-79.83705590772036, 25.51566625853706], [-80.0492359105366, 25.03138136682195], [-80.17146254650426, 24.859740330306195], [-80.670873277322, 24.494230782657368], [-81.14068837252161, 24.35512555657141], [-80.88481762963424, 24.837201973221806], [-80.78206631013433, 25.28682997907931], [-80.87264058829075, 26.26001346694226], [-81.2251909157548, 27.2107251026158], [-81.68967870281062, 27.664004125559654], [-82.32270964048189, 28.038706294917397], [-82.72504222649512, 28.163088845270472], [-83.13726258035385, 28.19552131898117], [-83.12008427084714, 28.378261282360956], [-82.98060221557084, 28.55055120976211], [-83.01395862465998, 28.736247728165278], [-83.28382292732888, 28.817691227550913]], [[-83.00242005594755, 28.50647489165864], [-83.00155887186368, 28.506407713949827], [-83.00204498023699, 28.5067509065647], [-83.00242005594755, 28.50647489165864]], [[-79.37712585673512, 32.66597030014543], [-79.37623583761213, 32.66588360349388], [-79.37652996605603, 32.66636803728842], [-79.37712585673512, 32.66597030014543]], [[-79.31692474620172, 32.70612242857619], [-79.3175210524292, 32.7057249505876], [-79.31663076852809, 32.705637932972394], [-79.31692474620172, 32.70612242857619]], [[-79.25698415617012, 32.74536634039499], [-79.25727798267799, 32.745850897550284], [-79.25787470465768, 32.74545367908334], [-79.25698415617012, 32.74536634039499]], [[-79.19818679308752, 32.78515644893224], [-79.19729598020605, 32.78506878906173], [-79.19758965515209, 32.78555340751087], [-79.19818679308752, 32.78515644893224]], [[-79.1378597433273, 32.82522992181335], [-79.1384572974216, 32.82483322348925], [-79.13756622033969, 32.82474524232784], [-79.1378597433273, 32.82522992181335]], [[-79.07779485631137, 32.864395663603744], [-79.07808822694338, 32.8648804038683], [-79.07868619739935, 32.864483966164244], [-79.07779485631137, 32.864395663603744]], [[-79.01887347279639, 32.90410864042235], [-79.01798186789765, 32.90402001635492], [-79.01827508577635, 32.9045048171413], [-79.01887347279639, 32.90410864042235]], [[-78.95842029963919, 32.94410312515336], [-78.95901910342533, 32.943707209784016], [-78.95812723491197, 32.94361826410218], [-78.95842029963919, 32.94410312515336]], [[-74.25021370019304, 40.142599122476284], [-73.9205531158876, 40.32659895285735], [-73.5539589045924, 40.68296381119148], [-72.73624678631693, 41.20442591711411], [-71.53437604869495, 41.804953598129565], [-71.35817342136927, 42.04758333989283], [-71.41325058601497, 42.32046742248081], [-71.70301396080063, 42.35787545304123], [-72.7280675603922, 42.04511546972579], [-73.70094902848601, 41.9415234943651], [-74.55163115333963, 41.55366949333292], [-75.10103725231245, 40.86301223433863], [-75.03739048075701, 40.589618814421776], [-74.47788298527229, 40.16929144017564], [-74.25021370019304, 40.142599122476284]]]}}, {"type": "Feature", "properties": {"dn": 1, "PRODUCT": "Day 2 Excessive Rainfall Potential Forecast", "VALID_TIME": "12Z 08/03/26 - 12Z 08/04/26", "OUTLOOK": "Marginal (At Least 5%)", "ISSUE_TIME": "2026-08-02 08:58:00", "START_TIME": "2026-08-03 12:00:00", "END_TIME": "2026-08-04 12:00:00", "Snippet": "12Z 08/03/26 - 12Z 08/04/26"}, "geometry": {"type": "Polygon", "coordinates": [[[-106.27571959404784, 31.300352493924866], [-106.50210402882288, 31.421674705201944], [-106.57207952163469, 31.597888069269302], [-107.59448227822585, 31.656767587471624], [-107.96578444528456, 31.62688053767055], [-108.06062585381395, 31.52882876890281], [-108.07866176117668, 31.20713454245347], [-108.97623571561925, 31.13024758539512], [-110.73956450880605, 31.14696319042524], [-111.28534598770817, 31.228769081486856], [-112.40641569993879, 31.566769127626774], [-111.76642087453833, 32.32212704615274], [-111.61262572847025, 32.7488455641921], [-111.83262293638985, 33.86462679075189], [-111.85960923362579, 34.40716312706741], [-111.66873060954875, 34.60918121925799], [-111.1451947628454, 34.797568879347665], [-109.62604813032077, 34.98487266310332], [-108.20724066533911, 34.65247195401821], [-106.38968537913314, 34.60766107004365], [-105.20739491300297, 34.278722108695824], [-104.9143808178735, 34.069775603673264], [-104.54648302631759, 33.59400360373791], [-104.34320417054465, 33.10752741470296], [-104.35609225249478, 32.607846442898115], [-104.75490136848751, 32.219879954572235], [-105.77993962488335, 31.6991336810407], [-106.27571959404784, 31.300352493924866]]]}}, {"type": "Feature", "properties": {"dn": 1, "PRODUCT": "Day 2 Excessive Rainfall Potential Forecast", "VALID_TIME": "12Z 08/03/26 - 12Z 08/04/26", "OUTLOOK": "Marginal (At Least 5%)", "ISSUE_TIME": "2026-08-02 08:58:00", "START_TIME": "2026-08-03 12:00:00", "END_TIME": "2026-08-04 12:00:00", "Snippet": "12Z 08/03/26 - 12Z 08/04/26"}, "geometry": {"type": "Polygon", "coordinates": [[[-96.22101307486841, 45.87602032150708], [-96.83268612372169, 45.956187951011756], [-97.57338794967285, 46.24481438730892], [-99.15205402462784, 47.274293595819955], [-99.62120599145568, 47.97697773451233], [-99.65118612522433, 48.560302527760214], [-99.49077130635693, 49.145754560772396], [-95.50672436238419, 49.15240911350793], [-95.44536366674684, 49.524275311148095], [-94.61988896219992, 49.52440426284683], [-94.43159410122591, 48.98581077106259], [-94.24421805023145, 48.903142092357385], [-93.61563975877733, 48.77541400180068], [-93.11109855296515, 48.81290701903468], [-92.67239385498338, 48.725376907788096], [-91.55442826900217, 48.33514599289284], [-90.79708811286235, 48.44594878423832], [-90.553310383266, 48.27322745883859], [-91.52749323052468, 47.37131960023725], [-92.97213886624603, 46.58978510926918], [-93.71387849832607, 46.29984965744848], [-94.69524409146693, 46.04945871712572], [-95.42810545389163, 45.92186024778191], [-96.22101307486841, 45.87602032150708]]]}}, {"type": "Feature", "properties": {"dn": 2, "PRODUCT": "Day 2 Excessive Rainfall Potential Forecast", "VALID_TIME": "12Z 08/03/26 - 12Z 08/04/26", "OUTLOOK": "Slight (At Least 15%)", "ISSUE_TIME": "2026-08-02 08:58:00", "START_TIME": "2026-08-03 12:00:00", "END_TIME": "2026-08-04 12:00:00", "Snippet": "12Z 08/03/26 - 12Z 08/04/26"}, "geometry": {"type": "Polygon", "coordinates": [[[-83.00242005594755, 28.50647489165864], [-83.00204498023699, 28.5067509065647], [-83.00155887186368, 28.506407713949827], [-83.00242005594755, 28.50647489165864]]]}}, {"type": "Feature", "properties": {"dn": 2, "PRODUCT": "Day 2 Excessive Rainfall Potential Forecast", "VALID_TIME": "12Z 08/03/26 - 12Z 08/04/26", "OUTLOOK": "Slight (At Least 15%)", "ISSUE_TIME": "2026-08-02 08:58:00", "START_TIME": "2026-08-03 12:00:00", "END_TIME": "2026-08-04 12:00:00", "Snippet": "12Z 08/03/26 - 12Z 08/04/26"}, "geometry": {"type": "Polygon", "coordinates": [[[-82.94584423306985, 28.547377450795615], [-82.97944458156196, 28.733563113874293], [-83.28082868585736, 28.84796822174317], [-83.31954023357689, 28.988457089996903], [-83.98306063467263, 29.72270343696932], [-83.85707296305843, 29.942133168629212], [-83.35413053494251, 30.225599506625198], [-82.31586751382277, 30.0534414597418], [-82.06882294866186, 29.89555336702031], [-82.03162061144221, 29.75526255796113], [-82.32850512569505, 28.956141850153305], [-82.51280244074887, 28.696471272564082], [-82.68274319937613, 28.572334978278654], [-82.94584423306985, 28.547377450795615]]]}}, {"type": "Feature", "properties": {"dn": 2, "PRODUCT": "Day 2 Excessive Rainfall Potential Forecast", "VALID_TIME": "12Z 08/03/26 - 12Z 08/04/26", "OUTLOOK": "Slight (At Least 15%)", "ISSUE_TIME": "2026-08-02 08:58:00", "START_TIME": "2026-08-03 12:00:00", "END_TIME": "2026-08-04 12:00:00", "Snippet": "12Z 08/03/26 - 12Z 08/04/26"}, "geometry": {"type": "Polygon", "coordinates": [[[-79.59029424436666, 32.686140664602036], [-79.62592998196092, 32.826676777201044], [-79.52337260053328, 33.18106891970527], [-79.132190544191, 33.64352770617695], [-77.94057844655563, 34.29557910512262], [-76.91609034354383, 35.18447189314721], [-76.03833527002432, 35.7665442072063], [-75.68655550566427, 35.86191294824458], [-75.24873785053599, 35.81041967500305], [-75.15519581418542, 35.70811642855602], [-75.14087730805318, 35.479543103565774], [-75.28331915995825, 34.99700139975197], [-75.68739766468772, 34.908349378346486], [-76.21241845200345, 34.42409440105609], [-76.51299624666441, 34.27614480991967], [-76.76854892880894, 34.39586392823509], [-77.11477141274594, 34.29776144478377], [-77.54201827397435, 34.02607642761089], [-77.64461879285001, 33.71855795791758], [-77.77330031859398, 33.59541555648216], [-77.9482163401915, 33.52288038043892], [-78.2102709936589, 33.595799017323515], [-78.49243248898624, 33.53379906716586], [-78.85337863814183, 33.29747603483985], [-78.8730529307271, 33.162401847175325], [-79.59029424436666, 32.686140664602036]]]}}, {"type": "Feature", "properties": {"dn": 2, "PRODUCT": "Day 2 Excessive Rainfall Potential Forecast", "VALID_TIME": "12Z 08/03/26 - 12Z 08/04/26", "OUTLOOK": "Slight (At Least 15%)", "ISSUE_TIME": "2026-08-02 08:58:00", "START_TIME": "2026-08-03 12:00:00", "END_TIME": "2026-08-04 12:00:00", "Snippet": "12Z 08/03/26 - 12Z 08/04/26"}, "geometry": {"type": "Polygon", "coordinates": [[[-79.37712585673512, 32.66597030014543], [-79.37652996605603, 32.66636803728842], [-79.37623583761213, 32.66588360349388], [-79.37712585673512, 32.66597030014543]]]}}, {"type": "Feature", "properties": {"dn": 2, "PRODUCT": "Day 2 Excessive Rainfall Potential Forecast", "VALID_TIME": "12Z 08/03/26 - 12Z 08/04/26", "OUTLOOK": "Slight (At Least 15%)", "ISSUE_TIME": "2026-08-02 08:58:00", "START_TIME": "2026-08-03 12:00:00", "END_TIME": "2026-08-04 12:00:00", "Snippet": "12Z 08/03/26 - 12Z 08/04/26"}, "geometry": {"type": "Polygon", "coordinates": [[[-79.3175210524292, 32.7057249505876], [-79.31692474620172, 32.70612242857619], [-79.31663076852809, 32.705637932972394], [-79.3175210524292, 32.7057249505876]]]}}, {"type": "Feature", "properties": {"dn": 2, "PRODUCT": "Day 2 Excessive Rainfall Potential Forecast", "VALID_TIME": "12Z 08/03/26 - 12Z 08/04/26", "OUTLOOK": "Slight (At Least 15%)", "ISSUE_TIME": "2026-08-02 08:58:00", "START_TIME": "2026-08-03 12:00:00", "END_TIME": "2026-08-04 12:00:00", "Snippet": "12Z 08/03/26 - 12Z 08/04/26"}, "geometry": {"type": "Polygon", "coordinates": [[[-79.25787470465768, 32.74545367908334], [-79.25727798267799, 32.745850897550284], [-79.25698415617012, 32.74536634039499], [-79.25787470465768, 32.74545367908334]]]}}, {"type": "Feature", "properties": {"dn": 2, "PRODUCT": "Day 2 Excessive Rainfall Potential Forecast", "VALID_TIME": "12Z 08/03/26 - 12Z 08/04/26", "OUTLOOK": "Slight (At Least 15%)", "ISSUE_TIME": "2026-08-02 08:58:00", "START_TIME": "2026-08-03 12:00:00", "END_TIME": "2026-08-04 12:00:00", "Snippet": "12Z 08/03/26 - 12Z 08/04/26"}, "geometry": {"type": "Polygon", "coordinates": [[[-79.19818679308752, 32.78515644893224], [-79.19758965515209, 32.78555340751087], [-79.19729598020605, 32.78506878906173], [-79.19818679308752, 32.78515644893224]]]}}, {"type": "Feature", "properties": {"dn": 2, "PRODUCT": "Day 2 Excessive Rainfall Potential Forecast", "VALID_TIME": "12Z 08/03/26 - 12Z 08/04/26", "OUTLOOK": "Slight (At Least 15%)", "ISSUE_TIME": "2026-08-02 08:58:00", "START_TIME": "2026-08-03 12:00:00", "END_TIME": "2026-08-04 12:00:00", "Snippet": "12Z 08/03/26 - 12Z 08/04/26"}, "geometry": {"type": "Polygon", "coordinates": [[[-79.1384572974216, 32.82483322348925], [-79.1378597433273, 32.82522992181335], [-79.13756622033969, 32.82474524232784], [-79.1384572974216, 32.82483322348925]]]}}, {"type": "Feature", "properties": {"dn": 2, "PRODUCT": "Day 2 Excessive Rainfall Potential Forecast", "VALID_TIME": "12Z 08/03/26 - 12Z 08/04/26", "OUTLOOK": "Slight (At Least 15%)", "ISSUE_TIME": "2026-08-02 08:58:00", "START_TIME": "2026-08-03 12:00:00", "END_TIME": "2026-08-04 12:00:00", "Snippet": "12Z 08/03/26 - 12Z 08/04/26"}, "geometry": {"type": "Polygon", "coordinates": [[[-79.07868619739935, 32.864483966164244], [-79.07808822694338, 32.8648804038683], [-79.07779485631137, 32.864395663603744], [-79.07868619739935, 32.864483966164244]]]}}, {"type": "Feature", "properties": {"dn": 2, "PRODUCT": "Day 2 Excessive Rainfall Potential Forecast", "VALID_TIME": "12Z 08/03/26 - 12Z 08/04/26", "OUTLOOK": "Slight (At Least 15%)", "ISSUE_TIME": "2026-08-02 08:58:00", "START_TIME": "2026-08-03 12:00:00", "END_TIME": "2026-08-04 12:00:00", "Snippet": "12Z 08/03/26 - 12Z 08/04/26"}, "geometry": {"type": "Polygon", "coordinates": [[[-79.01887347279639, 32.90410864042235], [-79.01827508577635, 32.9045048171413], [-79.01798186789765, 32.90402001635492], [-79.01887347279639, 32.90410864042235]]]}}, {"type": "Feature", "properties": {"dn": 2, "PRODUCT": "Day 2 Excessive Rainfall Potential Forecast", "VALID_TIME": "12Z 08/03/26 - 12Z 08/04/26", "OUTLOOK": "Slight (At Least 15%)", "ISSUE_TIME": "2026-08-02 08:58:00", "START_TIME": "2026-08-03 12:00:00", "END_TIME": "2026-08-04 12:00:00", "Snippet": "12Z 08/03/26 - 12Z 08/04/26"}, "geometry": {"type": "Polygon", "coordinates": [[[-78.95901910342533, 32.943707209784016], [-78.95842029963919, 32.94410312515336], [-78.95812723491197, 32.94361826410218], [-78.95901910342533, 32.943707209784016]]]}}, {"type": "Feature", "properties": {"dn": 2, "PRODUCT": "Day 2 Excessive Rainfall Potential Forecast", "VALID_TIME": "12Z 08/03/26 - 12Z 08/04/26", "OUTLOOK": "Slight (At Least 15%)", "ISSUE_TIME": "2026-08-02 08:58:00", "START_TIME": "2026-08-03 12:00:00", "END_TIME": "2026-08-04 12:00:00", "Snippet": "12Z 08/03/26 - 12Z 08/04/26"}, "geometry": {"type": "Polygon", "coordinates": [[[-74.47788298527229, 40.16929144017564], [-75.03739048075701, 40.589618814421776], [-75.10103725231245, 40.86301223433863], [-74.55163115333963, 41.55366949333292], [-73.70094902848601, 41.9415234943651], [-72.7280675603922, 42.04511546972579], [-71.70301396080063, 42.35787545304123], [-71.41325058601497, 42.32046742248081], [-71.35817342136927, 42.04758333989283], [-71.53437604869495, 41.804953598129565], [-72.73624678631693, 41.20442591711411], [-73.5539589045924, 40.68296381119148], [-73.9205531158876, 40.32659895285735], [-74.25021370019304, 40.142599122476284], [-74.47788298527229, 40.16929144017564]]]}}]}