{
  "type": "FeatureCollection",
  "features": [
    {
      "type": "Feature",
      "properties": {
        "dn": 1,
        "PRODUCT": "Day 1 Excessive Rainfall Potential Forecast",
        "VALID_TIME": "16Z 08/16/26 - 12Z 08/17/26",
        "OUTLOOK": "Marginal (At Least 5%)",
        "ISSUE_TIME": "2026-08-16 15:55:00",
        "START_TIME": "2026-08-16 16:00:00",
        "END_TIME": "2026-08-17 12:00:00",
        "Snippet": "16Z 08/16/26 - 12Z 08/17/26",
        "risk_norm": "MARGINAL"
      },
      "geometry": {
        "type": "Polygon",
        "coordinates": [
          [
            [
              -106.57207952163469,
              31.597888069269302
            ],
            [
              -106.78893953024682,
              31.62748502168065
            ],
            [
              -107.96578444528456,
              31.62688053767055
            ],
            [
              -108.06062585381395,
              31.52882876890281
            ],
            [
              -108.07866176117668,
              31.20713454245347
            ],
            [
              -109.45657525112273,
              31.132647323521446
            ],
            [
              -109.61763754253627,
              32.39633161957811
            ],
            [
              -109.50571164992316,
              33.634764583336924
            ],
            [
              -109.3957091484325,
              34.053040828853014
            ],
            [
              -109.03582009503876,
              34.673362054717614
            ],
            [
              -108.68683848841319,
              34.97507385890789
            ],
            [
              -106.58424919452077,
              35.946995686375274
            ],
            [
              -106.12504612917162,
              36.336881981967615
            ],
            [
              -105.93489761699335,
              36.663566203167946
            ],
            [
              -105.67319239292742,
              37.977610498720495
            ],
            [
              -105.44034542180974,
              40.211005142194445
            ],
            [
              -104.81843942973076,
              41.56560113191591
            ],
            [
              -104.6896213408792,
              42.05375619323888
            ],
            [
              -104.77055703169941,
              43.484966094582376
            ],
            [
              -105.21971767761518,
              44.92686065158168
            ],
            [
              -105.27921907295757,
              45.48034330423418
            ],
            [
              -105.07296741239384,
              45.832614365838516
            ],
            [
              -104.78092527140538,
              45.976158878216545
            ],
            [
              -104.1065393399802,
              45.96629784924956
            ],
            [
              -103.65915496175364,
              45.772968543719315
            ],
            [
              -102.54673572341416,
              44.83669867878634
            ],
            [
              -101.6946574240064,
              43.87955446845199
            ],
            [
              -101.61166411204434,
              43.53701627862417
            ],
            [
              -101.70704180019263,
              43.18735491768914
            ],
            [
              -102.30759857675193,
              42.469672368685984
            ],
            [
              -102.50050409604201,
              41.89497482547262
            ],
            [
              -102.28414047504978,
              41.335070801866586
            ],
            [
              -101.39266539146206,
              40.13859367418475
            ],
            [
              -100.62355918314493,
              38.705400000634995
            ],
            [
              -99.91486176213016,
              38.10590111951916
            ],
            [
              -99.16545834677578,
              37.725087517316545
            ],
            [
              -97.97170608052839,
              37.30423197817051
            ],
            [
              -96.84696148498482,
              37.09702085025617
            ],
            [
              -95.95109783377738,
              37.01510368649094
            ],
            [
              -94.32994909745133,
              37.01644540420983
            ],
            [
              -93.65694261901176,
              37.19101194783978
            ],
            [
              -93.31797999616052,
              37.454714261357914
            ],
            [
              -93.25680178807809,
              37.765943046155286
            ],
            [
              -93.6440686279387,
              38.30305126346912
            ],
            [
              -94.77285688577557,
              39.0610851564704
            ],
            [
              -95.46011229754062,
              39.59199026171043
            ],
            [
              -95.57562794465012,
              39.76817634491598
            ],
            [
              -95.57709368313476,
              40.032672455169156
            ],
            [
              -95.3480696134223,
              40.341407978039264
            ],
            [
              -94.94298878131434,
              40.56241698588152
            ],
            [
              -94.5957844789839,
              40.64981754108307
            ],
            [
              -94.01636593896495,
              40.73537896817798
            ],
            [
              -93.37942779301477,
              40.7307432939431
            ],
            [
              -89.01034449052608,
              40.1535531686668
            ],
            [
              -87.68786889147113,
              40.10390781394368
            ],
            [
              -86.1833674563711,
              40.16773639736311
            ],
            [
              -85.18606492304386,
              40.3359017396367
            ],
            [
              -84.58879485298476,
              40.522364003802906
            ],
            [
              -82.9640588362891,
              41.52010310977238
            ],
            [
              -82.04259830070815,
              41.8511665465373
            ],
            [
              -81.02850081677687,
              41.95127301840841
            ],
            [
              -79.5595556286031,
              41.919997435052885
            ],
            [
              -77.01206820034709,
              41.64061681791745
            ],
            [
              -75.42682811611874,
              41.29843561804789
            ],
            [
              -74.84515935776172,
              40.96813159958406
            ],
            [
              -74.35953535672115,
              40.468333645522215
            ],
            [
              -73.71916700544449,
              40.168742516536156
            ],
            [
              -73.85341372196022,
              39.51538921313792
            ],
            [
              -74.15853207390785,
              39.14956486953465
            ],
            [
              -74.70327736720743,
              38.72152557532674
            ],
            [
              -74.81286030368888,
              38.15090576064143
            ],
            [
              -75.66100038532956,
              36.94365311235639
            ],
            [
              -75.598236272639,
              36.66553159958205
            ],
            [
              -75.95394515681093,
              36.569863508524946
            ],
            [
              -76.27440723626384,
              36.33579280957501
            ],
            [
              -76.90713826832723,
              35.22883711619341
            ],
            [
              -77.63365397741643,
              34.49037389933784
            ],
            [
              -78.43307151469608,
              33.93648898303303
            ],
            [
              -79.53972726288623,
              33.45467833737665
            ],
            [
              -79.81474265002626,
              33.435254030737376
            ],
            [
              -80.07776998658339,
              33.50517546800154
            ],
            [
              -80.35504491561716,
              33.89469335833097
            ],
            [
              -80.44138951786908,
              34.49194738049768
            ],
            [
              -79.84856950174054,
              35.61472429278512
            ],
            [
              -79.97036428606978,
              35.94172313675268
            ],
            [
              -80.26350079431104,
              36.23740556390833
            ],
            [
              -80.63222195980406,
              36.40450446740345
            ],
            [
              -82.41373474066744,
              36.45751452860415
            ],
            [
              -85.3661407230349,
              37.14494851400682
            ],
            [
              -86.7627880915504,
              37.21839546625087
            ],
            [
              -88.016387230558,
              36.916895147632864
            ],
            [
              -89.95768062877478,
              36.04561894618881
            ],
            [
              -90.85731235311535,
              35.711382626619475
            ],
            [
              -92.36030491041464,
              35.24790876496796
            ],
            [
              -93.68414646670111,
              34.94895434448716
            ],
            [
              -94.83624287184307,
              34.90912320010744
            ],
            [
              -96.98282062262857,
              35.346923856551086
            ],
            [
              -98.52388019133154,
              35.32138797381973
            ],
            [
              -101.25548480909029,
              34.925855957915175
            ],
            [
              -102.97532712662286,
              34.400695055285865
            ],
            [
              -103.86567507705016,
              33.9030851746672
            ],
            [
              -104.56995422660685,
              33.230239573489705
            ],
            [
              -105.08227361057638,
              32.29137124038182
            ],
            [
              -105.55317719304946,
              30.986602736606248
            ],
            [
              -105.6514625990801,
              30.88792781711799
            ],
            [
              -106.055277882567,
              31.224775584563876
            ],
            [
              -106.50210402882288,
              31.421674705201944
            ],
            [
              -106.57207952163469,
              31.597888069269302
            ]
          ],
          [
            [
              -102.87847369345009,
              35.35223390068741
            ],
            [
              -101.3852077623581,
              36.224534762392075
            ],
            [
              -100.69416096285372,
              36.83187609809681
            ],
            [
              -100.6593709274436,
              37.23523150083326
            ],
            [
              -100.78324713845693,
              37.45423962714358
            ],
            [
              -101.07677571665621,
              37.66748645596463
            ],
            [
              -101.80980724132029,
              37.68447546565587
            ],
            [
              -102.3837205150061,
              37.83901665979847
            ],
            [
              -102.62075620058692,
              38.00643394867449
            ],
            [
              -102.93538338410805,
              38.437265982815575
            ],
            [
              -103.45834645258674,
              39.30025744173417
            ],
            [
              -103.93744434331494,
              39.54258889616669
            ],
            [
              -104.39430420452899,
              39.51872948516353
            ],
            [
              -104.7856256457979,
              39.408746975155104
            ],
            [
              -105.10693146655072,
              39.168357671218445
            ],
            [
              -105.2035278958445,
              38.98519779541246
            ],
            [
              -105.01023191315868,
              36.944984252144025
            ],
            [
              -105.3320723533907,
              36.20790428228519
            ],
            [
              -105.98366911146145,
              35.491529338080596
            ],
            [
              -106.36312175212902,
              34.879612007526205
            ],
            [
              -106.37638202211316,
              34.472084000314354
            ],
            [
              -106.14905887839583,
              34.396824391715626
            ],
            [
              -105.0643647980446,
              34.51213261928048
            ],
            [
              -103.62322285479789,
              34.99991630797534
            ],
            [
              -102.87847369345009,
              35.35223390068741
            ]
          ],
          [
            [
              -76.99791205412563,
              37.04655700516124
            ],
            [
              -76.46325333030855,
              37.52902755189288
            ],
            [
              -76.2109802061066,
              37.99576146517111
            ],
            [
              -76.02995288976092,
              39.00649173617092
            ],
            [
              -76.04915258862621,
              40.16779647998437
            ],
            [
              -76.32863671177722,
              40.55323828330508
            ],
            [
              -77.01997906992983,
              40.93454952091366
            ],
            [
              -77.84670631591845,
              41.236658022192046
            ],
            [
              -78.69932127880304,
              41.40424844731579
            ],
            [
              -79.85782356162412,
              41.50538979797161
            ],
            [
              -80.68857053831105,
              41.44133726787706
            ],
            [
              -81.13097955886067,
              41.21160098374394
            ],
            [
              -81.46692817544839,
              40.4436229420172
            ],
            [
              -81.85028884162665,
              40.163477932843406
            ],
            [
              -82.44500516226542,
              40.02978134621765
            ],
            [
              -83.90156845949053,
              39.90622598749214
            ],
            [
              -84.20221642010864,
              39.791747941922104
            ],
            [
              -84.58513958537506,
              39.416330209587734
            ],
            [
              -84.66393144843012,
              39.199303916645846
            ],
            [
              -84.5808294470577,
              38.88358252719679
            ],
            [
              -83.96010407111267,
              38.26615691875253
            ],
            [
              -83.01101773283035,
              37.622066754062125
            ],
            [
              -81.95132656329633,
              37.05139891702358
            ],
            [
              -81.46727653953182,
              36.878732649867835
            ],
            [
              -80.85065977118654,
              36.87310959852558
            ],
            [
              -79.7832631208969,
              37.274469585120855
            ],
            [
              -79.26286057496121,
              37.361688567068484
            ],
            [
              -78.99762104651302,
              37.24706228783017
            ],
            [
              -78.57164540010407,
              36.71139039010751
            ],
            [
              -78.0946442884055,
              36.52890563997503
            ],
            [
              -77.68698624962164,
              36.62262886567434
            ],
            [
              -76.99791205412563,
              37.04655700516124
            ]
          ],
          [
            [
              -90.43110151391336,
              37.980626187484276
            ],
            [
              -89.05143303289385,
              38.42768903774451
            ],
            [
              -87.99163795108144,
              39.00994358689058
            ],
            [
              -87.86289559470124,
              39.226279697750606
            ],
            [
              -87.90495700045733,
              39.449314231006774
            ],
            [
              -88.40851433788862,
              39.64623633738011
            ],
            [
              -88.80658968055772,
              39.70487484457641
            ],
            [
              -91.21379608540694,
              39.77303598663801
            ],
            [
              -91.79006731338491,
              39.69620478370052
            ],
            [
              -92.13759742648253,
              39.56974266806634
            ],
            [
              -92.42985688672124,
              39.35288779617466
            ],
            [
              -92.6073063072441,
              39.08998854457194
            ],
            [
              -92.61732681418415,
              38.64704505802053
            ],
            [
              -92.22766354770764,
              38.330102964249434
            ],
            [
              -91.16567381487674,
              37.954079348600935
            ],
            [
              -90.43110151391336,
              37.980626187484276
            ]
          ]
        ]
      }
    },
    {
      "type": "Feature",
      "properties": {
        "dn": 2,
        "PRODUCT": "Day 1 Excessive Rainfall Potential Forecast",
        "VALID_TIME": "16Z 08/16/26 - 12Z 08/17/26",
        "OUTLOOK": "Slight (At Least 15%)",
        "ISSUE_TIME": "2026-08-16 15:55:00",
        "START_TIME": "2026-08-16 16:00:00",
        "END_TIME": "2026-08-17 12:00:00",
        "Snippet": "16Z 08/16/26 - 12Z 08/17/26",
        "risk_norm": "SLIGHT"
      },
      "geometry": {
        "type": "Polygon",
        "coordinates": [
          [
            [
              -106.14905887839583,
              34.396824391715626
            ],
            [
              -106.37638202211316,
              34.472084000314354
            ],
            [
              -106.36312175212902,
              34.879612007526205
            ],
            [
              -105.98366911146145,
              35.491529338080596
            ],
            [
              -105.3320723533907,
              36.20790428228519
            ],
            [
              -105.01023191315868,
              36.944984252144025
            ],
            [
              -105.2035278958445,
              38.98519779541246
            ],
            [
              -105.10693146655072,
              39.168357671218445
            ],
            [
              -104.7856256457979,
              39.408746975155104
            ],
            [
              -104.39430420452899,
              39.51872948516353
            ],
            [
              -103.93744434331494,
              39.54258889616669
            ],
            [
              -103.45834645258674,
              39.30025744173417
            ],
            [
              -102.93538338410805,
              38.437265982815575
            ],
            [
              -102.62075620058692,
              38.00643394867449
            ],
            [
              -102.3837205150061,
              37.83901665979847
            ],
            [
              -101.80980724132029,
              37.68447546565587
            ],
            [
              -101.07677571665621,
              37.66748645596463
            ],
            [
              -100.78324713845693,
              37.45423962714358
            ],
            [
              -100.6593709274436,
              37.23523150083326
            ],
            [
              -100.69416096285372,
              36.83187609809681
            ],
            [
              -101.3852077623581,
              36.224534762392075
            ],
            [
              -102.87847369345009,
              35.35223390068741
            ],
            [
              -103.62322285479789,
              34.99991630797534
            ],
            [
              -105.0643647980446,
              34.51213261928048
            ],
            [
              -106.14905887839583,
              34.396824391715626
            ]
          ]
        ]
      }
    },
    {
      "type": "Feature",
      "properties": {
        "dn": 2,
        "PRODUCT": "Day 1 Excessive Rainfall Potential Forecast",
        "VALID_TIME": "16Z 08/16/26 - 12Z 08/17/26",
        "OUTLOOK": "Slight (At Least 15%)",
        "ISSUE_TIME": "2026-08-16 15:55:00",
        "START_TIME": "2026-08-16 16:00:00",
        "END_TIME": "2026-08-17 12:00:00",
        "Snippet": "16Z 08/16/26 - 12Z 08/17/26",
        "risk_norm": "SLIGHT"
      },
      "geometry": {
        "type": "Polygon",
        "coordinates": [
          [
            [
              -78.57164540010407,
              36.71139039010751
            ],
            [
              -78.99762104651302,
              37.24706228783017
            ],
            [
              -79.26286057496121,
              37.361688567068484
            ],
            [
              -79.7832631208969,
              37.274469585120855
            ],
            [
              -80.85065977118654,
              36.87310959852558
            ],
            [
              -81.46727653953182,
              36.878732649867835
            ],
            [
              -81.95132656329633,
              37.05139891702358
            ],
            [
              -83.01101773283035,
              37.622066754062125
            ],
            [
              -83.96010407111267,
              38.26615691875253
            ],
            [
              -84.5808294470577,
              38.88358252719679
            ],
            [
              -84.66393144843012,
              39.199303916645846
            ],
            [
              -84.58513958537506,
              39.416330209587734
            ],
            [
              -84.20221642010864,
              39.791747941922104
            ],
            [
              -83.90156845949053,
              39.90622598749214
            ],
            [
              -82.44500516226542,
              40.02978134621765
            ],
            [
              -81.85028884162665,
              40.163477932843406
            ],
            [
              -81.46692817544839,
              40.4436229420172
            ],
            [
              -81.13097955886067,
              41.21160098374394
            ],
            [
              -80.68857053831105,
              41.44133726787706
            ],
            [
              -79.85782356162412,
              41.50538979797161
            ],
            [
              -78.69932127880304,
              41.40424844731579
            ],
            [
              -77.84670631591845,
              41.236658022192046
            ],
            [
              -77.01997906992983,
              40.93454952091366
            ],
            [
              -76.32863671177722,
              40.55323828330508
            ],
            [
              -76.04915258862621,
              40.16779647998437
            ],
            [
              -76.02995288976092,
              39.00649173617092
            ],
            [
              -76.2109802061066,
              37.99576146517111
            ],
            [
              -76.46325333030855,
              37.52902755189288
            ],
            [
              -76.99791205412563,
              37.04655700516124
            ],
            [
              -77.68698624962164,
              36.62262886567434
            ],
            [
              -78.0946442884055,
              36.52890563997503
            ],
            [
              -78.57164540010407,
              36.71139039010751
            ]
          ],
          [
            [
              -81.1038328674532,
              37.52234382226975
            ],
            [
              -80.63326537600138,
              37.662503836710755
            ],
            [
              -79.81216383833187,
              38.26301335697259
            ],
            [
              -79.21159402449592,
              39.235434863224455
            ],
            [
              -79.17835226823635,
              39.45494754446603
            ],
            [
              -79.30935138888542,
              39.73360648405405
            ],
            [
              -79.81585288152927,
              39.82252070512654
            ],
            [
              -80.2339871711784,
              39.7250193222734
            ],
            [
              -80.93294242957086,
              39.24933937517404
            ],
            [
              -81.34834433576351,
              38.70381807930616
            ],
            [
              -82.07001122147277,
              38.402691937928715
            ],
            [
              -82.28160433395016,
              38.061443445092976
            ],
            [
              -82.25191577756684,
              37.83584351415904
            ],
            [
              -82.09955241944616,
              37.69008624178022
            ],
            [
              -81.50062259704917,
              37.50946022076169
            ],
            [
              -81.1038328674532,
              37.52234382226975
            ]
          ]
        ]
      }
    },
    {
      "type": "Feature",
      "properties": {
        "dn": 2,
        "PRODUCT": "Day 1 Excessive Rainfall Potential Forecast",
        "VALID_TIME": "16Z 08/16/26 - 12Z 08/17/26",
        "OUTLOOK": "Slight (At Least 15%)",
        "ISSUE_TIME": "2026-08-16 15:55:00",
        "START_TIME": "2026-08-16 16:00:00",
        "END_TIME": "2026-08-17 12:00:00",
        "Snippet": "16Z 08/16/26 - 12Z 08/17/26",
        "risk_norm": "SLIGHT"
      },
      "geometry": {
        "type": "Polygon",
        "coordinates": [
          [
            [
              -91.16567381487674,
              37.954079348600935
            ],
            [
              -92.22766354770764,
              38.330102964249434
            ],
            [
              -92.61732681418415,
              38.64704505802053
            ],
            [
              -92.6073063072441,
              39.08998854457194
            ],
            [
              -92.42985688672124,
              39.35288779617466
            ],
            [
              -92.13759742648253,
              39.56974266806634
            ],
            [
              -91.79006731338491,
              39.69620478370052
            ],
            [
              -91.21379608540694,
              39.77303598663801
            ],
            [
              -88.80658968055772,
              39.70487484457641
            ],
            [
              -88.40851433788862,
              39.64623633738011
            ],
            [
              -87.90495700045733,
              39.449314231006774
            ],
            [
              -87.86289559470124,
              39.226279697750606
            ],
            [
              -87.99163795108144,
              39.00994358689058
            ],
            [
              -89.05143303289385,
              38.42768903774451
            ],
            [
              -90.43110151391336,
              37.980626187484276
            ],
            [
              -91.16567381487674,
              37.954079348600935
            ]
          ]
        ]
      }
    },
    {
      "type": "Feature",
      "properties": {
        "dn": 3,
        "PRODUCT": "Day 1 Excessive Rainfall Potential Forecast",
        "VALID_TIME": "16Z 08/16/26 - 12Z 08/17/26",
        "OUTLOOK": "Moderate (At Least 40%)",
        "ISSUE_TIME": "2026-08-16 15:55:00",
        "START_TIME": "2026-08-16 16:00:00",
        "END_TIME": "2026-08-17 12:00:00",
        "Snippet": "16Z 08/16/26 - 12Z 08/17/26",
        "risk_norm": "MODERATE"
      },
      "geometry": {
        "type": "Polygon",
        "coordinates": [
          [
            [
              -81.50062259704917,
              37.50946022076169
            ],
            [
              -82.09955241944616,
              37.69008624178022
            ],
            [
              -82.25191577756684,
              37.83584351415904
            ],
            [
              -82.28160433395016,
              38.061443445092976
            ],
            [
              -82.07001122147277,
              38.402691937928715
            ],
            [
              -81.34834433576351,
              38.70381807930616
            ],
            [
              -80.93294242957086,
              39.24933937517404
            ],
            [
              -80.2339871711784,
              39.7250193222734
            ],
            [
              -79.81585288152927,
              39.82252070512654
            ],
            [
              -79.30935138888542,
              39.73360648405405
            ],
            [
              -79.17835226823635,
              39.45494754446603
            ],
            [
              -79.21159402449592,
              39.235434863224455
            ],
            [
              -79.81216383833187,
              38.26301335697259
            ],
            [
              -80.63326537600138,
              37.662503836710755
            ],
            [
              -81.1038328674532,
              37.52234382226975
            ],
            [
              -81.50062259704917,
              37.50946022076169
            ]
          ]
        ]
      }
    }
  ]
}
