{"type": "FeatureCollection", "features": [{"type": "Feature", "properties": {"dn": 1, "PRODUCT": "Day 2 Excessive Rainfall Potential Forecast", "VALID_TIME": "12Z 08/17/26 - 12Z 08/18/26", "OUTLOOK": "Marginal (At Least 5%)", "ISSUE_TIME": "2026-08-16 08:23:00", "START_TIME": "2026-08-17 12:00:00", "END_TIME": "2026-08-18 12:00:00", "Snippet": "12Z 08/17/26 - 12Z 08/18/26"}, "geometry": {"type": "Polygon", "coordinates": [[[-108.25168049172261, 31.785620666973625], [-109.00555560753102, 31.812176470218457], [-109.67671524670995, 32.02531494969504], [-109.9848433376229, 32.31675529582502], [-110.19257820537999, 32.66175159910239], [-110.34926912101984, 33.42068333654155], [-110.26703477255026, 34.01911126360802], [-110.05701313084026, 34.49221647111689], [-109.45550377161923, 35.3606476834029], [-108.82090582452841, 36.04707601241959], [-108.11306998469057, 36.643748395290444], [-106.9510703399529, 37.26807622930625], [-106.35563481347752, 37.48785949378936], [-105.25287766692988, 37.73637249353869], [-104.80384119305185, 37.76268361785302], [-104.00629576061237, 37.672621517962334], [-103.31195946232248, 37.439948346652535], [-102.95158628470634, 37.14348728112504], [-102.99096581907365, 36.91800338951805], [-104.22948375378022, 35.68809459192314], [-104.51353985638045, 35.13181339908026], [-104.94074121916091, 33.75146175681972], [-104.97713932607974, 32.93354920740132], [-105.15576230354381, 32.513862201166624], [-105.55985984776798, 32.21420757826858], [-106.18697580412918, 32.035095377082165], [-107.08270799340796, 31.87868692121132], [-108.25168049172261, 31.785620666973625]]]}}, {"type": "Feature", "properties": {"dn": 1, "PRODUCT": "Day 2 Excessive Rainfall Potential Forecast", "VALID_TIME": "12Z 08/17/26 - 12Z 08/18/26", "OUTLOOK": "Marginal (At Least 5%)", "ISSUE_TIME": "2026-08-16 08:23:00", "START_TIME": "2026-08-17 12:00:00", "END_TIME": "2026-08-18 12:00:00", "Snippet": "12Z 08/17/26 - 12Z 08/18/26"}, "geometry": {"type": "Polygon", "coordinates": [[[-85.67966330482656, 34.14903220225903], [-86.10015942640145, 34.35314475306907], [-86.35257659695912, 34.638367681770305], [-86.44451307493902, 34.86866733481578], [-86.6829501434713, 36.81277543652308], [-87.06324417103833, 37.724678284339106], [-87.0467423507437, 37.94681274825031], [-86.72749253922534, 38.42146070910948], [-86.42216668941909, 38.67420077667554], [-85.89328955162281, 38.86934672511285], [-82.98850902875506, 38.82611356585159], [-82.17996847623658, 38.90176348501953], [-81.34165482390284, 39.193796613975], [-80.59553213433203, 39.621727833866224], [-80.26103699454858, 39.94890766752839], [-79.82076539044267, 40.57664563340324], [-79.23977638783286, 40.570290083361435], [-79.10034773407152, 40.33565588933848], [-79.16088462722757, 39.94209536760312], [-79.76049554786601, 38.61579766381242], [-81.53808739556561, 36.30054202198558], [-82.28482668044545, 35.63848509039997], [-83.59821743525204, 34.74055595953454], [-84.34654247084968, 34.38412261630935], [-85.0238272576071, 34.15554833764798], [-85.67966330482656, 34.14903220225903]]]}}, {"type": "Feature", "properties": {"dn": 1, "PRODUCT": "Day 2 Excessive Rainfall Potential Forecast", "VALID_TIME": "12Z 08/17/26 - 12Z 08/18/26", "OUTLOOK": "Marginal (At Least 5%)", "ISSUE_TIME": "2026-08-16 08:23:00", "START_TIME": "2026-08-17 12:00:00", "END_TIME": "2026-08-18 12:00:00", "Snippet": "12Z 08/17/26 - 12Z 08/18/26"}, "geometry": {"type": "Polygon", "coordinates": [[[-100.87359539504415, 40.11160106365973], [-101.23036548788886, 40.276556421237935], [-101.30135126491234, 40.494164902132795], [-101.10170026397502, 41.02829739756759], [-100.4345317997626, 41.619830067745], [-99.46902930391646, 42.256928556384274], [-98.43963276640035, 43.10419079931442], [-97.67964247400403, 43.5059794847885], [-97.38415525338478, 43.59634934342359], [-96.66850985828145, 43.56092390043394], [-95.89112574096626, 43.22046764720446], [-95.11767122137078, 42.658234012356786], [-94.94077196076118, 42.39754744007727], [-94.94092591281088, 42.13642798139866], [-95.05827258027097, 42.00571847643757], [-95.7016856214956, 41.61077606127953], [-96.80277287606627, 41.121929516598925], [-97.60856446761414, 40.80510073046866], [-98.98338260259845, 40.38425207233923], [-100.29844860291107, 40.12973275531837], [-100.87359539504415, 40.11160106365973]]]}}]}