{"type": "FeatureCollection", "features": [{"type": "Feature", "properties": {"dn": 1, "PRODUCT": "Day 1 Excessive Rainfall Potential Forecast", "VALID_TIME": "16Z 08/09/26 - 12Z 08/10/26", "OUTLOOK": "Marginal (At Least 5%)", "ISSUE_TIME": "2026-08-09 15:48:00", "START_TIME": "2026-08-09 16:00:00", "END_TIME": "2026-08-10 12:00:00", "Snippet": "16Z 08/09/26 - 12Z 08/10/26"}, "geometry": {"type": "Polygon", "coordinates": [[[-95.62540851730554, 28.924797737771527], [-95.83564411426377, 29.06144936759453], [-95.94204978941013, 29.334233089451722], [-95.89222071817632, 29.65335747973509], [-95.73679462137346, 29.927333295572232], [-95.36909857116305, 30.202589255256395], [-94.20952536182011, 30.47396085794286], [-91.45779967962157, 30.754433043437228], [-90.92453233140905, 30.877965544566372], [-90.49185929557784, 31.138049347400326], [-90.42451598066842, 31.499572581862633], [-90.60968359040479, 32.23083905438455], [-90.50672012706579, 34.84900911297595], [-90.26464269727738, 35.38206680808512], [-89.92091460658197, 35.64239935244431], [-87.7236085812176, 36.2793161286878], [-86.60836753508951, 36.31701800401755], [-85.4173860710942, 36.56735488159964], [-83.8041529547656, 37.05084231486403], [-82.90889881180912, 37.52674564678589], [-82.38470032530346, 37.66772931285475], [-78.65193259687825, 37.66443817587542], [-78.23350711886293, 37.803247909892434], [-77.97475593334512, 38.001863207933404], [-77.37404540897421, 37.85127280453697], [-76.74949934444743, 37.51594403521486], [-75.98603244558466, 37.02663457006442], [-75.70064318268619, 36.72249893738891], [-76.56237822020358, 35.96086459946164], [-77.4323994980783, 35.4205741894117], [-78.0065584293585, 35.29942848397065], [-79.11896273449005, 35.274268128940285], [-80.32114258261666, 34.978368370760975], [-80.73195725404058, 34.788239419576975], [-81.39736360100875, 34.3014450169081], [-81.79855671477803, 34.15313235793814], [-82.21799255894156, 33.824901246102655], [-82.53826304854024, 33.39623395027435], [-82.62667148238842, 33.08525459657395], [-82.34556694797841, 32.700800060698214], [-81.64400092362835, 32.23432724503149], [-81.35563641824929, 31.935656512719515], [-81.19197720990628, 31.51109828113531], [-81.28420755710033, 30.28588573510383], [-81.4520744367759, 29.751648854203125], [-81.7651992028326, 29.32006516706806], [-82.03015258786682, 29.2966919434189], [-82.22828219276673, 29.40465919056631], [-83.1877989716053, 30.303097138333726], [-83.73455493007963, 30.66278763899798], [-84.09469011807475, 30.779378171104387], [-85.09683232858393, 30.845559810679827], [-85.61372952763882, 31.013822075525187], [-86.03673651489936, 31.03839058922122], [-86.90857806880383, 30.721241761893], [-88.22842140352417, 29.872590064527582], [-88.38566408006709, 29.879326641562674], [-88.66494210788495, 29.571836378956938], [-89.15139717775325, 29.271710117937353], [-90.00159515600878, 28.9365898426969], [-90.5739782795156, 28.954006379395157], [-91.0393667370276, 29.057794542020986], [-92.5400977574086, 29.590055507050675], [-93.2722865564408, 29.64543072002817], [-93.84973133113172, 29.51413088760708], [-95.00072022329779, 29.06278917640029], [-95.62540851730554, 28.924797737771527]]]}}, {"type": "Feature", "properties": {"dn": 1, "PRODUCT": "Day 1 Excessive Rainfall Potential Forecast", "VALID_TIME": "16Z 08/09/26 - 12Z 08/10/26", "OUTLOOK": "Marginal (At Least 5%)", "ISSUE_TIME": "2026-08-09 15:48:00", "START_TIME": "2026-08-09 16:00:00", "END_TIME": "2026-08-10 12:00:00", "Snippet": "16Z 08/09/26 - 12Z 08/10/26"}, "geometry": {"type": "Polygon", "coordinates": [[[-110.73956450880605, 31.14696319042524], [-111.28534598770817, 31.228769081486856], [-112.85666913077567, 31.69968378108532], [-113.25507201317353, 31.83738186453724], [-113.32354489980293, 31.921943246490862], [-113.80222770952682, 33.19194429512162], [-113.86866276015868, 33.91391515433655], [-113.85688686303514, 35.143214274738106], [-113.58292204938631, 36.803212275274966], [-113.65949665760986, 37.24551116750144], [-113.98306181037063, 37.79458177091282], [-114.76486558617216, 38.333969016586614], [-115.47884012377511, 38.47475093897625], [-116.15059331555713, 38.39332185217215], [-116.88749754620969, 38.07570261501992], [-117.4062038006997, 37.55799237454148], [-117.74520457078226, 36.74326334360063], [-118.1289058400869, 36.41747537805257], [-118.58620231984526, 36.444300024054186], [-118.84542853921884, 36.590111459239814], [-119.37836059033185, 37.19433888596242], [-119.56928019530562, 37.529260158699756], [-119.66076035746998, 37.923386470937956], [-119.57574357943162, 38.297222187649616], [-119.26575214832512, 38.703142379081584], [-118.12316760583235, 39.533684341682964], [-116.45875540727765, 40.45987191915449], [-115.52694861959196, 41.05866773492727], [-114.71531139501194, 41.41549787542163], [-113.92335407833329, 41.588913790077804], [-112.69990117156289, 41.66910648786745], [-111.57642865871907, 41.64371000091163], [-110.49829219902361, 41.51955651400607], [-109.88628211976055, 41.35116881295145], [-109.56414839685769, 41.15653970102594], [-108.9302333584975, 40.36868949400183], [-108.48944464955154, 40.09407149564584], [-107.95738689950669, 40.001141036031264], [-107.32752804617922, 40.04625029935163], [-107.05126909683786, 40.15373640092413], [-106.84296848320469, 40.34360801992207], [-106.70538500377148, 40.66151691692102], [-106.3826291141738, 40.90347309938717], [-105.51970378938165, 41.00022034657061], [-104.57192230231074, 40.215906025011904], [-104.3557663878906, 39.74158061588382], [-104.1408160773285, 38.60009113417518], [-104.3833024010269, 35.54453284508915], [-105.16001763040921, 34.37115451783155], [-105.65791808777216, 33.84099741309516], [-106.02364336132176, 33.68077255876009], [-106.56407433096463, 33.64321421930333], [-106.7355105267752, 33.72156371971669], [-107.00094875168443, 33.656855250802955], [-107.73447463049872, 32.91993589211447], [-108.8367392870727, 32.19157673748604], [-109.11074448477382, 31.803785699733712], [-109.1918535760764, 31.157588236337872], [-110.73956450880605, 31.14696319042524]]]}}, {"type": "Feature", "properties": {"dn": 1, "PRODUCT": "Day 1 Excessive Rainfall Potential Forecast", "VALID_TIME": "16Z 08/09/26 - 12Z 08/10/26", "OUTLOOK": "Marginal (At Least 5%)", "ISSUE_TIME": "2026-08-09 15:48:00", "START_TIME": "2026-08-09 16:00:00", "END_TIME": "2026-08-10 12:00:00", "Snippet": "16Z 08/09/26 - 12Z 08/10/26"}, "geometry": {"type": "Polygon", "coordinates": [[[-89.39610130907225, 39.413943177315744], [-91.8326840120134, 40.18060567798969], [-92.74645073318149, 40.54643728745159], [-93.37643761289324, 40.99304682350289], [-94.06464722267953, 41.916131922407615], [-94.9431265286261, 42.3975481846137], [-95.17920596607973, 42.744998459824735], [-95.12151361625715, 43.86937628302245], [-94.7613513114464, 44.55710738219829], [-94.03208738722441, 45.154899800661134], [-93.05823244659479, 45.40361089010412], [-90.80374586367452, 45.58093725896761], [-90.20240476572152, 45.43907132768781], [-86.90069543256838, 44.94353236318262], [-84.63008567433832, 44.66194421210041], [-83.22121519413636, 44.32134197507272], [-82.58567255200165, 44.10794289481027], [-82.01474035423159, 43.418721097864626], [-82.30364670049526, 42.5683173966887], [-82.59659945646303, 42.28272828491459], [-82.84663945746513, 42.16841398967161], [-82.8676419319711, 41.99484361455043], [-82.74756275819861, 41.85631426876429], [-82.39235217823789, 41.875798427322366], [-81.20213910014914, 42.402220485930606], [-80.25206221139173, 42.02142609376817], [-79.84370609184865, 41.59171331793303], [-79.82482710383289, 41.32614152196197], [-79.96638801837157, 41.161860524541986], [-80.53140794718949, 40.89893726099863], [-82.64283861344316, 40.30764429641892], [-85.88579775629829, 38.95596380602743], [-87.16569387724905, 38.61876065458533], [-87.78900203946532, 38.6458059110826], [-89.39610130907225, 39.413943177315744]], [[-87.79679133160617, 40.19522862981239], [-86.77738342080102, 40.679453074389436], [-86.3730715444913, 40.66037201969892], [-85.30950281998724, 40.2531436923405], [-84.96462642830011, 40.23395873478984], [-84.60663740304936, 40.345711285218215], [-83.29453351688093, 41.189675952488955], [-83.0951968193166, 41.396245542759836], [-82.8003273206272, 41.90278698566506], [-82.90657182900024, 41.99743752651846], [-82.88563602531953, 42.171009755549086], [-82.63563392680263, 42.285375570413684], [-82.69925675108085, 42.726039348291884], [-82.97298548320745, 42.91873758554572], [-83.54261614243146, 43.12883378669567], [-87.92904058750766, 44.12487024389063], [-90.08205555260955, 44.23622959184289], [-90.98834672515228, 44.08553255627411], [-92.06722426894437, 44.06234377144675], [-92.1900214016955, 43.97767279960491], [-92.19744227526375, 43.71916233981307], [-92.0832952473868, 43.544761221497254], [-90.68457755900947, 42.8244246941917], [-90.34486880277535, 42.512516395243246], [-90.01966319957444, 41.93770153411446], [-89.88380960023056, 41.14674452813024], [-89.61182430363323, 40.78780062722926], [-89.16317041624556, 40.509547768202864], [-88.37215411155647, 40.21766261040655], [-87.79679133160617, 40.19522862981239]]]}}, {"type": "Feature", "properties": {"dn": 2, "PRODUCT": "Day 1 Excessive Rainfall Potential Forecast", "VALID_TIME": "16Z 08/09/26 - 12Z 08/10/26", "OUTLOOK": "Slight (At Least 15%)", "ISSUE_TIME": "2026-08-09 15:48:00", "START_TIME": "2026-08-09 16:00:00", "END_TIME": "2026-08-10 12:00:00", "Snippet": "16Z 08/09/26 - 12Z 08/10/26"}, "geometry": {"type": "Polygon", "coordinates": [[[-88.37215411155647, 40.21766261040655], [-89.16317041624556, 40.509547768202864], [-89.61182430363323, 40.78780062722926], [-89.88380960023056, 41.14674452813024], [-90.01966319957444, 41.93770153411446], [-90.34486880277535, 42.512516395243246], [-90.68457755900947, 42.8244246941917], [-92.0832952473868, 43.544761221497254], [-92.19744227526375, 43.71916233981307], [-92.1900214016955, 43.97767279960491], [-92.06722426894437, 44.06234377144675], [-90.98834672515228, 44.08553255627411], [-90.08205555260955, 44.23622959184289], [-87.92904058750766, 44.12487024389063], [-83.54261614243146, 43.12883378669567], [-82.97298548320745, 42.91873758554572], [-82.69925675108085, 42.726039348291884], [-82.63563392680263, 42.285375570413684], [-82.88563602531953, 42.171009755549086], [-82.90657182900024, 41.99743752651846], [-82.8003273206272, 41.90278698566506], [-83.0951968193166, 41.396245542759836], [-83.29453351688093, 41.189675952488955], [-84.60663740304936, 40.345711285218215], [-84.96462642830011, 40.23395873478984], [-85.30950281998724, 40.2531436923405], [-86.3730715444913, 40.66037201969892], [-86.77738342080102, 40.679453074389436], [-87.79679133160617, 40.19522862981239], [-88.37215411155647, 40.21766261040655]]]}}]}