{"type": "FeatureCollection", "features": [{"type": "Feature", "properties": {"dn": 1, "PRODUCT": "Day 2 Excessive Rainfall Potential Forecast", "VALID_TIME": "12Z 08/10/26 - 12Z 08/11/26", "OUTLOOK": "Marginal (At Least 5%)", "ISSUE_TIME": "2026-08-09 08:04:00", "START_TIME": "2026-08-10 12:00:00", "END_TIME": "2026-08-11 12:00:00", "Snippet": "12Z 08/10/26 - 12Z 08/11/26"}, "geometry": {"type": "Polygon", "coordinates": [[[-82.74410778353783, 41.88469552548327], [-82.51084229197022, 41.868800715003324], [-81.76958676731448, 42.13806178896628], [-81.26070402531013, 42.406627481895526], [-79.54933668946785, 42.75106049076701], [-79.21609475076576, 42.983840967683406], [-79.33106816917073, 43.38574377884201], [-79.23619839746056, 43.59602844913372], [-78.48307327097176, 43.79156363369032], [-76.9799881275183, 43.78298999363961], [-76.52916068956802, 44.2594847389758], [-75.62050702152317, 44.86149209774918], [-74.88210589198688, 45.17468476094672], [-71.75592308532418, 45.16527476571578], [-71.60681553461849, 45.27615893875982], [-71.56509177735084, 45.444221266004], [-71.05337252270442, 45.51155953131959], [-70.83223225334282, 45.65598115258359], [-70.57622010939406, 45.92610409675092], [-70.223124011811, 46.78530386514592], [-69.36176342073706, 47.617591493711004], [-68.52010158572003, 47.46428406925875], [-68.22797322951953, 47.59611889672744], [-67.65686742395188, 47.17427021222508], [-67.4804491690983, 46.50364932003513], [-67.55774921842674, 45.82209336517042], [-67.24914242920676, 45.60386279836561], [-67.18057241058808, 45.42068924624156], [-66.95442564786461, 45.343055660791535], [-66.6899599487325, 44.77949309545812], [-67.23826018804331, 44.379432096049186], [-67.29921538641231, 44.1690468673581], [-68.19409450383115, 43.81603555294271], [-68.3697914904479, 43.84134327804543], [-68.8602961015326, 43.603499387071416], [-69.72092454783335, 43.327483995658945], [-70.10930004617522, 42.9850581797129], [-70.08493930087982, 42.84858717622763], [-71.18461714582624, 42.774710327865876], [-71.75902414488014, 42.628368465807505], [-72.09808070603552, 42.45174783664264], [-72.32135200331089, 42.2591523569202], [-72.65930181442302, 41.54956583974929], [-74.00687019776899, 41.04697620207358], [-74.27940242846974, 40.857943015744986], [-74.0998253854523, 40.303409681128876], [-74.14402168405944, 40.08592504825401], [-74.42508127773891, 39.85067934784089], [-75.97489308946817, 39.31233192206371], [-76.9303932436262, 38.78894235683003], [-77.33964448811925, 38.74181653287408], [-77.79047211994681, 38.787273688153824], [-78.43871182087904, 38.671882408834584], [-79.73825452532424, 37.98718129812906], [-80.61548692166824, 37.794615207284096], [-80.98516536342983, 37.557597919762955], [-81.69930100067837, 36.80781410894878], [-81.73202284346313, 36.54083554256786], [-81.47829112101712, 36.34162416860699], [-80.34838442702478, 36.021339680666905], [-80.20635077064361, 35.82749882040151], [-80.3936266668964, 35.25702473255875], [-80.8237574957495, 34.93189975776175], [-81.78915239512898, 34.69560776230761], [-82.54672194730367, 34.30330948539217], [-82.86224182598801, 33.91952034374888], [-83.39313297948605, 33.006005626716274], [-84.69065324935052, 31.822232095917187], [-87.06361289478401, 30.000119191868468], [-87.70158905530097, 29.894447696549744], [-88.38566408006709, 29.879326641562674], [-88.44712950193036, 29.700508416265503], [-88.72582426544463, 29.392829315223135], [-88.6263269559462, 29.297570372466986], [-88.73416321486056, 29.255436883771786], [-91.04999807871151, 28.73885912208155], [-91.6632844398196, 29.11805931176347], [-91.820891038045, 29.075785756639466], [-92.08032577742242, 29.126467070091238], [-92.1824269179349, 29.21950606131329], [-92.5476757470499, 29.225702201592362], [-93.22266304624043, 29.462687779748723], [-93.58870427310148, 29.466435775146778], [-94.26995427925398, 29.24334244579901], [-95.20831027943626, 28.561200309284196], [-95.82917466063394, 28.285471306299662], [-96.08805834264471, 28.283859312651796], [-96.34796405411694, 28.37302905200048], [-96.55864781474146, 28.5543829869689], [-96.61486792734945, 28.872968454993337], [-96.5154602096551, 29.238577844812678], [-96.15589328913588, 29.83375318782136], [-95.63246352712856, 30.24724490770111], [-94.89519315036523, 30.521387110468112], [-93.62559629192585, 30.78821140924274], [-91.61505045379295, 30.803352709233316], [-90.97272069981823, 31.01557737842124], [-90.15561155621243, 31.537929171867578], [-88.36938323291827, 32.96979070135728], [-87.5656612367346, 33.70426187212363], [-87.2063902127295, 34.18459305593477], [-86.76282708564533, 35.02005373254827], [-85.64280028699379, 35.90578136961836], [-85.45383878979702, 36.16466438848309], [-85.35908860910627, 36.6079720183697], [-85.5268560501237, 37.24434247063987], [-85.82811020814043, 37.66292775606799], [-86.82926417775582, 38.55878522681153], [-88.85614765249761, 39.83775550215505], [-91.76532910174775, 42.32466899327585], [-93.04571335565073, 43.037410591828795], [-94.58388898642949, 43.56617407917934], [-96.19571483770191, 43.864752255001754], [-97.92663502825053, 43.80266315441878], [-98.51729607250532, 43.61993420539606], [-99.332151839203, 43.17040304702001], [-99.9142428047575, 42.939202195843095], [-100.5647311421916, 42.92078630610964], [-101.71404483925578, 43.27287295802455], [-102.4627908865863, 43.72108015548828], [-102.4825433081606, 43.979250381560384], [-102.40885052385738, 44.58464491828558], [-102.06970357996107, 45.70957529748006], [-101.57838914761345, 46.53357677021234], [-101.1028139831145, 46.80338820694523], [-100.61031355197491, 46.81795832336304], [-98.31569110740696, 46.44713028556836], [-96.77406159278314, 46.085771466564566], [-94.81870726545864, 45.41328853264528], [-94.21266809374103, 45.28380498028918], [-92.94144788903607, 45.18902777754086], [-90.36942745776302, 44.50172928904602], [-89.54513310626571, 44.17890529768617], [-88.56150940322799, 43.630359681004805], [-87.74423414730717, 43.38417270541065], [-86.4501187639563, 43.19923368432864], [-84.3203970277031, 43.088843451702246], [-82.87168886178803, 43.26037162672483], [-81.93944501029463, 43.54451490486296], [-82.30364670049526, 42.5683173966887], [-82.44289354405349, 42.40329847652661], [-82.88485609396244, 42.170957840231544], [-82.87288083894121, 42.04844169530053], [-82.89645022778323, 42.08470569303455], [-85.70672518056, 42.249423938555715], [-87.27778384913044, 42.49667243205919], [-88.52220889062181, 42.41420552848153], [-89.12061060808166, 42.26018952324162], [-89.48558830562467, 42.053196297987014], [-89.55598298681, 41.83712692911065], [-89.40948954476853, 41.30790039592761], [-89.09340949036483, 40.727506061566004], [-88.81684785555426, 40.49786659170296], [-87.20392585806131, 39.64028874900987], [-85.38681542949448, 38.796318030513234], [-84.8060571887182, 38.31825880479539], [-84.51961042122664, 38.345630588908364], [-83.7204962473601, 38.91831744666578], [-83.19543472074497, 39.016804495279274], [-81.6928417317545, 38.68563743658761], [-80.79819359888674, 38.12340492672938], [-80.0935165925233, 38.28718225934879], [-79.59192893225567, 38.60084544264294], [-79.25096175396344, 38.97167967255319], [-78.62195488182002, 40.42493722857008], [-78.12054108201053, 40.99733525600193], [-78.14934909393133, 41.17666194979257], [-78.58359968176381, 41.39372321209658], [-80.80768369695782, 41.84600145144934], [-82.14259857505155, 41.98910723332939], [-82.51443412302065, 41.83984216713583], [-82.74763326788556, 41.855735059443475], [-82.79725563384014, 41.93208431816183], [-82.74410778353783, 41.88469552548327]]]}}, {"type": "Feature", "properties": {"dn": 1, "PRODUCT": "Day 2 Excessive Rainfall Potential Forecast", "VALID_TIME": "12Z 08/10/26 - 12Z 08/11/26", "OUTLOOK": "Marginal (At Least 5%)", "ISSUE_TIME": "2026-08-09 08:04:00", "START_TIME": "2026-08-10 12:00:00", "END_TIME": "2026-08-11 12:00:00", "Snippet": "12Z 08/10/26 - 12Z 08/11/26"}, "geometry": {"type": "Polygon", "coordinates": [[[-110.73554955973741, 31.117486416569804], [-111.28118954581055, 31.199311046051452], [-114.38768258073324, 32.16099216884709], [-114.850323126095, 32.332944393135755], [-115.05679202879364, 32.581849836099614], [-115.79180706434614, 32.441952570601686], [-116.98267688175522, 32.41965788056303], [-117.11397782315787, 33.36534343387855], [-116.93422536415254, 33.847517159125935], [-116.5472388680984, 34.12882869214811], [-115.20621284880791, 34.027384441242695], [-114.691499455191, 34.227298008342075], [-114.3448604993699, 34.450942923678284], [-113.97412413209562, 34.85723466685007], [-113.72240848121895, 35.6573525717143], [-113.69655475024973, 36.15819728849698], [-113.4147134175282, 37.13721674592205], [-113.41232451493353, 37.45259597721155], [-112.03857875294206, 40.18522278315654], [-111.93199583636041, 40.948181144895365], [-111.78691497320499, 41.13939443988819], [-111.33218377133734, 41.22552384545785], [-110.43859332523218, 41.12832378624876], [-108.45454332313417, 41.15599807672365], [-107.64403590332161, 41.214891769099786], [-106.27671393825351, 41.525227588479495], [-105.57855709260441, 41.56743540584329], [-105.02311110314325, 41.291270269797735], [-104.74064645644904, 40.779541918725684], [-104.78032158593945, 39.36429088947894], [-104.27341522671568, 38.81523469167397], [-104.23856331737447, 38.41699555313747], [-104.61424177950848, 37.54930240764523], [-104.59437257374404, 37.32697803415017], [-104.40714738618692, 37.113814925524245], [-104.11298044397516, 36.95086565654421], [-103.97560774266682, 36.644688966206175], [-104.8623346578556, 35.336695097176886], [-104.7908096209628, 34.52911809699912], [-104.8799193164733, 34.29789899303785], [-105.40796823070627, 34.08340021851408], [-106.10878901264347, 33.991968939774765], [-106.58877649223231, 34.41109374178258], [-106.86070240481861, 34.391641449852], [-107.49094854603543, 33.66616175164837], [-108.03458019199573, 32.71496496566552], [-108.25593241200505, 31.83175541498829], [-108.28900956446437, 31.190494750181927], [-108.97623571561925, 31.13024758539512], [-110.73554955973741, 31.117486416569804]], [[-109.35627126270461, 31.188393831065092], [-109.28421761598896, 31.468876522602148], [-109.20618008638903, 32.57001233938982], [-109.09610396526277, 32.989263671099984], [-109.10408949516055, 33.48853057620885], [-109.22940931419063, 33.61427892586938], [-109.71441347721368, 33.57098844435357], [-110.7879680117808, 33.060279851408445], [-112.27246667537209, 32.8164544095642], [-112.8241729482648, 32.52774139315184], [-113.00195658656982, 32.278845899015685], [-113.00538104277494, 31.9583358912441], [-112.8567624746342, 31.700283511943613], [-110.9566209730521, 31.171493167955166], [-109.50939311679888, 31.12840814362826], [-109.35627126270461, 31.188393831065092]]]}}, {"type": "Feature", "properties": {"dn": 2, "PRODUCT": "Day 2 Excessive Rainfall Potential Forecast", "VALID_TIME": "12Z 08/10/26 - 12Z 08/11/26", "OUTLOOK": "Slight (At Least 15%)", "ISSUE_TIME": "2026-08-09 08:04:00", "START_TIME": "2026-08-10 12:00:00", "END_TIME": "2026-08-11 12:00:00", "Snippet": "12Z 08/10/26 - 12Z 08/11/26"}, "geometry": {"type": "Polygon", "coordinates": [[[-109.50939311679888, 31.12840814362826], [-110.9566209730521, 31.171493167955166], [-112.8567624746342, 31.700283511943613], [-113.00538104277494, 31.9583358912441], [-113.00195658656982, 32.278845899015685], [-112.8241729482648, 32.52774139315184], [-112.27246667537209, 32.8164544095642], [-110.7879680117808, 33.060279851408445], [-109.71441347721368, 33.57098844435357], [-109.22940931419063, 33.61427892586938], [-109.10408949516055, 33.48853057620885], [-109.09610396526277, 32.989263671099984], [-109.20618008638903, 32.57001233938982], [-109.28421761598896, 31.468876522602148], [-109.35627126270461, 31.188393831065092], [-109.50939311679888, 31.12840814362826]]]}}, {"type": "Feature", "properties": {"dn": 2, "PRODUCT": "Day 2 Excessive Rainfall Potential Forecast", "VALID_TIME": "12Z 08/10/26 - 12Z 08/11/26", "OUTLOOK": "Slight (At Least 15%)", "ISSUE_TIME": "2026-08-09 08:04:00", "START_TIME": "2026-08-10 12:00:00", "END_TIME": "2026-08-11 12:00:00", "Snippet": "12Z 08/10/26 - 12Z 08/11/26"}, "geometry": {"type": "Polygon", "coordinates": [[[-84.8060571887182, 38.31825880479539], [-85.38681542949448, 38.796318030513234], [-87.20392585806131, 39.64028874900987], [-88.81684785555426, 40.49786659170296], [-89.09340949036483, 40.727506061566004], [-89.40948954476853, 41.30790039592761], [-89.55598298681, 41.83712692911065], [-89.48558830562467, 42.053196297987014], [-89.12061060808166, 42.26018952324162], [-88.52220889062181, 42.41420552848153], [-87.27778384913044, 42.49667243205919], [-85.70672518056, 42.249423938555715], [-82.89645022778323, 42.08470569303455], [-82.74763326788556, 41.855735059443475], [-82.51443412302065, 41.83984216713583], [-82.14259857505155, 41.98910723332939], [-80.80768369695782, 41.84600145144934], [-78.58359968176381, 41.39372321209658], [-78.14934909393133, 41.17666194979257], [-78.12054108201053, 40.99733525600193], [-78.62195488182002, 40.42493722857008], [-79.25096175396344, 38.97167967255319], [-79.59192893225567, 38.60084544264294], [-80.0935165925233, 38.28718225934879], [-80.79819359888674, 38.12340492672938], [-81.6928417317545, 38.68563743658761], [-83.19543472074497, 39.016804495279274], [-83.7204962473601, 38.91831744666578], [-84.51961042122664, 38.345630588908364], [-84.8060571887182, 38.31825880479539]]]}}]}