{
  "type": "FeatureCollection",
  "features": [
    {
      "type": "Feature",
      "properties": {
        "dn": 1,
        "PRODUCT": "Day 1 Excessive Rainfall Potential Forecast",
        "VALID_TIME": "12Z 10/02/26 - 12Z 10/03/26",
        "OUTLOOK": "Marginal (At Least 5%)",
        "ISSUE_TIME": "2026-10-02 07:43:00",
        "START_TIME": "2026-10-02 12:00:00",
        "END_TIME": "2026-10-03 12:00:00",
        "Snippet": "12Z 10/02/26 - 12Z 10/03/26",
        "risk_norm": "MARGINAL"
      },
      "geometry": {
        "type": "Polygon",
        "coordinates": [
          [
            [
              -97.74194273594556,
              25.888736343436992
            ],
            [
              -98.3018070055462,
              25.93904479216217
            ],
            [
              -99.02147448899606,
              26.19576465427532
            ],
            [
              -99.31923441538251,
              26.446810156290802
            ],
            [
              -99.64950438576463,
              27.076734968598497
            ],
            [
              -99.71678627556554,
              27.485781642087687
            ],
            [
              -100.36404195190876,
              28.149452987360135
            ],
            [
              -100.92823854444845,
              29.087164175716314
            ],
            [
              -101.49335118859003,
              29.56531773165455
            ],
            [
              -102.18223636300816,
              29.67278820005535
            ],
            [
              -101.80309265882421,
              30.373298867885016
            ],
            [
              -101.06047987448449,
              31.313529608428592
            ],
            [
              -100.19151820752178,
              32.11706692466032
            ],
            [
              -97.87423591818458,
              33.6235776642597
            ],
            [
              -96.80596064909159,
              34.63106924978695
            ],
            [
              -96.09663098532596,
              34.81737560930604
            ],
            [
              -95.00076214792932,
              35.54017750553311
            ],
            [
              -93.6146895810342,
              36.11749098933382
            ],
            [
              -92.71464702364847,
              36.73428151159638
            ],
            [
              -90.85673681671594,
              37.190500971593366
            ],
            [
              -89.30154064606045,
              37.992740906226466
            ],
            [
              -88.20277547194851,
              38.39774084950225
            ],
            [
              -86.87214176194804,
              38.740280621157616
            ],
            [
              -84.81254112009736,
              39.430589396576494
            ],
            [
              -83.5774180108166,
              39.70891421031691
            ],
            [
              -82.48737247535766,
              39.67898167559982
            ],
            [
              -81.25500494599765,
              39.85288339405338
            ],
            [
              -80.45580733197328,
              39.78860844414626
            ],
            [
              -79.67703207574338,
              39.589132574590224
            ],
            [
              -79.30429014656634,
              39.37733217374628
            ],
            [
              -79.18058764663358,
              39.054431475547595
            ],
            [
              -79.27295142095595,
              38.43806473573064
            ],
            [
              -79.49352444224111,
              38.10036675069345
            ],
            [
              -80.03722741777229,
              37.87928770712212
            ],
            [
              -81.4279921983371,
              37.637302262188996
            ],
            [
              -81.9028185590267,
              37.45058259061895
            ],
            [
              -83.66088952149993,
              36.276732436606096
            ],
            [
              -84.3047615262859,
              35.95948056362244
            ],
            [
              -85.04690931992677,
              35.73551951441419
            ],
            [
              -87.57192761199623,
              35.237550021664234
            ],
            [
              -88.81333337541852,
              34.70320931734872
            ],
            [
              -90.59251892394704,
              34.03905920221241
            ],
            [
              -91.68844394084662,
              33.79411185762224
            ],
            [
              -94.196719611812,
              32.33335449829434
            ],
            [
              -94.67919650371596,
              31.927999713779407
            ],
            [
              -94.7360415937869,
              30.429337100450773
            ],
            [
              -94.58063657131274,
              29.655345214650634
            ],
            [
              -94.37378158647586,
              29.153576864336376
            ],
            [
              -94.84460576202483,
              28.880400943529136
            ],
            [
              -95.20831027943626,
              28.561200309284196
            ],
            [
              -96.44661309104285,
              27.961548732883163
            ],
            [
              -96.85231101677168,
              27.547345142825293
            ],
            [
              -97.04956838052047,
              27.042603917847618
            ],
            [
              -96.88941797420924,
              26.633653415681245
            ],
            [
              -96.77723624327665,
              25.949801960648816
            ],
            [
              -97.03061492512109,
              25.854312576223087
            ],
            [
              -97.23023106743004,
              25.668726873049444
            ],
            [
              -97.74194273594556,
              25.888736343436992
            ]
          ],
          [
            [
              -98.28583256315831,
              27.249282371297806
            ],
            [
              -98.05235351346137,
              28.167096958115717
            ],
            [
              -97.60278881322378,
              28.90510070284423
            ],
            [
              -96.6308391964917,
              30.148132378656033
            ],
            [
              -96.21714172415683,
              30.83404525014202
            ],
            [
              -96.01501923227012,
              31.925097039515453
            ],
            [
              -94.40086570511019,
              34.18840859186891
            ],
            [
              -94.17863479884412,
              34.773069780035
            ],
            [
              -94.17663825812274,
              35.042989519587046
            ],
            [
              -94.28641355501415,
              35.13387262024815
            ],
            [
              -94.67105890212446,
              35.13508209019058
            ],
            [
              -95.54825750791655,
              34.72964306000188
            ],
            [
              -97.85594665822565,
              32.9000426287869
            ],
            [
              -98.22778311956534,
              32.71196065511602
            ],
            [
              -98.59038147748012,
              32.250759285176485
            ],
            [
              -100.48396086878918,
              30.379373587670397
            ],
            [
              -101.11375183206496,
              29.30801661773638
            ],
            [
              -100.78268474568281,
              28.955814729042018
            ],
            [
              -100.32958912180416,
              28.150653515133456
            ],
            [
              -99.68251755166942,
              27.486837747241715
            ],
            [
              -99.61535121650402,
              27.07777629222625
            ],
            [
              -99.28525578381745,
              26.44777773537773
            ],
            [
              -99.0224811688539,
              26.226203524937958
            ],
            [
              -98.30263183258398,
              25.969490600579206
            ],
            [
              -98.28583256315831,
              27.249282371297806
            ]
          ]
        ]
      }
    },
    {
      "type": "Feature",
      "properties": {
        "dn": 1,
        "PRODUCT": "Day 1 Excessive Rainfall Potential Forecast",
        "VALID_TIME": "12Z 10/02/26 - 12Z 10/03/26",
        "OUTLOOK": "Marginal (At Least 5%)",
        "ISSUE_TIME": "2026-10-02 07:43:00",
        "START_TIME": "2026-10-02 12:00:00",
        "END_TIME": "2026-10-03 12:00:00",
        "Snippet": "12Z 10/02/26 - 12Z 10/03/26",
        "risk_norm": "MARGINAL"
      },
      "geometry": {
        "type": "Polygon",
        "coordinates": [
          [
            [
              -89.44432342502064,
              28.59820281254282
            ],
            [
              -89.69963740594949,
              28.698441485691408
            ],
            [
              -89.84552074321768,
              28.931472836935967
            ],
            [
              -90.11316001993794,
              28.757695011491165
            ],
            [
              -91.04999807871151,
              28.73885912208155
            ],
            [
              -91.6632844398196,
              29.11805931176347
            ],
            [
              -91.820891038045,
              29.075785756639466
            ],
            [
              -92.23562519762255,
              29.221373309270977
            ],
            [
              -91.53472090137832,
              29.98173935866916
            ],
            [
              -91.41721077986068,
              30.388725409512414
            ],
            [
              -91.25077390847343,
              30.613213933715258
            ],
            [
              -90.6617133154339,
              30.82549353368464
            ],
            [
              -89.75684116454167,
              30.934457796063697
            ],
            [
              -87.31266692091792,
              31.01640226006614
            ],
            [
              -85.83223212228715,
              30.93739787530685
            ],
            [
              -85.25501521097436,
              30.857240218301587
            ],
            [
              -84.74333034358548,
              30.64242679104804
            ],
            [
              -84.24189630845747,
              30.33519394531816
            ],
            [
              -83.85981440664555,
              29.896656753280244
            ],
            [
              -83.88245127110501,
              29.66895422242978
            ],
            [
              -84.08710279402948,
              29.729113279407834
            ],
            [
              -84.4813360692646,
              29.436485842805258
            ],
            [
              -84.91399175906047,
              29.282449750682755
            ],
            [
              -85.17437984791225,
              29.29915663257841
            ],
            [
              -85.68460892611208,
              29.46759498758081
            ],
            [
              -85.72344750313837,
              29.653424985947463
            ],
            [
              -85.96634164550724,
              29.894930583775515
            ],
            [
              -86.47697752494051,
              30.10603567532834
            ],
            [
              -87.70158905530097,
              29.894447696549744
            ],
            [
              -88.38566408006709,
              29.879326641562674
            ],
            [
              -88.44712950193036,
              29.700508416265503
            ],
            [
              -88.72582426544463,
              29.392829315223135
            ],
            [
              -88.6263269559462,
              29.297570372466986
            ],
            [
              -88.64102342874018,
              29.024471877489752
            ],
            [
              -88.91871418833526,
              28.715305866724048
            ],
            [
              -89.44432342502064,
              28.59820281254282
            ]
          ]
        ]
      }
    },
    {
      "type": "Feature",
      "properties": {
        "dn": 2,
        "PRODUCT": "Day 1 Excessive Rainfall Potential Forecast",
        "VALID_TIME": "12Z 10/02/26 - 12Z 10/03/26",
        "OUTLOOK": "Slight (At Least 15%)",
        "ISSUE_TIME": "2026-10-02 07:43:00",
        "START_TIME": "2026-10-02 12:00:00",
        "END_TIME": "2026-10-03 12:00:00",
        "Snippet": "12Z 10/02/26 - 12Z 10/03/26",
        "risk_norm": "SLIGHT"
      },
      "geometry": {
        "type": "Polygon",
        "coordinates": [
          [
            [
              -98.30263183258398,
              25.969490600579206
            ],
            [
              -99.0224811688539,
              26.226203524937958
            ],
            [
              -99.28525578381745,
              26.44777773537773
            ],
            [
              -99.61535121650402,
              27.07777629222625
            ],
            [
              -99.68251755166942,
              27.486837747241715
            ],
            [
              -100.32958912180416,
              28.150653515133456
            ],
            [
              -100.78268474568281,
              28.955814729042018
            ],
            [
              -101.11375183206496,
              29.30801661773638
            ],
            [
              -100.48396086878918,
              30.379373587670397
            ],
            [
              -98.59038147748012,
              32.250759285176485
            ],
            [
              -98.22778311956534,
              32.71196065511602
            ],
            [
              -97.85594665822565,
              32.9000426287869
            ],
            [
              -95.54825750791655,
              34.72964306000188
            ],
            [
              -94.67105890212446,
              35.13508209019058
            ],
            [
              -94.28641355501415,
              35.13387262024815
            ],
            [
              -94.17663825812274,
              35.042989519587046
            ],
            [
              -94.17863479884412,
              34.773069780035
            ],
            [
              -94.40086570511019,
              34.18840859186891
            ],
            [
              -96.01501923227012,
              31.925097039515453
            ],
            [
              -96.21714172415683,
              30.83404525014202
            ],
            [
              -96.6308391964917,
              30.148132378656033
            ],
            [
              -97.60278881322378,
              28.90510070284423
            ],
            [
              -98.05235351346137,
              28.167096958115717
            ],
            [
              -98.28583256315831,
              27.249282371297806
            ],
            [
              -98.30263183258398,
              25.969490600579206
            ]
          ]
        ]
      }
    }
  ]
}
