{"type": "FeatureCollection", "features": [{"type": "Feature", "properties": {"dn": 1, "PRODUCT": "Day 2 Excessive Rainfall Potential Forecast", "VALID_TIME": "12Z 10/03/26 - 12Z 10/04/26", "OUTLOOK": "Marginal (At Least 5%)", "ISSUE_TIME": "2026-10-02 07:43:00", "START_TIME": "2026-10-03 12:00:00", "END_TIME": "2026-10-04 12:00:00", "Snippet": "12Z 10/03/26 - 12Z 10/04/26"}, "geometry": {"type": "Polygon", "coordinates": [[[-97.74194273594556, 25.888736343436992], [-98.14909531772862, 25.92647175917468], [-99.02246103525674, 26.22559474752472], [-99.28593535644875, 26.447758383796], [-99.44887726647175, 26.71723071908369], [-99.67433456186515, 27.258707232758216], [-99.68320292614735, 27.486816625138623], [-100.33027817840626, 28.15062950457799], [-100.89421356313895, 29.08846319137612], [-101.49335118859003, 29.56531773165455], [-102.12992115977022, 29.675189687045016], [-101.27176697219461, 30.30434747942365], [-100.58053904995995, 31.285697041064143], [-99.91643169166554, 31.94428606352152], [-97.97549410008322, 33.350636636398875], [-97.12043665735659, 33.90601812417966], [-96.9566228747086, 33.86293168231881], [-95.65537589880782, 34.32432958891147], [-94.89147462553895, 34.505826792758], [-94.56363467503023, 34.50528387697783], [-94.34504605246092, 34.32342977148547], [-94.29503580570912, 33.601357321014255], [-94.0811467992463, 33.37530948153447], [-93.59488901937864, 33.326633862636854], [-92.07189082498896, 33.667784588138595], [-88.75350958015294, 34.7928712499214], [-87.00653241126638, 35.43807613635543], [-86.49085739481713, 35.682357636486906], [-85.54785580151308, 36.35044520638407], [-85.14381153433081, 36.50672008471729], [-83.71595430928065, 36.82088464760865], [-81.62942402313388, 37.833944138171844], [-81.40524452596468, 37.81627574593196], [-81.30353904548609, 37.71777586232945], [-80.55206610329041, 36.57851237731019], [-80.05480911235861, 36.13057099986017], [-78.61025816959446, 36.08530738304909], [-77.19295191676882, 36.21114193511396], [-76.82715634180418, 36.39673971721903], [-76.33365239515949, 36.97528580576895], [-75.597736780093, 36.981502207049964], [-75.67687689907939, 36.85521520589135], [-75.1544672557628, 35.70802908591141], [-75.2825951709062, 34.9969144108118], [-75.68750146652499, 34.90775557746928], [-76.21169746698526, 34.4240113310797], [-76.51309507796557, 34.27554934724023], [-76.76864650647587, 34.395268525245044], [-77.11486706439331, 34.297165663611125], [-77.5412988933626, 34.025999103894556], [-77.64390130445592, 33.71848101879983], [-77.77339189423618, 33.594818203961296], [-77.94830693276285, 33.522282812135245], [-78.21036025873504, 33.59520142264277], [-78.49252021324526, 33.53320121815604], [-78.85266302286722, 33.29740433841915], [-78.95741378027536, 32.943546965180765], [-80.49445341643577, 31.950699855526654], [-80.7406272890233, 31.699283483611605], [-81.13101592915555, 30.68382020482289], [-80.9970781692306, 30.03171991136292], [-80.74971419132984, 29.4599249517783], [-81.2349830406312, 29.36545428482558], [-81.4107283991258, 29.1987179026046], [-81.54559978628991, 28.935716243647818], [-81.61234939896666, 28.345881067511147], [-81.76597290640056, 27.900818989156072], [-81.94491277832586, 27.686969341586686], [-82.44585590978025, 27.361349778753198], [-82.87913957088816, 27.168201045549136], [-83.17876934092348, 27.78744444256655], [-83.12008427084714, 28.378261282360956], [-82.94683193937682, 28.547912441074573], [-82.98013486242392, 28.7336168061601], [-83.28088857068678, 28.847362681859316], [-83.32023214938555, 28.98850924755592], [-83.98262333699651, 29.721758924327382], [-84.08710279402948, 29.729113279407834], [-84.48398361684634, 29.40681516021565], [-84.91652730596495, 29.252765696468288], [-85.1768504001735, 29.269469043122005], [-85.6869547348701, 29.437906280103434], [-85.75758924982256, 29.655452795826765], [-85.96862488042487, 29.86525609796954], [-86.47913574849645, 30.076363671681225], [-87.70343417682017, 29.864750282439278], [-88.38733618876296, 29.84962085241296], [-88.41293545579818, 29.69906613997842], [-88.6917159591019, 29.39144751268868], [-88.59224730851146, 29.296166584286254], [-88.60702212882808, 29.023070829575545], [-88.9202365787722, 28.685548620119405], [-89.34200050171046, 28.564667981052875], [-89.70096421861717, 28.668676468493437], [-89.84681358832135, 28.90171473828922], [-90.11438397393817, 28.727928607887605], [-91.05098731048433, 28.709085366504713], [-91.66412278893853, 29.088295613862396], [-91.8216895110885, 29.046019635820244], [-92.0810594143861, 29.096701578446154], [-92.1831354597989, 29.1897436649], [-92.54829248195097, 29.195938487684906], [-93.22311093711535, 29.432931229325646], [-93.58905993623173, 29.436678434281284], [-94.27013791489944, 29.21357498217139], [-95.20825818103633, 28.53140800517508], [-95.98412972350866, 28.2389437172858], [-96.1893377674154, 28.055011385118508], [-96.44661309104285, 27.961548732883163], [-96.85231101677168, 27.547345142825293], [-97.04956838052047, 27.042603917847618], [-96.88941797420924, 26.633653415681245], [-96.77723624327665, 25.949801960648816], [-97.03061492512109, 25.854312576223087], [-97.23023106743004, 25.668726873049444], [-97.74194273594556, 25.888736343436992]], [[-95.20831134266892, 28.561808315490502], [-94.26995053158775, 29.24394994505671], [-93.58869701467026, 29.467043067817485], [-93.22265390561033, 29.463295056287976], [-92.54766316062334, 29.226309624325175], [-92.18241245789686, 29.22011345715848], [-92.08031080523949, 29.1270745291044], [-91.82087474267676, 29.076393228492897], [-91.66326733065392, 29.11866673416964], [-91.04997789030799, 28.739466749746384], [-90.11313504128486, 28.758302489115707], [-89.84549435862372, 28.932080145071627], [-89.69961032813994, 28.699048935021988], [-89.34055621140828, 28.595040741405473], [-88.91868311914267, 28.715913157471075], [-88.64171733282002, 29.024500470304336], [-88.62702245895507, 29.297599021205357], [-88.72652035332919, 29.392857515274873], [-88.44782733960653, 29.700537850475445], [-88.38562995539984, 29.879932882157583], [-87.70155139975977, 29.89505376622549], [-86.47693347956182, 30.106641226423196], [-85.96629504887629, 29.895536185526645], [-85.72275073279788, 29.653383602072367], [-85.68456105246398, 29.468200879570126], [-85.17432942847834, 29.299762501751], [-84.91394001320526, 29.28305554770757], [-84.4812820376813, 29.43709136693973], [-84.19950920726282, 29.646503397297007], [-84.19098927343823, 29.737269039590277], [-84.26646404840403, 30.062121085829414], [-84.605605233564, 30.40489122415474], [-85.21372528432448, 30.717515037136234], [-85.83584615178324, 30.891607083477147], [-86.3934530976581, 31.24163746457779], [-87.11701985512616, 31.552142495218597], [-87.69892767764416, 31.625382202336084], [-91.38663466825585, 31.343159693971895], [-94.89503007284357, 30.702796597929776], [-95.42287050488088, 30.52039917437302], [-95.63347719256096, 30.337313645224498], [-95.78846439184936, 29.881561762186752], [-95.57094225013782, 28.424083255761328], [-95.20831134266892, 28.561808315490502]]]}}, {"type": "Feature", "properties": {"dn": 2, "PRODUCT": "Day 2 Excessive Rainfall Potential Forecast", "VALID_TIME": "12Z 10/03/26 - 12Z 10/04/26", "OUTLOOK": "Slight (At Least 15%)", "ISSUE_TIME": "2026-10-02 07:43:00", "START_TIME": "2026-10-03 12:00:00", "END_TIME": "2026-10-04 12:00:00", "Snippet": "12Z 10/03/26 - 12Z 10/04/26"}, "geometry": {"type": "Polygon", "coordinates": [[[-95.57094225013782, 28.424083255761328], [-95.78846439184936, 29.881561762186752], [-95.63347719256096, 30.337313645224498], [-95.42287050488088, 30.52039917437302], [-94.89503007284357, 30.702796597929776], [-91.38663466825585, 31.343159693971895], [-87.69892767764416, 31.625382202336084], [-87.11701985512616, 31.552142495218597], [-86.3934530976581, 31.24163746457779], [-85.83584615178324, 30.891607083477147], [-85.21372528432448, 30.717515037136234], [-84.605605233564, 30.40489122415474], [-84.26646404840403, 30.062121085829414], [-84.19098927343823, 29.737269039590277], [-84.19950920726282, 29.646503397297007], [-84.4812820376813, 29.43709136693973], [-84.91394001320526, 29.28305554770757], [-85.17432942847834, 29.299762501751], [-85.68456105246398, 29.468200879570126], [-85.72275073279788, 29.653383602072367], [-85.96629504887629, 29.895536185526645], [-86.47693347956182, 30.106641226423196], [-87.70155139975977, 29.89505376622549], [-88.38562995539984, 29.879932882157583], [-88.44782733960653, 29.700537850475445], [-88.72652035332919, 29.392857515274873], [-88.62702245895507, 29.297599021205357], [-88.64171733282002, 29.024500470304336], [-88.91868311914267, 28.715913157471075], [-89.34055621140828, 28.595040741405473], [-89.69961032813994, 28.699048935021988], [-89.84549435862372, 28.932080145071627], [-90.11313504128486, 28.758302489115707], [-91.04997789030799, 28.739466749746384], [-91.66326733065392, 29.11866673416964], [-91.82087474267676, 29.076393228492897], [-92.08031080523949, 29.1270745291044], [-92.18241245789686, 29.22011345715848], [-92.54766316062334, 29.226309624325175], [-93.22265390561033, 29.463295056287976], [-93.58869701467026, 29.467043067817485], [-94.26995053158775, 29.24394994505671], [-95.20831134266892, 28.561808315490502], [-95.57094225013782, 28.424083255761328]]]}}]}