{"type": "FeatureCollection", "features": [{"type": "Feature", "properties": {"dn": 1, "PRODUCT": "Day 1 Excessive Rainfall Potential Forecast", "VALID_TIME": "16Z 09/07/26 - 12Z 09/08/26", "OUTLOOK": "Marginal (At Least 5%)", "ISSUE_TIME": "2026-09-07 16:01:00", "START_TIME": "2026-09-07 16:00:00", "END_TIME": "2026-09-08 12:00:00", "Snippet": "16Z 09/07/26 - 12Z 09/08/26"}, "geometry": {"type": "Polygon", "coordinates": [[[-80.37778215771115, 26.5334491860802], [-80.86938088786145, 26.718010643079143], [-81.44975965946645, 27.50618710964658], [-81.77715622319214, 27.809171109034803], [-82.03384127855976, 27.831166196498838], [-82.94851045953355, 27.49362003093714], [-83.17876934092348, 27.78744444256655], [-83.12008427084714, 28.378261282360956], [-82.94683193937682, 28.547912441074573], [-82.98013486242392, 28.7336168061601], [-83.2300075685515, 28.84440712104986], [-83.13268901394898, 29.294429385247234], [-82.8163832242333, 29.818622413768598], [-82.16260900790977, 30.497432309476153], [-82.13761087176368, 30.723742726553894], [-81.59148661812623, 31.773381179354278], [-81.27221104836707, 32.2018927485744], [-80.97711753753734, 32.404929526593214], [-80.65710881485126, 32.376557110140375], [-80.20564723393521, 32.10655594367571], [-80.49445341643577, 31.950699855526654], [-80.80478819113524, 31.613784504858923], [-81.13101592915555, 30.68382020482289], [-80.91979709382122, 29.79593975750715], [-80.22831009726261, 28.585879083976433], [-80.27895736516328, 28.177831850492325], [-79.72225018624539, 26.83709996097543], [-79.75783115945757, 26.56401947303206], [-80.37778215771115, 26.5334491860802]]]}}, {"type": "Feature", "properties": {"dn": 1, "PRODUCT": "Day 1 Excessive Rainfall Potential Forecast", "VALID_TIME": "16Z 09/07/26 - 12Z 09/08/26", "OUTLOOK": "Marginal (At Least 5%)", "ISSUE_TIME": "2026-09-07 16:01:00", "START_TIME": "2026-09-07 16:00:00", "END_TIME": "2026-09-08 12:00:00", "Snippet": "16Z 09/07/26 - 12Z 09/08/26"}, "geometry": {"type": "Polygon", "coordinates": [[[-89.44432342502064, 28.59820281254282], [-89.69963740594949, 28.698441485691408], [-89.84552074321768, 28.931472836935967], [-90.11316001993794, 28.757695011491165], [-91.04999807871151, 28.73885912208155], [-91.6632844398196, 29.11805931176347], [-91.820891038045, 29.075785756639466], [-92.08032577742242, 29.126467070091238], [-92.1824269179349, 29.21950606131329], [-92.5476757470499, 29.225702201592362], [-93.22266304624043, 29.462687779748723], [-93.58870427310148, 29.466435775146778], [-94.00821015312226, 29.333012814778165], [-94.26930401152458, 29.517574573548753], [-94.37297205425233, 29.700183628127302], [-94.37151404260064, 29.97332214074462], [-93.94522117743828, 30.653386372603006], [-93.35860887575448, 30.967451246751864], [-92.98628226839344, 31.054023805903093], [-92.50927268725509, 31.04723428388389], [-92.08759349682992, 30.949144147264416], [-90.86840047038152, 30.96743035659942], [-87.93714883541833, 32.0907535417577], [-87.50398523512044, 32.16182557156378], [-86.96971276653028, 32.13589480126237], [-86.70921117864252, 32.031763221795465], [-86.46834476563305, 31.6545906239819], [-86.40252527012501, 31.105143814661968], [-86.46262107225114, 30.288518061891665], [-86.58408550102571, 30.067149687030764], [-87.70158905530097, 29.894447696549744], [-88.38566408006709, 29.879326641562674], [-88.44712950193036, 29.700508416265503], [-88.72582426544463, 29.392829315223135], [-88.6263269559462, 29.297570372466986], [-88.64102342874018, 29.024471877489752], [-88.91871418833526, 28.715305866724048], [-89.44432342502064, 28.59820281254282]]]}}, {"type": "Feature", "properties": {"dn": 1, "PRODUCT": "Day 1 Excessive Rainfall Potential Forecast", "VALID_TIME": "16Z 09/07/26 - 12Z 09/08/26", "OUTLOOK": "Marginal (At Least 5%)", "ISSUE_TIME": "2026-09-07 16:01:00", "START_TIME": "2026-09-07 16:00:00", "END_TIME": "2026-09-08 12:00:00", "Snippet": "16Z 09/07/26 - 12Z 09/08/26"}, "geometry": {"type": "Polygon", "coordinates": [[[-108.97623571561925, 31.13024758539512], [-110.73956450880605, 31.14696319042524], [-111.28652732883741, 31.229561879437814], [-111.32312770421318, 31.865801626018147], [-111.1039621275985, 32.98297071653675], [-110.71192946446705, 34.0676122886979], [-110.22069980104858, 34.8848300676574], [-109.60645055863075, 35.66352871420535], [-108.81653683801416, 36.45257352337657], [-107.92838742042247, 36.97225800150515], [-106.79334939923413, 37.36862835351016], [-106.18776858054167, 37.49895854320241], [-105.33509116746922, 37.41865616244315], [-104.55149033974544, 37.464368980608], [-104.20403235767998, 37.349422903526936], [-103.95681136316456, 37.0934380586708], [-103.93469890939545, 36.82605054249972], [-104.31111837727651, 35.99822612592283], [-104.85034146288712, 35.202247027428655], [-105.26059821089072, 34.27449294066023], [-105.24496218348706, 33.50614936911307], [-105.3282211688768, 33.22893830852838], [-105.62697071204792, 32.936490119098025], [-106.14187783407567, 32.67465906994508], [-107.38752732488399, 32.2194786373744], [-108.06062585381395, 31.52882876890281], [-108.04527872765681, 31.393280410659123], [-108.23714302478366, 31.19393662204789], [-108.97623571561925, 31.13024758539512]]]}}, {"type": "Feature", "properties": {"dn": 1, "PRODUCT": "Day 1 Excessive Rainfall Potential Forecast", "VALID_TIME": "16Z 09/07/26 - 12Z 09/08/26", "OUTLOOK": "Marginal (At Least 5%)", "ISSUE_TIME": "2026-09-07 16:01:00", "START_TIME": "2026-09-07 16:00:00", "END_TIME": "2026-09-08 12:00:00", "Snippet": "16Z 09/07/26 - 12Z 09/08/26"}, "geometry": {"type": "Polygon", "coordinates": [[[-97.0431384256984, 41.513215508064846], [-97.57151785125, 41.63758780645571], [-97.7514970305552, 41.7668351258002], [-97.93835876044261, 42.15638261751495], [-97.92399035057518, 43.67416117046011], [-97.70336791640955, 44.32336684738223], [-97.29954287870206, 45.014502163885126], [-97.31607345038043, 45.6968203591013], [-97.57579995046204, 46.288003808219635], [-98.15135288817753, 46.99795973766071], [-98.35794656542244, 47.58316473116811], [-98.68882036636771, 48.07968433457943], [-99.00718100072842, 48.23980426978455], [-99.32196583883324, 48.275078766928814], [-101.11339100169666, 47.89470083433892], [-101.98195132092707, 47.824650703750216], [-102.4392433415286, 48.060366951750666], [-102.84593872798675, 48.4209839689243], [-103.13774889566265, 48.8675221867887], [-103.16312593482235, 49.15783482787378], [-99.61715085507376, 49.142976536466], [-95.50672436238419, 49.15240911350793], [-95.44536366674684, 49.524275311148095], [-94.61988896219992, 49.52440426284683], [-94.43159410122591, 48.98581077106259], [-94.24421805023145, 48.903142092357385], [-93.61563975877733, 48.77541400180068], [-93.11109855296515, 48.81290701903468], [-92.67239385498338, 48.725376907788096], [-91.55442826900217, 48.33514599289284], [-90.79708811286235, 48.44594878423832], [-90.49402351705132, 48.23103866548584], [-89.30214337811577, 48.24204707176449], [-89.33613941379114, 47.69918664545083], [-89.62674089815208, 46.992447978936646], [-90.70028665484693, 45.151114700901715], [-91.14630158507758, 44.60402525899272], [-95.58563129983843, 41.742195211667465], [-96.40131882514166, 41.51932071781189], [-97.0431384256984, 41.513215508064846]]]}}, {"type": "Feature", "properties": {"dn": 1, "PRODUCT": "Day 1 Excessive Rainfall Potential Forecast", "VALID_TIME": "16Z 09/07/26 - 12Z 09/08/26", "OUTLOOK": "Marginal (At Least 5%)", "ISSUE_TIME": "2026-09-07 16:01:00", "START_TIME": "2026-09-07 16:00:00", "END_TIME": "2026-09-08 12:00:00", "Snippet": "16Z 09/07/26 - 12Z 09/08/26"}, "geometry": {"type": "Polygon", "coordinates": [[[-114.61086820383551, 46.556578751300556], [-114.96129259543385, 46.73555674725541], [-115.40967299915336, 47.07327221948658], [-115.82852914184465, 47.53990954457008], [-115.94324962766358, 48.036264260535134], [-115.57996021951891, 49.20965993656427], [-114.55081765085983, 49.18448913625842], [-114.18091517871463, 49.24653144982159], [-109.90229052500897, 49.224521431961435], [-109.3182106158621, 49.15544399587822], [-105.63535715243596, 49.169150746454704], [-106.71604166098706, 48.69372199062444], [-108.5436712608463, 48.246099104326134], [-110.20211510121123, 48.00235836312219], [-111.231077674883, 48.132506980631575], [-111.78940822222748, 48.086881112397876], [-112.14554944997533, 47.972708782415026], [-112.63658905662888, 47.593335476064965], [-112.71930921803337, 47.37439185847919], [-112.68397698871485, 46.86818655411554], [-112.89704879617548, 46.67780547621879], [-113.84648212291194, 46.46083139977827], [-114.61086820383551, 46.556578751300556]], [[-113.3431312685188, 47.359817549078805], [-112.8261656171748, 47.91399867960901], [-112.31713726614586, 48.21103905685562], [-111.96027276679779, 48.3252822973014], [-110.59107763969008, 48.43498473490738], [-110.19631460301616, 48.71629268328101], [-109.89698638505996, 49.196893967400754], [-114.23760642295133, 49.21341123571858], [-114.58535669104205, 48.76163019782311], [-114.70680797764994, 48.16099788941631], [-114.52818272555078, 47.62902817408092], [-114.16735338402124, 47.11208829245703], [-113.3431312685188, 47.359817549078805]]]}}, {"type": "Feature", "properties": {"dn": 2, "PRODUCT": "Day 1 Excessive Rainfall Potential Forecast", "VALID_TIME": "16Z 09/07/26 - 12Z 09/08/26", "OUTLOOK": "Slight (At Least 15%)", "ISSUE_TIME": "2026-09-07 16:01:00", "START_TIME": "2026-09-07 16:00:00", "END_TIME": "2026-09-08 12:00:00", "Snippet": "16Z 09/07/26 - 12Z 09/08/26"}, "geometry": {"type": "Polygon", "coordinates": [[[-114.16735338402124, 47.11208829245703], [-114.52818272555078, 47.62902817408092], [-114.70680797764994, 48.16099788941631], [-114.58535669104205, 48.76163019782311], [-114.23760642295133, 49.21341123571858], [-109.89698638505996, 49.196893967400754], [-110.19631460301616, 48.71629268328101], [-110.59107763969008, 48.43498473490738], [-111.96027276679779, 48.3252822973014], [-112.31713726614586, 48.21103905685562], [-112.8261656171748, 47.91399867960901], [-113.3431312685188, 47.359817549078805], [-114.16735338402124, 47.11208829245703]]]}}]}