{
  "type": "FeatureCollection",
  "features": [
    {
      "type": "Feature",
      "properties": {
        "dn": 1,
        "PRODUCT": "Day 2 Excessive Rainfall Potential Forecast",
        "VALID_TIME": "12Z 09/08/26 - 12Z 09/09/26",
        "OUTLOOK": "Marginal (At Least 5%)",
        "ISSUE_TIME": "2026-09-07 08:18:00",
        "START_TIME": "2026-09-08 12:00:00",
        "END_TIME": "2026-09-09 12:00:00",
        "Snippet": "12Z 09/08/26 - 12Z 09/09/26",
        "risk_norm": "MARGINAL"
      },
      "geometry": {
        "type": "Polygon",
        "coordinates": [
          [
            [
              -108.97623571561925,
              31.13024758539512
            ],
            [
              -110.95653789383776,
              31.17089174187611
            ],
            [
              -112.2424058188701,
              31.53988405179294
            ],
            [
              -111.90486048501428,
              31.805846072773672
            ],
            [
              -111.69961331997744,
              31.87327471792753
            ],
            [
              -111.33431752132724,
              32.32127858029749
            ],
            [
              -111.24518446959165,
              32.83205354466251
            ],
            [
              -111.33581467406432,
              33.46051996392505
            ],
            [
              -111.62284248135771,
              34.29519226686872
            ],
            [
              -111.50018226356138,
              34.57996084979448
            ],
            [
              -111.0623072563904,
              34.98691871408744
            ],
            [
              -110.73526194439324,
              35.01847930689355
            ],
            [
              -110.50459433140348,
              34.94979677890282
            ],
            [
              -110.08062278631684,
              35.079651270578225
            ],
            [
              -109.7411434117603,
              35.42583293857553
            ],
            [
              -109.47019316329067,
              35.901908117632445
            ],
            [
              -108.99766524489027,
              36.122459513616285
            ],
            [
              -108.45693954755563,
              36.25684286703612
            ],
            [
              -107.77284090160822,
              36.130411362823374
            ],
            [
              -107.50188329549349,
              36.195852868797495
            ],
            [
              -106.3927256242897,
              37.30641554036474
            ],
            [
              -105.58950771891158,
              37.71586565078911
            ],
            [
              -105.14906081019423,
              37.831836389211574
            ],
            [
              -104.19369991863731,
              37.885736193582076
            ],
            [
              -103.73653342466757,
              37.820446052348174
            ],
            [
              -103.43676095813815,
              37.6115172560189
            ],
            [
              -103.40193450598285,
              37.16652192171504
            ],
            [
              -103.83177122954966,
              36.24868633475487
            ],
            [
              -104.54059538432934,
              35.44555978177527
            ],
            [
              -104.82644221441852,
              34.93317080259147
            ],
            [
              -105.1302910971856,
              32.83325070844514
            ],
            [
              -105.58911647650797,
              32.53036327550735
            ],
            [
              -107.10175257836563,
              32.05934300185885
            ],
            [
              -107.30506808559977,
              31.952731956682822
            ],
            [
              -107.54142350906727,
              31.660966332169338
            ],
            [
              -107.96578444528456,
              31.62688053767055
            ],
            [
              -108.06062585381395,
              31.52882876890281
            ],
            [
              -108.07866176117668,
              31.20713454245347
            ],
            [
              -108.97623571561925,
              31.13024758539512
            ]
          ]
        ]
      }
    },
    {
      "type": "Feature",
      "properties": {
        "dn": 1,
        "PRODUCT": "Day 2 Excessive Rainfall Potential Forecast",
        "VALID_TIME": "12Z 09/08/26 - 12Z 09/09/26",
        "OUTLOOK": "Marginal (At Least 5%)",
        "ISSUE_TIME": "2026-09-07 08:18:00",
        "START_TIME": "2026-09-08 12:00:00",
        "END_TIME": "2026-09-09 12:00:00",
        "Snippet": "12Z 09/08/26 - 12Z 09/09/26",
        "risk_norm": "MARGINAL"
      },
      "geometry": {
        "type": "Polygon",
        "coordinates": [
          [
            [
              -97.06853031650614,
              39.888418577751644
            ],
            [
              -98.51287968752676,
              40.13005734397979
            ],
            [
              -98.80826310899651,
              40.30096311423627
            ],
            [
              -98.87084377446207,
              40.43160287774671
            ],
            [
              -98.82944235469866,
              40.871809375095374
            ],
            [
              -98.37903569278056,
              41.31996207447136
            ],
            [
              -94.88247145905052,
              42.91940517170476
            ],
            [
              -93.44867833585269,
              43.86301642670797
            ],
            [
              -92.77195251427862,
              44.71570970511772
            ],
            [
              -92.32756480108488,
              45.52191132109303
            ],
            [
              -92.19344490064873,
              45.945451065637194
            ],
            [
              -91.93826320009111,
              46.281020602234
            ],
            [
              -90.97961240092121,
              47.19285466099326
            ],
            [
              -89.9913836112611,
              48.261012777234505
            ],
            [
              -89.43099065589388,
              48.20470819346374
            ],
            [
              -88.40372522494941,
              48.54932395638188
            ],
            [
              -84.91545806389256,
              47.10536173385075
            ],
            [
              -84.62505249427704,
              46.92057905586879
            ],
            [
              -84.4656190618454,
              46.70142113603843
            ],
            [
              -84.03619341073075,
              46.678017196651
            ],
            [
              -83.9475002665983,
              46.37525121077926
            ],
            [
              -83.78046803989592,
              46.23911349639294
            ],
            [
              -83.41434701639541,
              46.217760887354615
            ],
            [
              -83.30178637194973,
              46.125093227664394
            ],
            [
              -83.28420977432239,
              45.78389575727251
            ],
            [
              -82.22531878468769,
              45.45950388465304
            ],
            [
              -83.19401193261487,
              44.534242602884255
            ],
            [
              -83.85285815865934,
              44.05680347393594
            ],
            [
              -84.81247569214229,
              43.50510532502452
            ],
            [
              -86.78953574700904,
              42.691773885617344
            ],
            [
              -89.38483527107546,
              41.74369232932348
            ],
            [
              -90.46434849823358,
              41.1614342645763
            ],
            [
              -91.35969937323408,
              40.523524158370705
            ],
            [
              -92.46721689049174,
              40.146766470675956
            ],
            [
              -93.3918231914081,
              39.93729138850344
            ],
            [
              -94.08213150419837,
              39.85405305011718
            ],
            [
              -95.57471900577976,
              39.81140495931808
            ],
            [
              -97.06853031650614,
              39.888418577751644
            ]
          ],
          [
            [
              -93.2584414580718,
              41.03533601107301
            ],
            [
              -92.3259435422286,
              41.15533820384103
            ],
            [
              -91.79728406755387,
              41.321864038640655
            ],
            [
              -91.31986414075551,
              41.61935238120643
            ],
            [
              -90.82762211847604,
              42.219509979433255
            ],
            [
              -90.6933593363299,
              42.60793896881118
            ],
            [
              -90.84856092920687,
              43.13208743643196
            ],
            [
              -91.08109489740578,
              43.26744593207423
            ],
            [
              -91.55750307488009,
              43.23359301379447
            ],
            [
              -95.05931721716127,
              41.78808537765623
            ],
            [
              -95.64245766632038,
              41.481202769297994
            ],
            [
              -95.98961067237454,
              41.12911397345262
            ],
            [
              -95.58111996713507,
              40.95516791659938
            ],
            [
              -93.2584414580718,
              41.03533601107301
            ]
          ]
        ]
      }
    },
    {
      "type": "Feature",
      "properties": {
        "dn": 2,
        "PRODUCT": "Day 2 Excessive Rainfall Potential Forecast",
        "VALID_TIME": "12Z 09/08/26 - 12Z 09/09/26",
        "OUTLOOK": "Slight (At Least 15%)",
        "ISSUE_TIME": "2026-09-07 08:18:00",
        "START_TIME": "2026-09-08 12:00:00",
        "END_TIME": "2026-09-09 12:00:00",
        "Snippet": "12Z 09/08/26 - 12Z 09/09/26",
        "risk_norm": "SLIGHT"
      },
      "geometry": {
        "type": "Polygon",
        "coordinates": [
          [
            [
              -95.58111996713507,
              40.95516791659938
            ],
            [
              -95.98961067237454,
              41.12911397345262
            ],
            [
              -95.64245766632038,
              41.481202769297994
            ],
            [
              -95.05931721716127,
              41.78808537765623
            ],
            [
              -91.55750307488009,
              43.23359301379447
            ],
            [
              -91.08109489740578,
              43.26744593207423
            ],
            [
              -90.84856092920687,
              43.13208743643196
            ],
            [
              -90.6933593363299,
              42.60793896881118
            ],
            [
              -90.82762211847604,
              42.219509979433255
            ],
            [
              -91.31986414075551,
              41.61935238120643
            ],
            [
              -91.79728406755387,
              41.321864038640655
            ],
            [
              -92.3259435422286,
              41.15533820384103
            ],
            [
              -93.2584414580718,
              41.03533601107301
            ],
            [
              -95.58111996713507,
              40.95516791659938
            ]
          ]
        ]
      }
    }
  ]
}
