{"type": "FeatureCollection", "features": [{"type": "Feature", "properties": {"dn": 1, "PRODUCT": "Day 1 Excessive Rainfall Potential Forecast", "VALID_TIME": "16Z 08/27/26 - 12Z 08/28/26", "OUTLOOK": "Marginal (At Least 5%)", "ISSUE_TIME": "2026-08-27 15:52:00", "START_TIME": "2026-08-27 16:00:00", "END_TIME": "2026-08-28 12:00:00", "Snippet": "16Z 08/27/26 - 12Z 08/28/26"}, "geometry": {"type": "Polygon", "coordinates": [[[-96.93000769304194, 29.051691532387125], [-96.99130334272185, 29.597655998163397], [-96.78812128467447, 30.00988550226984], [-96.31886151876016, 30.424936903275434], [-95.10684770361169, 31.15764784415143], [-91.23311549759383, 32.79126854130378], [-89.41651298726799, 33.59835784690295], [-87.5045381236366, 34.605558690573766], [-84.02564162823833, 36.52728610973647], [-82.87425081411013, 37.3443645285864], [-82.48236427282129, 37.80815507511341], [-82.06011564191166, 38.49112725523577], [-81.25726541732973, 39.40847875248192], [-80.39535604918386, 40.225877928344026], [-78.67252727582046, 41.57751205837088], [-77.56422538979294, 42.87859084952778], [-75.80805634682848, 44.230666255468094], [-74.72381494918983, 44.768657616531264], [-73.28904503436085, 45.17293093291393], [-71.88555073461235, 45.137713181158034], [-71.60541263366734, 45.2768533379498], [-71.25780003748378, 45.190521728376744], [-70.94189851472646, 44.976291905530545], [-71.05238043166185, 44.29358754798352], [-71.25424316480135, 43.96983479255069], [-72.57239881302023, 42.73092503426248], [-73.1403304822969, 41.78569710437388], [-73.26180920618305, 41.22478910069968], [-73.18131130808973, 40.503948084048055], [-73.08682028194707, 40.40406628527814], [-72.8011228068603, 40.367455992539455], [-73.57954567388487, 40.28460982894157], [-73.71015709341064, 40.21221992322814], [-73.85341372196022, 39.51538921313792], [-74.15853207390785, 39.14956486953465], [-74.70327736720743, 38.72152557532674], [-74.81286030368888, 38.15090576064143], [-75.66100038532956, 36.94365311235639], [-75.1544672557628, 35.70802908591141], [-75.2825951709062, 34.9969144108118], [-75.68750146652499, 34.90775557746928], [-76.21169746698526, 34.4240113310797], [-76.51309507796557, 34.27554934724023], [-76.76864650647587, 34.395268525245044], [-77.11486706439331, 34.297165663611125], [-77.5412988933626, 34.025999103894556], [-77.64390130445592, 33.71848101879983], [-77.77339189423618, 33.594818203961296], [-77.94830693276285, 33.522282812135245], [-77.99526709697264, 33.572751840595316], [-78.37836769065561, 33.567026823234485], [-78.85266302286722, 33.29740433841915], [-78.95741378027536, 32.943546965180765], [-80.49445341643577, 31.950699855526654], [-80.7406272890233, 31.699283483611605], [-81.12021116667621, 30.77425779181026], [-81.10125017680285, 30.49744407350235], [-81.69430286144741, 30.41178390051896], [-82.94887742387881, 30.05649310286959], [-83.50375139793852, 29.778532632394302], [-83.79102083665028, 29.525309861416336], [-83.88245127110501, 29.66895422242978], [-84.08710279402948, 29.729113279407834], [-84.4813360692646, 29.436485842805258], [-84.91399175906047, 29.282449750682755], [-85.58389861099434, 29.415868001418172], [-85.96634164550724, 29.894930583775515], [-86.47913574849645, 30.076363671681225], [-87.70343417682017, 29.864750282439278], [-88.38733618876296, 29.84962085241296], [-88.41293545579818, 29.69906613997842], [-88.6917159591019, 29.39144751268868], [-88.59224730851146, 29.296166584286254], [-88.60702212882808, 29.023070829575545], [-88.9202365787722, 28.685548620119405], [-89.34200050171046, 28.564667981052875], [-89.70096421861717, 28.668676468493437], [-89.84681358832135, 28.90171473828922], [-90.11438397393817, 28.727928607887605], [-91.05098731048433, 28.709085366504713], [-91.66412278893853, 29.088295613862396], [-91.8216895110885, 29.046019635820244], [-92.0810594143861, 29.096701578446154], [-92.1831354597989, 29.1897436649], [-92.54829248195097, 29.195938487684906], [-93.22311093711535, 29.432931229325646], [-93.58905993623173, 29.436678434281284], [-94.26995427925398, 29.24334244579901], [-95.20831027943626, 28.561200309284196], [-95.72589672666089, 28.331605211591526], [-95.88128864531792, 28.330794463508106], [-96.50628314879613, 28.599592467202157], [-96.93000769304194, 29.051691532387125]], [[-88.64171733282002, 29.024500470304336], [-88.62702245895507, 29.297599021205357], [-88.72652035332919, 29.392857515274873], [-88.44782733960653, 29.700537850475445], [-88.38562995539984, 29.879932882157583], [-87.70155139975977, 29.89505376622549], [-86.47693347956182, 30.106641226423196], [-86.0670371629921, 29.947252178232237], [-86.32096312111162, 30.781962757660775], [-86.780531920386, 31.03467501193312], [-87.46553991396515, 31.11430635172799], [-88.00342025986433, 31.00254011851083], [-88.97742835857817, 30.63321694340591], [-89.72455493933302, 30.477999641102972], [-92.63010947030264, 30.321166604664846], [-93.26421675259299, 30.19296434919411], [-93.53011661509987, 30.01319690241595], [-93.58869701467026, 29.467043067817485], [-93.22265390561033, 29.463295056287976], [-92.54766316062334, 29.226309624325175], [-92.18241245789686, 29.22011345715848], [-92.08031080523949, 29.1270745291044], [-91.82087474267676, 29.076393228492897], [-91.66326733065392, 29.11866673416964], [-91.04997789030799, 28.739466749746384], [-90.11313504128486, 28.758302489115707], [-89.84549435862372, 28.932080145071627], [-89.69961032813994, 28.699048935021988], [-89.4442950675013, 28.598810284445943], [-88.91868311914267, 28.715913157471075], [-88.64171733282002, 29.024500470304336]], [[-76.77658685223277, 38.68377815247741], [-76.47986472020548, 38.741695864933526], [-75.4260046487762, 39.16249244767502], [-74.58955600093195, 39.603060670690105], [-74.01312670101345, 40.15948257646623], [-73.73450555012784, 40.66025486131421], [-73.49910315515142, 42.04961774066745], [-72.8842623094832, 42.94468557689176], [-72.7682704678188, 43.457034524994306], [-72.79786005250496, 43.591895803758355], [-73.00465124925356, 43.748104708022446], [-73.65293102561162, 43.82355989171442], [-74.27953726349253, 43.71976771379558], [-74.81414783673546, 43.47256289344166], [-75.32958784221059, 43.00334095943357], [-75.93931079686044, 42.01428853104606], [-77.2719052178628, 40.161683309904234], [-77.49957151092767, 39.16086214921389], [-77.37428819907034, 38.88031606406333], [-77.11430254053663, 38.71908568756946], [-76.77658685223277, 38.68377815247741]]]}}, {"type": "Feature", "properties": {"dn": 1, "PRODUCT": "Day 1 Excessive Rainfall Potential Forecast", "VALID_TIME": "16Z 08/27/26 - 12Z 08/28/26", "OUTLOOK": "Marginal (At Least 5%)", "ISSUE_TIME": "2026-08-27 15:52:00", "START_TIME": "2026-08-27 16:00:00", "END_TIME": "2026-08-28 12:00:00", "Snippet": "16Z 08/27/26 - 12Z 08/28/26"}, "geometry": {"type": "Polygon", "coordinates": [[[-108.97623571561925, 31.13024758539512], [-110.73956450880605, 31.14696319042524], [-111.73298762096032, 31.3649459418469], [-111.7864981011261, 32.09166737341423], [-111.50582951203744, 32.75987069467724], [-111.12862111178104, 33.16360042357402], [-109.34977732615465, 34.55656556718352], [-108.56240516757552, 35.30070541256593], [-108.32639140783716, 35.63571555808246], [-108.10497662458508, 36.10382654988079], [-107.99782894968949, 36.60685628911812], [-108.13643058987978, 38.208592231093974], [-107.78742125533441, 39.08117230813877], [-107.14639909058144, 39.96944291549127], [-106.3583513546311, 40.68484066334189], [-105.60026583649346, 41.21518266487457], [-104.64681235737955, 41.61950995326367], [-103.95125603212523, 41.69898563443421], [-102.58919332556998, 41.49857883968446], [-100.45528590804334, 40.918353794289956], [-99.56801721571813, 40.54789278359568], [-99.15001332560195, 40.249289339444104], [-98.84397388814895, 39.77134475420535], [-98.71199317656745, 39.28819773501261], [-98.68405411322404, 38.49115566311956], [-98.78154989057153, 38.044672464569736], [-99.15567290163746, 37.50160594072682], [-99.69849289814978, 37.04029689359736], [-101.11298763046703, 36.32386021371774], [-101.47907867186122, 35.95223146313407], [-101.57356103134092, 35.67912100049573], [-101.55221088667649, 35.32034172144794], [-101.17964898415799, 34.569155919652125], [-101.10043176936625, 34.12100102545585], [-101.23357251976766, 33.57383655050264], [-101.4295250800498, 33.20429288523255], [-101.78653310036799, 32.82649922852942], [-102.25593286727607, 32.57938472478177], [-103.20806054360077, 32.352052002525916], [-106.97634575006452, 31.886721781216053], [-107.53650110763282, 31.615783830675095], [-107.96578444528456, 31.62688053767055], [-108.06062585381395, 31.52882876890281], [-108.07866176117668, 31.20713454245347], [-108.97623571561925, 31.13024758539512]]]}}, {"type": "Feature", "properties": {"dn": 2, "PRODUCT": "Day 1 Excessive Rainfall Potential Forecast", "VALID_TIME": "16Z 08/27/26 - 12Z 08/28/26", "OUTLOOK": "Slight (At Least 15%)", "ISSUE_TIME": "2026-08-27 15:52:00", "START_TIME": "2026-08-27 16:00:00", "END_TIME": "2026-08-28 12:00:00", "Snippet": "16Z 08/27/26 - 12Z 08/28/26"}, "geometry": {"type": "Polygon", "coordinates": [[[-89.4442950675013, 28.598810284445943], [-89.69961032813994, 28.699048935021988], [-89.84549435862372, 28.932080145071627], [-90.11313504128486, 28.758302489115707], [-91.04997789030799, 28.739466749746384], [-91.66326733065392, 29.11866673416964], [-91.82087474267676, 29.076393228492897], [-92.08031080523949, 29.1270745291044], [-92.18241245789686, 29.22011345715848], [-92.54766316062334, 29.226309624325175], [-93.22265390561033, 29.463295056287976], [-93.58869701467026, 29.467043067817485], [-93.53011661509987, 30.01319690241595], [-93.26421675259299, 30.19296434919411], [-92.63010947030264, 30.321166604664846], [-89.72455493933302, 30.477999641102972], [-88.97742835857817, 30.63321694340591], [-88.00342025986433, 31.00254011851083], [-87.46553991396515, 31.11430635172799], [-86.780531920386, 31.03467501193312], [-86.32096312111162, 30.781962757660775], [-86.0670371629921, 29.947252178232237], [-86.47693347956182, 30.106641226423196], [-87.70155139975977, 29.89505376622549], [-88.38562995539984, 29.879932882157583], [-88.44782733960653, 29.700537850475445], [-88.72652035332919, 29.392857515274873], [-88.62702245895507, 29.297599021205357], [-88.64171733282002, 29.024500470304336], [-88.91868311914267, 28.715913157471075], [-89.4442950675013, 28.598810284445943]]]}}, {"type": "Feature", "properties": {"dn": 2, "PRODUCT": "Day 1 Excessive Rainfall Potential Forecast", "VALID_TIME": "16Z 08/27/26 - 12Z 08/28/26", "OUTLOOK": "Slight (At Least 15%)", "ISSUE_TIME": "2026-08-27 15:52:00", "START_TIME": "2026-08-27 16:00:00", "END_TIME": "2026-08-28 12:00:00", "Snippet": "16Z 08/27/26 - 12Z 08/28/26"}, "geometry": {"type": "Polygon", "coordinates": [[[-77.11430254053663, 38.71908568756946], [-77.37428819907034, 38.88031606406333], [-77.49957151092767, 39.16086214921389], [-77.2719052178628, 40.161683309904234], [-75.93931079686044, 42.01428853104606], [-75.32958784221059, 43.00334095943357], [-74.81414783673546, 43.47256289344166], [-74.27953726349253, 43.71976771379558], [-73.65293102561162, 43.82355989171442], [-73.00465124925356, 43.748104708022446], [-72.79786005250496, 43.591895803758355], [-72.7682704678188, 43.457034524994306], [-72.8842623094832, 42.94468557689176], [-73.49910315515142, 42.04961774066745], [-73.73450555012784, 40.66025486131421], [-74.01312670101345, 40.15948257646623], [-74.58955600093195, 39.603060670690105], [-75.4260046487762, 39.16249244767502], [-76.47986472020548, 38.741695864933526], [-76.77658685223277, 38.68377815247741], [-77.11430254053663, 38.71908568756946]]]}}]}