{
  "type": "FeatureCollection",
  "features": [
    {
      "type": "Feature",
      "properties": {
        "dn": 1,
        "PRODUCT": "Day 2 Excessive Rainfall Potential Forecast",
        "VALID_TIME": "12Z 08/28/26 - 12Z 08/29/26",
        "OUTLOOK": "Marginal (At Least 5%)",
        "ISSUE_TIME": "2026-08-27 08:05:00",
        "START_TIME": "2026-08-28 12:00:00",
        "END_TIME": "2026-08-29 12:00:00",
        "Snippet": "12Z 08/28/26 - 12Z 08/29/26",
        "risk_norm": "MARGINAL"
      },
      "geometry": {
        "type": "Polygon",
        "coordinates": [
          [
            [
              -89.69963740594949,
              28.698441485691408
            ],
            [
              -89.84552074321768,
              28.931472836935967
            ],
            [
              -90.11316001993794,
              28.757695011491165
            ],
            [
              -91.04999807871151,
              28.73885912208155
            ],
            [
              -91.6632844398196,
              29.11805931176347
            ],
            [
              -91.820891038045,
              29.075785756639466
            ],
            [
              -92.08032577742242,
              29.126467070091238
            ],
            [
              -92.1824269179349,
              29.21950606131329
            ],
            [
              -92.5476757470499,
              29.225702201592362
            ],
            [
              -93.22266304624043,
              29.462687779748723
            ],
            [
              -93.58870427310148,
              29.466435775146778
            ],
            [
              -94.00821015312226,
              29.333012814778165
            ],
            [
              -94.0084828805081,
              29.42503495871889
            ],
            [
              -93.90223708482543,
              29.606507470424077
            ],
            [
              -93.47763342946514,
              29.96808995930988
            ],
            [
              -92.0392718490039,
              30.7664188990894
            ],
            [
              -91.18311394002758,
              31.066243338144336
            ],
            [
              -89.68940439648786,
              31.25043174553417
            ],
            [
              -89.09661014877341,
              31.411253690802933
            ],
            [
              -88.6592518534189,
              31.621577000722667
            ],
            [
              -88.21608085253635,
              31.92033576785859
            ],
            [
              -87.70448700473717,
              32.39707496017235
            ],
            [
              -86.29256569760248,
              34.00293310292125
            ],
            [
              -85.64309972655326,
              34.599541629153
            ],
            [
              -84.766206455679,
              35.17989429867126
            ],
            [
              -83.66567138907227,
              35.69409839331031
            ],
            [
              -80.76286001649784,
              36.68731309870565
            ],
            [
              -77.95417115725158,
              37.77557648595009
            ],
            [
              -76.69929788042425,
              38.13933451821986
            ],
            [
              -75.52451040382452,
              38.32396948267779
            ],
            [
              -74.77926777981887,
              38.326641854648514
            ],
            [
              -75.06332677612373,
              37.73060143840943
            ],
            [
              -75.33487895241208,
              37.492098602666516
            ],
            [
              -75.36730145078597,
              37.31563663547625
            ],
            [
              -75.66100038532956,
              36.94365311235639
            ],
            [
              -75.11876789305349,
              35.70374929632649
            ],
            [
              -75.24711970735581,
              34.99265195274225
            ],
            [
              -75.69258775655094,
              34.8786593344872
            ],
            [
              -76.17636920109427,
              34.41994090223707
            ],
            [
              -76.51793781172255,
              34.24637167594707
            ],
            [
              -76.77342781215607,
              34.36609377873327
            ],
            [
              -77.11955399511409,
              34.26797238615109
            ],
            [
              -77.50604924338721,
              34.02221024179338
            ],
            [
              -77.60874437314557,
              33.71471100202884
            ],
            [
              -77.7778791007044,
              33.565547930438235
            ],
            [
              -77.95274596875981,
              33.49300196525466
            ],
            [
              -78.21473424746615,
              33.5659192832868
            ],
            [
              -78.49681870193751,
              33.50390661667525
            ],
            [
              -78.81759787441108,
              33.29389121380424
            ],
            [
              -78.92245450308135,
              32.94005331803102
            ],
            [
              -80.7406272890233,
              31.699283483611605
            ],
            [
              -81.13101592915555,
              30.68382020482289
            ],
            [
              -80.9970781692306,
              30.03171991136292
            ],
            [
              -80.79077488638313,
              29.55528439662159
            ],
            [
              -80.84943017095408,
              29.513931969718485
            ],
            [
              -81.90947366041802,
              28.966071609042434
            ],
            [
              -82.94127909916803,
              28.592342048474496
            ],
            [
              -83.02637609553368,
              28.782066470177625
            ],
            [
              -83.28183536671474,
              28.848349498711404
            ],
            [
              -83.32023214938555,
              28.98850924755592
            ],
            [
              -83.98262333699651,
              29.721758924327382
            ],
            [
              -84.08710279402948,
              29.729113279407834
            ],
            [
              -84.4813360692646,
              29.436485842805258
            ],
            [
              -84.91399175906047,
              29.282449750682755
            ],
            [
              -85.17437984791225,
              29.29915663257841
            ],
            [
              -85.68460892611208,
              29.46759498758081
            ],
            [
              -85.72344750313837,
              29.653424985947463
            ],
            [
              -85.96634164550724,
              29.894930583775515
            ],
            [
              -86.47697752494051,
              30.10603567532834
            ],
            [
              -87.70158905530097,
              29.894447696549744
            ],
            [
              -88.38566408006709,
              29.879326641562674
            ],
            [
              -88.44712950193036,
              29.700508416265503
            ],
            [
              -88.72582426544463,
              29.392829315223135
            ],
            [
              -88.6263269559462,
              29.297570372466986
            ],
            [
              -88.64102342874018,
              29.024471877489752
            ],
            [
              -88.91871418833526,
              28.715305866724048
            ],
            [
              -89.44432342502064,
              28.59820281254282
            ],
            [
              -89.69963740594949,
              28.698441485691408
            ]
          ],
          [
            [
              -80.32467657218145,
              32.02605128965215
            ],
            [
              -78.95812723491197,
              32.94361826410218
            ],
            [
              -78.85337863814183,
              33.29747603483985
            ],
            [
              -78.49243248898624,
              33.53379906716586
            ],
            [
              -78.2102709936589,
              33.595799017323515
            ],
            [
              -77.9482163401915,
              33.52288038043892
            ],
            [
              -77.77330031859398,
              33.59541555648216
            ],
            [
              -77.64461879285001,
              33.71855795791758
            ],
            [
              -77.54201827397435,
              34.02607642761089
            ],
            [
              -77.11477141274594,
              34.29776144478377
            ],
            [
              -76.76854892880894,
              34.39586392823509
            ],
            [
              -76.51299624666441,
              34.27614480991967
            ],
            [
              -76.21241845200345,
              34.42409440105609
            ],
            [
              -75.68739766468772,
              34.908349378346486
            ],
            [
              -75.28331915995825,
              34.99700139975197
            ],
            [
              -75.15519581418542,
              35.70811642855602
            ],
            [
              -75.66996790080042,
              36.90000737929187
            ],
            [
              -76.22303883915231,
              36.96255271687069
            ],
            [
              -76.62567466078902,
              36.91674841761117
            ],
            [
              -77.52113201061105,
              36.606354462799615
            ],
            [
              -79.6300587455386,
              35.18778175661436
            ],
            [
              -81.11688517158207,
              33.91609109328107
            ],
            [
              -81.52234457845489,
              33.26938230533522
            ],
            [
              -81.49009325292748,
              32.6301808718629
            ],
            [
              -81.30826696604285,
              32.34116929469847
            ],
            [
              -80.54869210299906,
              31.95517745133295
            ],
            [
              -80.32467657218145,
              32.02605128965215
            ]
          ]
        ]
      }
    },
    {
      "type": "Feature",
      "properties": {
        "dn": 1,
        "PRODUCT": "Day 2 Excessive Rainfall Potential Forecast",
        "VALID_TIME": "12Z 08/28/26 - 12Z 08/29/26",
        "OUTLOOK": "Marginal (At Least 5%)",
        "ISSUE_TIME": "2026-08-27 08:05:00",
        "START_TIME": "2026-08-28 12:00:00",
        "END_TIME": "2026-08-29 12:00:00",
        "Snippet": "12Z 08/28/26 - 12Z 08/29/26",
        "risk_norm": "MARGINAL"
      },
      "geometry": {
        "type": "Polygon",
        "coordinates": [
          [
            [
              -108.97623571561925,
              31.13024758539512
            ],
            [
              -110.95653789383776,
              31.17089174187611
            ],
            [
              -113.48228641857975,
              31.903539135474162
            ],
            [
              -114.9360627503324,
              34.970526521167656
            ],
            [
              -115.21867702932259,
              36.206943335207654
            ],
            [
              -115.02827548225152,
              36.99853743617083
            ],
            [
              -114.85605777887773,
              37.28957693214781
            ],
            [
              -114.37224099050194,
              37.75167336348433
            ],
            [
              -113.8382146126871,
              37.946333620231066
            ],
            [
              -113.27187692461368,
              37.962934550837
            ],
            [
              -112.15906598329349,
              37.76422443589415
            ],
            [
              -111.03865621119537,
              37.10926963684798
            ],
            [
              -110.02636402447263,
              36.30355065203955
            ],
            [
              -109.21242239404742,
              36.05928768651599
            ],
            [
              -108.28033728409143,
              36.18092714130697
            ],
            [
              -106.21124939098023,
              37.18418596816815
            ],
            [
              -105.27914199560715,
              37.42204088913088
            ],
            [
              -104.60748365522304,
              37.46122332936868
            ],
            [
              -103.92057892655939,
              37.31981520578383
            ],
            [
              -103.62184043131795,
              37.11078256246677
            ],
            [
              -103.37083531003455,
              36.7653449531371
            ],
            [
              -103.16019081204595,
              36.19293424010283
            ],
            [
              -103.10382635590987,
              35.431831785297135
            ],
            [
              -103.23535362524369,
              34.975086651966734
            ],
            [
              -103.76673271585858,
              34.04496358180907
            ],
            [
              -104.65082220980652,
              32.90805090487276
            ],
            [
              -105.64980673431295,
              32.02636429624212
            ],
            [
              -106.50546341175279,
              31.466078412172013
            ],
            [
              -106.57207952163469,
              31.597888069269302
            ],
            [
              -106.78893953024682,
              31.62748502168065
            ],
            [
              -107.96578444528456,
              31.62688053767055
            ],
            [
              -108.06062585381395,
              31.52882876890281
            ],
            [
              -108.07866176117668,
              31.20713454245347
            ],
            [
              -108.97623571561925,
              31.13024758539512
            ]
          ]
        ]
      }
    },
    {
      "type": "Feature",
      "properties": {
        "dn": 1,
        "PRODUCT": "Day 2 Excessive Rainfall Potential Forecast",
        "VALID_TIME": "12Z 08/28/26 - 12Z 08/29/26",
        "OUTLOOK": "Marginal (At Least 5%)",
        "ISSUE_TIME": "2026-08-27 08:05:00",
        "START_TIME": "2026-08-28 12:00:00",
        "END_TIME": "2026-08-29 12:00:00",
        "Snippet": "12Z 08/28/26 - 12Z 08/29/26",
        "risk_norm": "MARGINAL"
      },
      "geometry": {
        "type": "Polygon",
        "coordinates": [
          [
            [
              -118.54774776354736,
              36.26794163463159
            ],
            [
              -119.06465943947207,
              36.5586746647474
            ],
            [
              -119.68847992883542,
              37.058352691731066
            ],
            [
              -120.65274323840042,
              38.2291462736587
            ],
            [
              -121.14569322068499,
              39.28342159538355
            ],
            [
              -121.16508437210256,
              39.82041909654198
            ],
            [
              -120.93615978028292,
              40.30323800592043
            ],
            [
              -120.2454131245789,
              41.07467112122321
            ],
            [
              -119.54998987687063,
              41.616620536736335
            ],
            [
              -119.02654643045088,
              41.90911309357994
            ],
            [
              -117.53455518738382,
              42.410305914141695
            ],
            [
              -116.71914970610464,
              42.77328456520754
            ],
            [
              -111.81407414686839,
              45.49301047572822
            ],
            [
              -111.17939676401669,
              45.71887318072136
            ],
            [
              -110.64189689103111,
              45.80590352970772
            ],
            [
              -109.82084361628289,
              45.656537098569274
            ],
            [
              -109.55134750977038,
              45.504860184290266
            ],
            [
              -109.11919195385373,
              45.06509198330451
            ],
            [
              -108.94294112929126,
              44.69083082522325
            ],
            [
              -108.89975758619343,
              44.39214623545702
            ],
            [
              -109.08265988668485,
              43.98952251374022
            ],
            [
              -109.9888146481764,
              43.22345762565912
            ],
            [
              -112.32946648297991,
              41.571171367176206
            ],
            [
              -114.99169919680035,
              39.82899319974054
            ],
            [
              -118.04643084883749,
              37.87781533168155
            ],
            [
              -118.36645150457962,
              37.51862213244973
            ],
            [
              -118.3832114713749,
              37.335305867332345
            ],
            [
              -118.11277635465036,
              36.87435001002364
            ],
            [
              -118.05606336088132,
              36.61003249930737
            ],
            [
              -118.17422975979083,
              36.36576464139974
            ],
            [
              -118.54774776354736,
              36.26794163463159
            ]
          ]
        ]
      }
    },
    {
      "type": "Feature",
      "properties": {
        "dn": 1,
        "PRODUCT": "Day 2 Excessive Rainfall Potential Forecast",
        "VALID_TIME": "12Z 08/28/26 - 12Z 08/29/26",
        "OUTLOOK": "Marginal (At Least 5%)",
        "ISSUE_TIME": "2026-08-27 08:05:00",
        "START_TIME": "2026-08-28 12:00:00",
        "END_TIME": "2026-08-29 12:00:00",
        "Snippet": "12Z 08/28/26 - 12Z 08/29/26",
        "risk_norm": "MARGINAL"
      },
      "geometry": {
        "type": "Polygon",
        "coordinates": [
          [
            [
              -96.05484068693883,
              41.87099096749222
            ],
            [
              -97.46532066923253,
              42.07537072078589
            ],
            [
              -98.89320439202072,
              42.572821307651346
            ],
            [
              -99.56254891954778,
              42.99243115854715
            ],
            [
              -100.38350130707019,
              43.92166607943624
            ],
            [
              -100.72504473880568,
              44.642750791316985
            ],
            [
              -100.713096921232,
              45.455963854631015
            ],
            [
              -100.55343014213858,
              45.84398031834912
            ],
            [
              -99.98433584662838,
              46.62263472238493
            ],
            [
              -99.56742837664089,
              46.92912793452695
            ],
            [
              -99.14328166578039,
              47.10698895607844
            ],
            [
              -98.46825274864146,
              47.24612474318871
            ],
            [
              -97.4170257010799,
              47.30365256832194
            ],
            [
              -95.7423280529776,
              47.06450540398654
            ],
            [
              -94.6931628373852,
              46.68614631884265
            ],
            [
              -93.59383646903937,
              46.13118262721094
            ],
            [
              -93.17023685408299,
              45.829599381810986
            ],
            [
              -92.7545638939584,
              45.35681468225052
            ],
            [
              -92.52740301997801,
              44.755542333622465
            ],
            [
              -92.48724025582699,
              43.98187170063806
            ],
            [
              -92.68403663830433,
              43.25059118826252
            ],
            [
              -93.11200297917974,
              42.60517191045567
            ],
            [
              -93.41225579665289,
              42.34632387419771
            ],
            [
              -94.12092487385486,
              42.04632088839277
            ],
            [
              -95.1179261692329,
              41.87400851009324
            ],
            [
              -96.05484068693883,
              41.87099096749222
            ]
          ]
        ]
      }
    },
    {
      "type": "Feature",
      "properties": {
        "dn": 2,
        "PRODUCT": "Day 2 Excessive Rainfall Potential Forecast",
        "VALID_TIME": "12Z 08/28/26 - 12Z 08/29/26",
        "OUTLOOK": "Slight (At Least 15%)",
        "ISSUE_TIME": "2026-08-27 08:05:00",
        "START_TIME": "2026-08-28 12:00:00",
        "END_TIME": "2026-08-29 12:00:00",
        "Snippet": "12Z 08/28/26 - 12Z 08/29/26",
        "risk_norm": "SLIGHT"
      },
      "geometry": {
        "type": "Polygon",
        "coordinates": [
          [
            [
              -80.54869210299906,
              31.95517745133295
            ],
            [
              -81.30826696604285,
              32.34116929469847
            ],
            [
              -81.49009325292748,
              32.6301808718629
            ],
            [
              -81.52234457845489,
              33.26938230533522
            ],
            [
              -81.11688517158207,
              33.91609109328107
            ],
            [
              -79.6300587455386,
              35.18778175661436
            ],
            [
              -77.52113201061105,
              36.606354462799615
            ],
            [
              -76.62567466078902,
              36.91674841761117
            ],
            [
              -76.22303883915231,
              36.96255271687069
            ],
            [
              -75.66996790080042,
              36.90000737929187
            ],
            [
              -75.15519581418542,
              35.70811642855602
            ],
            [
              -75.28331915995825,
              34.99700139975197
            ],
            [
              -75.68739766468772,
              34.908349378346486
            ],
            [
              -76.21241845200345,
              34.42409440105609
            ],
            [
              -76.51299624666441,
              34.27614480991967
            ],
            [
              -76.76854892880894,
              34.39586392823509
            ],
            [
              -77.11477141274594,
              34.29776144478377
            ],
            [
              -77.54201827397435,
              34.02607642761089
            ],
            [
              -77.64461879285001,
              33.71855795791758
            ],
            [
              -77.77330031859398,
              33.59541555648216
            ],
            [
              -77.9482163401915,
              33.52288038043892
            ],
            [
              -78.2102709936589,
              33.595799017323515
            ],
            [
              -78.49243248898624,
              33.53379906716586
            ],
            [
              -78.85337863814183,
              33.29747603483985
            ],
            [
              -78.95812723491197,
              32.94361826410218
            ],
            [
              -80.32467657218145,
              32.02605128965215
            ],
            [
              -80.54869210299906,
              31.95517745133295
            ]
          ]
        ]
      }
    }
  ]
}
