{
  "type": "FeatureCollection",
  "features": [
    {
      "type": "Feature",
      "properties": {
        "dn": 1,
        "PRODUCT": "Day 1 Excessive Rainfall Potential Forecast",
        "VALID_TIME": "16Z 08/13/26 - 12Z 08/14/26",
        "OUTLOOK": "Marginal (At Least 5%)",
        "ISSUE_TIME": "2026-08-13 15:52:00",
        "START_TIME": "2026-08-13 16:00:00",
        "END_TIME": "2026-08-14 12:00:00",
        "Snippet": "16Z 08/13/26 - 12Z 08/14/26",
        "risk_norm": "MARGINAL"
      },
      "geometry": {
        "type": "Polygon",
        "coordinates": [
          [
            [
              -104.90828457938767,
              30.253446935923108
            ],
            [
              -105.028860756658,
              30.4282232571379
            ],
            [
              -106.055277882567,
              31.224775584563876
            ],
            [
              -106.50210402882288,
              31.421674705201944
            ],
            [
              -106.57207952163469,
              31.597888069269302
            ],
            [
              -107.96578444528456,
              31.62688053767055
            ],
            [
              -108.06062585381395,
              31.52882876890281
            ],
            [
              -108.07866176117668,
              31.20713454245347
            ],
            [
              -109.5056158029096,
              31.09829811405745
            ],
            [
              -110.73554955973741,
              31.117486416569804
            ],
            [
              -111.28118954581055,
              31.199311046051452
            ],
            [
              -114.04723067858377,
              32.06477634129209
            ],
            [
              -115.09638452253284,
              34.632464645263155
            ],
            [
              -115.48208360643882,
              35.221686481338224
            ],
            [
              -116.0443170229218,
              35.83246903715787
            ],
            [
              -116.51395864147987,
              36.22611287120379
            ],
            [
              -116.75843738821125,
              36.32954316101492
            ],
            [
              -118.24579732640971,
              36.17401782786896
            ],
            [
              -118.72142813380015,
              36.288748997727254
            ],
            [
              -119.11944734275889,
              36.550770406173854
            ],
            [
              -119.945539768004,
              37.428796494605
            ],
            [
              -120.31198282285273,
              38.00865884188341
            ],
            [
              -120.47010127186104,
              38.66311968801653
            ],
            [
              -120.42701620634449,
              39.43541592929414
            ],
            [
              -120.51804492602677,
              40.27489591938992
            ],
            [
              -120.39889428728395,
              40.73944400469079
            ],
            [
              -119.89862724108764,
              41.34618370335998
            ],
            [
              -119.44554334245514,
              41.67527851970453
            ],
            [
              -118.2685296873281,
              42.2294796567407
            ],
            [
              -116.76802609357482,
              42.723519487101704
            ],
            [
              -116.28925020757922,
              42.99930745969035
            ],
            [
              -115.8543142003079,
              43.485974444854705
            ],
            [
              -114.83365437294508,
              45.84943116272463
            ],
            [
              -114.28196019912478,
              46.46194807776189
            ],
            [
              -114.1165157718916,
              46.86211915244385
            ],
            [
              -114.08964223177051,
              47.33237898796884
            ],
            [
              -114.3096339613556,
              48.36781820046801
            ],
            [
              -114.9355179750199,
              49.189413255445416
            ],
            [
              -109.3182106158621,
              49.15544399587822
            ],
            [
              -108.69326538030545,
              49.224952699674404
            ],
            [
              -105.57195781616721,
              49.158843619127914
            ],
            [
              -103.60152236678893,
              49.15642818555303
            ],
            [
              -105.56867306409735,
              49.13134620458319
            ],
            [
              -109.12945207128436,
              49.16788744287003
            ],
            [
              -109.37605987045515,
              47.93763345882129
            ],
            [
              -109.26464398968649,
              47.228814889655794
            ],
            [
              -108.13680922103168,
              45.862766020294245
            ],
            [
              -106.92169002090709,
              43.01214056855112
            ],
            [
              -106.46150170119365,
              41.60043027203845
            ],
            [
              -106.24846766880157,
              39.67497368733868
            ],
            [
              -106.05945844336946,
              38.97732881408853
            ],
            [
              -105.72166377983466,
              38.46485155951314
            ],
            [
              -104.94074710814188,
              38.02112957518497
            ],
            [
              -104.18976686639809,
              37.84000836042042
            ],
            [
              -102.5461177006815,
              37.74189279419614
            ],
            [
              -101.8239060409445,
              37.9058595522809
            ],
            [
              -100.61056796923357,
              38.43898298169661
            ],
            [
              -100.06510068854668,
              38.899962101915264
            ],
            [
              -99.64333525514112,
              39.66380245031142
            ],
            [
              -99.6789442516162,
              40.45618800571834
            ],
            [
              -99.98662221472622,
              40.843342386258904
            ],
            [
              -100.28362416809506,
              40.966933626713356
            ],
            [
              -101.10056614323868,
              41.02877475966562
            ],
            [
              -101.6311240113993,
              41.141565445974884
            ],
            [
              -102.42656607573844,
              41.67947586368141
            ],
            [
              -103.15619454404937,
              42.738535882172926
            ],
            [
              -103.69760001014015,
              44.18573491040014
            ],
            [
              -103.74602083777664,
              45.385026246331144
            ],
            [
              -103.5002177717788,
              46.035375116252055
            ],
            [
              -103.12446752497237,
              46.64520378288293
            ],
            [
              -102.78780820699296,
              47.03899449433228
            ],
            [
              -102.20436336479446,
              47.48152294046689
            ],
            [
              -101.05112930484802,
              47.89699362513416
            ],
            [
              -100.62997288447457,
              48.16043654411817
            ],
            [
              -100.59588671121932,
              48.61988888654952
            ],
            [
              -100.98583406745361,
              49.153221776867255
            ],
            [
              -99.23798900381549,
              49.15107920292415
            ],
            [
              -99.19752384541216,
              48.32021583398398
            ],
            [
              -100.33022466539153,
              47.33044383765481
            ],
            [
              -100.42677314947784,
              46.8644410875456
            ],
            [
              -100.2182086922358,
              46.447341377990995
            ],
            [
              -99.63254581082589,
              45.783023949861146
            ],
            [
              -98.94238342768332,
              45.28776063186002
            ],
            [
              -98.51025939949402,
              45.08253619682389
            ],
            [
              -97.90021192623536,
              44.9216534371649
            ],
            [
              -95.60227515662703,
              44.51426432722698
            ],
            [
              -88.52758483851626,
              43.239860691806925
            ],
            [
              -86.2705433600076,
              42.539078293731244
            ],
            [
              -83.45898244299087,
              41.28905588317985
            ],
            [
              -81.23754332519067,
              39.9844408468491
            ],
            [
              -80.04890656745059,
              38.9976454908122
            ],
            [
              -79.76686016398935,
              38.57172079651578
            ],
            [
              -79.69250135317122,
              38.297104719588184
            ],
            [
              -79.74334370382533,
              37.943767856737566
            ],
            [
              -80.05439673015107,
              37.343884316314245
            ],
            [
              -80.60742932949589,
              36.58325901841827
            ],
            [
              -81.25158290779424,
              35.91698659076517
            ],
            [
              -82.51693458516988,
              35.06870976821404
            ],
            [
              -83.09290407301982,
              34.84030726524189
            ],
            [
              -83.48445460228396,
              34.77780754808026
            ],
            [
              -84.35814006906737,
              34.836559669885666
            ],
            [
              -84.89648202971559,
              34.96064896717098
            ],
            [
              -85.85960875059234,
              35.28707108015726
            ],
            [
              -86.60464692006433,
              35.64136782533616
            ],
            [
              -88.136426870503,
              36.78758840777027
            ],
            [
              -88.98959123225052,
              37.53561249737946
            ],
            [
              -89.68401649741374,
              38.270981654811976
            ],
            [
              -90.33984377775104,
              38.77738541908107
            ],
            [
              -91.46122297142239,
              39.24666530318126
            ],
            [
              -92.82649168990169,
              39.489944703082394
            ],
            [
              -94.08523189234994,
              39.50100849782227
            ],
            [
              -95.00079010882177,
              39.41503288453308
            ],
            [
              -97.27796504685533,
              38.95781016495529
            ],
            [
              -100.08407193996322,
              38.09920936996955
            ],
            [
              -102.9329928480431,
              36.87508443942361
            ],
            [
              -104.42649144320865,
              36.03579523042146
            ],
            [
              -105.30564712606564,
              35.35479745042585
            ],
            [
              -105.70131839252096,
              34.878748252204055
            ],
            [
              -105.88471757711226,
              34.505429708100614
            ],
            [
              -105.97736465665733,
              33.775398580765504
            ],
            [
              -105.82582099742758,
              33.332434611629814
            ],
            [
              -105.57646013182499,
              32.98609521239474
            ],
            [
              -104.98723649260191,
              32.433608817103085
            ],
            [
              -104.07092557576904,
              31.716603193849448
            ],
            [
              -102.50840278409194,
              30.705488628201863
            ],
            [
              -102.16381250073631,
              30.266146773531677
            ],
            [
              -102.0231915714419,
              29.680034304126846
            ],
            [
              -102.49208393197327,
              29.611684267347027
            ],
            [
              -102.67353584704607,
              29.193135991427127
            ],
            [
              -102.96863089913445,
              28.90342939769026
            ],
            [
              -103.43615605750442,
              28.87863360121877
            ],
            [
              -104.64208958358151,
              29.585567873281928
            ],
            [
              -104.87761417462117,
              29.890359737728467
            ],
            [
              -104.90828457938767,
              30.253446935923108
            ]
          ],
          [
            [
              -108.97775569568391,
              32.90861690549501
            ],
            [
              -108.67836229388183,
              33.11573301489386
            ],
            [
              -108.18968340275056,
              33.110981769558855
            ],
            [
              -107.65738754019854,
              33.19901314952039
            ],
            [
              -107.27054032775038,
              33.6376188612788
            ],
            [
              -107.2704692473425,
              34.13604867244657
            ],
            [
              -107.80526346882715,
              34.502900766141956
            ],
            [
              -108.90350113668697,
              34.50398883359359
            ],
            [
              -109.57885434945733,
              34.62649557390005
            ],
            [
              -110.44379113668576,
              34.90977965427629
            ],
            [
              -110.9914040570008,
              35.26453200936115
            ],
            [
              -111.48715806799285,
              35.9845096199576
            ],
            [
              -111.74757637174805,
              36.59024413878741
            ],
            [
              -111.8234162701128,
              37.077999468816
            ],
            [
              -111.68322699143307,
              37.9898287888074
            ],
            [
              -112.76981428494148,
              39.044254396287805
            ],
            [
              -114.35915888276364,
              40.16832841844799
            ],
            [
              -114.92249722124942,
              40.37241933327247
            ],
            [
              -116.11634440588516,
              40.50066160385915
            ],
            [
              -116.71262304835687,
              40.82879835013866
            ],
            [
              -117.2651648445822,
              40.93821589698626
            ],
            [
              -117.85663928323059,
              40.95209483502496
            ],
            [
              -118.7708888919183,
              40.832060732999665
            ],
            [
              -119.13939933364121,
              40.64844281482119
            ],
            [
              -119.80996215879019,
              40.01814377057275
            ],
            [
              -120.0187210109273,
              39.67440256072809
            ],
            [
              -120.06815026539807,
              39.39772154093449
            ],
            [
              -119.94260774823793,
              38.8757748034616
            ],
            [
              -119.73780128550237,
              38.49956447194947
            ],
            [
              -119.02574745599432,
              37.6525596299388
            ],
            [
              -118.43945082593598,
              37.32705350315351
            ],
            [
              -117.90434898789408,
              37.21948488589636
            ],
            [
              -116.73269628212648,
              37.6000581773261
            ],
            [
              -116.2067474864229,
              37.53128212254961
            ],
            [
              -115.83134449383765,
              37.35273156156865
            ],
            [
              -115.53343400079667,
              36.982885131934744
            ],
            [
              -115.22064332742842,
              35.61729533708825
            ],
            [
              -114.8670324227506,
              35.20612950140195
            ],
            [
              -113.95004389741403,
              34.72322025177862
            ],
            [
              -113.48635513319762,
              34.59439597421498
            ],
            [
              -112.06754394233249,
              33.97610195105343
            ],
            [
              -111.56340097110477,
              33.5283974772444
            ],
            [
              -111.39847859436901,
              32.77087944589075
            ],
            [
              -111.5095158103355,
              31.297884626415954
            ],
            [
              -110.73964644654218,
              31.1475647572386
            ],
            [
              -109.13961236999107,
              31.162276428300956
            ],
            [
              -108.92469285309066,
              31.59213995544085
            ],
            [
              -108.97775569568391,
              32.90861690549501
            ]
          ],
          [
            [
              -82.74601198641986,
              36.48251193142503
            ],
            [
              -82.0443546918317,
              36.74440450004144
            ],
            [
              -81.5892131965022,
              37.24780141820643
            ],
            [
              -81.57292322363435,
              37.82862488876173
            ],
            [
              -82.0476061228863,
              38.57933285303936
            ],
            [
              -82.762289340203,
              39.29874813134381
            ],
            [
              -83.9307012051502,
              40.173253462305084
            ],
            [
              -86.13166201161192,
              41.43989311683405
            ],
            [
              -87.48692871543689,
              42.069530830434374
            ],
            [
              -88.86976785197089,
              42.513168783042076
            ],
            [
              -91.91627952187793,
              43.15331376183584
            ],
            [
              -93.75222925887277,
              43.39097297917565
            ],
            [
              -95.41702956141006,
              43.39467946205111
            ],
            [
              -96.30714673940355,
              43.260842079987576
            ],
            [
              -96.6612022151964,
              43.12818287604564
            ],
            [
              -97.12866063755814,
              42.776209754946215
            ],
            [
              -97.35573341827185,
              42.38244016917722
            ],
            [
              -97.29091735446627,
              42.12208191577099
            ],
            [
              -96.93037443580734,
              41.69009254464022
            ],
            [
              -96.28186257250101,
              41.30196469922637
            ],
            [
              -94.3065008664522,
              40.647611572432126
            ],
            [
              -91.21382813735498,
              39.772154109473945
            ],
            [
              -89.80695890506492,
              39.20582507957469
            ],
            [
              -88.97723179884986,
              38.73594235112219
            ],
            [
              -86.45209385736675,
              36.89035749307949
            ],
            [
              -85.59569334069229,
              36.44151362911859
            ],
            [
              -84.83188834432259,
              36.262385584483646
            ],
            [
              -83.99738824736534,
              36.25465636567626
            ],
            [
              -82.74601198641986,
              36.48251193142503
            ]
          ]
        ]
      }
    },
    {
      "type": "Feature",
      "properties": {
        "dn": 2,
        "PRODUCT": "Day 1 Excessive Rainfall Potential Forecast",
        "VALID_TIME": "16Z 08/13/26 - 12Z 08/14/26",
        "OUTLOOK": "Slight (At Least 15%)",
        "ISSUE_TIME": "2026-08-13 15:52:00",
        "START_TIME": "2026-08-13 16:00:00",
        "END_TIME": "2026-08-14 12:00:00",
        "Snippet": "16Z 08/13/26 - 12Z 08/14/26",
        "risk_norm": "SLIGHT"
      },
      "geometry": {
        "type": "Polygon",
        "coordinates": [
          [
            [
              -110.73964644654218,
              31.1475647572386
            ],
            [
              -111.5095158103355,
              31.297884626415954
            ],
            [
              -111.39847859436901,
              32.77087944589075
            ],
            [
              -111.56340097110477,
              33.5283974772444
            ],
            [
              -112.06754394233249,
              33.97610195105343
            ],
            [
              -113.48635513319762,
              34.59439597421498
            ],
            [
              -113.95004389741403,
              34.72322025177862
            ],
            [
              -114.8670324227506,
              35.20612950140195
            ],
            [
              -115.22064332742842,
              35.61729533708825
            ],
            [
              -115.53343400079667,
              36.982885131934744
            ],
            [
              -115.83134449383765,
              37.35273156156865
            ],
            [
              -116.2067474864229,
              37.53128212254961
            ],
            [
              -116.73269628212648,
              37.6000581773261
            ],
            [
              -117.90434898789408,
              37.21948488589636
            ],
            [
              -118.43945082593598,
              37.32705350315351
            ],
            [
              -119.02574745599432,
              37.6525596299388
            ],
            [
              -119.73780128550237,
              38.49956447194947
            ],
            [
              -119.94260774823793,
              38.8757748034616
            ],
            [
              -120.06815026539807,
              39.39772154093449
            ],
            [
              -120.0187210109273,
              39.67440256072809
            ],
            [
              -119.80996215879019,
              40.01814377057275
            ],
            [
              -119.13939933364121,
              40.64844281482119
            ],
            [
              -118.7708888919183,
              40.832060732999665
            ],
            [
              -117.85663928323059,
              40.95209483502496
            ],
            [
              -117.2651648445822,
              40.93821589698626
            ],
            [
              -116.71262304835687,
              40.82879835013866
            ],
            [
              -116.11634440588516,
              40.50066160385915
            ],
            [
              -114.92249722124942,
              40.37241933327247
            ],
            [
              -114.35915888276364,
              40.16832841844799
            ],
            [
              -112.76981428494148,
              39.044254396287805
            ],
            [
              -111.68322699143307,
              37.9898287888074
            ],
            [
              -111.8234162701128,
              37.077999468816
            ],
            [
              -111.74757637174805,
              36.59024413878741
            ],
            [
              -111.48715806799285,
              35.9845096199576
            ],
            [
              -110.9914040570008,
              35.26453200936115
            ],
            [
              -110.44379113668576,
              34.90977965427629
            ],
            [
              -109.57885434945733,
              34.62649557390005
            ],
            [
              -108.90350113668697,
              34.50398883359359
            ],
            [
              -107.80526346882715,
              34.502900766141956
            ],
            [
              -107.2704692473425,
              34.13604867244657
            ],
            [
              -107.27054032775038,
              33.6376188612788
            ],
            [
              -107.65738754019854,
              33.19901314952039
            ],
            [
              -108.18968340275056,
              33.110981769558855
            ],
            [
              -108.67836229388183,
              33.11573301489386
            ],
            [
              -108.97775569568391,
              32.90861690549501
            ],
            [
              -108.92469285309066,
              31.59213995544085
            ],
            [
              -109.13961236999107,
              31.162276428300956
            ],
            [
              -110.73964644654218,
              31.1475647572386
            ]
          ]
        ]
      }
    },
    {
      "type": "Feature",
      "properties": {
        "dn": 2,
        "PRODUCT": "Day 1 Excessive Rainfall Potential Forecast",
        "VALID_TIME": "16Z 08/13/26 - 12Z 08/14/26",
        "OUTLOOK": "Slight (At Least 15%)",
        "ISSUE_TIME": "2026-08-13 15:52:00",
        "START_TIME": "2026-08-13 16:00:00",
        "END_TIME": "2026-08-14 12:00:00",
        "Snippet": "16Z 08/13/26 - 12Z 08/14/26",
        "risk_norm": "SLIGHT"
      },
      "geometry": {
        "type": "Polygon",
        "coordinates": [
          [
            [
              -85.59569334069229,
              36.44151362911859
            ],
            [
              -86.45209385736675,
              36.89035749307949
            ],
            [
              -88.97723179884986,
              38.73594235112219
            ],
            [
              -89.80695890506492,
              39.20582507957469
            ],
            [
              -91.21382813735498,
              39.772154109473945
            ],
            [
              -94.3065008664522,
              40.647611572432126
            ],
            [
              -96.28186257250101,
              41.30196469922637
            ],
            [
              -96.93037443580734,
              41.69009254464022
            ],
            [
              -97.29091735446627,
              42.12208191577099
            ],
            [
              -97.35573341827185,
              42.38244016917722
            ],
            [
              -97.12866063755814,
              42.776209754946215
            ],
            [
              -96.6612022151964,
              43.12818287604564
            ],
            [
              -96.30714673940355,
              43.260842079987576
            ],
            [
              -95.41702956141006,
              43.39467946205111
            ],
            [
              -93.75222925887277,
              43.39097297917565
            ],
            [
              -91.91627952187793,
              43.15331376183584
            ],
            [
              -88.86976785197089,
              42.513168783042076
            ],
            [
              -87.48692871543689,
              42.069530830434374
            ],
            [
              -86.13166201161192,
              41.43989311683405
            ],
            [
              -83.9307012051502,
              40.173253462305084
            ],
            [
              -82.762289340203,
              39.29874813134381
            ],
            [
              -82.0476061228863,
              38.57933285303936
            ],
            [
              -81.57292322363435,
              37.82862488876173
            ],
            [
              -81.5892131965022,
              37.24780141820643
            ],
            [
              -82.0443546918317,
              36.74440450004144
            ],
            [
              -82.74601198641986,
              36.48251193142503
            ],
            [
              -83.99738824736534,
              36.25465636567626
            ],
            [
              -84.83188834432259,
              36.262385584483646
            ],
            [
              -85.59569334069229,
              36.44151362911859
            ]
          ],
          [
            [
              -84.74105092950074,
              38.40373234060288
            ],
            [
              -84.54086159117412,
              38.703386119437
            ],
            [
              -84.4747705163893,
              39.3654047548113
            ],
            [
              -84.54468203416711,
              39.812412940497204
            ],
            [
              -84.69456347545605,
              40.04226409425148
            ],
            [
              -85.9111350563354,
              40.63805655951834
            ],
            [
              -86.41978631169899,
              40.79519168818864
            ],
            [
              -87.05944118478199,
              40.780772648366245
            ],
            [
              -87.35844095440504,
              40.66189870681479
            ],
            [
              -87.49984624132055,
              40.31557555695613
            ],
            [
              -87.31203729132186,
              39.73389024684811
            ],
            [
              -85.79147196990108,
              38.7296627512281
            ],
            [
              -85.14052660700582,
              38.38248716005122
            ],
            [
              -84.74105092950074,
              38.40373234060288
            ]
          ]
        ]
      }
    },
    {
      "type": "Feature",
      "properties": {
        "dn": 2,
        "PRODUCT": "Day 1 Excessive Rainfall Potential Forecast",
        "VALID_TIME": "16Z 08/13/26 - 12Z 08/14/26",
        "OUTLOOK": "Slight (At Least 15%)",
        "ISSUE_TIME": "2026-08-13 15:52:00",
        "START_TIME": "2026-08-13 16:00:00",
        "END_TIME": "2026-08-14 12:00:00",
        "Snippet": "16Z 08/13/26 - 12Z 08/14/26",
        "risk_norm": "SLIGHT"
      },
      "geometry": {
        "type": "Polygon",
        "coordinates": [
          [
            [
              -104.18976686639809,
              37.84000836042042
            ],
            [
              -104.94074710814188,
              38.02112957518497
            ],
            [
              -105.72166377983466,
              38.46485155951314
            ],
            [
              -106.05945844336946,
              38.97732881408853
            ],
            [
              -106.24846766880157,
              39.67497368733868
            ],
            [
              -106.46150170119365,
              41.60043027203845
            ],
            [
              -106.92169002090709,
              43.01214056855112
            ],
            [
              -108.13680922103168,
              45.862766020294245
            ],
            [
              -109.26464398968649,
              47.228814889655794
            ],
            [
              -109.37605987045515,
              47.93763345882129
            ],
            [
              -109.12945207128436,
              49.16788744287003
            ],
            [
              -105.56867306409735,
              49.13134620458319
            ],
            [
              -101.01231628097267,
              49.1894416287327
            ],
            [
              -100.59588671121932,
              48.61988888654952
            ],
            [
              -100.62997288447457,
              48.16043654411817
            ],
            [
              -101.05112930484802,
              47.89699362513416
            ],
            [
              -102.20436336479446,
              47.48152294046689
            ],
            [
              -102.78780820699296,
              47.03899449433228
            ],
            [
              -103.12446752497237,
              46.64520378288293
            ],
            [
              -103.5002177717788,
              46.035375116252055
            ],
            [
              -103.74602083777664,
              45.385026246331144
            ],
            [
              -103.69760001014015,
              44.18573491040014
            ],
            [
              -103.15619454404937,
              42.738535882172926
            ],
            [
              -102.42656607573844,
              41.67947586368141
            ],
            [
              -101.6311240113993,
              41.141565445974884
            ],
            [
              -101.10056614323868,
              41.02877475966562
            ],
            [
              -100.28362416809506,
              40.966933626713356
            ],
            [
              -99.98662221472622,
              40.843342386258904
            ],
            [
              -99.6789442516162,
              40.45618800571834
            ],
            [
              -99.64333525514112,
              39.66380245031142
            ],
            [
              -100.06510068854668,
              38.899962101915264
            ],
            [
              -100.61056796923357,
              38.43898298169661
            ],
            [
              -101.8239060409445,
              37.9058595522809
            ],
            [
              -102.5461177006815,
              37.74189279419614
            ],
            [
              -104.18976686639809,
              37.84000836042042
            ]
          ]
        ]
      }
    },
    {
      "type": "Feature",
      "properties": {
        "dn": 3,
        "PRODUCT": "Day 1 Excessive Rainfall Potential Forecast",
        "VALID_TIME": "16Z 08/13/26 - 12Z 08/14/26",
        "OUTLOOK": "Moderate (At Least 40%)",
        "ISSUE_TIME": "2026-08-13 15:52:00",
        "START_TIME": "2026-08-13 16:00:00",
        "END_TIME": "2026-08-14 12:00:00",
        "Snippet": "16Z 08/13/26 - 12Z 08/14/26",
        "risk_norm": "MODERATE"
      },
      "geometry": {
        "type": "Polygon",
        "coordinates": [
          [
            [
              -85.14052660700582,
              38.38248716005122
            ],
            [
              -85.79147196990108,
              38.7296627512281
            ],
            [
              -87.31203729132186,
              39.73389024684811
            ],
            [
              -87.49984624132055,
              40.31557555695613
            ],
            [
              -87.35844095440504,
              40.66189870681479
            ],
            [
              -87.05944118478199,
              40.780772648366245
            ],
            [
              -86.41978631169899,
              40.79519168818864
            ],
            [
              -85.9111350563354,
              40.63805655951834
            ],
            [
              -84.69456347545605,
              40.04226409425148
            ],
            [
              -84.54468203416711,
              39.812412940497204
            ],
            [
              -84.4747705163893,
              39.3654047548113
            ],
            [
              -84.54086159117412,
              38.703386119437
            ],
            [
              -84.74105092950074,
              38.40373234060288
            ],
            [
              -85.14052660700582,
              38.38248716005122
            ]
          ]
        ]
      }
    }
  ]
}
