{"type": "FeatureCollection", "features": [{"type": "Feature", "properties": {"dn": 1, "PRODUCT": "Day 2 Excessive Rainfall Potential Forecast", "VALID_TIME": "12Z 08/14/26 - 12Z 08/15/26", "OUTLOOK": "Marginal (At Least 5%)", "ISSUE_TIME": "2026-08-13 08:29:00", "START_TIME": "2026-08-14 12:00:00", "END_TIME": "2026-08-15 12:00:00", "Snippet": "12Z 08/14/26 - 12Z 08/15/26"}, "geometry": {"type": "Polygon", "coordinates": [[[-104.90828457938767, 30.253446935923108], [-105.028860756658, 30.4282232571379], [-106.055277882567, 31.224775584563876], [-106.50210402882288, 31.421674705201944], [-106.57207952163469, 31.597888069269302], [-107.96578444528456, 31.62688053767055], [-108.06062585381395, 31.52882876890281], [-108.07866176117668, 31.20713454245347], [-108.97623571561925, 31.13024758539512], [-110.2064329645654, 31.153545166121514], [-109.99078056482776, 31.95134953344627], [-110.16980366756239, 33.30118912577943], [-110.45228831432124, 33.77453599014799], [-110.87288413208897, 34.05110081112908], [-111.2706300278289, 34.14812416913938], [-113.73589446249473, 34.11055462631441], [-114.2441131730511, 34.18786726393281], [-114.66089044099515, 34.36582551801376], [-115.29433646481486, 35.10855365967694], [-115.91927356922453, 36.34707819640298], [-116.15554878231578, 37.267339543640546], [-116.40970243402256, 37.68665848539148], [-116.7309651360699, 37.870429887652534], [-117.02722616401567, 37.922525350650574], [-118.10196560045075, 37.87028150863303], [-118.45440714708526, 37.91236348785895], [-118.7725869099058, 38.04977409705341], [-119.0745936386988, 38.368522986480535], [-119.49067171112561, 39.1655876604689], [-119.58895388031576, 39.82526850115851], [-119.49177503923639, 40.15246309276563], [-119.16565651406208, 40.51138774103859], [-118.20196797879434, 41.174623933882614], [-117.76465786830883, 41.58492242072667], [-117.322683837315, 42.25915434983002], [-117.04994125738887, 42.908674343871624], [-117.02797421494579, 43.6126533402987], [-117.68751278518465, 44.62407267843351], [-117.76805918562833, 44.96183822496525], [-117.70936931361251, 45.22888496964549], [-117.3004252950404, 45.83835040087486], [-116.59189957745039, 46.52069583375038], [-115.24698633365765, 47.4734027377216], [-114.37857442253022, 47.813683250371646], [-112.84278561634946, 47.99812052536426], [-109.82469054091287, 47.230995914342564], [-108.42055396334278, 46.99235299229384], [-107.74439888052201, 47.036977949575814], [-107.26900726095606, 47.193710003988095], [-106.58315097783026, 47.65525571720981], [-106.20065785204977, 48.096627709246], [-105.63671738655898, 49.16991073233166], [-99.61715085507376, 49.142976536466], [-96.39192041623198, 49.148354816030746], [-95.50672436238419, 49.15240911350793], [-95.44536366674684, 49.524275311148095], [-94.61988896219992, 49.52440426284683], [-95.12410250765, 47.73686669784732], [-95.122526821157, 46.55874924048634], [-94.81650831349312, 45.923093517095815], [-94.33301465224925, 45.24072505679748], [-94.03304510166022, 44.94031958303637], [-93.31760987472904, 44.46485940170437], [-92.30424282611754, 44.15236763850552], [-90.28271227067623, 43.811071467918374], [-88.23112984451377, 43.22930485497586], [-86.04305358450316, 42.44101078961356], [-82.63173310906258, 40.882067479652584], [-80.03762490354471, 39.88660452310754], [-78.71044895105209, 39.50183717656127], [-77.48415624084777, 39.24940978102235], [-75.63574194679289, 38.9637735075598], [-74.50058741790416, 38.876864609998854], [-74.70327736720743, 38.72152557532674], [-74.81286030368888, 38.15090576064143], [-74.9828207642301, 37.8561554664126], [-75.33487895241208, 37.492098602666516], [-75.36730145078597, 37.31563663547625], [-75.67687689907939, 36.85521520589135], [-75.1544672557628, 35.70802908591141], [-75.18832632580406, 35.21279599680805], [-75.2825951709062, 34.9969144108118], [-75.68750146652499, 34.90775557746928], [-76.33608762525729, 34.3463842825895], [-76.51309507796557, 34.27554934724023], [-76.76864650647587, 34.395268525245044], [-76.93820750877394, 34.36864437523582], [-77.61040107649325, 33.94151707796771], [-77.9470186064892, 34.24990896093239], [-79.52040141492697, 35.17663566724221], [-80.32231214990922, 35.38538316004908], [-81.22132135916121, 35.28194154742675], [-82.30849848604363, 34.962481613013175], [-82.6562842610081, 34.80816472361239], [-83.37236850736453, 34.272644325832175], [-83.59428659608876, 34.24302226132088], [-83.90342791850631, 34.44604397441008], [-84.48483081397825, 35.25151641628102], [-84.72575058788742, 35.62692772318126], [-85.13691080213219, 36.595119798121544], [-85.53467483881842, 37.15532096475219], [-86.32857201247431, 37.732757546737936], [-87.86360694689404, 38.382289616452255], [-89.03650802765573, 38.69316860980566], [-90.33397506573688, 38.910225916810845], [-94.54416095443264, 39.23761336607621], [-96.49042449992223, 39.62954485591266], [-97.52472094629859, 39.75016064208767], [-99.01202816813846, 39.634280614249874], [-100.14407141689583, 39.33957844820177], [-100.59132838271715, 39.14882300209545], [-101.85236518625719, 38.349328062610894], [-103.17167689427961, 37.088325463805], [-103.97588990862327, 35.9716217315524], [-104.76327323277907, 34.21450322837799], [-104.8708126231505, 33.57462165873511], [-104.8393659852895, 33.21407893544223], [-104.63551434643536, 32.72749113803913], [-104.14815544443324, 32.02947457094607], [-103.35830756008174, 31.481917658811128], [-103.0391220011704, 30.724830179534877], [-102.99858806290484, 30.134621840137417], [-103.07852311717873, 29.765744060074976], [-103.2696484802323, 29.481077656584564], [-103.81656015236742, 29.085778626705892], [-104.64208958358151, 29.585567873281928], [-104.87761417462117, 29.890359737728467], [-104.90828457938767, 30.253446935923108]], [[-111.39209840112679, 35.72283653018894], [-111.16157655294084, 36.4223399658998], [-111.27480565098995, 37.17662640453182], [-111.63414750301102, 38.03941149304534], [-111.78100780551208, 38.249026938297646], [-112.03440138066514, 38.403582408460785], [-112.74511408628395, 38.55555946762042], [-114.93305976784718, 38.31585812905294], [-115.28300562520586, 38.049655792910315], [-115.39119614409294, 37.721755537827164], [-115.27906781923889, 36.83300581765801], [-115.08626513845637, 36.404010099374645], [-114.84827714410791, 36.02499753934665], [-114.29170826449428, 35.410613891087095], [-113.85572227244532, 35.142893822953866], [-113.17280053187365, 35.03814767715572], [-112.14490940405328, 35.19363099823767], [-111.72872830046884, 35.3721521806112], [-111.39209840112679, 35.72283653018894]], [[-81.9674342621721, 36.91804583815132], [-80.48477954873165, 37.918729082734025], [-79.7674237543618, 38.57177060629658], [-79.73554878479501, 38.79206496315856], [-79.92413808979087, 39.07639414147996], [-80.51097473355638, 39.393093214738144], [-82.04973579714476, 39.956953751125496], [-84.63762942640334, 40.61289608092309], [-86.56441821033874, 41.15371526475969], [-87.52573906379543, 41.5467006111887], [-88.48321240643119, 42.10782115248114], [-89.17175818029416, 42.39245916573456], [-90.91733993420088, 42.917343508495954], [-92.21156156120598, 43.20126789113302], [-93.27812990442632, 43.30072360824129], [-94.05158233353478, 43.17647650809456], [-94.58642821274803, 42.96189093312161], [-95.23685869714085, 42.39740428827399], [-95.41166225600276, 41.96167117513351], [-95.35168425484743, 41.568976395563695], [-94.82735908452915, 40.91261600114186], [-94.59756917858796, 40.34129338380817], [-94.1949114531883, 40.119432681027114], [-92.81726770425111, 39.93157238190978], [-89.55368084530951, 39.68451517130896], [-88.59111635312655, 39.47527671850778], [-87.192907960063, 39.019894620583514], [-86.4222744348661, 38.672873259395054], [-85.19783256086933, 37.76144049039809], [-84.44718863111315, 37.35924394167387], [-82.86746703115872, 36.89530312597318], [-82.31151676663245, 36.854477881756715], [-81.9674342621721, 36.91804583815132]], [[-104.0701259634735, 38.42547499971382], [-103.35262873094989, 38.68385981548182], [-102.53379614205991, 39.164887386778766], [-101.27555190276283, 40.09869806687739], [-101.00336864874015, 40.372437012595], [-100.74445085248296, 40.9084447862231], [-100.84239934331174, 41.60626588509231], [-101.27301784294352, 41.94184853734708], [-102.04594620275817, 42.088165149906246], [-102.63184878014108, 42.06460063688432], [-103.66700151662404, 41.79983340485007], [-105.06941203358724, 41.15742600002968], [-105.82111646011317, 40.54111281852136], [-106.41981011100336, 39.66392179355785], [-106.50486357568144, 39.39242988179215], [-106.47103522247542, 39.08396557557456], [-106.27223002816973, 38.8303263273097], [-105.9087139180741, 38.63074112186], [-105.61250991260066, 38.51565755694172], [-104.80453937520815, 38.38534838599359], [-104.0701259634735, 38.42547499971382]]]}}, {"type": "Feature", "properties": {"dn": 2, "PRODUCT": "Day 2 Excessive Rainfall Potential Forecast", "VALID_TIME": "12Z 08/14/26 - 12Z 08/15/26", "OUTLOOK": "Slight (At Least 15%)", "ISSUE_TIME": "2026-08-13 08:29:00", "START_TIME": "2026-08-14 12:00:00", "END_TIME": "2026-08-15 12:00:00", "Snippet": "12Z 08/14/26 - 12Z 08/15/26"}, "geometry": {"type": "Polygon", "coordinates": [[[-113.17280053187365, 35.03814767715572], [-113.85572227244532, 35.142893822953866], [-114.29170826449428, 35.410613891087095], [-114.84827714410791, 36.02499753934665], [-115.08626513845637, 36.404010099374645], [-115.27906781923889, 36.83300581765801], [-115.39119614409294, 37.721755537827164], [-115.28300562520586, 38.049655792910315], [-114.93305976784718, 38.31585812905294], [-112.74511408628395, 38.55555946762042], [-112.03440138066514, 38.403582408460785], [-111.78100780551208, 38.249026938297646], [-111.63414750301102, 38.03941149304534], [-111.27480565098995, 37.17662640453182], [-111.16157655294084, 36.4223399658998], [-111.39209840112679, 35.72283653018894], [-111.72872830046884, 35.3721521806112], [-112.14490940405328, 35.19363099823767], [-113.17280053187365, 35.03814767715572]]]}}, {"type": "Feature", "properties": {"dn": 2, "PRODUCT": "Day 2 Excessive Rainfall Potential Forecast", "VALID_TIME": "12Z 08/14/26 - 12Z 08/15/26", "OUTLOOK": "Slight (At Least 15%)", "ISSUE_TIME": "2026-08-13 08:29:00", "START_TIME": "2026-08-14 12:00:00", "END_TIME": "2026-08-15 12:00:00", "Snippet": "12Z 08/14/26 - 12Z 08/15/26"}, "geometry": {"type": "Polygon", "coordinates": [[[-82.86746703115872, 36.89530312597318], [-84.44718863111315, 37.35924394167387], [-85.19783256086933, 37.76144049039809], [-86.4222744348661, 38.672873259395054], [-87.192907960063, 39.019894620583514], [-88.59111635312655, 39.47527671850778], [-89.55368084530951, 39.68451517130896], [-92.81726770425111, 39.93157238190978], [-94.1949114531883, 40.119432681027114], [-94.59756917858796, 40.34129338380817], [-94.82735908452915, 40.91261600114186], [-95.35168425484743, 41.568976395563695], [-95.41166225600276, 41.96167117513351], [-95.23685869714085, 42.39740428827399], [-94.58642821274803, 42.96189093312161], [-94.05158233353478, 43.17647650809456], [-93.27812990442632, 43.30072360824129], [-92.21156156120598, 43.20126789113302], [-90.91733993420088, 42.917343508495954], [-89.17175818029416, 42.39245916573456], [-88.48321240643119, 42.10782115248114], [-87.52573906379543, 41.5467006111887], [-86.56441821033874, 41.15371526475969], [-84.63762942640334, 40.61289608092309], [-82.04973579714476, 39.956953751125496], [-80.51097473355638, 39.393093214738144], [-79.92413808979087, 39.07639414147996], [-79.73554878479501, 38.79206496315856], [-79.7674237543618, 38.57177060629658], [-80.48477954873165, 37.918729082734025], [-81.9674342621721, 36.91804583815132], [-82.31151676663245, 36.854477881756715], [-82.86746703115872, 36.89530312597318]]]}}, {"type": "Feature", "properties": {"dn": 2, "PRODUCT": "Day 2 Excessive Rainfall Potential Forecast", "VALID_TIME": "12Z 08/14/26 - 12Z 08/15/26", "OUTLOOK": "Slight (At Least 15%)", "ISSUE_TIME": "2026-08-13 08:29:00", "START_TIME": "2026-08-14 12:00:00", "END_TIME": "2026-08-15 12:00:00", "Snippet": "12Z 08/14/26 - 12Z 08/15/26"}, "geometry": {"type": "Polygon", "coordinates": [[[-104.80453937520815, 38.38534838599359], [-105.61250991260066, 38.51565755694172], [-105.9087139180741, 38.63074112186], [-106.27223002816973, 38.8303263273097], [-106.47103522247542, 39.08396557557456], [-106.50486357568144, 39.39242988179215], [-106.41981011100336, 39.66392179355785], [-105.82111646011317, 40.54111281852136], [-105.06941203358724, 41.15742600002968], [-103.66700151662404, 41.79983340485007], [-102.63184878014108, 42.06460063688432], [-102.04594620275817, 42.088165149906246], [-101.27301784294352, 41.94184853734708], [-100.84239934331174, 41.60626588509231], [-100.74445085248296, 40.9084447862231], [-101.00336864874015, 40.372437012595], [-101.27555190276283, 40.09869806687739], [-102.53379614205991, 39.164887386778766], [-103.35262873094989, 38.68385981548182], [-104.0701259634735, 38.42547499971382], [-104.80453937520815, 38.38534838599359]]]}}]}