{
  "type": "FeatureCollection",
  "features": [
    {
      "type": "Feature",
      "properties": {
        "dn": 1,
        "PRODUCT": "Day 1 Excessive Rainfall Potential Forecast",
        "VALID_TIME": "12Z 10/10/26 - 12Z 10/11/26",
        "OUTLOOK": "Marginal (At Least 5%)",
        "ISSUE_TIME": "2026-10-10 07:45:00",
        "START_TIME": "2026-10-10 12:00:00",
        "END_TIME": "2026-10-11 12:00:00",
        "Snippet": "12Z 10/10/26 - 12Z 10/11/26",
        "risk_norm": "MARGINAL"
      },
      "geometry": {
        "type": "MultiPolygon",
        "coordinates": [
          [
            [
              [
                -81.12021116667621,
                30.77425779181026
              ],
              [
                -81.06926742590505,
                30.312625737486528
              ],
              [
                -80.75520059408946,
                29.414626373216457
              ],
              [
                -80.22831009726261,
                28.585879083976433
              ],
              [
                -80.27895736516328,
                28.177831850492325
              ],
              [
                -79.78954500432337,
                27.119579459547793
              ],
              [
                -79.72225018624539,
                26.83709996097543
              ],
              [
                -79.80171281857538,
                26.615322659974893
              ],
              [
                -80.08466261189187,
                26.41286114693099
              ],
              [
                -80.6077987001828,
                26.325889487994452
              ],
              [
                -81.11455895472572,
                26.373420587769033
              ],
              [
                -81.85567415515683,
                26.62336215509559
              ],
              [
                -82.17407597309173,
                26.513994300068102
              ],
              [
                -82.35610706174242,
                26.253175719623318
              ],
              [
                -82.87455594249501,
                27.213673551800404
              ],
              [
                -82.9181593838589,
                27.26351183047601
              ],
              [
                -82.81269455591284,
                27.30040339977762
              ],
              [
                -82.51448744924673,
                27.688776789046482
              ],
              [
                -82.24151131905921,
                28.30780381632107
              ],
              [
                -82.21010559422949,
                29.08372057473805
              ],
              [
                -82.43345680596953,
                30.428013269814247
              ],
              [
                -82.43715013647434,
                30.884891829354984
              ],
              [
                -82.30523170159626,
                31.60411660945154
              ],
              [
                -82.24778072632299,
                31.64463461719008
              ],
              [
                -82.09372787657827,
                31.586600537396734
              ],
              [
                -81.71144576565662,
                31.190076844910166
              ],
              [
                -81.34716050286521,
                31.11335213316605
              ],
              [
                -80.97295793399482,
                31.12612879159017
              ],
              [
                -81.12021116667621,
                30.77425779181026
              ]
            ]
          ],
          [
            [
              [
                -78.81759787441108,
                33.29389121380424
              ],
              [
                -78.92245450308135,
                32.94005331803102
              ],
              [
                -80.45975156681814,
                31.947531694041075
              ],
              [
                -80.77017919367151,
                31.61068153649363
              ],
              [
                -80.95814467127468,
                31.16152602850257
              ],
              [
                -80.7413340831997,
                31.699347082842287
              ],
              [
                -80.49516161744837,
                31.950764511883545
              ],
              [
                -78.95812723491197,
                32.94361826410218
              ],
              [
                -78.85337863814183,
                33.29747603483985
              ],
              [
                -78.53962672313557,
                33.47588003456054
              ],
              [
                -78.81759787441108,
                33.29389121380424
              ]
            ]
          ],
          [
            [
              [
                -83.21233046290766,
                27.790034420828555
              ],
              [
                -83.15381030861391,
                28.380862621078116
              ],
              [
                -82.98060221557084,
                28.55055120976211
              ],
              [
                -83.01395862465998,
                28.736247728165278
              ],
              [
                -83.31569839360316,
                28.850914061571117
              ],
              [
                -83.35413602401009,
                28.991064967947402
              ],
              [
                -83.8852547480311,
                29.639303733683388
              ],
              [
                -84.08985618273041,
                29.69946174504495
              ],
              [
                -84.48398361684634,
                29.40681516021565
              ],
              [
                -84.91652730596495,
                29.252765696468288
              ],
              [
                -85.58486904525464,
                29.41683988287891
              ],
              [
                -84.20978792929408,
                31.835871425405813
              ],
              [
                -84.17572311369292,
                32.19743512679262
              ],
              [
                -84.31052630538285,
                32.47918754044262
              ],
              [
                -84.93863697702027,
                33.291081389168994
              ],
              [
                -86.24943243653365,
                34.5417591709179
              ],
              [
                -86.57674679673922,
                34.5588569815253
              ],
              [
                -86.93875558483847,
                34.08128205053877
              ],
              [
                -87.33878399399565,
                33.82848081058805
              ],
              [
                -88.33124199107564,
                33.60088358889861
              ],
              [
                -88.6535593774569,
                33.658986009884636
              ],
              [
                -88.91713532922527,
                33.80462070585286
              ],
              [
                -89.33176045075024,
                34.22679285513493
              ],
              [
                -89.42723308739886,
                34.50067380057408
              ],
              [
                -89.3475829582622,
                34.993499690111875
              ],
              [
                -89.09960765592893,
                35.52459039936196
              ],
              [
                -88.55669793373674,
                36.312422853772276
              ],
              [
                -87.37775959629779,
                37.248854126164865
              ],
              [
                -86.20636288205914,
                37.86122997626581
              ],
              [
                -84.45837495011872,
                39.54167232950552
              ],
              [
                -82.95897936924794,
                41.07954782596667
              ],
              [
                -82.2723625087622,
                41.428737818217186
              ],
              [
                -81.02450217652073,
                41.55602326129221
              ],
              [
                -80.56635272800678,
                41.47599925325941
              ],
              [
                -80.3006446532716,
                41.277630941754104
              ],
              [
                -80.09439549321735,
                40.68727781497379
              ],
              [
                -80.19536053636128,
                39.98773260737439
              ],
              [
                -81.58946102896097,
                38.14277500893595
              ],
              [
                -82.38368502751875,
                37.666759639951174
              ],
              [
                -82.90699412695578,
                37.03310030945773
              ],
              [
                -83.04792729660495,
                36.77403376706047
              ],
              [
                -83.0626473062609,
                36.640437968215025
              ],
              [
                -82.96256357383648,
                36.54441193350882
              ],
              [
                -82.5089317992607,
                36.60118893204931
              ],
              [
                -81.2778987602618,
                37.04436990800342
              ],
              [
                -80.59037607997045,
                37.569471267450105
              ],
              [
                -79.91964291743078,
                38.31716417800378
              ],
              [
                -79.47963587784851,
                38.59168392035925
              ],
              [
                -78.54427051531748,
                38.72841645081882
              ],
              [
                -78.39497607327274,
                38.57920719538934
              ],
              [
                -78.44336401151324,
                38.27079796744082
              ],
              [
                -78.87854267601834,
                37.28115388664796
              ],
              [
                -79.29674745439749,
                36.736018918673075
              ],
              [
                -79.796184313693,
                36.37674001885097
              ],
              [
                -80.2613200892452,
                35.8323721643296
              ],
              [
                -80.42470001065215,
                35.44050020161049
              ],
              [
                -80.27926428615783,
                35.29298904166367
              ],
              [
                -79.6778114474967,
                35.238354171618504
              ],
              [
                -78.7165548348065,
                35.3726810467413
              ],
              [
                -76.36084963260055,
                36.1655241143676
              ],
              [
                -75.56850068559159,
                36.21085212877589
              ],
              [
                -75.35594619436355,
                36.139784714523735
              ],
              [
                -75.10452540007526,
                35.47516944123471
              ],
              [
                -75.24711970735581,
                34.99265195274225
              ],
              [
                -75.69258775655094,
                34.8786593344872
              ],
              [
                -76.17636920109427,
                34.41994090223707
              ],
              [
                -76.51793781172255,
                34.24637167594707
              ],
              [
                -76.77342781215607,
                34.36609377873327
              ],
              [
                -77.11955399511409,
                34.26797238615109
              ],
              [
                -77.50604924338721,
                34.02221024179338
              ],
              [
                -77.60874437314557,
                33.71471100202884
              ],
              [
                -77.7778791007044,
                33.565547930438235
              ],
              [
                -77.95274596875981,
                33.49300196525466
              ],
              [
                -78.21473424746615,
                33.5659192832868
              ],
              [
                -78.48625235498712,
                33.506229493176775
              ],
              [
                -78.37827933635727,
                33.56762455553073
              ],
              [
                -77.99517671223474,
                33.57334935313201
              ],
              [
                -77.9482163401915,
                33.52288038043892
              ],
              [
                -77.77330031859398,
                33.59541555648216
              ],
              [
                -77.64461879285001,
                33.71855795791758
              ],
              [
                -77.54201827397435,
                34.02607642761089
              ],
              [
                -77.11477141274594,
                34.29776144478377
              ],
              [
                -76.76854892880894,
                34.39586392823509
              ],
              [
                -76.51299624666441,
                34.27614480991967
              ],
              [
                -76.21241845200345,
                34.42409440105609
              ],
              [
                -75.68739766468772,
                34.908349378346486
              ],
              [
                -75.28331915995825,
                34.99700139975197
              ],
              [
                -75.14087730805318,
                35.479543103565774
              ],
              [
                -75.23421212905613,
                35.58193487451518
              ],
              [
                -75.4913944810166,
                35.703127974286026
              ],
              [
                -76.09306383447827,
                35.772786531171235
              ],
              [
                -77.1848297486682,
                35.576622247190116
              ],
              [
                -78.34754855256924,
                35.24494508196146
              ],
              [
                -79.82471906623805,
                34.57240477203658
              ],
              [
                -80.25951953336849,
                34.61205682527686
              ],
              [
                -80.41089463805677,
                34.716150621344035
              ],
              [
                -80.75128152155177,
                35.06222611293718
              ],
              [
                -80.82036349385355,
                35.38449222918742
              ],
              [
                -80.63508618476602,
                35.955194737225334
              ],
              [
                -79.78971920344806,
                36.826215247177586
              ],
              [
                -80.02445327647875,
                37.16216029983746
              ],
              [
                -80.8272322667265,
                37.05166967259683
              ],
              [
                -81.49493745794058,
                36.65725758551091
              ],
              [
                -82.79095347013063,
                36.082056205144006
              ],
              [
                -84.17216469369654,
                36.177066850913285
              ],
              [
                -84.6784116760713,
                36.119147514900106
              ],
              [
                -84.97185770076004,
                35.95677006543943
              ],
              [
                -85.51815745308033,
                34.772903289736796
              ],
              [
                -85.49422939704952,
                34.41038057063233
              ],
              [
                -85.16060211136644,
                33.84813117296497
              ],
              [
                -84.37918547376329,
                32.892420797153854
              ],
              [
                -83.97982762670142,
                32.54722460206083
              ],
              [
                -83.467575512763,
                32.28389630186678
              ],
              [
                -83.33096216663448,
                32.04697723941996
              ],
              [
                -83.4207368870712,
                31.689359105498227
              ],
              [
                -84.21738163637575,
                30.60632567510866
              ],
              [
                -84.91443486141507,
                29.283392209425276
              ],
              [
                -84.4812820376813,
                29.43709136693973
              ],
              [
                -84.08704660242334,
                29.72971841276218
              ],
              [
                -83.88239405729021,
                29.66955933444502
              ],
              [
                -83.31954023357689,
                28.988457089996903
              ],
              [
                -83.28114428453334,
                28.84829716069387
              ],
              [
                -82.97944458156196,
                28.733563113874293
              ],
              [
                -82.94614275006674,
                28.54785858865237
              ],
              [
                -83.11939598436211,
                28.378208193815713
              ],
              [
                -83.17808442006665,
                27.78739158586735
              ],
              [
                -83.10215384004273,
                27.632995120463452
              ],
              [
                -83.21233046290766,
                27.790034420828555
              ]
            ]
          ],
          [
            [
              [
                -83.08991406261538,
                27.45982563681675
              ],
              [
                -83.07765534760802,
                27.583180136323282
              ],
              [
                -82.92338080757857,
                27.269479863325788
              ],
              [
                -83.08991406261538,
                27.45982563681675
              ]
            ]
          ]
        ]
      }
    },
    {
      "type": "Feature",
      "properties": {
        "dn": 1,
        "PRODUCT": "Day 1 Excessive Rainfall Potential Forecast",
        "VALID_TIME": "12Z 10/10/26 - 12Z 10/11/26",
        "OUTLOOK": "Marginal (At Least 5%)",
        "ISSUE_TIME": "2026-10-10 07:45:00",
        "START_TIME": "2026-10-10 12:00:00",
        "END_TIME": "2026-10-11 12:00:00",
        "Snippet": "12Z 10/10/26 - 12Z 10/11/26",
        "risk_norm": "MARGINAL"
      },
      "geometry": {
        "type": "MultiPolygon",
        "coordinates": [
          [
            [
              [
                -117.71623716112067,
                32.54720122600829
              ],
              [
                -117.83186517230266,
                32.94388431454836
              ],
              [
                -117.99290583161597,
                33.10438561459955
              ],
              [
                -118.17874666791658,
                33.21435329258515
              ],
              [
                -118.42622792697465,
                33.08659954956842
              ],
              [
                -118.4460529115142,
                33.17642385654002
              ],
              [
                -118.38846289794994,
                33.689322847868745
              ],
              [
                -118.27447273260097,
                33.93484605735797
              ],
              [
                -117.918077327958,
                34.35254249742574
              ],
              [
                -117.37983537274346,
                34.70138164335518
              ],
              [
                -117.11002128970759,
                35.01077200312709
              ],
              [
                -116.35052934527819,
                37.107260101659534
              ],
              [
                -115.64398812126399,
                38.14134286059984
              ],
              [
                -115.25503296387922,
                38.503063058086795
              ],
              [
                -114.57477700668277,
                38.85057631636495
              ],
              [
                -113.10932711641895,
                39.01004209517607
              ],
              [
                -112.38956739198275,
                39.17287567675214
              ],
              [
                -110.79597545850956,
                40.03558719591997
              ],
              [
                -110.28808988420943,
                40.12466746196688
              ],
              [
                -109.86107780847372,
                39.9829824330167
              ],
              [
                -108.88568426046636,
                39.17494490471165
              ],
              [
                -108.47151184614788,
                38.6288050918098
              ],
              [
                -108.44341109868142,
                38.408039073093164
              ],
              [
                -108.52789338411932,
                38.178239144724785
              ],
              [
                -109.12590028795519,
                37.548426594403274
              ],
              [
                -109.35769290888865,
                37.17029656032687
              ],
              [
                -109.30132816267006,
                36.32105459969707
              ],
              [
                -109.51807436901827,
                35.85174321712337
              ],
              [
                -110.44722525555856,
                34.54655029941764
              ],
              [
                -110.47661531059711,
                34.36239234417194
              ],
              [
                -110.34351284474555,
                34.19347775771204
              ],
              [
                -109.79666475803462,
                33.79015928549201
              ],
              [
                -109.59970435650506,
                33.535476242642446
              ],
              [
                -109.39217244643449,
                33.190476019514655
              ],
              [
                -109.28165946979713,
                32.74540372858725
              ],
              [
                -109.69997612132009,
                31.795991895131113
              ],
              [
                -110.31186766614573,
                31.143345958615935
              ],
              [
                -111.28534598770817,
                31.228769081486856
              ],
              [
                -112.85666913077567,
                31.69968378108532
              ],
              [
                -114.50897316872705,
                32.237749539141454
              ],
              [
                -114.67064016110848,
                32.233726338127134
              ],
              [
                -115.0079849110899,
                32.40573549409972
              ],
              [
                -115.0516189331723,
                32.55258812815825
              ],
              [
                -116.32290407249776,
                32.37827945278097
              ],
              [
                -116.56753156457043,
                32.385748551725484
              ],
              [
                -116.3250052003376,
                32.38946474518239
              ],
              [
                -115.05689760217366,
                32.582447013812704
              ],
              [
                -114.97261622419799,
                32.41017252498343
              ],
              [
                -114.67580484025994,
                32.263619909431625
              ],
              [
                -114.35754010623435,
                32.623240628413186
              ],
              [
                -113.92843843781034,
                33.95251869329051
              ],
              [
                -113.88015630336025,
                34.64082294228383
              ],
              [
                -114.12609845673391,
                36.38087969925114
              ],
              [
                -113.73214640208282,
                36.69595222421629
              ],
              [
                -113.25001834640585,
                36.83918647554915
              ],
              [
                -112.58591779447598,
                36.90981040930626
              ],
              [
                -111.70649385856717,
                36.684001253527356
              ],
              [
                -111.3259011652625,
                36.76638496734811
              ],
              [
                -110.16900072988216,
                37.72764407134062
              ],
              [
                -110.08215050072678,
                37.91446809627621
              ],
              [
                -110.119806345612,
                38.17959459764399
              ],
              [
                -110.32075566738158,
                38.385754822292725
              ],
              [
                -110.74067352894288,
                38.52662697232468
              ],
              [
                -111.2472710763548,
                38.4796383882539
              ],
              [
                -112.64205152926974,
                37.93890489776197
              ],
              [
                -114.37174585563797,
                37.436231789496645
              ],
              [
                -114.89407725793201,
                37.195367556863346
              ],
              [
                -115.63088574131325,
                36.60971819440603
              ],
              [
                -116.23352106501726,
                35.94454424966704
              ],
              [
                -116.69517107589603,
                34.88388955023221
              ],
              [
                -117.01139355054326,
                34.522820324084314
              ],
              [
                -117.16425536433398,
                34.45645910498579
              ],
              [
                -117.69260498073493,
                33.78862343752816
              ],
              [
                -117.87811338017544,
                33.35009682057982
              ],
              [
                -117.77841635521386,
                32.859721666266616
              ],
              [
                -117.59552588216607,
                32.48136975088963
              ],
              [
                -117.71623716112067,
                32.54720122600829
              ]
            ]
          ],
          [
            [
              [
                -117.4707587688055,
                32.41332637341938
              ],
              [
                -117.57377660851972,
                32.46950849998335
              ],
              [
                -117.23452397801859,
                32.406113524971424
              ],
              [
                -117.4707587688055,
                32.41332637341938
              ]
            ]
          ]
        ]
      }
    },
    {
      "type": "Feature",
      "properties": {
        "dn": 2,
        "PRODUCT": "Day 1 Excessive Rainfall Potential Forecast",
        "VALID_TIME": "12Z 10/10/26 - 12Z 10/11/26",
        "OUTLOOK": "Slight (At Least 15%)",
        "ISSUE_TIME": "2026-10-10 07:45:00",
        "START_TIME": "2026-10-10 12:00:00",
        "END_TIME": "2026-10-11 12:00:00",
        "Snippet": "12Z 10/10/26 - 12Z 10/11/26",
        "risk_norm": "SLIGHT"
      },
      "geometry": {
        "type": "Polygon",
        "coordinates": [
          [
            [
              -83.17808442006665,
              27.78739158586735
            ],
            [
              -83.11939598436211,
              28.378208193815713
            ],
            [
              -82.94614275006674,
              28.54785858865237
            ],
            [
              -82.97944458156196,
              28.733563113874293
            ],
            [
              -83.28114428453334,
              28.84829716069387
            ],
            [
              -83.31954023357689,
              28.988457089996903
            ],
            [
              -83.88239405729021,
              29.66955933444502
            ],
            [
              -84.08704660242334,
              29.72971841276218
            ],
            [
              -84.4812820376813,
              29.43709136693973
            ],
            [
              -84.91443486141507,
              29.283392209425276
            ],
            [
              -84.21738163637575,
              30.60632567510866
            ],
            [
              -83.4207368870712,
              31.689359105498227
            ],
            [
              -83.33096216663448,
              32.04697723941996
            ],
            [
              -83.467575512763,
              32.28389630186678
            ],
            [
              -83.97982762670142,
              32.54722460206083
            ],
            [
              -84.37918547376329,
              32.892420797153854
            ],
            [
              -85.16060211136644,
              33.84813117296497
            ],
            [
              -85.49422939704952,
              34.41038057063233
            ],
            [
              -85.51815745308033,
              34.772903289736796
            ],
            [
              -84.97185770076004,
              35.95677006543943
            ],
            [
              -84.6784116760713,
              36.119147514900106
            ],
            [
              -84.17216469369654,
              36.177066850913285
            ],
            [
              -82.79095347013063,
              36.082056205144006
            ],
            [
              -81.49493745794058,
              36.65725758551091
            ],
            [
              -80.8272322667265,
              37.05166967259683
            ],
            [
              -80.02445327647875,
              37.16216029983746
            ],
            [
              -79.78971920344806,
              36.826215247177586
            ],
            [
              -80.63508618476602,
              35.955194737225334
            ],
            [
              -80.82036349385355,
              35.38449222918742
            ],
            [
              -80.75128152155177,
              35.06222611293718
            ],
            [
              -80.41089463805677,
              34.716150621344035
            ],
            [
              -80.25951953336849,
              34.61205682527686
            ],
            [
              -79.82471906623805,
              34.57240477203658
            ],
            [
              -78.34754855256924,
              35.24494508196146
            ],
            [
              -77.1848297486682,
              35.576622247190116
            ],
            [
              -76.09306383447827,
              35.772786531171235
            ],
            [
              -75.4913944810166,
              35.703127974286026
            ],
            [
              -75.23421212905613,
              35.58193487451518
            ],
            [
              -75.14087730805318,
              35.479543103565774
            ],
            [
              -75.28331915995825,
              34.99700139975197
            ],
            [
              -75.68739766468772,
              34.908349378346486
            ],
            [
              -76.21241845200345,
              34.42409440105609
            ],
            [
              -76.51299624666441,
              34.27614480991967
            ],
            [
              -76.76854892880894,
              34.39586392823509
            ],
            [
              -77.11477141274594,
              34.29776144478377
            ],
            [
              -77.54201827397435,
              34.02607642761089
            ],
            [
              -77.64461879285001,
              33.71855795791758
            ],
            [
              -77.77330031859398,
              33.59541555648216
            ],
            [
              -77.9482163401915,
              33.52288038043892
            ],
            [
              -77.99517671223474,
              33.57334935313201
            ],
            [
              -78.37827933635727,
              33.56762455553073
            ],
            [
              -78.85337863814183,
              33.29747603483985
            ],
            [
              -78.95812723491197,
              32.94361826410218
            ],
            [
              -80.49516161744837,
              31.950764511883545
            ],
            [
              -80.7413340831997,
              31.699347082842287
            ],
            [
              -80.9724066920764,
              31.12614761302617
            ],
            [
              -81.34716050286521,
              31.11335213316605
            ],
            [
              -81.71144576565662,
              31.190076844910166
            ],
            [
              -82.09372787657827,
              31.586600537396734
            ],
            [
              -82.24778072632299,
              31.64463461719008
            ],
            [
              -82.30523170159626,
              31.60411660945154
            ],
            [
              -82.43715013647434,
              30.884891829354984
            ],
            [
              -82.43345680596953,
              30.428013269814247
            ],
            [
              -82.21010559422949,
              29.08372057473805
            ],
            [
              -82.24151131905921,
              28.30780381632107
            ],
            [
              -82.51448744924673,
              27.688776789046482
            ],
            [
              -82.81269455591284,
              27.30040339977762
            ],
            [
              -82.92011019672597,
              27.262829436644044
            ],
            [
              -83.17808442006665,
              27.78739158586735
            ]
          ],
          [
            [
              -83.41110663971035,
              33.37013579498675
            ],
            [
              -82.88736616994298,
              33.69480629302499
            ],
            [
              -82.24324143709568,
              35.0486981309886
            ],
            [
              -81.65429766000557,
              35.814501936216175
            ],
            [
              -81.42865638945214,
              36.291899629645926
            ],
            [
              -82.07374013944661,
              36.02788103274192
            ],
            [
              -82.97018158554971,
              35.464294695366185
            ],
            [
              -83.78015673947154,
              35.11524589330086
            ],
            [
              -84.19874838106604,
              34.78194867006514
            ],
            [
              -84.39255322104154,
              34.478394223528895
            ],
            [
              -84.43085633501151,
              34.0739564244485
            ],
            [
              -84.22011553101444,
              33.42616361793189
            ],
            [
              -84.0172975531769,
              33.27634018836356
            ],
            [
              -83.41110663971035,
              33.37013579498675
            ]
          ]
        ]
      }
    },
    {
      "type": "Feature",
      "properties": {
        "dn": 2,
        "PRODUCT": "Day 1 Excessive Rainfall Potential Forecast",
        "VALID_TIME": "12Z 10/10/26 - 12Z 10/11/26",
        "OUTLOOK": "Slight (At Least 15%)",
        "ISSUE_TIME": "2026-10-10 07:45:00",
        "START_TIME": "2026-10-10 12:00:00",
        "END_TIME": "2026-10-11 12:00:00",
        "Snippet": "12Z 10/10/26 - 12Z 10/11/26",
        "risk_norm": "SLIGHT"
      },
      "geometry": {
        "type": "Polygon",
        "coordinates": [
          [
            [
              -114.97261622419799,
              32.41017252498343
            ],
            [
              -115.05689760217366,
              32.582447013812704
            ],
            [
              -116.3250052003376,
              32.38946474518239
            ],
            [
              -117.08325397270244,
              32.37784621811841
            ],
            [
              -117.59138263877858,
              32.472798478447686
            ],
            [
              -117.77841635521386,
              32.859721666266616
            ],
            [
              -117.87811338017544,
              33.35009682057982
            ],
            [
              -117.69260498073493,
              33.78862343752816
            ],
            [
              -117.16425536433398,
              34.45645910498579
            ],
            [
              -117.01139355054326,
              34.522820324084314
            ],
            [
              -116.69517107589603,
              34.88388955023221
            ],
            [
              -116.23352106501726,
              35.94454424966704
            ],
            [
              -115.63088574131325,
              36.60971819440603
            ],
            [
              -114.89407725793201,
              37.195367556863346
            ],
            [
              -114.37174585563797,
              37.436231789496645
            ],
            [
              -112.64205152926974,
              37.93890489776197
            ],
            [
              -111.2472710763548,
              38.4796383882539
            ],
            [
              -110.74067352894288,
              38.52662697232468
            ],
            [
              -110.32075566738158,
              38.385754822292725
            ],
            [
              -110.119806345612,
              38.17959459764399
            ],
            [
              -110.08215050072678,
              37.91446809627621
            ],
            [
              -110.16900072988216,
              37.72764407134062
            ],
            [
              -111.3259011652625,
              36.76638496734811
            ],
            [
              -111.70649385856717,
              36.684001253527356
            ],
            [
              -112.58591779447598,
              36.90981040930626
            ],
            [
              -113.25001834640585,
              36.83918647554915
            ],
            [
              -113.73214640208282,
              36.69595222421629
            ],
            [
              -114.12609845673391,
              36.38087969925114
            ],
            [
              -113.88015630336025,
              34.64082294228383
            ],
            [
              -113.92843843781034,
              33.95251869329051
            ],
            [
              -114.35754010623435,
              32.623240628413186
            ],
            [
              -114.67580484025994,
              32.263619909431625
            ],
            [
              -114.97261622419799,
              32.41017252498343
            ]
          ],
          [
            [
              -116.17110359772948,
              32.43877359392666
            ],
            [
              -116.20169863914317,
              32.893011520417076
            ],
            [
              -115.92022838987853,
              33.43333505278749
            ],
            [
              -115.86305768492214,
              33.71497513005296
            ],
            [
              -115.91788201748906,
              34.30137975349713
            ],
            [
              -115.99701875747462,
              34.428021333097455
            ],
            [
              -116.16757637539529,
              34.45175529760283
            ],
            [
              -116.57299675738481,
              34.26166715349919
            ],
            [
              -116.7085599388534,
              34.10642655079438
            ],
            [
              -116.79133956862994,
              33.68390115669204
            ],
            [
              -117.29135447193931,
              32.882471125597874
            ],
            [
              -117.08892482237154,
              32.405867301991044
            ],
            [
              -116.17110359772948,
              32.43877359392666
            ]
          ]
        ]
      }
    },
    {
      "type": "Feature",
      "properties": {
        "dn": 3,
        "PRODUCT": "Day 1 Excessive Rainfall Potential Forecast",
        "VALID_TIME": "12Z 10/10/26 - 12Z 10/11/26",
        "OUTLOOK": "Moderate (At Least 40%)",
        "ISSUE_TIME": "2026-10-10 07:45:00",
        "START_TIME": "2026-10-10 12:00:00",
        "END_TIME": "2026-10-11 12:00:00",
        "Snippet": "12Z 10/10/26 - 12Z 10/11/26",
        "risk_norm": "MODERATE"
      },
      "geometry": {
        "type": "Polygon",
        "coordinates": [
          [
            [
              -84.0172975531769,
              33.27634018836356
            ],
            [
              -84.22011553101444,
              33.42616361793189
            ],
            [
              -84.43085633501151,
              34.0739564244485
            ],
            [
              -84.39255322104154,
              34.478394223528895
            ],
            [
              -84.19874838106604,
              34.78194867006514
            ],
            [
              -83.78015673947154,
              35.11524589330086
            ],
            [
              -82.97018158554971,
              35.464294695366185
            ],
            [
              -82.07374013944661,
              36.02788103274192
            ],
            [
              -81.42865638945214,
              36.291899629645926
            ],
            [
              -81.65429766000557,
              35.814501936216175
            ],
            [
              -82.24324143709568,
              35.0486981309886
            ],
            [
              -82.88736616994298,
              33.69480629302499
            ],
            [
              -83.41110663971035,
              33.37013579498675
            ],
            [
              -84.0172975531769,
              33.27634018836356
            ]
          ]
        ]
      }
    },
    {
      "type": "Feature",
      "properties": {
        "dn": 3,
        "PRODUCT": "Day 1 Excessive Rainfall Potential Forecast",
        "VALID_TIME": "12Z 10/10/26 - 12Z 10/11/26",
        "OUTLOOK": "Moderate (At Least 40%)",
        "ISSUE_TIME": "2026-10-10 07:45:00",
        "START_TIME": "2026-10-10 12:00:00",
        "END_TIME": "2026-10-11 12:00:00",
        "Snippet": "12Z 10/10/26 - 12Z 10/11/26",
        "risk_norm": "MODERATE"
      },
      "geometry": {
        "type": "Polygon",
        "coordinates": [
          [
            [
              -117.08892482237154,
              32.405867301991044
            ],
            [
              -117.29135447193931,
              32.882471125597874
            ],
            [
              -116.79133956862994,
              33.68390115669204
            ],
            [
              -116.7085599388534,
              34.10642655079438
            ],
            [
              -116.57299675738481,
              34.26166715349919
            ],
            [
              -116.16757637539529,
              34.45175529760283
            ],
            [
              -115.99701875747462,
              34.428021333097455
            ],
            [
              -115.91788201748906,
              34.30137975349713
            ],
            [
              -115.86305768492214,
              33.71497513005296
            ],
            [
              -115.92022838987853,
              33.43333505278749
            ],
            [
              -116.20169863914317,
              32.893011520417076
            ],
            [
              -116.17110359772948,
              32.43877359392666
            ],
            [
              -117.08892482237154,
              32.405867301991044
            ]
          ]
        ]
      }
    }
  ]
}
