{
  "type": "FeatureCollection",
  "features": [
    {
      "type": "Feature",
      "properties": {
        "dn": 1,
        "PRODUCT": "Day 2 Excessive Rainfall Potential Forecast",
        "VALID_TIME": "12Z 10/11/26 - 12Z 10/12/26",
        "OUTLOOK": "Marginal (At Least 5%)",
        "ISSUE_TIME": "2026-10-10 07:49:00",
        "START_TIME": "2026-10-11 12:00:00",
        "END_TIME": "2026-10-12 12:00:00",
        "Snippet": "12Z 10/11/26 - 12Z 10/12/26",
        "risk_norm": "MARGINAL"
      },
      "geometry": {
        "type": "Polygon",
        "coordinates": [
          [
            [
              -111.28534598770817,
              31.228769081486856
            ],
            [
              -114.38269920928128,
              32.13168065041209
            ],
            [
              -114.84521402523944,
              32.303658939715184
            ],
            [
              -115.0079849110899,
              32.40573549409972
            ],
            [
              -115.0516189331723,
              32.55258812815825
            ],
            [
              -115.78645240612275,
              32.41270523101165
            ],
            [
              -117.30322807369329,
              32.39097354383825
            ],
            [
              -117.71623716112067,
              32.54720122600829
            ],
            [
              -117.83186517230266,
              32.94388431454836
            ],
            [
              -118.17874666791658,
              33.21435329258515
            ],
            [
              -118.57756466048738,
              33.01939012064497
            ],
            [
              -118.85013314925153,
              33.529941179875415
            ],
            [
              -118.91670200427313,
              33.84110942950662
            ],
            [
              -118.968352606924,
              34.33740972042
            ],
            [
              -118.83340166257501,
              34.99740315746163
            ],
            [
              -118.07195358448699,
              35.88082295506918
            ],
            [
              -117.91899732019088,
              36.220266686463084
            ],
            [
              -118.09963562635464,
              37.32908398645659
            ],
            [
              -118.1032672476904,
              37.87100759813788
            ],
            [
              -117.86830444639033,
              39.16293230288094
            ],
            [
              -117.51292995090014,
              39.92580183468235
            ],
            [
              -117.01935409236839,
              40.61263052854058
            ],
            [
              -116.28816044533212,
              41.32412492089896
            ],
            [
              -113.7861339940687,
              42.74634036905742
            ],
            [
              -113.24632510858926,
              43.368021445096836
            ],
            [
              -112.63715955737274,
              44.64234406601021
            ],
            [
              -112.27923128997335,
              45.02141121327728
            ],
            [
              -111.76907889797818,
              45.23908128552038
            ],
            [
              -110.98674936823889,
              45.30591638778262
            ],
            [
              -110.41695847243115,
              45.180695309447614
            ],
            [
              -109.98762199913352,
              44.78368246727838
            ],
            [
              -109.31701614108768,
              43.53817450404124
            ],
            [
              -109.14612091210194,
              42.76785018621459
            ],
            [
              -109.29854746549552,
              42.5805609082719
            ],
            [
              -110.20975748041093,
              42.332187481413875
            ],
            [
              -110.63557418471959,
              42.034065790506425
            ],
            [
              -110.86517218060303,
              41.61875231924851
            ],
            [
              -110.85500429309093,
              41.17927299062127
            ],
            [
              -110.53414548756533,
              40.987739391627684
            ],
            [
              -109.822690935303,
              40.915790147519594
            ],
            [
              -109.51570073564852,
              40.808641258927835
            ],
            [
              -109.06294682688953,
              40.49082316195182
            ],
            [
              -107.74234495794875,
              38.728557428500956
            ],
            [
              -106.68730521052285,
              37.9561596160234
            ],
            [
              -106.48056330609619,
              37.61274784376836
            ],
            [
              -106.44263937044542,
              37.25740401162373
            ],
            [
              -106.63810825006068,
              36.97442849661195
            ],
            [
              -107.17961085803589,
              36.80174484318255
            ],
            [
              -107.73506394245604,
              36.76075118820347
            ],
            [
              -109.37878419225501,
              36.89820350961618
            ],
            [
              -109.86000408915558,
              36.72164902520848
            ],
            [
              -110.10503722818964,
              36.47572879256623
            ],
            [
              -110.17828848439237,
              36.198823148889595
            ],
            [
              -110.04324729985383,
              35.6245581531162
            ],
            [
              -108.8951947060909,
              34.00576951012159
            ],
            [
              -108.52699302506359,
              33.21982873676775
            ],
            [
              -108.48941694255322,
              32.904813721370786
            ],
            [
              -108.54287692452615,
              32.445352253203104
            ],
            [
              -108.7922718347813,
              31.83173278848773
            ],
            [
              -109.24556219874621,
              31.151836731833793
            ],
            [
              -110.73956450880605,
              31.14696319042524
            ],
            [
              -111.28534598770817,
              31.228769081486856
            ]
          ],
          [
            [
              -112.85177879925544,
              32.70689272035393
            ],
            [
              -112.34791679504742,
              33.30899708302894
            ],
            [
              -111.99950721776659,
              33.528230409301166
            ],
            [
              -111.03130295644739,
              33.62698471397126
            ],
            [
              -109.85217634535569,
              33.37570873895597
            ],
            [
              -109.63706034629206,
              33.3953210478407
            ],
            [
              -109.49252060850785,
              33.54509858609201
            ],
            [
              -109.49068900347642,
              33.95388430441026
            ],
            [
              -109.62222101970809,
              34.12360689178554
            ],
            [
              -111.31910154180325,
              35.23249037939552
            ],
            [
              -111.59791939327133,
              35.61197394006695
            ],
            [
              -111.79613743061489,
              36.17944616997442
            ],
            [
              -111.78219977702786,
              36.45154250327509
            ],
            [
              -111.54733339334094,
              36.74477009399663
            ],
            [
              -111.17305151684776,
              36.87113984657584
            ],
            [
              -110.12514364856783,
              37.01321191243945
            ],
            [
              -109.49946226113737,
              37.38254360565702
            ],
            [
              -109.31181998522416,
              37.66729787697064
            ],
            [
              -109.21468273524451,
              38.21215757088371
            ],
            [
              -109.38467761218591,
              39.04544235860288
            ],
            [
              -109.66045335469899,
              39.37834969006042
            ],
            [
              -110.54102939712793,
              39.88036399202577
            ],
            [
              -110.9605044325183,
              39.97595184568928
            ],
            [
              -112.0440785955148,
              39.87430062293492
            ],
            [
              -113.3813184918952,
              40.22851640867966
            ],
            [
              -113.57553962436462,
              40.34098086169861
            ],
            [
              -113.54987752931889,
              40.52119144646119
            ],
            [
              -113.10419018102345,
              40.96534533377157
            ],
            [
              -111.58334609432193,
              41.685755145027294
            ],
            [
              -110.78986385654134,
              42.63393552044682
            ],
            [
              -110.76550105119097,
              42.85448328262999
            ],
            [
              -110.89745604304422,
              42.930886470365905
            ],
            [
              -111.8810300601164,
              42.75590064432659
            ],
            [
              -112.67035820985782,
              42.50637420772862
            ],
            [
              -113.96399510517145,
              41.80467195190686
            ],
            [
              -115.35115364644655,
              40.767914193341234
            ],
            [
              -116.77971149953383,
              39.21345120737381
            ],
            [
              -117.38944593900848,
              38.28181577811548
            ],
            [
              -117.43577881643502,
              37.96029002238384
            ],
            [
              -117.37091077770116,
              37.652973268479386
            ],
            [
              -117.03968830773417,
              37.15420655212705
            ],
            [
              -117.03238350524603,
              36.56658239942909
            ],
            [
              -117.45275977939929,
              35.60198365596442
            ],
            [
              -118.12608052614148,
              34.55076259782729
            ],
            [
              -118.24821164963967,
              34.075967376531274
            ],
            [
              -118.19985044719196,
              33.57907538534966
            ],
            [
              -118.01061151708824,
              33.19359640940025
            ],
            [
              -117.4949792827151,
              32.532672071304155
            ],
            [
              -117.3090861178974,
              32.420765813704804
            ],
            [
              -115.79191634308543,
              32.442549455083125
            ],
            [
              -115.05689760217366,
              32.582447013812704
            ],
            [
              -114.97261622419799,
              32.41017252498343
            ],
            [
              -114.67580484025994,
              32.263619909431625
            ],
            [
              -113.14225768043617,
              31.80516688545724
            ],
            [
              -112.85177879925544,
              32.70689272035393
            ]
          ]
        ]
      }
    },
    {
      "type": "Feature",
      "properties": {
        "dn": 1,
        "PRODUCT": "Day 2 Excessive Rainfall Potential Forecast",
        "VALID_TIME": "12Z 10/11/26 - 12Z 10/12/26",
        "OUTLOOK": "Marginal (At Least 5%)",
        "ISSUE_TIME": "2026-10-10 07:49:00",
        "START_TIME": "2026-10-11 12:00:00",
        "END_TIME": "2026-10-12 12:00:00",
        "Snippet": "12Z 10/11/26 - 12Z 10/12/26",
        "risk_norm": "MARGINAL"
      },
      "geometry": {
        "type": "Polygon",
        "coordinates": [
          [
            [
              -76.47796460672456,
              34.817106629290244
            ],
            [
              -76.69873749739357,
              35.16048626706705
            ],
            [
              -76.50219057892387,
              35.99943305616705
            ],
            [
              -76.52159272001553,
              36.54395005277369
            ],
            [
              -76.98442937977364,
              37.809689946852664
            ],
            [
              -77.37906853438679,
              38.16394049050788
            ],
            [
              -78.21313514859955,
              38.292322352275264
            ],
            [
              -78.41107998694123,
              38.491351319804
            ],
            [
              -78.34158916646541,
              38.931352902313094
            ],
            [
              -77.60227451700887,
              39.92809021321657
            ],
            [
              -76.35410446530516,
              40.73369788133328
            ],
            [
              -75.67421389131891,
              40.927017569239496
            ],
            [
              -73.97959212933871,
              41.178549783705925
            ],
            [
              -73.50178556038686,
              41.2103636457234
            ],
            [
              -72.87034573180732,
              41.133218703323124
            ],
            [
              -72.50646713647558,
              40.90902630340432
            ],
            [
              -72.54492684228056,
              40.46875185285931
            ],
            [
              -72.92568107586709,
              40.337627715882476
            ],
            [
              -73.57954567388487,
              40.28460982894157
            ],
            [
              -73.71015709341064,
              40.21221992322814
            ],
            [
              -73.85341372196022,
              39.51538921313792
            ],
            [
              -74.15853207390785,
              39.14956486953465
            ],
            [
              -74.70327736720743,
              38.72152557532674
            ],
            [
              -74.81286030368888,
              38.15090576064143
            ],
            [
              -75.66100038532956,
              36.94365311235639
            ],
            [
              -75.1544672557628,
              35.70802908591141
            ],
            [
              -75.16426734069094,
              35.34615720896346
            ],
            [
              -75.86581204676442,
              34.837741314962074
            ],
            [
              -76.0981351667612,
              34.77378051863728
            ],
            [
              -76.47796460672456,
              34.817106629290244
            ]
          ]
        ]
      }
    },
    {
      "type": "Feature",
      "properties": {
        "dn": 2,
        "PRODUCT": "Day 2 Excessive Rainfall Potential Forecast",
        "VALID_TIME": "12Z 10/11/26 - 12Z 10/12/26",
        "OUTLOOK": "Slight (At Least 15%)",
        "ISSUE_TIME": "2026-10-10 07:49:00",
        "START_TIME": "2026-10-11 12:00:00",
        "END_TIME": "2026-10-12 12:00:00",
        "Snippet": "12Z 10/11/26 - 12Z 10/12/26",
        "risk_norm": "SLIGHT"
      },
      "geometry": {
        "type": "Polygon",
        "coordinates": [
          [
            [
              -114.67580484025994,
              32.263619909431625
            ],
            [
              -114.97261622419799,
              32.41017252498343
            ],
            [
              -115.05689760217366,
              32.582447013812704
            ],
            [
              -115.79191634308543,
              32.442549455083125
            ],
            [
              -117.3090861178974,
              32.420765813704804
            ],
            [
              -117.4949792827151,
              32.532672071304155
            ],
            [
              -118.01061151708824,
              33.19359640940025
            ],
            [
              -118.19985044719196,
              33.57907538534966
            ],
            [
              -118.24821164963967,
              34.075967376531274
            ],
            [
              -118.12608052614148,
              34.55076259782729
            ],
            [
              -117.45275977939929,
              35.60198365596442
            ],
            [
              -117.03238350524603,
              36.56658239942909
            ],
            [
              -117.03968830773417,
              37.15420655212705
            ],
            [
              -117.37091077770116,
              37.652973268479386
            ],
            [
              -117.43577881643502,
              37.96029002238384
            ],
            [
              -117.38944593900848,
              38.28181577811548
            ],
            [
              -116.77971149953383,
              39.21345120737381
            ],
            [
              -115.35115364644655,
              40.767914193341234
            ],
            [
              -113.96399510517145,
              41.80467195190686
            ],
            [
              -112.67035820985782,
              42.50637420772862
            ],
            [
              -111.8810300601164,
              42.75590064432659
            ],
            [
              -110.89745604304422,
              42.930886470365905
            ],
            [
              -110.76550105119097,
              42.85448328262999
            ],
            [
              -110.78986385654134,
              42.63393552044682
            ],
            [
              -111.58334609432193,
              41.685755145027294
            ],
            [
              -113.10419018102345,
              40.96534533377157
            ],
            [
              -113.54987752931889,
              40.52119144646119
            ],
            [
              -113.57553962436462,
              40.34098086169861
            ],
            [
              -113.3813184918952,
              40.22851640867966
            ],
            [
              -112.0440785955148,
              39.87430062293492
            ],
            [
              -110.9605044325183,
              39.97595184568928
            ],
            [
              -110.54102939712793,
              39.88036399202577
            ],
            [
              -109.66045335469899,
              39.37834969006042
            ],
            [
              -109.38467761218591,
              39.04544235860288
            ],
            [
              -109.21468273524451,
              38.21215757088371
            ],
            [
              -109.31181998522416,
              37.66729787697064
            ],
            [
              -109.49946226113737,
              37.38254360565702
            ],
            [
              -110.12514364856783,
              37.01321191243945
            ],
            [
              -111.17305151684776,
              36.87113984657584
            ],
            [
              -111.54733339334094,
              36.74477009399663
            ],
            [
              -111.78219977702786,
              36.45154250327509
            ],
            [
              -111.79613743061489,
              36.17944616997442
            ],
            [
              -111.59791939327133,
              35.61197394006695
            ],
            [
              -111.31910154180325,
              35.23249037939552
            ],
            [
              -109.62222101970809,
              34.12360689178554
            ],
            [
              -109.49068900347642,
              33.95388430441026
            ],
            [
              -109.49252060850785,
              33.54509858609201
            ],
            [
              -109.63706034629206,
              33.3953210478407
            ],
            [
              -109.85217634535569,
              33.37570873895597
            ],
            [
              -111.03130295644739,
              33.62698471397126
            ],
            [
              -111.99950721776659,
              33.528230409301166
            ],
            [
              -112.34791679504742,
              33.30899708302894
            ],
            [
              -112.85177879925544,
              32.70689272035393
            ],
            [
              -113.14225768043617,
              31.80516688545724
            ],
            [
              -114.67580484025994,
              32.263619909431625
            ]
          ],
          [
            [
              -116.49316407147289,
              32.99159576085858
            ],
            [
              -116.20439995617205,
              33.48766458770559
            ],
            [
              -115.79746822958708,
              33.95158412788499
            ],
            [
              -114.49975731063887,
              34.704454703244
            ],
            [
              -114.174264420952,
              35.06114899098109
            ],
            [
              -113.71050226968033,
              36.247072907010754
            ],
            [
              -113.37070684888404,
              36.555600718378834
            ],
            [
              -112.24050850586346,
              37.215945712817124
            ],
            [
              -112.16476709061472,
              37.44841509166832
            ],
            [
              -112.36763012429316,
              37.65242053756517
            ],
            [
              -113.40641635626687,
              38.08242551951681
            ],
            [
              -113.99702659502847,
              38.19742535250994
            ],
            [
              -114.49235618474145,
              38.09685966202746
            ],
            [
              -114.80288280666541,
              37.926329028179744
            ],
            [
              -115.19051581988238,
              37.56554690929868
            ],
            [
              -115.74519521908145,
              36.32349605112467
            ],
            [
              -115.9533152622553,
              35.07137542379655
            ],
            [
              -116.22721166597539,
              34.76311905847104
            ],
            [
              -117.18248962880185,
              34.27101015803364
            ],
            [
              -117.31721928177784,
              34.11527147467205
            ],
            [
              -117.28181508312171,
              33.662719733673654
            ],
            [
              -117.18411946891558,
              33.447282734091836
            ],
            [
              -116.68905121291236,
              32.873362669032
            ],
            [
              -116.49316407147289,
              32.99159576085858
            ]
          ]
        ]
      }
    },
    {
      "type": "Feature",
      "properties": {
        "dn": 3,
        "PRODUCT": "Day 2 Excessive Rainfall Potential Forecast",
        "VALID_TIME": "12Z 10/11/26 - 12Z 10/12/26",
        "OUTLOOK": "Moderate (At Least 40%)",
        "ISSUE_TIME": "2026-10-10 07:49:00",
        "START_TIME": "2026-10-11 12:00:00",
        "END_TIME": "2026-10-12 12:00:00",
        "Snippet": "12Z 10/11/26 - 12Z 10/12/26",
        "risk_norm": "MODERATE"
      },
      "geometry": {
        "type": "Polygon",
        "coordinates": [
          [
            [
              -116.68905121291236,
              32.873362669032
            ],
            [
              -117.18411946891558,
              33.447282734091836
            ],
            [
              -117.28181508312171,
              33.662719733673654
            ],
            [
              -117.31721928177784,
              34.11527147467205
            ],
            [
              -117.18248962880185,
              34.27101015803364
            ],
            [
              -116.22721166597539,
              34.76311905847104
            ],
            [
              -115.9533152622553,
              35.07137542379655
            ],
            [
              -115.74519521908145,
              36.32349605112467
            ],
            [
              -115.19051581988238,
              37.56554690929868
            ],
            [
              -114.80288280666541,
              37.926329028179744
            ],
            [
              -114.49235618474145,
              38.09685966202746
            ],
            [
              -113.99702659502847,
              38.19742535250994
            ],
            [
              -113.40641635626687,
              38.08242551951681
            ],
            [
              -112.36763012429316,
              37.65242053756517
            ],
            [
              -112.16476709061472,
              37.44841509166832
            ],
            [
              -112.24050850586346,
              37.215945712817124
            ],
            [
              -113.37070684888404,
              36.555600718378834
            ],
            [
              -113.71050226968033,
              36.247072907010754
            ],
            [
              -114.174264420952,
              35.06114899098109
            ],
            [
              -114.49975731063887,
              34.704454703244
            ],
            [
              -115.79746822958708,
              33.95158412788499
            ],
            [
              -116.20439995617205,
              33.48766458770559
            ],
            [
              -116.49316407147289,
              32.99159576085858
            ],
            [
              -116.68905121291236,
              32.873362669032
            ]
          ]
        ]
      }
    }
  ]
}
