{"type": "FeatureCollection", "features": [{"type": "Feature", "properties": {"dn": 1, "PRODUCT": "Day 1 Excessive Rainfall Potential Forecast", "VALID_TIME": "16Z 07/31/26 - 12Z 08/01/26", "OUTLOOK": "Marginal (At Least 5%)", "ISSUE_TIME": "2026-07-31 15:54:00", "START_TIME": "2026-07-31 16:00:00", "END_TIME": "2026-08-01 12:00:00", "Snippet": "16Z 07/31/26 - 12Z 08/01/26"}, "geometry": {"type": "Polygon", "coordinates": [[[-83.17876934092348, 27.78744444256655], [-83.12008427084714, 28.378261282360956], [-82.94683193937682, 28.547912441074573], [-82.98013486242392, 28.7336168061601], [-83.28088857068678, 28.847362681859316], [-83.32023214938555, 28.98850924755592], [-83.98262333699651, 29.721758924327382], [-84.08710279402948, 29.729113279407834], [-84.4813360692646, 29.436485842805258], [-84.91399175906047, 29.282449750682755], [-85.17437984791225, 29.29915663257841], [-85.68460892611208, 29.46759498758081], [-85.72344750313837, 29.653424985947463], [-85.96634164550724, 29.894930583775515], [-86.47697752494051, 30.10603567532834], [-87.70158905530097, 29.894447696549744], [-88.38566408006709, 29.879326641562674], [-88.44712950193036, 29.700508416265503], [-88.72582426544463, 29.392829315223135], [-88.6263269559462, 29.297570372466986], [-88.64102342874018, 29.024471877489752], [-88.91871418833526, 28.715305866724048], [-89.44432342502064, 28.59820281254282], [-89.69963740594949, 28.698441485691408], [-89.84552074321768, 28.931472836935967], [-90.11316001993794, 28.757695011491165], [-90.89514967222159, 28.735736543122545], [-90.6607364545871, 29.45883124426166], [-90.44596998475556, 30.954913380319375], [-90.57712800888523, 31.685511227605048], [-91.21920987447002, 33.242530398079964], [-91.40805012403729, 34.10501894380389], [-91.55889207614676, 34.514022152193675], [-92.0852315119122, 35.28915057496047], [-92.61410140909574, 36.284541439924226], [-93.46409298220524, 39.01109178046649], [-94.36388320713066, 40.91157118730734], [-95.29579740510822, 42.2232830149088], [-96.91547129438752, 43.94582590863303], [-97.60177536005278, 45.01063950059297], [-97.55271759138944, 45.438286762732645], [-97.25823355949902, 45.82509761861462], [-95.67899176124044, 46.85403019901882], [-94.00633985230422, 47.609593893257696], [-91.93451859427533, 48.21612071508638], [-90.74423431921733, 48.23642605825411], [-87.79395190741431, 47.52473886409948], [-85.44866299748833, 47.342440900206604], [-84.73989015635206, 47.01191955312738], [-84.4656190618454, 46.70142113603843], [-84.03619341073075, 46.678017196651], [-83.9475002665983, 46.37525121077926], [-83.78046803989592, 46.23911349639294], [-83.41434701639541, 46.217760887354615], [-83.30178637194973, 46.125093227664394], [-83.28420977432239, 45.78389575727251], [-82.52214932292861, 45.52173515190908], [-82.4851778576701, 44.876113491695236], [-82.70383464374116, 44.589234700390094], [-83.16162885687042, 44.315894323188814], [-84.98177071597145, 43.60085955543057], [-85.29895685578745, 43.40195917600892], [-85.65293430305766, 42.812465127875186], [-85.84272132293597, 42.03759684225474], [-85.82783478873088, 41.55572074076268], [-85.29181062770435, 40.42900890832146], [-85.03960168787212, 39.442757924060615], [-85.171234651173, 38.651347446032915], [-86.04249861104545, 37.093401641367706], [-86.07929504929002, 36.64760063347409], [-85.6653642475195, 34.96170576192674], [-85.34467871281994, 32.95313814135715], [-85.15705029090694, 32.6241517870016], [-84.7618112782692, 32.23693934954927], [-84.25338591251483, 31.93072057193973], [-83.27002214831492, 31.58812300983104], [-82.52270855255847, 31.576698320072403], [-82.0150915891959, 31.809451488633602], [-81.60772970614609, 32.09373937398402], [-81.08337181441226, 32.86842927436605], [-80.60239649772782, 33.23636606483674], [-80.10129883355695, 33.32732555120558], [-79.56409001261643, 33.276883742230595], [-78.95104710445564, 32.98846809412986], [-80.49445341643577, 31.950699855526654], [-80.7406272890233, 31.699283483611605], [-81.12021116667621, 30.77425779181026], [-80.91979709382122, 29.79593975750715], [-80.22831009726261, 28.585879083976433], [-80.27895736516328, 28.177831850492325], [-79.80102257898899, 27.028836328855988], [-81.1587992557599, 26.882485059297867], [-82.22876903342065, 26.976415098186223], [-82.87913957088816, 27.168201045549136], [-83.17876934092348, 27.78744444256655]], [[-89.92388913975067, 36.762094193434734], [-89.74372742131817, 37.02483557402083], [-89.151804396656, 38.65359705958231], [-88.7797373912174, 40.14472884161555], [-88.33187721482565, 40.83253846042674], [-87.76767328726248, 41.424762536627995], [-87.56105361156638, 41.85381717235662], [-87.4570003868399, 42.460152019866555], [-87.5454802380883, 42.85511895988678], [-88.03140137848611, 43.52404462526932], [-88.4876914049966, 43.84325315446467], [-89.12859203908805, 44.122937238781276], [-93.61077349978645, 44.98092367278688], [-94.69863781681327, 44.985721312754244], [-95.30262773049154, 44.85737068952128], [-95.72384359034895, 44.68492704464449], [-95.84381585110586, 44.55538596124106], [-95.84120152467288, 44.25484702191171], [-95.53890152184566, 43.825548401101024], [-94.41071605052889, 42.74414500609772], [-93.18852222656044, 41.734981413391914], [-92.90340429372841, 41.38228846734397], [-92.73735959065132, 40.98613252309831], [-92.59516989150787, 39.62030909204045], [-92.6183242510815, 38.602701421367144], [-92.36121006237389, 37.53176162225222], [-92.14957646659713, 37.03760511204946], [-91.93176544005222, 36.80996338068003], [-91.65700190828814, 36.67061956904712], [-90.88230247673759, 36.519276666776655], [-90.21299404710206, 36.546367550311174], [-89.92388913975067, 36.762094193434734]], [[-86.52762162902154, 45.73817440377115], [-85.40796615237285, 45.94170727110342], [-84.24196625108812, 45.96592339700834], [-84.03897473803855, 46.12533107321364], [-84.5037633277929, 46.363776939361706], [-85.27696534457466, 46.61560673319013], [-86.92332561498795, 46.8167490598636], [-88.89336415155358, 46.88728897859308], [-89.39396212862468, 46.77542751458294], [-89.6553684299646, 46.528602213801584], [-89.60864326522044, 46.2731904551927], [-89.42944891952128, 46.18292601514356], [-88.46601638215714, 45.94069322464124], [-86.52762162902154, 45.73817440377115]]]}}, {"type": "Feature", "properties": {"dn": 1, "PRODUCT": "Day 1 Excessive Rainfall Potential Forecast", "VALID_TIME": "16Z 07/31/26 - 12Z 08/01/26", "OUTLOOK": "Marginal (At Least 5%)", "ISSUE_TIME": "2026-07-31 15:54:00", "START_TIME": "2026-07-31 16:00:00", "END_TIME": "2026-08-01 12:00:00", "Snippet": "16Z 07/31/26 - 12Z 08/01/26"}, "geometry": {"type": "Polygon", "coordinates": [[[-105.93660871125732, 31.096320270853408], [-106.055277882567, 31.224775584563876], [-106.50210402882288, 31.421674705201944], [-106.57207952163469, 31.597888069269302], [-107.59448227822585, 31.656767587471624], [-107.96578444528456, 31.62688053767055], [-108.06062585381395, 31.52882876890281], [-108.07866176117668, 31.20713454245347], [-108.97623571561925, 31.13024758539512], [-109.88420174463772, 31.138573966105046], [-109.48991169035297, 31.8152849290436], [-109.46527845672684, 32.04556541827213], [-109.57583058054773, 32.4912632475489], [-109.71162551865736, 32.70657793480007], [-110.12646033521868, 32.985846035562034], [-110.58581197520942, 33.169643382694524], [-110.77298258644586, 33.33440298368879], [-111.09269914323616, 33.66683061740143], [-111.19828022332877, 34.01996513214362], [-110.82209026948546, 34.4663289470816], [-110.46711025844259, 34.68155255746981], [-109.9171433141066, 34.68713940249468], [-108.8812100132179, 34.325156967915085], [-107.93204551092397, 34.17649518286933], [-107.38952032757652, 34.21852257020556], [-107.07351289493802, 34.332664365852196], [-106.57281276057134, 34.77469574481173], [-106.38262536400927, 35.5998307193961], [-106.40453503342319, 38.4656537807288], [-106.15780143884403, 40.43211721703648], [-106.02268899308541, 40.7930875242752], [-105.7512027624786, 40.98648477829359], [-104.713141238051, 41.089640586694635], [-104.41523410344386, 41.017657242758354], [-104.16656089968444, 40.853869500112054], [-103.77443196685172, 40.345333653878896], [-103.52195403668267, 39.38575248308333], [-103.46486814198184, 38.67886256626989], [-103.18856626360481, 37.311017210671956], [-102.97782234635255, 36.739575286881546], [-102.60314732085297, 36.17423358712049], [-101.96359633696565, 35.70911807351577], [-99.66214099321857, 34.89024850065328], [-99.2618809377138, 34.494801554845154], [-99.08323793430871, 34.093500252975794], [-99.07342170332463, 33.82292198787545], [-99.1752957461575, 33.63967726563914], [-99.44019637208537, 33.45098933591417], [-100.50652174131787, 33.101646705817814], [-102.55102171676377, 32.9737609335796], [-102.98784599426415, 33.04335938606089], [-103.84898498722922, 32.99846647360404], [-104.43311058088096, 32.87467353490663], [-104.68532276942553, 32.679117237659476], [-104.82671489634711, 32.443526260543045], [-105.18223579269713, 31.602923631885773], [-105.53011824810145, 31.306141730496815], [-105.93660871125732, 31.096320270853408]]]}}, {"type": "Feature", "properties": {"dn": 2, "PRODUCT": "Day 1 Excessive Rainfall Potential Forecast", "VALID_TIME": "16Z 07/31/26 - 12Z 08/01/26", "OUTLOOK": "Slight (At Least 15%)", "ISSUE_TIME": "2026-07-31 15:54:00", "START_TIME": "2026-07-31 16:00:00", "END_TIME": "2026-08-01 12:00:00", "Snippet": "16Z 07/31/26 - 12Z 08/01/26"}, "geometry": {"type": "Polygon", "coordinates": [[[-90.88230247673759, 36.519276666776655], [-91.65700190828814, 36.67061956904712], [-91.93176544005222, 36.80996338068003], [-92.14957646659713, 37.03760511204946], [-92.36121006237389, 37.53176162225222], [-92.6183242510815, 38.602701421367144], [-92.59516989150787, 39.62030909204045], [-92.73735959065132, 40.98613252309831], [-92.90340429372841, 41.38228846734397], [-93.18852222656044, 41.734981413391914], [-94.41071605052889, 42.74414500609772], [-95.53890152184566, 43.825548401101024], [-95.84120152467288, 44.25484702191171], [-95.84381585110586, 44.55538596124106], [-95.72384359034895, 44.68492704464449], [-95.30262773049154, 44.85737068952128], [-94.69863781681327, 44.985721312754244], [-93.61077349978645, 44.98092367278688], [-89.12859203908805, 44.122937238781276], [-88.4876914049966, 43.84325315446467], [-88.03140137848611, 43.52404462526932], [-87.5454802380883, 42.85511895988678], [-87.4570003868399, 42.460152019866555], [-87.56105361156638, 41.85381717235662], [-87.76767328726248, 41.424762536627995], [-88.33187721482565, 40.83253846042674], [-88.7797373912174, 40.14472884161555], [-89.151804396656, 38.65359705958231], [-89.74372742131817, 37.02483557402083], [-89.92388913975067, 36.762094193434734], [-90.21299404710206, 36.546367550311174], [-90.88230247673759, 36.519276666776655]]]}}, {"type": "Feature", "properties": {"dn": 2, "PRODUCT": "Day 1 Excessive Rainfall Potential Forecast", "VALID_TIME": "16Z 07/31/26 - 12Z 08/01/26", "OUTLOOK": "Slight (At Least 15%)", "ISSUE_TIME": "2026-07-31 15:54:00", "START_TIME": "2026-07-31 16:00:00", "END_TIME": "2026-08-01 12:00:00", "Snippet": "16Z 07/31/26 - 12Z 08/01/26"}, "geometry": {"type": "Polygon", "coordinates": [[[-88.46601638215714, 45.94069322464124], [-89.42944891952128, 46.18292601514356], [-89.60864326522044, 46.2731904551927], [-89.6553684299646, 46.528602213801584], [-89.39396212862468, 46.77542751458294], [-88.89336415155358, 46.88728897859308], [-86.92332561498795, 46.8167490598636], [-85.27696534457466, 46.61560673319013], [-84.5037633277929, 46.363776939361706], [-84.03897473803855, 46.12533107321364], [-84.24196625108812, 45.96592339700834], [-85.40796615237285, 45.94170727110342], [-86.52762162902154, 45.73817440377115], [-88.46601638215714, 45.94069322464124]]]}}]}