{
  "type": "FeatureCollection",
  "features": [
    {
      "type": "Feature",
      "properties": {
        "dn": 1,
        "PRODUCT": "Day 2 Excessive Rainfall Potential Forecast",
        "VALID_TIME": "12Z 08/01/26 - 12Z 08/02/26",
        "OUTLOOK": "Marginal (At Least 5%)",
        "ISSUE_TIME": "2026-07-31 08:19:00",
        "START_TIME": "2026-08-01 12:00:00",
        "END_TIME": "2026-08-02 12:00:00",
        "Snippet": "12Z 08/01/26 - 12Z 08/02/26",
        "risk_norm": "MARGINAL"
      },
      "geometry": {
        "type": "Polygon",
        "coordinates": [
          [
            [
              -83.14535551376402,
              24.988271877247925
            ],
            [
              -82.38701590963649,
              24.972866704434747
            ],
            [
              -82.3238345877115,
              25.104258088866843
            ],
            [
              -82.59290722228265,
              25.448019724918527
            ],
            [
              -81.91407661823771,
              25.619706401004528
            ],
            [
              -82.1181065867413,
              26.09627964729339
            ],
            [
              -82.2642860577806,
              26.15368335589894
            ],
            [
              -82.53643912279504,
              26.498454800815157
            ],
            [
              -83.17876934092348,
              27.78744444256655
            ],
            [
              -83.12008427084714,
              28.378261282360956
            ],
            [
              -82.94683193937682,
              28.547912441074573
            ],
            [
              -82.98013486242392,
              28.7336168061601
            ],
            [
              -83.28183536671474,
              28.848349498711404
            ],
            [
              -83.32023214938555,
              28.98850924755592
            ],
            [
              -83.88245127110501,
              29.66895422242978
            ],
            [
              -84.08710279402948,
              29.729113279407834
            ],
            [
              -84.4813360692646,
              29.436485842805258
            ],
            [
              -84.91399175906047,
              29.282449750682755
            ],
            [
              -85.17437984791225,
              29.29915663257841
            ],
            [
              -85.68460892611208,
              29.46759498758081
            ],
            [
              -85.72344750313837,
              29.653424985947463
            ],
            [
              -85.96634164550724,
              29.894930583775515
            ],
            [
              -86.47697752494051,
              30.10603567532834
            ],
            [
              -87.70158905530097,
              29.894447696549744
            ],
            [
              -88.38566408006709,
              29.879326641562674
            ],
            [
              -88.44712950193036,
              29.700508416265503
            ],
            [
              -88.72582426544463,
              29.392829315223135
            ],
            [
              -88.6263269559462,
              29.297570372466986
            ],
            [
              -88.64102342874018,
              29.024471877489752
            ],
            [
              -88.86209645537711,
              28.804338586831555
            ],
            [
              -89.19785414539278,
              29.411156837665875
            ],
            [
              -89.42675617397916,
              30.103031370691923
            ],
            [
              -89.54416063836727,
              30.971820951366553
            ],
            [
              -89.45002675163326,
              31.83183106337173
            ],
            [
              -88.81216261288218,
              33.75638728610318
            ],
            [
              -88.24312935012617,
              35.0871335495969
            ],
            [
              -88.13748469316701,
              36.78852620045804
            ],
            [
              -88.27696985704429,
              37.24119294976894
            ],
            [
              -88.48463114441113,
              37.51709935007667
            ],
            [
              -89.4073789646633,
              38.12793118491495
            ],
            [
              -90.9385468233718,
              39.50150475566526
            ],
            [
              -91.32187465156551,
              39.99539527823288
            ],
            [
              -91.47786401776172,
              40.482813920496376
            ],
            [
              -91.46581409124572,
              40.833992674034704
            ],
            [
              -91.26805158061244,
              41.4871459415083
            ],
            [
              -90.69700072048786,
              42.564564882708225
            ],
            [
              -89.68729991041135,
              43.794305404138164
            ],
            [
              -89.06084831279698,
              44.25036720795303
            ],
            [
              -88.6273500010305,
              44.45125798960634
            ],
            [
              -88.01160582219794,
              44.64434519715178
            ],
            [
              -86.84765560327195,
              44.85554515415481
            ],
            [
              -85.26937466035479,
              44.91034728163503
            ],
            [
              -82.13711399230249,
              44.767797777935975
            ],
            [
              -82.00790069134985,
              44.37038710111915
            ],
            [
              -81.94410209198836,
              43.50058694901688
            ],
            [
              -82.27046455317858,
              42.827620362908796
            ],
            [
              -82.30364670049526,
              42.5683173966887
            ],
            [
              -82.44289354405349,
              42.40329847652661
            ],
            [
              -82.88485609396244,
              42.170957840231544
            ],
            [
              -82.90579323105966,
              41.99738564827912
            ],
            [
              -82.74756275819861,
              41.85631426876429
            ],
            [
              -82.39235217823789,
              41.875798427322366
            ],
            [
              -81.26070402531013,
              42.406627481895526
            ],
            [
              -79.54933668946785,
              42.75106049076701
            ],
            [
              -79.21609475076576,
              42.983840967683406
            ],
            [
              -79.3035861977337,
              43.557386460125336
            ],
            [
              -78.79368239476905,
              43.73189954657132
            ],
            [
              -78.44355135765856,
              43.308674441203635
            ],
            [
              -78.22214899983827,
              42.852341534874384
            ],
            [
              -78.02526027926812,
              41.913744977859444
            ],
            [
              -78.11274958019787,
              41.04076920857005
            ],
            [
              -78.32072324963586,
              40.48542863827907
            ],
            [
              -78.97723849887292,
              39.2585731549421
            ],
            [
              -79.89891250832001,
              38.04705833708767
            ],
            [
              -80.59930672522955,
              36.22248245780115
            ],
            [
              -81.40126347456788,
              34.71011664545305
            ],
            [
              -81.59669006831848,
              34.00162199275995
            ],
            [
              -81.69267651896766,
              33.192646150228285
            ],
            [
              -81.46181397982282,
              32.4002246343737
            ],
            [
              -81.28090162357688,
              32.11152300560278
            ],
            [
              -80.79921684553317,
              31.65891253226066
            ],
            [
              -81.12021116667621,
              30.77425779181026
            ],
            [
              -81.06926742590505,
              30.312625737486528
            ],
            [
              -80.75520059408946,
              29.414626373216457
            ],
            [
              -80.22831009726261,
              28.585879083976433
            ],
            [
              -80.27895736516328,
              28.177831850492325
            ],
            [
              -79.78954500432337,
              27.119579459547793
            ],
            [
              -79.72225018624539,
              26.83709996097543
            ],
            [
              -79.83705590772036,
              25.51566625853706
            ],
            [
              -80.17146254650426,
              24.859740330306195
            ],
            [
              -80.670873277322,
              24.494230782657368
            ],
            [
              -81.70910591257864,
              24.223517368340733
            ],
            [
              -82.72013611643823,
              24.173080021327728
            ],
            [
              -83.26527655922753,
              24.26400876516199
            ],
            [
              -83.14535551376402,
              24.988271877247925
            ]
          ],
          [
            [
              -84.3179502342724,
              32.388353340373904
            ],
            [
              -83.80540036132318,
              32.671903359465354
            ],
            [
              -83.48739317874173,
              33.14892562416021
            ],
            [
              -82.93239412032432,
              34.28694514372592
            ],
            [
              -82.4272735650543,
              34.88212278458825
            ],
            [
              -81.75216179431051,
              35.461563305533886
            ],
            [
              -81.54941130929268,
              35.760990458459716
            ],
            [
              -81.62127209846797,
              36.082151621561856
            ],
            [
              -82.1973549892485,
              36.397563894319084
            ],
            [
              -82.49822021403588,
              36.68930935904426
            ],
            [
              -82.58372485467268,
              36.920008751212734
            ],
            [
              -82.46102889543634,
              37.49348994763481
            ],
            [
              -81.38079671994495,
              39.329301518058294
            ],
            [
              -81.271026087655,
              40.16325079859412
            ],
            [
              -81.58681066831777,
              40.849885926118944
            ],
            [
              -82.34134018357163,
              41.34529392554447
            ],
            [
              -83.2547858223475,
              41.53880205672705
            ],
            [
              -84.70530071467034,
              41.6709907796364
            ],
            [
              -86.30836063865058,
              42.10448447295356
            ],
            [
              -87.07006296569574,
              42.13916126957453
            ],
            [
              -87.43162282719425,
              42.02360047797109
            ],
            [
              -88.0479943389954,
              41.610822941109845
            ],
            [
              -88.48723052014982,
              41.145450818134925
            ],
            [
              -88.68583093150558,
              40.757516177208956
            ],
            [
              -88.65777942498504,
              40.27259659160812
            ],
            [
              -88.34289728443979,
              39.775415961369546
            ],
            [
              -87.51528421090923,
              39.29987788364321
            ],
            [
              -86.7096140725645,
              38.64286447329689
            ],
            [
              -86.30741932483338,
              38.00011191537597
            ],
            [
              -86.14851563386866,
              37.188413368900136
            ],
            [
              -86.1438321915885,
              36.561364133118666
            ],
            [
              -86.3742316465359,
              35.76537789350754
            ],
            [
              -86.82369196113758,
              34.93295607530713
            ],
            [
              -86.96569755980482,
              34.48898446929694
            ],
            [
              -86.90878466662785,
              33.76338786392023
            ],
            [
              -86.76602028149317,
              33.48477538284557
            ],
            [
              -86.10573978244966,
              32.905757784957906
            ],
            [
              -85.48356205113484,
              32.59797563043728
            ],
            [
              -84.95971082374619,
              32.42984132307867
            ],
            [
              -84.3179502342724,
              32.388353340373904
            ]
          ]
        ]
      }
    },
    {
      "type": "Feature",
      "properties": {
        "dn": 1,
        "PRODUCT": "Day 2 Excessive Rainfall Potential Forecast",
        "VALID_TIME": "12Z 08/01/26 - 12Z 08/02/26",
        "OUTLOOK": "Marginal (At Least 5%)",
        "ISSUE_TIME": "2026-07-31 08:19:00",
        "START_TIME": "2026-08-01 12:00:00",
        "END_TIME": "2026-08-02 12:00:00",
        "Snippet": "12Z 08/01/26 - 12Z 08/02/26",
        "risk_norm": "MARGINAL"
      },
      "geometry": {
        "type": "Polygon",
        "coordinates": [
          [
            [
              -104.90828457938767,
              30.253446935923108
            ],
            [
              -105.028860756658,
              30.4282232571379
            ],
            [
              -106.055277882567,
              31.224775584563876
            ],
            [
              -106.50210402882288,
              31.421674705201944
            ],
            [
              -106.57207952163469,
              31.597888069269302
            ],
            [
              -107.96578444528456,
              31.62688053767055
            ],
            [
              -108.06062585381395,
              31.52882876890281
            ],
            [
              -108.07866176117668,
              31.20713454245347
            ],
            [
              -108.97623571561925,
              31.13024758539512
            ],
            [
              -110.73956450880605,
              31.14696319042524
            ],
            [
              -110.90383927904745,
              31.176214336495534
            ],
            [
              -110.91745426946761,
              31.26721451640226
            ],
            [
              -110.80866113925528,
              31.643770995253693
            ],
            [
              -110.5389039154234,
              32.03659097908115
            ],
            [
              -109.8832278899654,
              32.37274426721842
            ],
            [
              -109.38982733760538,
              32.73665754512552
            ],
            [
              -108.4581573151642,
              33.54437025218916
            ],
            [
              -107.87879264378455,
              34.17979564598379
            ],
            [
              -107.52018977154137,
              34.88612241704283
            ],
            [
              -107.29690788140039,
              35.85010554184331
            ],
            [
              -106.87176070556582,
              37.04874944361773
            ],
            [
              -106.48756276706904,
              37.65697816731834
            ],
            [
              -106.11725153495853,
              37.905671308264296
            ],
            [
              -105.68103820580292,
              38.06722753028771
            ],
            [
              -104.67152305797941,
              38.17152971072305
            ],
            [
              -104.09636229595625,
              38.06923134569965
            ],
            [
              -103.57146859399339,
              37.87336961644011
            ],
            [
              -103.08668528339115,
              37.44988518310169
            ],
            [
              -102.82691588080627,
              36.970401417925316
            ],
            [
              -102.45880792533801,
              35.686807839805375
            ],
            [
              -102.36692654699718,
              33.48117840257312
            ],
            [
              -102.62430127620472,
              32.472520142392824
            ],
            [
              -103.10866076401457,
              31.72216489625706
            ],
            [
              -104.340290708019,
              30.42420020614196
            ],
            [
              -104.88796867358081,
              30.025701174061282
            ],
            [
              -104.90828457938767,
              30.253446935923108
            ]
          ],
          [
            [
              -105.2929444751609,
              32.232062169197135
            ],
            [
              -104.66719791515415,
              32.45276689742854
            ],
            [
              -104.36404736451763,
              32.69814493668655
            ],
            [
              -103.98110262737424,
              33.30928489556416
            ],
            [
              -103.6970543344742,
              34.545502050335756
            ],
            [
              -103.66478946752075,
              35.53851260767663
            ],
            [
              -103.9248375946938,
              36.01927332699643
            ],
            [
              -104.45751143772382,
              36.39456527341408
            ],
            [
              -104.84960125940384,
              36.4169268905888
            ],
            [
              -105.49752712723041,
              36.1980770153605
            ],
            [
              -105.80777660555665,
              35.95314051531018
            ],
            [
              -106.04310077162961,
              35.53263750763883
            ],
            [
              -106.3626586797994,
              34.33738595060069
            ],
            [
              -106.36674860882367,
              33.83925590403261
            ],
            [
              -106.58479756441417,
              32.78053532539002
            ],
            [
              -106.43221809965458,
              32.33701340485816
            ],
            [
              -106.14691539227982,
              32.17480608917751
            ],
            [
              -105.2929444751609,
              32.232062169197135
            ]
          ]
        ]
      }
    },
    {
      "type": "Feature",
      "properties": {
        "dn": 2,
        "PRODUCT": "Day 2 Excessive Rainfall Potential Forecast",
        "VALID_TIME": "12Z 08/01/26 - 12Z 08/02/26",
        "OUTLOOK": "Slight (At Least 15%)",
        "ISSUE_TIME": "2026-07-31 08:19:00",
        "START_TIME": "2026-08-01 12:00:00",
        "END_TIME": "2026-08-02 12:00:00",
        "Snippet": "12Z 08/01/26 - 12Z 08/02/26",
        "risk_norm": "SLIGHT"
      },
      "geometry": {
        "type": "Polygon",
        "coordinates": [
          [
            [
              -106.14691539227982,
              32.17480608917751
            ],
            [
              -106.43221809965458,
              32.33701340485816
            ],
            [
              -106.58479756441417,
              32.78053532539002
            ],
            [
              -106.36674860882367,
              33.83925590403261
            ],
            [
              -106.3626586797994,
              34.33738595060069
            ],
            [
              -106.04310077162961,
              35.53263750763883
            ],
            [
              -105.80777660555665,
              35.95314051531018
            ],
            [
              -105.49752712723041,
              36.1980770153605
            ],
            [
              -104.84960125940384,
              36.4169268905888
            ],
            [
              -104.45751143772382,
              36.39456527341408
            ],
            [
              -103.9248375946938,
              36.01927332699643
            ],
            [
              -103.66478946752075,
              35.53851260767663
            ],
            [
              -103.6970543344742,
              34.545502050335756
            ],
            [
              -103.98110262737424,
              33.30928489556416
            ],
            [
              -104.36404736451763,
              32.69814493668655
            ],
            [
              -104.66719791515415,
              32.45276689742854
            ],
            [
              -105.2929444751609,
              32.232062169197135
            ],
            [
              -106.14691539227982,
              32.17480608917751
            ]
          ]
        ]
      }
    },
    {
      "type": "Feature",
      "properties": {
        "dn": 2,
        "PRODUCT": "Day 2 Excessive Rainfall Potential Forecast",
        "VALID_TIME": "12Z 08/01/26 - 12Z 08/02/26",
        "OUTLOOK": "Slight (At Least 15%)",
        "ISSUE_TIME": "2026-07-31 08:19:00",
        "START_TIME": "2026-08-01 12:00:00",
        "END_TIME": "2026-08-02 12:00:00",
        "Snippet": "12Z 08/01/26 - 12Z 08/02/26",
        "risk_norm": "SLIGHT"
      },
      "geometry": {
        "type": "Polygon",
        "coordinates": [
          [
            [
              -84.95971082374619,
              32.42984132307867
            ],
            [
              -85.48356205113484,
              32.59797563043728
            ],
            [
              -86.10573978244966,
              32.905757784957906
            ],
            [
              -86.76602028149317,
              33.48477538284557
            ],
            [
              -86.90878466662785,
              33.76338786392023
            ],
            [
              -86.96569755980482,
              34.48898446929694
            ],
            [
              -86.82369196113758,
              34.93295607530713
            ],
            [
              -86.3742316465359,
              35.76537789350754
            ],
            [
              -86.1438321915885,
              36.561364133118666
            ],
            [
              -86.14851563386866,
              37.188413368900136
            ],
            [
              -86.30741932483338,
              38.00011191537597
            ],
            [
              -86.7096140725645,
              38.64286447329689
            ],
            [
              -87.51528421090923,
              39.29987788364321
            ],
            [
              -88.34289728443979,
              39.775415961369546
            ],
            [
              -88.65777942498504,
              40.27259659160812
            ],
            [
              -88.68583093150558,
              40.757516177208956
            ],
            [
              -88.48723052014982,
              41.145450818134925
            ],
            [
              -88.0479943389954,
              41.610822941109845
            ],
            [
              -87.43162282719425,
              42.02360047797109
            ],
            [
              -87.07006296569574,
              42.13916126957453
            ],
            [
              -86.30836063865058,
              42.10448447295356
            ],
            [
              -84.70530071467034,
              41.6709907796364
            ],
            [
              -83.2547858223475,
              41.53880205672705
            ],
            [
              -82.34134018357163,
              41.34529392554447
            ],
            [
              -81.58681066831777,
              40.849885926118944
            ],
            [
              -81.271026087655,
              40.16325079859412
            ],
            [
              -81.38079671994495,
              39.329301518058294
            ],
            [
              -82.46102889543634,
              37.49348994763481
            ],
            [
              -82.58372485467268,
              36.920008751212734
            ],
            [
              -82.49822021403588,
              36.68930935904426
            ],
            [
              -82.1973549892485,
              36.397563894319084
            ],
            [
              -81.62127209846797,
              36.082151621561856
            ],
            [
              -81.54941130929268,
              35.760990458459716
            ],
            [
              -81.75216179431051,
              35.461563305533886
            ],
            [
              -82.4272735650543,
              34.88212278458825
            ],
            [
              -82.93239412032432,
              34.28694514372592
            ],
            [
              -83.48739317874173,
              33.14892562416021
            ],
            [
              -83.80540036132318,
              32.671903359465354
            ],
            [
              -84.3179502342724,
              32.388353340373904
            ],
            [
              -84.95971082374619,
              32.42984132307867
            ]
          ]
        ]
      }
    }
  ]
}
