{"type": "FeatureCollection", "features": [{"type": "Feature", "properties": {"dn": 1, "PRODUCT": "Day 1 Excessive Rainfall Potential Forecast", "VALID_TIME": "16Z 08/06/26 - 12Z 08/07/26", "OUTLOOK": "Marginal (At Least 5%)", "ISSUE_TIME": "2026-08-06 15:33:00", "START_TIME": "2026-08-06 16:00:00", "END_TIME": "2026-08-07 12:00:00", "Snippet": "16Z 08/06/26 - 12Z 08/07/26"}, "geometry": {"type": "Polygon", "coordinates": [[[-82.58416785578909, 28.518165812179422], [-82.97552949335667, 28.77902701805083], [-83.3318148438621, 29.400988428646738], [-84.24303028442135, 30.334359002385504], [-85.4800248934456, 32.007735129516064], [-86.05657850380784, 32.858145919917845], [-86.48276129859653, 33.65118525203513], [-86.56740016053134, 33.972154077934405], [-86.53344899916574, 34.42213309590429], [-85.88966067934979, 35.604692390870106], [-85.86736516451694, 35.873262631613684], [-86.0443226268201, 36.421585801406984], [-86.3064399543648, 36.61374979711542], [-86.80341111374801, 36.68342151937457], [-87.31365721842943, 36.573048352565216], [-89.47299604249656, 35.76107837454976], [-91.87046205067684, 35.05953767598395], [-93.41244572703995, 34.766577879925904], [-94.61735494374109, 34.77376988096129], [-95.3846251797483, 34.90875688093349], [-96.87196015549489, 35.30327884339196], [-98.76383586717297, 35.89983224708191], [-100.49796734213679, 36.25546836285112], [-101.6069026907118, 36.21550995153523], [-102.26293376615129, 36.053806291617114], [-102.69292556265387, 35.854997278521076], [-103.32483362846101, 35.42000699957985], [-103.93628235246766, 34.80338478249342], [-104.22325683144169, 34.290998771736824], [-104.43081117264859, 33.51020374405449], [-104.37996689542402, 32.2432074974078], [-103.84859898474261, 30.225670172259065], [-103.70917163715066, 29.04618646670492], [-104.64208958358151, 29.585567873281928], [-104.87761417462117, 29.890359737728467], [-104.90828457938767, 30.253446935923108], [-105.028860756658, 30.4282232571379], [-106.055277882567, 31.224775584563876], [-106.50210402882288, 31.421674705201944], [-106.57207952163469, 31.597888069269302], [-107.96578444528456, 31.62688053767055], [-108.06062585381395, 31.52882876890281], [-108.07866176117668, 31.20713454245347], [-109.50931757052109, 31.12780594303685], [-110.95653789383776, 31.17089174187611], [-112.74400861250615, 31.666577967101908], [-112.74389520241874, 32.35347030504513], [-112.86751695519914, 32.796453546429696], [-113.19181337171082, 33.1251821608467], [-113.73991013530059, 33.472987629518414], [-113.95357704861947, 33.76728906497335], [-114.12892675338901, 35.11183881368148], [-114.07408284603383, 35.43587545778612], [-113.90084264900554, 35.728632469622966], [-113.33594316028038, 36.01823532432222], [-112.79403891196654, 36.122160526911436], [-112.17501964099591, 36.09665764976476], [-111.9261603017193, 35.94049941633689], [-111.42109862377065, 35.17710388482951], [-110.8251137340992, 34.8740024353217], [-110.09856762190806, 34.806432286896275], [-108.99733914502995, 34.81330561239561], [-107.90646750985815, 34.902416490190014], [-106.9875954422534, 35.062066408351356], [-106.5091231180113, 35.23142164843566], [-105.98767360095684, 35.53721124264448], [-104.91728130853946, 36.547988608980766], [-104.38897513429033, 36.89190903869645], [-103.79415632597487, 37.147565054482904], [-100.98180013386899, 37.983115263728294], [-100.31872021424827, 38.271786526759094], [-99.54630095652462, 38.73782572305887], [-98.98514273855392, 38.92890622886095], [-97.10812621542482, 39.00600131727546], [-93.97164221121898, 39.413787227887795], [-92.08403448789535, 39.43676623718766], [-91.56371716926994, 39.604071834247904], [-90.8498141545502, 40.293306599118004], [-90.31204739231154, 40.676629238701594], [-86.86603205698626, 42.4793315161014], [-85.02104505513782, 43.2146893238831], [-82.54801323426662, 43.93254302853157], [-81.9894982578806, 44.06767180198367], [-81.91541276032169, 43.71539282780478], [-82.30364670049526, 42.5683173966887], [-82.44289354405349, 42.40329847652661], [-82.88485609396244, 42.170957840231544], [-82.90579323105966, 41.99738564827912], [-82.74756275819861, 41.85631426876429], [-82.51436228639966, 41.84042133809318], [-81.26070402531013, 42.406627481895526], [-79.54933668946785, 42.75106049076701], [-79.21609475076576, 42.983840967683406], [-79.33106816917073, 43.38574377884201], [-79.23619839746056, 43.59602844913372], [-78.48307327097176, 43.79156363369032], [-76.9799881275183, 43.78298999363961], [-76.52916068956802, 44.2594847389758], [-75.62050702152317, 44.86149209774918], [-74.88210589198688, 45.17468476094672], [-72.98044492443009, 45.180806374133425], [-72.10528595554648, 44.99085326962698], [-71.72971422392413, 44.77141044840446], [-71.59196663743094, 44.57951388050894], [-71.48260719876077, 43.78007400637333], [-71.8458965515524, 42.50804822867929], [-72.58259775169817, 41.36268811264714], [-73.31560969808088, 40.698437488374715], [-74.7315044133721, 40.06463091677383], [-76.66551772043046, 38.98548684181074], [-78.89183279312893, 37.192557571164556], [-79.5626955502307, 36.44549954138076], [-79.64937477382375, 36.22817437187575], [-79.68067517246996, 36.00558951105594], [-79.50578100712896, 35.67434094220945], [-79.25075527890388, 35.514783607754644], [-78.81278320760586, 35.47258829670549], [-77.97122400285936, 35.88575128312629], [-77.03894969478196, 36.4656388475709], [-76.6155805691022, 36.645457498871906], [-76.26914898749101, 36.69745073417005], [-75.79614911113364, 36.50848395488545], [-75.4657037076087, 36.15268096296849], [-75.3024285805711, 35.816345773042805], [-75.39012578823704, 35.32774737494396], [-75.85685727141833, 34.883052286150914], [-76.72189542794939, 34.34456694391836], [-76.93820750877394, 34.36864437523582], [-77.5412988933626, 34.025999103894556], [-77.6369688076082, 33.763255976864095], [-77.94150720742125, 33.567094813952814], [-78.37836769065561, 33.567026823234485], [-78.85266302286722, 33.29740433841915], [-78.95104710445564, 32.98846809412986], [-80.49445341643577, 31.950699855526654], [-80.93282523653508, 31.442663655662944], [-81.14042525144481, 31.050119676292532], [-81.86154589293822, 28.917124054068932], [-82.21773787889803, 28.533959320185147], [-82.58416785578909, 28.518165812179422]]]}}]}