{"type": "FeatureCollection", "features": [{"type": "Feature", "properties": {"dn": 1, "PRODUCT": "Day 2 Excessive Rainfall Potential Forecast", "VALID_TIME": "12Z 08/07/26 - 12Z 08/08/26", "OUTLOOK": "Marginal (At Least 5%)", "ISSUE_TIME": "2026-08-06 07:56:00", "START_TIME": "2026-08-07 12:00:00", "END_TIME": "2026-08-08 12:00:00", "Snippet": "12Z 08/07/26 - 12Z 08/08/26"}, "geometry": {"type": "Polygon", "coordinates": [[[-108.97623571561925, 31.13024758539512], [-110.95653789383776, 31.17089174187611], [-112.63952225621127, 31.679163628824323], [-113.09520675432158, 32.86223599381883], [-114.00669252268347, 34.08004741831482], [-114.24538847317874, 34.507289929362244], [-114.36991829189911, 35.21989811045914], [-114.32383433042284, 35.90555177375194], [-114.16710250290595, 36.285746920324534], [-113.9772209476395, 36.48912054836711], [-112.98102174771462, 36.914541573818084], [-112.53075346513292, 36.91690622949676], [-112.28785011376034, 36.80685116166183], [-111.61006787435328, 36.06262355234208], [-111.18313390385967, 35.06477111719379], [-110.90710496012485, 34.6839153004829], [-110.66562001263367, 34.526722739446605], [-110.212799900352, 34.4333922259742], [-109.51283378202365, 34.542215625711705], [-108.88272809928372, 34.7777748476924], [-107.03517269698881, 36.00512059901769], [-105.86940661202621, 36.5789697509632], [-104.47696862503531, 36.61816254049675], [-104.13604129982882, 36.547320642183244], [-103.66558541308594, 36.25734644223988], [-103.47508652351334, 35.95282509758876], [-103.38219363596683, 35.46301800831387], [-103.50572678083084, 34.91631781623263], [-103.74400642495017, 34.45273318911782], [-104.82371755302914, 33.03367696411839], [-106.20053461946304, 31.6245254188681], [-106.50095420717214, 31.42084707355479], [-106.57207952163469, 31.597888069269302], [-107.96578444528456, 31.62688053767055], [-108.06062585381395, 31.52882876890281], [-108.07866176117668, 31.20713454245347], [-108.97623571561925, 31.13024758539512]]]}}, {"type": "Feature", "properties": {"dn": 1, "PRODUCT": "Day 2 Excessive Rainfall Potential Forecast", "VALID_TIME": "12Z 08/07/26 - 12Z 08/08/26", "OUTLOOK": "Marginal (At Least 5%)", "ISSUE_TIME": "2026-08-06 07:56:00", "START_TIME": "2026-08-07 12:00:00", "END_TIME": "2026-08-08 12:00:00", "Snippet": "12Z 08/07/26 - 12Z 08/08/26"}, "geometry": {"type": "Polygon", "coordinates": [[[-84.35210503149905, 33.75109871404551], [-85.24114127241081, 34.168659222589945], [-85.54542936079991, 34.45850223484191], [-85.78075802846918, 34.923100455104084], [-86.08646817908314, 35.20934968008691], [-86.8317059268275, 35.56272298402901], [-87.38246632989055, 35.58883215607191], [-88.3879173189263, 35.407017311898855], [-90.96026781003692, 34.4093656535426], [-91.84116059021186, 34.158152849901086], [-92.93129293465361, 34.130448104719335], [-93.6915612804646, 34.31862034715903], [-94.45348308162265, 34.68328187398674], [-95.0018583596972, 35.13495873350295], [-95.16711471450124, 35.40448264087218], [-95.38998578614977, 36.121859048209096], [-95.39369024519888, 37.15033897782619], [-95.22690204565743, 37.685605794396466], [-94.83238720257931, 38.175013151729985], [-94.49114636751335, 38.397320333140215], [-92.83559255999299, 39.049586575322216], [-87.46120780319875, 40.050288784167634], [-85.9342758737435, 40.37566613043907], [-84.61988241190834, 40.78843015597894], [-83.02733406523754, 41.480426294092204], [-81.26070402531013, 42.406627481895526], [-79.54933668946785, 42.75106049076701], [-79.21609475076576, 42.983840967683406], [-79.32420666187373, 43.428672442816364], [-78.66804931360447, 43.764390974164556], [-76.9799881275183, 43.78298999363961], [-76.52916068956802, 44.2594847389758], [-75.62050702152317, 44.86149209774918], [-74.88210589198688, 45.17468476094672], [-71.88555073461235, 45.137713181158034], [-71.60681553461849, 45.27615893875982], [-71.56509177735084, 45.444221266004], [-71.24349939713191, 45.49197399930647], [-71.40698670015884, 44.338534210069625], [-71.75537496081928, 42.89300659794214], [-72.1487411228016, 41.97236834371286], [-72.85930402240535, 40.90886745007878], [-73.80603384875886, 40.31287459130253], [-74.13618146830636, 39.54945203168561], [-74.87180148182834, 38.741271836135226], [-75.0280978498518, 38.221075863695454], [-75.23004852736321, 38.063918151860655], [-75.46161439214262, 38.04560565731704], [-77.18880963180354, 38.27873191851847], [-77.82031817007282, 38.25348713972421], [-78.24104606287732, 38.11594825905342], [-78.8184660468546, 37.67943116757467], [-79.70340794339819, 36.638457571669925], [-80.6007612877229, 35.36554907868502], [-81.36329629908909, 34.57120839313706], [-82.01543175202896, 34.17051725402634], [-82.92723252249226, 33.83282931710775], [-83.64901160163446, 33.70355141863104], [-84.35210503149905, 33.75109871404551]]]}}]}