{"type": "FeatureCollection", "features": [{"type": "Feature", "properties": {"dn": 1, "PRODUCT": "Day 1 Excessive Rainfall Potential Forecast", "VALID_TIME": "16Z 09/21/26 - 12Z 09/22/26", "OUTLOOK": "Marginal (At Least 5%)", "ISSUE_TIME": "2026-09-21 15:54:00", "START_TIME": "2026-09-21 16:00:00", "END_TIME": "2026-09-22 12:00:00", "Snippet": "16Z 09/21/26 - 12Z 09/22/26"}, "geometry": {"type": "Polygon", "coordinates": [[[-82.36660300039291, 24.189240965293138], [-82.60672825638486, 24.30126678517132], [-82.73923759976503, 24.496688832602253], [-82.66645207304651, 24.720050025699948], [-82.33685355192063, 24.96861538473939], [-81.20861509236616, 25.098096703788656], [-80.94324504224171, 25.210211811547364], [-80.5561676281595, 25.908405971704568], [-80.40199106518503, 26.766388217898776], [-80.22169517440688, 26.978562085285958], [-79.82995087051165, 27.2164306059292], [-79.72225018624539, 26.83709996097543], [-79.83705590772036, 25.51566625853706], [-80.17146254650426, 24.859740330306195], [-80.670873277322, 24.494230782657368], [-80.9859265476488, 24.386510904189212], [-81.70910591257864, 24.223517368340733], [-82.36660300039291, 24.189240965293138]]]}}, {"type": "Feature", "properties": {"dn": 1, "PRODUCT": "Day 1 Excessive Rainfall Potential Forecast", "VALID_TIME": "16Z 09/21/26 - 12Z 09/22/26", "OUTLOOK": "Marginal (At Least 5%)", "ISSUE_TIME": "2026-09-21 15:54:00", "START_TIME": "2026-09-21 16:00:00", "END_TIME": "2026-09-22 12:00:00", "Snippet": "16Z 09/21/26 - 12Z 09/22/26"}, "geometry": {"type": "Polygon", "coordinates": [[[-101.988064334025, 29.954213597638674], [-102.62904496835098, 30.106574344055925], [-103.08139793606571, 30.540485457057397], [-103.40364414410716, 31.34306964348214], [-103.76496856436603, 32.595797280336534], [-104.036754231918, 33.98503959292354], [-104.65668729522886, 34.85298076346233], [-105.25294140001161, 35.35806287974807], [-105.44306591390584, 35.616422215693795], [-105.29790526165499, 35.851331265988115], [-104.54887512164358, 36.165408083120354], [-103.884704806302, 36.20190853433736], [-103.36916957172237, 36.003967110257285], [-102.6742687385459, 35.58802567994375], [-101.96933157328965, 34.94322813560645], [-100.26310868677784, 33.69851286670913], [-99.80248281319041, 33.0797325524884], [-99.72973704603488, 32.62910057382357], [-99.86194024084806, 31.94504665799325], [-100.44029509724375, 30.608451757678075], [-100.73897143757279, 30.233669349986315], [-101.04610243280544, 30.03902484734654], [-101.988064334025, 29.954213597638674]]]}}, {"type": "Feature", "properties": {"dn": 1, "PRODUCT": "Day 1 Excessive Rainfall Potential Forecast", "VALID_TIME": "16Z 09/21/26 - 12Z 09/22/26", "OUTLOOK": "Marginal (At Least 5%)", "ISSUE_TIME": "2026-09-21 15:54:00", "START_TIME": "2026-09-21 16:00:00", "END_TIME": "2026-09-22 12:00:00", "Snippet": "16Z 09/21/26 - 12Z 09/22/26"}, "geometry": {"type": "Polygon", "coordinates": [[[-84.34754507044447, 34.38509164321403], [-84.38915194064782, 34.52335714545182], [-84.4247983144186, 35.878074863205235], [-84.66265987171775, 36.297403081943294], [-85.17227684282012, 36.82129883573583], [-85.41113639513514, 37.28257592088966], [-85.4393860802156, 37.596976924109406], [-85.30718461803008, 37.812738552741614], [-84.94395683993518, 38.06034397243849], [-83.57898121944037, 38.643545092205606], [-82.17622661743253, 39.87720179128938], [-80.61341750266809, 40.730830311433024], [-79.96113933423253, 40.80944807500426], [-78.97603181500529, 40.76779860396314], [-78.14976226882864, 40.470151245143526], [-77.79888235383464, 40.12507149393571], [-77.67163629694186, 39.84604372043788], [-77.72273170774011, 39.53965804584239], [-78.01431161618973, 39.167296595217756], [-78.54328053698016, 38.72742897269621], [-78.65943052017809, 37.97807852518379], [-78.53248682607031, 37.69690418378521], [-77.78903611504992, 37.039874750068684], [-76.52790145778471, 36.50039321713017], [-76.50211270101029, 36.31594256425754], [-76.64218456826428, 36.15058997639303], [-76.89284266073744, 35.99622290504658], [-77.42290126091461, 35.82691373157547], [-78.62232157103806, 35.632950173399614], [-80.87580112489096, 35.38832406057231], [-81.86101860555911, 35.017813192662004], [-83.26843781106507, 34.21997785610046], [-83.71653337540148, 34.115766006975434], [-84.09645343750036, 34.14155726878992], [-84.34754507044447, 34.38509164321403]], [[-79.59540012908526, 36.22276374883635], [-79.07335498014994, 36.35422730875802], [-78.77036174794168, 36.50590480554302], [-78.6061819655701, 36.850272011837646], [-78.72561889635067, 37.17666720746943], [-79.11806008879165, 37.57305494506257], [-79.29584061142596, 37.90328407274739], [-79.45113125459906, 39.16792437560966], [-79.6571830312576, 39.71976968934385], [-79.85365025412592, 39.95913192644393], [-80.19017077159296, 40.032063208600576], [-81.05673011261973, 39.6146191878205], [-81.89199596218573, 38.92387704591278], [-82.357539437406, 38.37941453295274], [-82.4048274636699, 37.98120682756492], [-82.31359992578126, 37.7957243189195], [-81.7516203255314, 37.30492273440353], [-81.06706343714572, 36.936008002735775], [-80.35584243034391, 36.38105899824136], [-79.9876245095383, 36.2133407330662], [-79.59540012908526, 36.22276374883635]]]}}, {"type": "Feature", "properties": {"dn": 1, "PRODUCT": "Day 1 Excessive Rainfall Potential Forecast", "VALID_TIME": "16Z 09/21/26 - 12Z 09/22/26", "OUTLOOK": "Marginal (At Least 5%)", "ISSUE_TIME": "2026-09-21 15:54:00", "START_TIME": "2026-09-21 16:00:00", "END_TIME": "2026-09-22 12:00:00", "Snippet": "16Z 09/21/26 - 12Z 09/22/26"}, "geometry": {"type": "Polygon", "coordinates": [[[-117.27038538708145, 35.807668212314105], [-118.034866054875, 35.97604887653534], [-118.75176202787046, 36.42171469392485], [-119.97919278735853, 38.0578416714316], [-120.27117343223853, 38.557128609558276], [-120.1902397589333, 38.70532057123887], [-119.9773282459855, 38.78149716178697], [-119.09806739150797, 38.72673050872222], [-118.70651384260542, 38.78113010499271], [-117.62343226026832, 39.106245804407116], [-117.06089065307836, 39.17880429401369], [-115.24960909839042, 38.772784378280576], [-115.05456204499967, 38.660197926635924], [-114.89243383592822, 38.40989295725012], [-114.84105961814191, 37.83176147562554], [-114.87841290300159, 37.42217823912829], [-115.12834871381489, 36.94145470594972], [-115.66030697500395, 36.46896014726065], [-116.25874433936332, 36.07654219323535], [-116.72460895083132, 35.880089118622905], [-117.27038538708145, 35.807668212314105]]]}}, {"type": "Feature", "properties": {"dn": 2, "PRODUCT": "Day 1 Excessive Rainfall Potential Forecast", "VALID_TIME": "16Z 09/21/26 - 12Z 09/22/26", "OUTLOOK": "Slight (At Least 15%)", "ISSUE_TIME": "2026-09-21 15:54:00", "START_TIME": "2026-09-21 16:00:00", "END_TIME": "2026-09-22 12:00:00", "Snippet": "16Z 09/21/26 - 12Z 09/22/26"}, "geometry": {"type": "Polygon", "coordinates": [[[-79.9876245095383, 36.2133407330662], [-80.35584243034391, 36.38105899824136], [-81.06706343714572, 36.936008002735775], [-81.7516203255314, 37.30492273440353], [-82.31359992578126, 37.7957243189195], [-82.4048274636699, 37.98120682756492], [-82.357539437406, 38.37941453295274], [-81.89199596218573, 38.92387704591278], [-81.05673011261973, 39.6146191878205], [-80.19017077159296, 40.032063208600576], [-79.85365025412592, 39.95913192644393], [-79.6571830312576, 39.71976968934385], [-79.45113125459906, 39.16792437560966], [-79.29584061142596, 37.90328407274739], [-79.11806008879165, 37.57305494506257], [-78.72561889635067, 37.17666720746943], [-78.6061819655701, 36.850272011837646], [-78.77036174794168, 36.50590480554302], [-79.07335498014994, 36.35422730875802], [-79.59540012908526, 36.22276374883635], [-79.9876245095383, 36.2133407330662]]]}}]}