{
  "type": "FeatureCollection",
  "features": [
    {
      "type": "Feature",
      "properties": {
        "dn": 1,
        "PRODUCT": "Day 2 Excessive Rainfall Potential Forecast",
        "VALID_TIME": "12Z 09/22/26 - 12Z 09/23/26",
        "OUTLOOK": "Marginal (At Least 5%)",
        "ISSUE_TIME": "2026-09-21 08:30:00",
        "START_TIME": "2026-09-22 12:00:00",
        "END_TIME": "2026-09-23 12:00:00",
        "Snippet": "12Z 09/22/26 - 12Z 09/23/26",
        "risk_norm": "MARGINAL"
      },
      "geometry": {
        "type": "Polygon",
        "coordinates": [
          [
            [
              -80.13952299699253,
              25.131421232628117
            ],
            [
              -80.54891357347077,
              25.54014355372412
            ],
            [
              -80.70228067423321,
              25.968326404843705
            ],
            [
              -80.73928615869606,
              26.523019599876374
            ],
            [
              -80.63997740376675,
              26.92693096370815
            ],
            [
              -80.51632470993049,
              27.098846723848908
            ],
            [
              -80.01131685231161,
              27.418166907632077
            ],
            [
              -79.90823562421039,
              27.407054738561218
            ],
            [
              -79.72225018624539,
              26.83709996097543
            ],
            [
              -79.83705590772036,
              25.51566625853706
            ],
            [
              -79.98241638370557,
              25.162572825065823
            ],
            [
              -80.13952299699253,
              25.131421232628117
            ]
          ]
        ]
      }
    },
    {
      "type": "Feature",
      "properties": {
        "dn": 1,
        "PRODUCT": "Day 2 Excessive Rainfall Potential Forecast",
        "VALID_TIME": "12Z 09/22/26 - 12Z 09/23/26",
        "OUTLOOK": "Marginal (At Least 5%)",
        "ISSUE_TIME": "2026-09-21 08:30:00",
        "START_TIME": "2026-09-22 12:00:00",
        "END_TIME": "2026-09-23 12:00:00",
        "Snippet": "12Z 09/22/26 - 12Z 09/23/26",
        "risk_norm": "MARGINAL"
      },
      "geometry": {
        "type": "Polygon",
        "coordinates": [
          [
            [
              -106.0524527273449,
              31.19520214001641
            ],
            [
              -106.53672111250663,
              31.419156804310024
            ],
            [
              -106.56911306512949,
              31.56834619771564
            ],
            [
              -107.96246091385268,
              31.597367977657036
            ],
            [
              -108.07866176117668,
              31.20713454245347
            ],
            [
              -108.97623571561925,
              31.13024758539512
            ],
            [
              -110.73956450880605,
              31.14696319042524
            ],
            [
              -111.1811023900453,
              31.240407704969968
            ],
            [
              -111.36815061891087,
              32.18086923973414
            ],
            [
              -111.04406518258905,
              32.943399401143566
            ],
            [
              -110.24623365322832,
              35.470508485159236
            ],
            [
              -110.07637246511322,
              36.25310084112325
            ],
            [
              -109.99049347236523,
              37.25017478769658
            ],
            [
              -109.35411768680811,
              37.97793670296556
            ],
            [
              -108.83324425942223,
              38.33345523049068
            ],
            [
              -108.07734845609257,
              38.65993631934864
            ],
            [
              -107.60935620366466,
              38.56102412165054
            ],
            [
              -106.87679819190501,
              38.12258261311967
            ],
            [
              -106.06107345670772,
              37.90930493563623
            ],
            [
              -105.6027001604574,
              37.84899786641797
            ],
            [
              -103.97623322808434,
              37.986415911904196
            ],
            [
              -103.40274746490721,
              37.88171754007826
            ],
            [
              -102.97792840288238,
              37.49965328350472
            ],
            [
              -102.39672422737044,
              36.407664990361845
            ],
            [
              -102.17035998704206,
              32.94671976564411
            ],
            [
              -102.24917358992134,
              32.48989588081819
            ],
            [
              -102.68583284913174,
              31.788573994705036
            ],
            [
              -104.23051809743824,
              30.38601714508316
            ],
            [
              -104.75669327581126,
              29.714476080851096
            ],
            [
              -104.87761417462117,
              29.890359737728467
            ],
            [
              -104.90828457938767,
              30.253446935923108
            ],
            [
              -105.028860756658,
              30.4282232571379
            ],
            [
              -105.36528372537565,
              30.680305454059173
            ],
            [
              -105.05904951745109,
              30.79056916076408
            ],
            [
              -104.87065364676575,
              31.076299761995934
            ],
            [
              -104.2809641988642,
              32.33981429793538
            ],
            [
              -103.37593559693066,
              35.373336971725145
            ],
            [
              -103.40323460125423,
              35.73178514071668
            ],
            [
              -103.70075844180144,
              35.98660640076
            ],
            [
              -104.44976636250482,
              36.305252313306426
            ],
            [
              -104.9050471347301,
              36.41367034915232
            ],
            [
              -105.40390846397396,
              36.38353868474403
            ],
            [
              -107.01550748948685,
              35.82603711287029
            ],
            [
              -107.5954728681421,
              35.55788541745839
            ],
            [
              -108.00302335577616,
              35.255741249332345
            ],
            [
              -108.32194349274876,
              34.687545198648955
            ],
            [
              -108.71628883910024,
              32.97658403451004
            ],
            [
              -108.36899827925086,
              31.867869954774232
            ],
            [
              -108.05139815257468,
              31.43792857520791
            ],
            [
              -107.96585227245663,
              31.627482834813662
            ],
            [
              -106.57214006156336,
              31.59849096460713
            ],
            [
              -106.50139755772729,
              31.421726090934403
            ],
            [
              -106.05533553879603,
              31.22537912424851
            ],
            [
              -105.42038245111766,
              30.721591005653803
            ],
            [
              -106.0524527273449,
              31.19520214001641
            ]
          ]
        ]
      }
    },
    {
      "type": "Feature",
      "properties": {
        "dn": 1,
        "PRODUCT": "Day 2 Excessive Rainfall Potential Forecast",
        "VALID_TIME": "12Z 09/22/26 - 12Z 09/23/26",
        "OUTLOOK": "Marginal (At Least 5%)",
        "ISSUE_TIME": "2026-09-21 08:30:00",
        "START_TIME": "2026-09-22 12:00:00",
        "END_TIME": "2026-09-23 12:00:00",
        "Snippet": "12Z 09/22/26 - 12Z 09/23/26",
        "risk_norm": "MARGINAL"
      },
      "geometry": {
        "type": "Polygon",
        "coordinates": [
          [
            [
              -83.78879464849628,
              33.93969185973963
            ],
            [
              -84.37646155751735,
              34.06952276579261
            ],
            [
              -85.05018207445838,
              34.473493530920145
            ],
            [
              -85.44477604369533,
              34.99418036629209
            ],
            [
              -85.46866842675227,
              35.35603897740381
            ],
            [
              -85.33135511595117,
              35.6631901949384
            ],
            [
              -82.9482595882365,
              38.68893383710805
            ],
            [
              -82.55620894006323,
              39.59433180076682
            ],
            [
              -82.10689425253253,
              39.961584891959504
            ],
            [
              -81.24814833793195,
              40.339288239615776
            ],
            [
              -80.35057004825967,
              40.53270112984153
            ],
            [
              -79.35463635441306,
              40.58044032558477
            ],
            [
              -77.86327419652325,
              40.44268337571938
            ],
            [
              -76.09760131391322,
              39.906984470625495
            ],
            [
              -75.36812237826203,
              39.470035890850596
            ],
            [
              -75.17413463178204,
              39.268485023425995
            ],
            [
              -74.74556410432855,
              38.502235789250435
            ],
            [
              -74.81286030368888,
              38.15090576064143
            ],
            [
              -75.06332677612373,
              37.73060143840943
            ],
            [
              -75.33487895241208,
              37.492098602666516
            ],
            [
              -75.36730145078597,
              37.31563663547625
            ],
            [
              -75.67687689907939,
              36.85521520589135
            ],
            [
              -75.1544672557628,
              35.70802908591141
            ],
            [
              -75.24246754469824,
              35.53618740894875
            ],
            [
              -79.83711070309629,
              34.481543237135895
            ],
            [
              -82.57786176200612,
              34.03309574939705
            ],
            [
              -83.78879464849628,
              33.93969185973963
            ]
          ]
        ]
      }
    },
    {
      "type": "Feature",
      "properties": {
        "dn": 2,
        "PRODUCT": "Day 2 Excessive Rainfall Potential Forecast",
        "VALID_TIME": "12Z 09/22/26 - 12Z 09/23/26",
        "OUTLOOK": "Slight (At Least 15%)",
        "ISSUE_TIME": "2026-09-21 08:30:00",
        "START_TIME": "2026-09-22 12:00:00",
        "END_TIME": "2026-09-23 12:00:00",
        "Snippet": "12Z 09/22/26 - 12Z 09/23/26",
        "risk_norm": "SLIGHT"
      },
      "geometry": {
        "type": "Polygon",
        "coordinates": [
          [
            [
              -106.05533553879603,
              31.22537912424851
            ],
            [
              -106.50139755772729,
              31.421726090934403
            ],
            [
              -106.57214006156336,
              31.59849096460713
            ],
            [
              -107.96585227245663,
              31.627482834813662
            ],
            [
              -108.05139815257468,
              31.43792857520791
            ],
            [
              -108.36899827925086,
              31.867869954774232
            ],
            [
              -108.71628883910024,
              32.97658403451004
            ],
            [
              -108.32194349274876,
              34.687545198648955
            ],
            [
              -108.00302335577616,
              35.255741249332345
            ],
            [
              -107.5954728681421,
              35.55788541745839
            ],
            [
              -107.01550748948685,
              35.82603711287029
            ],
            [
              -105.40390846397396,
              36.38353868474403
            ],
            [
              -104.9050471347301,
              36.41367034915232
            ],
            [
              -104.44976636250482,
              36.305252313306426
            ],
            [
              -103.70075844180144,
              35.98660640076
            ],
            [
              -103.40323460125423,
              35.73178514071668
            ],
            [
              -103.37593559693066,
              35.373336971725145
            ],
            [
              -104.2809641988642,
              32.33981429793538
            ],
            [
              -104.87065364676575,
              31.076299761995934
            ],
            [
              -105.05904951745109,
              30.79056916076408
            ],
            [
              -105.36739141353782,
              30.679546552854394
            ],
            [
              -106.05533553879603,
              31.22537912424851
            ]
          ],
          [
            [
              -106.3777273218497,
              31.79478214081237
            ],
            [
              -105.51899763008794,
              32.35397399692018
            ],
            [
              -104.9282038720561,
              32.98192980933317
            ],
            [
              -104.88229519788287,
              33.075449735913814
            ],
            [
              -104.96781672161393,
              33.43280765132037
            ],
            [
              -105.2001999314376,
              33.59974212699934
            ],
            [
              -105.47877056722047,
              33.67259823754838
            ],
            [
              -106.07338196148662,
              33.63317307527546
            ],
            [
              -106.97235699431323,
              33.387964028256626
            ],
            [
              -107.32983017214995,
              33.179577586506745
            ],
            [
              -107.61248034267845,
              32.79410740552418
            ],
            [
              -107.61603788885846,
              32.33904076337993
            ],
            [
              -107.35857999589342,
              31.949501172031066
            ],
            [
              -107.01070197232755,
              31.702702438338694
            ],
            [
              -106.3777273218497,
              31.79478214081237
            ]
          ]
        ]
      }
    },
    {
      "type": "Feature",
      "properties": {
        "dn": 3,
        "PRODUCT": "Day 2 Excessive Rainfall Potential Forecast",
        "VALID_TIME": "12Z 09/22/26 - 12Z 09/23/26",
        "OUTLOOK": "Moderate (At Least 40%)",
        "ISSUE_TIME": "2026-09-21 08:30:00",
        "START_TIME": "2026-09-22 12:00:00",
        "END_TIME": "2026-09-23 12:00:00",
        "Snippet": "12Z 09/22/26 - 12Z 09/23/26",
        "risk_norm": "MODERATE"
      },
      "geometry": {
        "type": "Polygon",
        "coordinates": [
          [
            [
              -107.01070197232755,
              31.702702438338694
            ],
            [
              -107.35857999589342,
              31.949501172031066
            ],
            [
              -107.61603788885846,
              32.33904076337993
            ],
            [
              -107.61248034267845,
              32.79410740552418
            ],
            [
              -107.32983017214995,
              33.179577586506745
            ],
            [
              -106.97235699431323,
              33.387964028256626
            ],
            [
              -106.07338196148662,
              33.63317307527546
            ],
            [
              -105.47877056722047,
              33.67259823754838
            ],
            [
              -105.2001999314376,
              33.59974212699934
            ],
            [
              -104.96781672161393,
              33.43280765132037
            ],
            [
              -104.88229519788287,
              33.075449735913814
            ],
            [
              -104.9282038720561,
              32.98192980933317
            ],
            [
              -105.51899763008794,
              32.35397399692018
            ],
            [
              -106.3777273218497,
              31.79478214081237
            ],
            [
              -107.01070197232755,
              31.702702438338694
            ]
          ]
        ]
      }
    }
  ]
}
