{"type": "FeatureCollection", "features": [{"type": "Feature", "properties": {"dn": 1, "PRODUCT": "Day 1 Excessive Rainfall Potential Forecast", "VALID_TIME": "12Z 10/07/26 - 12Z 10/08/26", "OUTLOOK": "Marginal (At Least 5%)", "ISSUE_TIME": "2026-10-07 08:27:00", "START_TIME": "2026-10-07 12:00:00", "END_TIME": "2026-10-08 12:00:00", "Snippet": "12Z 10/07/26 - 12Z 10/08/26"}, "geometry": {"type": "Polygon", "coordinates": [[[-82.59290722228265, 25.448019724918527], [-82.59180735243372, 25.448846326617794], [-82.59089259032666, 25.447852762825505], [-82.59290722228265, 25.448019724918527]]]}}, {"type": "Feature", "properties": {"dn": 1, "PRODUCT": "Day 1 Excessive Rainfall Potential Forecast", "VALID_TIME": "12Z 10/07/26 - 12Z 10/08/26", "OUTLOOK": "Marginal (At Least 5%)", "ISSUE_TIME": "2026-10-07 08:27:00", "START_TIME": "2026-10-07 12:00:00", "END_TIME": "2026-10-08 12:00:00", "Snippet": "12Z 10/07/26 - 12Z 10/08/26"}, "geometry": {"type": "Polygon", "coordinates": [[[-82.48660531626071, 25.484137288080582], [-81.91407661823771, 25.619706401004528], [-82.1181065867413, 26.09627964729339], [-82.2642860577806, 26.15368335589894], [-82.53643912279504, 26.498454800815157], [-83.17876934092348, 27.78744444256655], [-83.12008427084714, 28.378261282360956], [-82.94683193937682, 28.547912441074573], [-82.98013486242392, 28.7336168061601], [-83.28183536671474, 28.848349498711404], [-83.78765341970184, 29.571679849281605], [-83.20382546987649, 29.62082114660037], [-82.73447117004112, 29.584511593932373], [-82.27522429896017, 29.456097535946103], [-82.00996159133248, 29.479882919521064], [-81.42680484956476, 29.979116207287063], [-80.99801505336319, 30.032719203958134], [-80.75520059408946, 29.414626373216457], [-80.22831009726261, 28.585879083976433], [-80.27895736516328, 28.177831850492325], [-79.78954500432337, 27.119579459547793], [-79.76734771184931, 26.88760101474802], [-80.13018546099858, 26.87681294088526], [-80.99024311020565, 27.00470864670163], [-81.16289299166746, 26.837873794963684], [-81.48871752174381, 25.76560991457474], [-81.8172671007614, 25.56440190943532], [-82.28512481197377, 25.46716469502806], [-82.48660531626071, 25.484137288080582]]]}}, {"type": "Feature", "properties": {"dn": 1, "PRODUCT": "Day 1 Excessive Rainfall Potential Forecast", "VALID_TIME": "12Z 10/07/26 - 12Z 10/08/26", "OUTLOOK": "Marginal (At Least 5%)", "ISSUE_TIME": "2026-10-07 08:27:00", "START_TIME": "2026-10-07 12:00:00", "END_TIME": "2026-10-08 12:00:00", "Snippet": "12Z 10/07/26 - 12Z 10/08/26"}, "geometry": {"type": "Polygon", "coordinates": [[[-84.91495558255247, 29.283425972630603], [-84.91383646182673, 29.28426708487265], [-84.91287275762693, 29.283290570634822], [-84.91495558255247, 29.283425972630603]]]}}, {"type": "Feature", "properties": {"dn": 1, "PRODUCT": "Day 1 Excessive Rainfall Potential Forecast", "VALID_TIME": "12Z 10/07/26 - 12Z 10/08/26", "OUTLOOK": "Marginal (At Least 5%)", "ISSUE_TIME": "2026-10-07 08:27:00", "START_TIME": "2026-10-07 12:00:00", "END_TIME": "2026-10-08 12:00:00", "Snippet": "12Z 10/07/26 - 12Z 10/08/26"}, "geometry": {"type": "Polygon", "coordinates": [[[-84.806896870655, 29.32205140774426], [-84.80577661520222, 29.322891698125602], [-84.80481348959248, 29.321914564883834], [-84.806896870655, 29.32205140774426]]]}}, {"type": "Feature", "properties": {"dn": 1, "PRODUCT": "Day 1 Excessive Rainfall Potential Forecast", "VALID_TIME": "12Z 10/07/26 - 12Z 10/08/26", "OUTLOOK": "Marginal (At Least 5%)", "ISSUE_TIME": "2026-10-07 08:27:00", "START_TIME": "2026-10-07 12:00:00", "END_TIME": "2026-10-08 12:00:00", "Snippet": "12Z 10/07/26 - 12Z 10/08/26"}, "geometry": {"type": "Polygon", "coordinates": [[[-84.7497464891086, 29.364887566907807], [-84.69668365077516, 29.36046141597158], [-84.69780491878488, 29.35962224006529], [-84.7497464891086, 29.364887566907807]]]}}, {"type": "Feature", "properties": {"dn": 1, "PRODUCT": "Day 1 Excessive Rainfall Potential Forecast", "VALID_TIME": "12Z 10/07/26 - 12Z 10/08/26", "OUTLOOK": "Marginal (At Least 5%)", "ISSUE_TIME": "2026-10-07 08:27:00", "START_TIME": "2026-10-07 12:00:00", "END_TIME": "2026-10-08 12:00:00", "Snippet": "12Z 10/07/26 - 12Z 10/08/26"}, "geometry": {"type": "Polygon", "coordinates": [[[-84.64155936697576, 29.403393865868434], [-84.58848330972324, 29.39893104406978], [-84.58960571074063, 29.39809269208807], [-84.64155936697576, 29.403393865868434]]]}}, {"type": "Feature", "properties": {"dn": 1, "PRODUCT": "Day 1 Excessive Rainfall Potential Forecast", "VALID_TIME": "12Z 10/07/26 - 12Z 10/08/26", "OUTLOOK": "Marginal (At Least 5%)", "ISSUE_TIME": "2026-10-07 08:27:00", "START_TIME": "2026-10-07 12:00:00", "END_TIME": "2026-10-08 12:00:00", "Snippet": "12Z 10/07/26 - 12Z 10/08/26"}, "geometry": {"type": "Polygon", "coordinates": [[[-84.48229757066945, 29.43746453898929], [-84.48117391214474, 29.438302356182028], [-84.48021253543376, 29.43732336959901], [-84.48229757066945, 29.43746453898929]]]}}]}