{"type": "FeatureCollection", "features": [{"type": "Feature", "properties": {"dn": 1, "PRODUCT": "Day 2 Excessive Rainfall Potential Forecast", "VALID_TIME": "12Z 10/08/26 - 12Z 10/09/26", "OUTLOOK": "Marginal (At Least 5%)", "ISSUE_TIME": "2026-10-07 08:27:00", "START_TIME": "2026-10-08 12:00:00", "END_TIME": "2026-10-09 12:00:00", "Snippet": "12Z 10/08/26 - 12Z 10/09/26"}, "geometry": {"type": "Polygon", "coordinates": [[[-81.95384352796049, 25.714050564496983], [-82.1181065867413, 26.09627964729339], [-82.2642860577806, 26.15368335589894], [-82.53643912279504, 26.498454800815157], [-83.17876934092348, 27.78744444256655], [-83.12008427084714, 28.378261282360956], [-82.94683193937682, 28.547912441074573], [-82.98013486242392, 28.7336168061601], [-83.28183536671474, 28.848349498711404], [-83.32023214938555, 28.98850924755592], [-83.83551159643507, 29.620817152541008], [-83.26052413123284, 29.579399566206938], [-83.04272829058382, 29.654235619476538], [-81.67339301923927, 30.594616023481386], [-81.12115507400084, 30.775255091997032], [-80.91979709382122, 29.79593975750715], [-80.22831009726261, 28.585879083976433], [-80.27895736516328, 28.177831850492325], [-79.78954500432337, 27.119579459547793], [-79.72225018624539, 26.83709996097543], [-79.81946414724669, 26.065544785995883], [-79.92726959812941, 26.0295106945756], [-80.32595066839683, 26.114913387512185], [-80.74908973301508, 26.431173495630155], [-80.99740778498459, 26.500343405490874], [-81.27070107377003, 26.34272355423872], [-81.95384352796049, 25.714050564496983]]]}}, {"type": "Feature", "properties": {"dn": 1, "PRODUCT": "Day 2 Excessive Rainfall Potential Forecast", "VALID_TIME": "12Z 10/08/26 - 12Z 10/09/26", "OUTLOOK": "Marginal (At Least 5%)", "ISSUE_TIME": "2026-10-07 08:27:00", "START_TIME": "2026-10-08 12:00:00", "END_TIME": "2026-10-09 12:00:00", "Snippet": "12Z 10/08/26 - 12Z 10/09/26"}, "geometry": {"type": "Polygon", "coordinates": [[[-85.17437984791225, 29.29915663257841], [-85.68460892611208, 29.46759498758081], [-85.72344750313837, 29.653424985947463], [-85.96634164550724, 29.894930583775515], [-86.27483616084795, 30.00460180479092], [-86.21560496459787, 30.092493968301714], [-86.0466925291358, 30.22063355007778], [-85.36419437905693, 30.180130474156147], [-84.03373197658128, 29.726278809662997], [-84.4813360692646, 29.436485842805258], [-84.91399175906047, 29.282449750682755], [-85.17437984791225, 29.29915663257841]]]}}, {"type": "Feature", "properties": {"dn": 1, "PRODUCT": "Day 2 Excessive Rainfall Potential Forecast", "VALID_TIME": "12Z 10/08/26 - 12Z 10/09/26", "OUTLOOK": "Marginal (At Least 5%)", "ISSUE_TIME": "2026-10-07 08:27:00", "START_TIME": "2026-10-08 12:00:00", "END_TIME": "2026-10-09 12:00:00", "Snippet": "12Z 10/08/26 - 12Z 10/09/26"}, "geometry": {"type": "Polygon", "coordinates": [[[-83.93449190027658, 29.674489281236898], [-83.88132127774392, 29.669787145414258], [-83.88245127110501, 29.66895422242978], [-83.93449190027658, 29.674489281236898]]]}}]}