{"type": "FeatureCollection", "features": [{"type": "Feature", "properties": {"dn": 1, "PRODUCT": "Day 1 Excessive Rainfall Potential Forecast", "VALID_TIME": "16Z 07/24/26 - 12Z 07/25/26", "OUTLOOK": "Marginal (At Least 5%)", "ISSUE_TIME": "2026-07-24 15:54:00", "START_TIME": "2026-07-24 16:00:00", "END_TIME": "2026-07-25 12:00:00", "Snippet": "16Z 07/24/26 - 12Z 07/25/26"}, "geometry": {"type": "MultiPolygon", "coordinates": [[[[-80.97793980749383, 31.08051353045219], [-81.41590625780354, 30.981851554241427], [-81.78498524870261, 31.01322265461192], [-82.33664034128728, 31.33308011813955], [-82.57629767092352, 32.08102921157469], [-82.76911087276751, 32.27704308049265], [-83.07990570615067, 32.391469672454676], [-85.36861030329099, 32.04559533171309], [-86.86301612591818, 32.128684714662], [-87.65573164006892, 32.30319897186538], [-89.39828326197625, 32.87200778009483], [-90.68501256829403, 33.04731865128033], [-91.69770401607992, 33.478102837170205], [-92.23127923241913, 33.804228992812845], [-93.68201248833685, 35.128820259616916], [-95.16675725185482, 35.89723034152466], [-96.00479138278628, 36.65642477426647], [-96.40402230913935, 37.368058576441136], [-96.36203222722004, 38.48059862994265], [-96.71349259461292, 39.18646914521758], [-96.71855662495463, 39.49586802672336], [-96.49537585009054, 39.89508070132056], [-96.21064744636845, 40.206501771379095], [-95.63643390509596, 40.51735099681646], [-94.48028877138371, 40.605599198152426], [-92.63586699325529, 40.32691479850697], [-91.95038856275752, 40.09634684776811], [-90.82121328522952, 39.543822481805606], [-90.20901072166107, 39.12921078578856], [-89.67509075952863, 38.40403112623702], [-89.25940354108982, 36.65134889843456], [-88.9123294650485, 35.877166017423065], [-88.28595656388688, 35.269789121583344], [-87.53505725710278, 34.96752941327638], [-86.98734247149778, 34.94187683114278], [-85.92540894168866, 35.15735929506077], [-84.50444537517659, 35.61402097492378], [-83.68847757418649, 36.01066188354021], [-83.17256850861571, 36.15488474572427], [-81.0647021423503, 36.08262464987819], [-78.94968132489093, 36.43392637163228], [-76.80358351036827, 36.53054051685101], [-75.98540278922638, 36.710719207776194], [-75.67782319759552, 36.85622672569431], [-75.11876789305349, 35.70374929632649], [-75.24711970735581, 34.99265195274225], [-75.69258775655094, 34.8786593344872], [-76.17636920109427, 34.41994090223707], [-76.51793781172255, 34.24637167594707], [-76.77342781215607, 34.36609377873327], [-77.12101866096434, 34.25884948694483], [-77.49503372776991, 34.02102622238677], [-77.59775783211109, 33.713532871787905], [-77.77928135272572, 33.55640096996224], [-77.95413316750886, 33.483851700604475], [-77.96878853096125, 33.49960771698066], [-77.95243455679575, 33.49505610629857], [-77.7775643094343, 33.56760132972876], [-77.61121073950025, 33.714975480246174], [-77.50852211424008, 34.02247604206834], [-77.20656471481978, 34.2144833289252], [-77.08699188017114, 34.28158761757977], [-76.76854892880894, 34.39586392823509], [-76.51299624666441, 34.27614480991967], [-76.21241845200345, 34.42409440105609], [-75.68739766468772, 34.908349378346486], [-75.28331915995825, 34.99700139975197], [-75.15519581418542, 35.70811642855602], [-75.47385567544774, 36.42539922992912], [-76.65069465108989, 36.10676342368597], [-78.71186904228377, 35.77869681523477], [-79.0671414268748, 35.63239251637574], [-79.62322587316355, 35.2328323860656], [-80.37551884785677, 34.98455933475482], [-80.93269610708789, 34.94259280792222], [-81.75159770963008, 35.010419854483544], [-82.06373569066956, 35.17067605302918], [-82.6606448837058, 35.75734169830376], [-82.92601901984669, 35.86683902265409], [-83.26623702994713, 35.80107585456579], [-84.0866070075624, 35.36144051966738], [-85.2833550464929, 34.940120762901294], [-87.83224315964189, 34.61970725765554], [-88.31851938031639, 34.730309730025255], [-88.95779123975404, 35.07019842383367], [-90.17857046741307, 36.05301546693885], [-90.86134026769629, 37.05575812026139], [-91.32809536528103, 38.13598900470824], [-91.5453324471695, 38.40708505924446], [-92.43576137762837, 39.08799683504131], [-93.4538505643624, 39.63038858120882], [-94.25373493137654, 39.9443520921116], [-94.88586082083404, 39.94588991623293], [-95.45915151169348, 39.50367325729555], [-95.74088508251253, 38.88342279366402], [-95.68170995159608, 38.528987402072225], [-95.56713186122909, 38.30744149814019], [-94.94511262676089, 37.6412119332185], [-93.28122558030843, 36.20311122846262], [-92.30802294477115, 35.15806112371958], [-91.66437871373454, 34.605844484081544], [-90.75736430489891, 33.99873893221991], [-89.59202384878904, 33.33164505780135], [-87.53097985000919, 32.57007705186419], [-86.15492764111437, 32.273202887536954], [-85.39919796013602, 32.32050991282655], [-83.97109681586873, 32.63748394682047], [-82.62327111152909, 32.63014957172934], [-82.05531899543963, 32.40335177052474], [-81.37283897866689, 31.799921214534475], [-81.1183827468303, 31.686689944940397], [-80.76164980758978, 31.655511420900535], [-80.80478819113524, 31.613784504858923], [-80.97793980749383, 31.08051353045219]]], [[[-78.80664001551852, 33.29279336236208], [-78.91152972895824, 32.93896155329673], [-80.45975156681814, 31.947531694041075], [-80.6731948407041, 31.741072183111577], [-80.49516161744837, 31.950764511883545], [-78.92490700339471, 32.94029840807342], [-78.82005780191757, 33.29413767025043], [-78.49651714979711, 33.5059617226465], [-78.2144273987669, 33.56797351500183], [-78.08880219538261, 33.53300971893136], [-78.38404997646806, 33.52858516493192], [-78.80664001551852, 33.29279336236208]]]]}}, {"type": "Feature", "properties": {"dn": 1, "PRODUCT": "Day 1 Excessive Rainfall Potential Forecast", "VALID_TIME": "16Z 07/24/26 - 12Z 07/25/26", "OUTLOOK": "Marginal (At Least 5%)", "ISSUE_TIME": "2026-07-24 15:54:00", "START_TIME": "2026-07-24 16:00:00", "END_TIME": "2026-07-25 12:00:00", "Snippet": "16Z 07/24/26 - 12Z 07/25/26"}, "geometry": {"type": "Polygon", "coordinates": [[[-105.76673411306979, 32.7002258348145], [-106.31745258414865, 33.34416272667221], [-106.35365449097708, 33.704271294298174], [-106.46976853228402, 33.785827870033515], [-107.20722866091064, 33.55079078954217], [-107.52885942009097, 33.027830332493316], [-107.78811229696329, 32.91568509053435], [-109.240402881105, 32.839172981466874], [-110.12646033521868, 32.985846035562034], [-110.64064572782587, 33.1652440284996], [-110.82668875472885, 33.3291497990111], [-111.0169620067396, 33.90160709123859], [-111.43941877869574, 34.17661371507822], [-112.08188882535374, 34.428592234748436], [-112.45711357885199, 34.70774999410044], [-113.03643156503279, 35.55223121597913], [-113.53727634171646, 36.53745281909151], [-113.82593994058693, 37.22707388562871], [-113.94299311764001, 37.88891899427505], [-113.83802054793215, 38.259653410140224], [-113.31205483442506, 38.85465831209763], [-112.62321220355895, 39.19396697459156], [-112.05001083842276, 39.20648381409272], [-111.15942895492199, 39.024030579694184], [-110.37707593613327, 38.38118196073531], [-109.98317071260747, 38.41589304997536], [-109.34323393927507, 38.73793921582209], [-108.3522619141856, 39.927404656963255], [-107.64604769672768, 40.289036556805584], [-106.67445999290564, 40.39979768452491], [-106.08504885459259, 40.30517597096251], [-105.34107393918929, 39.819156392186194], [-104.86107770352025, 39.00492876924204], [-104.94128428134184, 38.644928726319314], [-105.42432419982445, 37.769770658742765], [-105.31681749710945, 37.23996627322516], [-104.98799307466858, 36.72227204156407], [-104.58021660131512, 36.52264648447105], [-103.47985762803532, 36.71601828769513], [-102.26899372286977, 36.1450795383147], [-101.31434054157013, 35.959425660756665], [-99.92313036453007, 35.826649240774906], [-99.58292672117511, 35.65587406582049], [-99.46529245218144, 35.47940948981537], [-99.44720760023031, 35.030284502031186], [-99.76394636026147, 34.70541834023496], [-100.35262920784726, 34.41691589687766], [-100.78434753789267, 34.31206783752405], [-101.9492414790631, 33.72478299567609], [-102.32265638604343, 33.61797870275382], [-102.83878111591588, 33.23183290240348], [-103.05450111722175, 33.22124356103099], [-103.4453667014145, 33.38246852361835], [-104.0283147792127, 33.2151470195531], [-104.38153430016781, 33.557431908436506], [-104.54748806699605, 33.59303917410257], [-105.13530689207948, 32.87740464398279], [-105.39142509498268, 32.7249171375727], [-105.76673411306979, 32.7002258348145]]]}}, {"type": "Feature", "properties": {"dn": 1, "PRODUCT": "Day 1 Excessive Rainfall Potential Forecast", "VALID_TIME": "16Z 07/24/26 - 12Z 07/25/26", "OUTLOOK": "Marginal (At Least 5%)", "ISSUE_TIME": "2026-07-24 15:54:00", "START_TIME": "2026-07-24 16:00:00", "END_TIME": "2026-07-25 12:00:00", "Snippet": "16Z 07/24/26 - 12Z 07/25/26"}, "geometry": {"type": "Polygon", "coordinates": [[[-93.89522446337732, 46.512565485133926], [-95.30881278398908, 46.76888751173536], [-95.74130059440179, 46.936443964409555], [-96.1782105972094, 47.229876757023284], [-96.55741196582005, 47.688999682521285], [-96.75288015158432, 48.14738347851556], [-96.82975070550584, 48.85410330268939], [-96.64558278771622, 49.18786514414818], [-95.50672436238419, 49.15240911350793], [-95.44536366674684, 49.524275311148095], [-94.61988896219992, 49.52440426284683], [-94.37003183777543, 48.94502040391903], [-93.61563975877733, 48.77541400180068], [-92.92311487036125, 48.76958751681956], [-91.69650112181411, 47.878141286708406], [-90.90031967024613, 47.52743832379358], [-90.97162164277478, 47.318870897690566], [-91.48127553750761, 46.99095175416349], [-92.23209257466269, 46.66530704047321], [-93.03538844800471, 46.50586630732722], [-93.89522446337732, 46.512565485133926]]]}}, {"type": "Feature", "properties": {"dn": 2, "PRODUCT": "Day 1 Excessive Rainfall Potential Forecast", "VALID_TIME": "16Z 07/24/26 - 12Z 07/25/26", "OUTLOOK": "Slight (At Least 15%)", "ISSUE_TIME": "2026-07-24 15:54:00", "START_TIME": "2026-07-24 16:00:00", "END_TIME": "2026-07-25 12:00:00", "Snippet": "16Z 07/24/26 - 12Z 07/25/26"}, "geometry": {"type": "Polygon", "coordinates": [[[-77.50852211424008, 34.02247604206834], [-77.61121073950025, 33.714975480246174], [-77.7775643094343, 33.56760132972876], [-77.95243455679575, 33.49505610629857], [-78.2144273987669, 33.56797351500183], [-78.49651714979711, 33.5059617226465], [-78.82005780191757, 33.29413767025043], [-78.92490700339471, 32.94029840807342], [-80.49516161744837, 31.950764511883545], [-80.74693001432547, 31.654224908280955], [-81.1183827468303, 31.686689944940397], [-81.37283897866689, 31.799921214534475], [-82.05531899543963, 32.40335177052474], [-82.62327111152909, 32.63014957172934], [-83.97109681586873, 32.63748394682047], [-85.39919796013602, 32.32050991282655], [-86.15492764111437, 32.273202887536954], [-87.53097985000919, 32.57007705186419], [-89.59202384878904, 33.33164505780135], [-90.75736430489891, 33.99873893221991], [-91.66437871373454, 34.605844484081544], [-92.30802294477115, 35.15806112371958], [-93.28122558030843, 36.20311122846262], [-94.94511262676089, 37.6412119332185], [-95.56713186122909, 38.30744149814019], [-95.68170995159608, 38.528987402072225], [-95.74088508251253, 38.88342279366402], [-95.45915151169348, 39.50367325729555], [-94.88586082083404, 39.94588991623293], [-94.25373493137654, 39.9443520921116], [-93.4538505643624, 39.63038858120882], [-92.43576137762837, 39.08799683504131], [-91.5453324471695, 38.40708505924446], [-91.32809536528103, 38.13598900470824], [-90.86134026769629, 37.05575812026139], [-90.17857046741307, 36.05301546693885], [-88.95779123975404, 35.07019842383367], [-88.31851938031639, 34.730309730025255], [-87.83224315964189, 34.61970725765554], [-85.2833550464929, 34.940120762901294], [-84.0866070075624, 35.36144051966738], [-83.26623702994713, 35.80107585456579], [-82.92601901984669, 35.86683902265409], [-82.6606448837058, 35.75734169830376], [-82.06373569066956, 35.17067605302918], [-81.75159770963008, 35.010419854483544], [-80.93269610708789, 34.94259280792222], [-80.37551884785677, 34.98455933475482], [-79.62322587316355, 35.2328323860656], [-79.0671414268748, 35.63239251637574], [-78.71186904228377, 35.77869681523477], [-76.65069465108989, 36.10676342368597], [-75.47385567544774, 36.42539922992912], [-75.15519581418542, 35.70811642855602], [-75.28331915995825, 34.99700139975197], [-75.68739766468772, 34.908349378346486], [-76.21241845200345, 34.42409440105609], [-76.51299624666441, 34.27614480991967], [-76.76854892880894, 34.39586392823509], [-77.08699188017114, 34.28158761757977], [-76.99924804115497, 34.33082947019874], [-77.03882541118696, 34.42610829612454], [-77.54544432954663, 34.708203979830365], [-77.77651363350873, 34.641858584254486], [-78.38637831464243, 34.25089658896875], [-78.89941226805283, 34.12068075457415], [-79.55480272184793, 34.138682710021435], [-80.0599578340145, 34.049606955542075], [-80.6552117913121, 34.103065599826216], [-80.91466771164959, 34.21633845002188], [-81.40815415806559, 34.212819382093656], [-81.58723974123467, 34.091498904900256], [-81.78687449789138, 33.7904527848556], [-81.76988247509625, 33.47145189585715], [-81.33938198573364, 32.98113356494837], [-80.59254709098009, 32.46077097296277], [-79.9406825451098, 32.49189341861372], [-78.95849986531437, 32.94354159732144], [-78.85360226791515, 33.29749843997132], [-78.49240507515529, 33.53398589498141], [-78.21024309832261, 33.59598576566125], [-77.94818803001293, 33.52306712053381], [-77.71246587396291, 33.63476392994228], [-77.5422430804155, 34.02610059127227], [-77.20656471481978, 34.2144833289252], [-77.50852211424008, 34.02247604206834]]]}}, {"type": "Feature", "properties": {"dn": 3, "PRODUCT": "Day 1 Excessive Rainfall Potential Forecast", "VALID_TIME": "16Z 07/24/26 - 12Z 07/25/26", "OUTLOOK": "Moderate (At Least 40%)", "ISSUE_TIME": "2026-07-24 15:54:00", "START_TIME": "2026-07-24 16:00:00", "END_TIME": "2026-07-25 12:00:00", "Snippet": "16Z 07/24/26 - 12Z 07/25/26"}, "geometry": {"type": "Polygon", "coordinates": [[[-80.59254709098009, 32.46077097296277], [-81.33938198573364, 32.98113356494837], [-81.76988247509625, 33.47145189585715], [-81.78687449789138, 33.7904527848556], [-81.58723974123467, 34.091498904900256], [-81.40815415806559, 34.212819382093656], [-80.91466771164959, 34.21633845002188], [-80.6552117913121, 34.103065599826216], [-80.0599578340145, 34.049606955542075], [-79.55480272184793, 34.138682710021435], [-78.89941226805283, 34.12068075457415], [-78.38637831464243, 34.25089658896875], [-77.77651363350873, 34.641858584254486], [-77.54544432954663, 34.708203979830365], [-77.03882541118696, 34.42610829612454], [-76.99924804115497, 34.33082947019874], [-77.08699188017114, 34.28158761757977], [-77.20656471481982, 34.21448332892517], [-77.20656471481978, 34.2144833289252], [-77.5422430804155, 34.02610059127227], [-77.71246587396291, 33.63476392994228], [-77.94818803001293, 33.52306712053381], [-78.21024309832261, 33.59598576566125], [-78.49240507515529, 33.53398589498141], [-78.85360226791515, 33.29749843997132], [-78.95849986531437, 32.94354159732144], [-79.9406825451098, 32.49189341861372], [-80.59254709098009, 32.46077097296277]]]}}]}