{"type": "FeatureCollection", "features": [{"type": "Feature", "properties": {"dn": 1, "PRODUCT": "Day 2 Excessive Rainfall Potential Forecast", "VALID_TIME": "12Z 07/25/26 - 12Z 07/26/26", "OUTLOOK": "Marginal (At Least 5%)", "ISSUE_TIME": "2026-07-24 08:08:00", "START_TIME": "2026-07-25 12:00:00", "END_TIME": "2026-07-26 12:00:00", "Snippet": "12Z 07/25/26 - 12Z 07/26/26"}, "geometry": {"type": "MultiPolygon", "coordinates": [[[[-80.49445341643577, 31.950699855526654], [-80.7406272890233, 31.699283483611605], [-81.06333969206358, 30.81400619081931], [-81.38445008557163, 30.796442649273224], [-81.94145818209317, 30.569632038695882], [-82.25679928739868, 30.595543392338993], [-83.53197225825681, 31.104216166402146], [-85.15630235244645, 31.395803401131094], [-86.35972638927693, 31.693283565874886], [-87.65863305572297, 32.25795289692394], [-89.01215417790085, 33.03927145475451], [-90.05773207731202, 33.844073884247166], [-92.33652068693398, 36.28037402054248], [-92.60330019808941, 36.77655050598081], [-92.65327516736677, 37.045312227508724], [-92.41471651818834, 37.66624512620513], [-91.83819969123853, 38.102531015315776], [-91.09300264411357, 38.39834688378622], [-90.29873758041956, 38.422996966860005], [-89.5155908175155, 38.22213917876804], [-88.79952700853194, 37.886301947177344], [-88.53044500719525, 37.65264240561234], [-87.43918021757408, 36.355541594122286], [-86.97064332408286, 35.9308018433503], [-85.90698454125886, 35.38152867885921], [-84.67331977498752, 34.993754970407714], [-84.01247325170603, 34.99622586496623], [-83.28271935208845, 35.12658473754217], [-82.13403555137153, 35.041127493435155], [-81.52217450041086, 35.08267172875135], [-79.91445868662542, 35.53129015493715], [-78.13588047906377, 36.263772646643204], [-77.31468219794198, 36.49495455237331], [-76.45000977203996, 36.62724706143581], [-75.51284031028604, 36.52096796096635], [-75.10452540007526, 35.47516944123471], [-75.24711970735581, 34.99265195274225], [-75.69258775655094, 34.8786593344872], [-76.17636920109427, 34.41994090223707], [-76.51793781172255, 34.24637167594707], [-76.77342781215607, 34.36609377873327], [-77.11955399511409, 34.26797238615109], [-77.50604924338721, 34.02221024179338], [-77.60874437314557, 33.71471100202884], [-77.7778791007044, 33.565547930438235], [-77.95274596875981, 33.49300196525466], [-77.99182806789635, 33.53501566479408], [-77.9482163401915, 33.52288038043892], [-77.77330031859398, 33.59541555648216], [-77.64461879285001, 33.71855795791758], [-77.54201827397435, 34.02607642761089], [-77.11477141274594, 34.29776144478377], [-76.76854892880894, 34.39586392823509], [-76.56702118014071, 34.28226107388718], [-76.33598779051458, 34.346979512730535], [-75.68739766468772, 34.908349378346486], [-75.28331915995825, 34.99700139975197], [-75.14087730805318, 35.479543103565774], [-75.39004580510084, 35.645822710503005], [-75.86641167624289, 35.7921214899817], [-76.35921920184622, 35.84815372589974], [-76.75770762320683, 35.80184062166559], [-78.04722231809446, 35.39551602699362], [-78.96136030545452, 35.21515147479321], [-80.45255281445694, 34.402313966271294], [-80.88614102424772, 33.578512070440745], [-81.04034322936297, 32.77371019159274], [-81.00900192353448, 32.58893671959547], [-80.81726143089851, 32.389471705917906], [-80.11017584138443, 32.19254884550372], [-80.49445341643577, 31.950699855526654]]], [[[-78.38269705127462, 33.537737940718245], [-78.81759787441108, 33.29389121380424], [-78.92245450308135, 32.94005331803102], [-79.60381047803028, 32.511235023509855], [-78.95812723491197, 32.94361826410218], [-78.85337863814183, 33.29747603483985], [-78.49243248898624, 33.53379906716586], [-78.2102709936589, 33.595799017323515], [-78.0210740342229, 33.543153570267954], [-78.38269705127462, 33.537737940718245]]]]}}, {"type": "Feature", "properties": {"dn": 1, "PRODUCT": "Day 2 Excessive Rainfall Potential Forecast", "VALID_TIME": "12Z 07/25/26 - 12Z 07/26/26", "OUTLOOK": "Marginal (At Least 5%)", "ISSUE_TIME": "2026-07-24 08:08:00", "START_TIME": "2026-07-25 12:00:00", "END_TIME": "2026-07-26 12:00:00", "Snippet": "12Z 07/25/26 - 12Z 07/26/26"}, "geometry": {"type": "Polygon", "coordinates": [[[-111.39715768553121, 31.26293510585268], [-111.62866683278659, 31.37687556084817], [-111.76040037044343, 31.545925536821365], [-111.65410161334103, 31.922834354413606], [-111.0266977003627, 32.44459656155394], [-110.79863474459093, 32.73989959204778], [-110.82997968527135, 32.96461448129689], [-111.1616827948679, 33.38700204890364], [-111.48149174075655, 34.08241495922458], [-111.39162754068326, 34.59085561333005], [-110.67689546246187, 35.386012529004695], [-109.79418966206228, 35.82835328579713], [-108.7632593839105, 36.905458675464935], [-108.6414668803981, 37.274254668038964], [-108.69233300188462, 37.67334930678628], [-108.614256062229, 37.94799023635441], [-108.46169097922389, 38.09499829910266], [-107.87550605738129, 38.407659447833325], [-106.17623860027163, 40.07860787890723], [-105.8505103749006, 40.2755397969632], [-105.3862511887495, 40.25920509485755], [-104.94879732997639, 39.93015133847285], [-104.7438479816933, 39.58776969038095], [-104.72332116501168, 39.36746616522402], [-104.99788846522968, 38.64167175992185], [-105.06057584825778, 38.10376637622448], [-104.21566294690152, 36.18315412934169], [-104.1229970674753, 35.73892585143996], [-104.2544348517605, 35.326680898882636], [-104.8334315766062, 34.39106496417179], [-104.92485665464758, 33.57132839813982], [-105.13431316941829, 32.87837450629879], [-105.38730672565073, 32.679782751463534], [-105.9188758962492, 32.59912230694766], [-106.71927424942555, 33.04236869593157], [-107.09531962016824, 33.01460679834108], [-107.45633474168109, 32.85081279264405], [-108.5064655386369, 32.58405726394825], [-109.06636693660631, 32.30819111282601], [-110.17149052802878, 31.29400996815544], [-110.63416451413718, 31.15744694631157], [-111.39715768553121, 31.26293510585268]], [[-105.63123564475738, 32.98204054682674], [-105.29128550869227, 33.41259828966794], [-105.17405084201008, 33.91808720880856], [-105.30671358599187, 34.76849185514106], [-105.54700622517856, 34.97938017474027], [-105.88839502648885, 35.092566048003064], [-106.49975405943569, 35.14140323585435], [-106.84260402729706, 35.25256213794501], [-107.13562446310306, 35.41132256129985], [-107.87266831679538, 36.03228731142081], [-108.15910120337833, 36.10002764840006], [-108.54519946313209, 36.06919766682736], [-108.75450076957472, 35.96199937731876], [-108.99609332548432, 35.67090588101859], [-109.25022782756379, 35.06209578073653], [-109.67627320590557, 34.526759332528016], [-109.9841309432266, 33.9546005721409], [-109.97820101769597, 33.50091678325026], [-109.8468588766029, 33.33118714385645], [-109.31670665356691, 33.01483398736218], [-108.97823612986375, 32.90812038046236], [-108.23287191861404, 33.016559611825464], [-106.98184378769467, 33.47734675359705], [-106.71214041923453, 33.497052751383414], [-106.48714042559897, 33.42246219594861], [-105.84617242426783, 32.96772813230498], [-105.63123564475738, 32.98204054682674]]]}}, {"type": "Feature", "properties": {"dn": 2, "PRODUCT": "Day 2 Excessive Rainfall Potential Forecast", "VALID_TIME": "12Z 07/25/26 - 12Z 07/26/26", "OUTLOOK": "Slight (At Least 15%)", "ISSUE_TIME": "2026-07-24 08:08:00", "START_TIME": "2026-07-25 12:00:00", "END_TIME": "2026-07-26 12:00:00", "Snippet": "12Z 07/25/26 - 12Z 07/26/26"}, "geometry": {"type": "Polygon", "coordinates": [[[-80.81726143089851, 32.389471705917906], [-81.00900192353448, 32.58893671959547], [-81.04034322936297, 32.77371019159274], [-80.88614102424772, 33.578512070440745], [-80.45255281445694, 34.402313966271294], [-78.96136030545452, 35.21515147479321], [-78.04722231809446, 35.39551602699362], [-76.75770762320683, 35.80184062166559], [-76.35921920184622, 35.84815372589974], [-75.86641167624289, 35.7921214899817], [-75.39004580510084, 35.645822710503005], [-75.14087730805318, 35.479543103565774], [-75.28331915995825, 34.99700139975197], [-75.68739766468772, 34.908349378346486], [-76.33598779051458, 34.346979512730535], [-76.56702118014071, 34.28226107388718], [-76.76854892880894, 34.39586392823509], [-77.11477141274594, 34.29776144478377], [-77.54201827397435, 34.02607642761089], [-77.64461879285001, 33.71855795791758], [-77.77330031859398, 33.59541555648216], [-77.9482163401915, 33.52288038043892], [-78.2102709936589, 33.595799017323515], [-78.49243248898624, 33.53379906716586], [-78.85337863814183, 33.29747603483985], [-78.95812723491197, 32.94361826410218], [-80.0886576259062, 32.18655603698687], [-80.81726143089851, 32.389471705917906]]]}}, {"type": "Feature", "properties": {"dn": 2, "PRODUCT": "Day 2 Excessive Rainfall Potential Forecast", "VALID_TIME": "12Z 07/25/26 - 12Z 07/26/26", "OUTLOOK": "Slight (At Least 15%)", "ISSUE_TIME": "2026-07-24 08:08:00", "START_TIME": "2026-07-25 12:00:00", "END_TIME": "2026-07-26 12:00:00", "Snippet": "12Z 07/25/26 - 12Z 07/26/26"}, "geometry": {"type": "Polygon", "coordinates": [[[-105.84617242426783, 32.96772813230498], [-106.48714042559897, 33.42246219594861], [-106.71214041923453, 33.497052751383414], [-106.98184378769467, 33.47734675359705], [-108.23287191861404, 33.016559611825464], [-108.97823612986375, 32.90812038046236], [-109.31670665356691, 33.01483398736218], [-109.8468588766029, 33.33118714385645], [-109.97820101769597, 33.50091678325026], [-109.9841309432266, 33.9546005721409], [-109.67627320590557, 34.526759332528016], [-109.25022782756379, 35.06209578073653], [-108.99609332548432, 35.67090588101859], [-108.75450076957472, 35.96199937731876], [-108.54519946313209, 36.06919766682736], [-108.15910120337833, 36.10002764840006], [-107.87266831679538, 36.03228731142081], [-107.13562446310306, 35.41132256129985], [-106.84260402729706, 35.25256213794501], [-106.49975405943569, 35.14140323585435], [-105.88839502648885, 35.092566048003064], [-105.54700622517856, 34.97938017474027], [-105.30671358599187, 34.76849185514106], [-105.17405084201008, 33.91808720880856], [-105.29128550869227, 33.41259828966794], [-105.63123564475738, 32.98204054682674], [-105.84617242426783, 32.96772813230498]]]}}]}