{"type": "FeatureCollection", "features": [{"type": "Feature", "properties": {"dn": 1, "PRODUCT": "Day 1 Excessive Rainfall Potential Forecast", "VALID_TIME": "12Z 10/04/26 - 12Z 10/05/26", "OUTLOOK": "Marginal (At Least 5%)", "ISSUE_TIME": "2026-10-04 07:35:00", "START_TIME": "2026-10-04 12:00:00", "END_TIME": "2026-10-05 12:00:00", "Snippet": "12Z 10/04/26 - 12Z 10/05/26"}, "geometry": {"type": "Polygon", "coordinates": [[[-98.97262942605661, 26.227827006455737], [-98.88692445405025, 26.732666094763808], [-98.59390120146038, 27.196661411227424], [-96.3536779218172, 28.87638445203651], [-93.14819441725169, 30.874236603409404], [-90.86314600971724, 32.601041702213934], [-88.68742877008472, 34.023555370835425], [-87.19376514325822, 35.131930644817416], [-86.27397647039787, 35.626173649212234], [-83.65141576387853, 36.36774336226957], [-83.25426996128535, 36.43029069889275], [-82.53450688150355, 36.378425802685406], [-82.42797968190307, 36.32462503502254], [-82.39331119753828, 36.14210813932733], [-82.56472897697753, 35.614574551045926], [-82.42672769108803, 34.88208104743082], [-82.1755373856139, 34.682789944812534], [-81.63631102199268, 34.594570676001204], [-80.47112287251993, 34.676663297901754], [-79.12194560485962, 34.86890069656095], [-76.80203996737058, 35.535468339807984], [-75.99898097223596, 35.671875003701146], [-75.39792319060815, 35.60185420603658], [-75.14015026989361, 35.47945563031913], [-75.2825951709062, 34.9969144108118], [-75.68750146652499, 34.90775557746928], [-76.21169746698526, 34.4240113310797], [-76.51309507796557, 34.27554934724023], [-76.76864650647587, 34.395268525245044], [-77.11486706439331, 34.297165663611125], [-77.50604924338721, 34.02221024179338], [-77.60874437314557, 33.71471100202884], [-77.7778791007044, 33.565547930438235], [-77.95274596875981, 33.49300196525466], [-78.21473424746615, 33.5659192832868], [-78.49681870193751, 33.50390661667525], [-78.81759787441108, 33.29389121380424], [-78.92245450308135, 32.94005331803102], [-80.45975156681814, 31.947531694041075], [-80.77017919367151, 31.61068153649363], [-81.08584345729689, 30.77121848707945], [-81.0350366494311, 30.30957291686179], [-80.75520059408946, 29.414626373216457], [-80.27542898667095, 28.63534763024622], [-81.30875915146846, 28.730700384986726], [-81.84115196548754, 28.639648843982382], [-82.77189653379148, 28.212635120635497], [-83.16433949718531, 27.92282928301738], [-83.12008427084714, 28.378261282360956], [-82.94683193937682, 28.547912441074573], [-82.98013486242392, 28.7336168061601], [-83.28088857068678, 28.847362681859316], [-83.32023214938555, 28.98850924755592], [-83.98540285520308, 29.692108922093063], [-84.08985618273041, 29.69946174504495], [-84.48398361684634, 29.40681516021565], [-84.91652730596495, 29.252765696468288], [-85.1768504001735, 29.269469043122005], [-85.6869547348701, 29.437906280103434], [-85.75758924982256, 29.655452795826765], [-85.96862488042487, 29.86525609796954], [-86.47913574849645, 30.076363671681225], [-87.70343417682017, 29.864750282439278], [-88.38733618876296, 29.84962085241296], [-88.41293545579818, 29.69906613997842], [-88.6917159591019, 29.39144751268868], [-88.59224730851146, 29.296166584286254], [-88.60702212882808, 29.023070829575545], [-88.9202365787722, 28.685548620119405], [-89.34200050171046, 28.564667981052875], [-89.70096421861717, 28.668676468493437], [-89.84681358832135, 28.90171473828922], [-90.11438397393817, 28.727928607887605], [-91.05098731048433, 28.709085366504713], [-91.6632844398196, 29.11805931176347], [-91.820891038045, 29.075785756639466], [-92.08032577742242, 29.126467070091238], [-92.1824269179349, 29.21950606131329], [-92.5476757470499, 29.225702201592362], [-93.22266304624043, 29.462687779748723], [-93.58870427310148, 29.466435775146778], [-94.26995427925398, 29.24334244579901], [-95.20831027943626, 28.561200309284196], [-95.98412972350866, 28.2389437172858], [-96.29187590762514, 27.978746878282898], [-96.44625311142646, 27.931740195944553], [-96.81869324753524, 27.54774697586698], [-97.00563042409361, 27.043188481792914], [-96.84562757167053, 26.634191899016795], [-96.73369105018455, 25.9503082305044], [-97.22968651911765, 25.638882983859123], [-97.74127205292228, 25.858896037653125], [-98.3018070055462, 25.93904479216217], [-98.39792532966885, 26.01172462936085], [-97.7419564233542, 25.889345329269325], [-97.23024218066091, 25.66933593201249], [-96.74638644175658, 25.950160629963417], [-96.85839445287716, 26.63403490679069], [-97.01844032392651, 27.043018054986693], [-96.95220078532545, 27.31784352248727], [-96.85299709369487, 27.547336942150984], [-96.54837057843883, 27.87020476011624], [-96.24102842295328, 28.055971254237477], [-96.80944888467927, 28.050327441827772], [-97.37508910268599, 27.90572217137055], [-97.83412001061598, 27.669706940578816], [-98.18422115888046, 27.251438313719344], [-98.37161585578984, 26.607939761633414], [-98.40556347609318, 26.0175002111106], [-98.4575382100032, 26.05680088799511], [-98.97262942605661, 26.227827006455737]], [[-88.91868311914267, 28.715913157471075], [-88.64171733282002, 29.024500470304336], [-88.62702245895507, 29.297599021205357], [-88.72652035332919, 29.392857515274873], [-88.44782733960653, 29.700537850475445], [-88.38562995539984, 29.879932882157583], [-87.70155139975977, 29.89505376622549], [-86.47693347956182, 30.106641226423196], [-85.96629504887629, 29.895536185526645], [-85.72275073279788, 29.653383602072367], [-85.68456105246398, 29.468200879570126], [-85.17432942847834, 29.299762501751], [-84.91394001320526, 29.28305554770757], [-84.4812820376813, 29.43709136693973], [-84.08704660242334, 29.72971841276218], [-83.88239405729021, 29.66955933444502], [-83.64769378135803, 29.378237013322853], [-83.13806620637037, 29.751575624733285], [-82.59206726199373, 29.937602628533277], [-81.07201193484372, 29.854939788983568], [-80.92089461375998, 29.795581457204424], [-81.13171677267133, 30.683882193388488], [-80.7413340831997, 31.699347082842287], [-80.49516161744837, 31.950764511883545], [-78.95812723491197, 32.94361826410218], [-78.85337863814183, 33.29747603483985], [-78.49243248898624, 33.53379906716586], [-78.2102709936589, 33.595799017323515], [-77.9482163401915, 33.52288038043892], [-77.71224181094408, 33.63473997397105], [-77.60990254748077, 33.94237358062374], [-77.4200426269798, 34.10391045007367], [-78.00090144372638, 34.25689488088046], [-78.65694036425117, 34.27848185076435], [-81.75481851184799, 34.06032252707769], [-84.95728810237257, 34.28845128755339], [-85.78082863791815, 34.246500221950086], [-86.6681548244706, 34.06816632398786], [-88.40112926979324, 33.3337005210702], [-88.96060455765286, 32.993434817836715], [-90.85112732452498, 31.465868104195593], [-91.0776879773119, 31.062756077978463], [-91.31560479778415, 30.249858711332866], [-91.33836055072418, 29.52180742551614], [-91.15241275232349, 28.7876576149464], [-90.63438421594891, 28.72828710659605], [-90.11313504128486, 28.758302489115707], [-89.84549435862372, 28.932080145071627], [-89.69961032813994, 28.699048935021988], [-89.4442950675013, 28.598810284445943], [-88.91868311914267, 28.715913157471075]]]}}, {"type": "Feature", "properties": {"dn": 2, "PRODUCT": "Day 1 Excessive Rainfall Potential Forecast", "VALID_TIME": "12Z 10/04/26 - 12Z 10/05/26", "OUTLOOK": "Slight (At Least 15%)", "ISSUE_TIME": "2026-10-04 07:35:00", "START_TIME": "2026-10-04 12:00:00", "END_TIME": "2026-10-05 12:00:00", "Snippet": "12Z 10/04/26 - 12Z 10/05/26"}, "geometry": {"type": "Polygon", "coordinates": [[[-97.7419564233542, 25.889345329269325], [-98.40581096075157, 26.01319579362396], [-98.37161585578984, 26.607939761633414], [-98.18422115888046, 27.251438313719344], [-97.83412001061598, 27.669706940578816], [-97.37508910268599, 27.90572217137055], [-96.80944888467927, 28.050327441827772], [-96.24102842295328, 28.055971254237477], [-96.54837057843883, 27.87020476011624], [-96.85299709369487, 27.547336942150984], [-96.95220078532545, 27.31784352248727], [-97.01844032392651, 27.043018054986693], [-96.85839445287716, 26.63403490679069], [-96.74638644175658, 25.950160629963417], [-97.23024218066091, 25.66933593201249], [-97.7419564233542, 25.889345329269325]], [[-97.08058948773711, 25.8087411214783], [-96.77812492068668, 25.949791628610928], [-96.8903116558937, 26.6336424262254], [-97.05046507350876, 27.042591987971186], [-97.00225381300756, 27.22588020499323], [-97.10581653031446, 27.270326192769875], [-97.66945953309212, 27.215839375461524], [-97.82037986172166, 27.075940316644722], [-97.9651496821858, 26.70779448002561], [-97.84900026315204, 26.116121792726947], [-97.38490328653214, 25.804160277331324], [-97.08058948773711, 25.8087411214783]]]}}, {"type": "Feature", "properties": {"dn": 2, "PRODUCT": "Day 1 Excessive Rainfall Potential Forecast", "VALID_TIME": "12Z 10/04/26 - 12Z 10/05/26", "OUTLOOK": "Slight (At Least 15%)", "ISSUE_TIME": "2026-10-04 07:35:00", "START_TIME": "2026-10-04 12:00:00", "END_TIME": "2026-10-05 12:00:00", "Snippet": "12Z 10/04/26 - 12Z 10/05/26"}, "geometry": {"type": "Polygon", "coordinates": [[[-89.4442950675013, 28.598810284445943], [-89.69961032813994, 28.699048935021988], [-89.84549435862372, 28.932080145071627], [-90.11313504128486, 28.758302489115707], [-90.63438421594891, 28.72828710659605], [-91.15241275232349, 28.7876576149464], [-91.33836055072418, 29.52180742551614], [-91.31560479778415, 30.249858711332866], [-91.0776879773119, 31.062756077978463], [-90.85112732452498, 31.465868104195593], [-88.96060455765286, 32.993434817836715], [-88.40112926979324, 33.3337005210702], [-86.6681548244706, 34.06816632398786], [-85.78082863791815, 34.246500221950086], [-84.95728810237257, 34.28845128755339], [-81.75481851184799, 34.06032252707769], [-78.65694036425117, 34.27848185076435], [-78.00090144372638, 34.25689488088046], [-77.4200426269798, 34.10391045007367], [-77.60990254748077, 33.94237358062374], [-77.71224181094408, 33.63473997397105], [-77.9482163401915, 33.52288038043892], [-78.2102709936589, 33.595799017323515], [-78.49243248898624, 33.53379906716586], [-78.85337863814183, 33.29747603483985], [-78.95812723491197, 32.94361826410218], [-80.49516161744837, 31.950764511883545], [-80.7413340831997, 31.699347082842287], [-81.13171677267133, 30.683882193388488], [-80.92089461375998, 29.795581457204424], [-81.07201193484372, 29.854939788983568], [-82.59206726199373, 29.937602628533277], [-83.13806620637037, 29.751575624733285], [-83.64769378135803, 29.378237013322853], [-83.88239405729021, 29.66955933444502], [-84.08704660242334, 29.72971841276218], [-84.4812820376813, 29.43709136693973], [-84.91394001320526, 29.28305554770757], [-85.17432942847834, 29.299762501751], [-85.68456105246398, 29.468200879570126], [-85.72275073279788, 29.653383602072367], [-85.96629504887629, 29.895536185526645], [-86.47693347956182, 30.106641226423196], [-87.70155139975977, 29.89505376622549], [-88.38562995539984, 29.879932882157583], [-88.44782733960653, 29.700537850475445], [-88.72652035332919, 29.392857515274873], [-88.62702245895507, 29.297599021205357], [-88.64171733282002, 29.024500470304336], [-88.91868311914267, 28.715913157471075], [-89.4442950675013, 28.598810284445943]]]}}, {"type": "Feature", "properties": {"dn": 3, "PRODUCT": "Day 1 Excessive Rainfall Potential Forecast", "VALID_TIME": "12Z 10/04/26 - 12Z 10/05/26", "OUTLOOK": "Moderate (At Least 40%)", "ISSUE_TIME": "2026-10-04 07:35:00", "START_TIME": "2026-10-04 12:00:00", "END_TIME": "2026-10-05 12:00:00", "Snippet": "12Z 10/04/26 - 12Z 10/05/26"}, "geometry": {"type": "Polygon", "coordinates": [[[-97.38490328653214, 25.804160277331324], [-97.84900026315204, 26.116121792726947], [-97.9651496821858, 26.70779448002561], [-97.82037986172166, 27.075940316644722], [-97.66945953309212, 27.215839375461524], [-97.10581653031446, 27.270326192769875], [-97.00225381300756, 27.22588020499323], [-97.05046507350876, 27.042591987971186], [-96.8903116558937, 26.6336424262254], [-96.77812492068668, 25.949791628610928], [-97.08058948773711, 25.8087411214783], [-97.38490328653214, 25.804160277331324]]]}}]}