{
  "type": "FeatureCollection",
  "features": [
    {
      "type": "Feature",
      "properties": {
        "dn": 1,
        "PRODUCT": "Day 2 Excessive Rainfall Potential Forecast",
        "VALID_TIME": "12Z 10/05/26 - 12Z 10/06/26",
        "OUTLOOK": "Marginal (At Least 5%)",
        "ISSUE_TIME": "2026-10-04 07:35:00",
        "START_TIME": "2026-10-05 12:00:00",
        "END_TIME": "2026-10-06 12:00:00",
        "Snippet": "12Z 10/05/26 - 12Z 10/06/26",
        "risk_norm": "MARGINAL"
      },
      "geometry": {
        "type": "Polygon",
        "coordinates": [
          [
            [
              -97.74194273594556,
              25.888736343436992
            ],
            [
              -98.30261533604323,
              25.968881684410864
            ],
            [
              -98.41032375535524,
              26.15017810739098
            ],
            [
              -98.47814646556006,
              26.742584816488325
            ],
            [
              -98.43611623687696,
              27.063286670039247
            ],
            [
              -98.1383547828492,
              27.481610006624276
            ],
            [
              -97.73216422398514,
              27.717664197606737
            ],
            [
              -96.96147834387463,
              27.86638994213418
            ],
            [
              -96.5980611245287,
              27.77842335937051
            ],
            [
              -96.85231101677168,
              27.547345142825293
            ],
            [
              -97.01685444623598,
              27.088702902321074
            ],
            [
              -96.85605385798928,
              26.634063688698795
            ],
            [
              -96.7440589533017,
              25.950187690062577
            ],
            [
              -97.23023106743004,
              25.668726873049444
            ],
            [
              -97.74194273594556,
              25.888736343436992
            ]
          ],
          [
            [
              -97.13050947297734,
              25.7621628682052
            ],
            [
              -96.77791333082716,
              25.94979408861993
            ],
            [
              -96.89009887454026,
              26.6336450427625
            ],
            [
              -97.05025157517821,
              27.04259482841797
            ],
            [
              -96.95181087127274,
              27.272648761759527
            ],
            [
              -97.61914799062717,
              27.262648037452085
            ],
            [
              -97.82232038100467,
              27.167694853394856
            ],
            [
              -97.97218023364651,
              26.981710801276662
            ],
            [
              -98.00973816705019,
              26.43282152087094
            ],
            [
              -97.95431689350339,
              26.251166245941732
            ],
            [
              -97.7440084056592,
              25.980539216877403
            ],
            [
              -97.2826080302515,
              25.75978087915007
            ],
            [
              -97.13050947297734,
              25.7621628682052
            ]
          ]
        ]
      }
    },
    {
      "type": "Feature",
      "properties": {
        "dn": 1,
        "PRODUCT": "Day 2 Excessive Rainfall Potential Forecast",
        "VALID_TIME": "12Z 10/05/26 - 12Z 10/06/26",
        "OUTLOOK": "Marginal (At Least 5%)",
        "ISSUE_TIME": "2026-10-04 07:35:00",
        "START_TIME": "2026-10-05 12:00:00",
        "END_TIME": "2026-10-06 12:00:00",
        "Snippet": "12Z 10/05/26 - 12Z 10/06/26",
        "risk_norm": "MARGINAL"
      },
      "geometry": {
        "type": "Polygon",
        "coordinates": [
          [
            [
              -82.98379365997219,
              28.687215255675422
            ],
            [
              -83.02637609553368,
              28.782066470177625
            ],
            [
              -83.28183536671474,
              28.848349498711404
            ],
            [
              -83.32023214938555,
              28.98850924755592
            ],
            [
              -83.98262333699651,
              29.721758924327382
            ],
            [
              -84.08710279402948,
              29.729113279407834
            ],
            [
              -84.58960571074063,
              29.39809269208807
            ],
            [
              -84.91399175906047,
              29.282449750682755
            ],
            [
              -85.17437984791225,
              29.29915663257841
            ],
            [
              -85.68460892611208,
              29.46759498758081
            ],
            [
              -85.72344750313837,
              29.653424985947463
            ],
            [
              -85.96634164550724,
              29.894930583775515
            ],
            [
              -86.47697752494051,
              30.10603567532834
            ],
            [
              -87.22396732792816,
              29.962586951052835
            ],
            [
              -87.30299119153477,
              30.377567382085726
            ],
            [
              -87.22013660964211,
              30.828900578375762
            ],
            [
              -86.7644055562884,
              31.26181593943582
            ],
            [
              -85.55082171131599,
              31.785543181965288
            ],
            [
              -82.85165852248716,
              32.51256738139973
            ],
            [
              -80.20290502293082,
              33.3821222010088
            ],
            [
              -79.82055006043576,
              33.392148221604494
            ],
            [
              -79.45670609765669,
              33.26658112696978
            ],
            [
              -79.17149982929072,
              32.964760077427016
            ],
            [
              -79.13685339832426,
              32.82467471510552
            ],
            [
              -80.49445341643577,
              31.950699855526654
            ],
            [
              -80.7406272890233,
              31.699283483611605
            ],
            [
              -81.12021116667621,
              30.77425779181026
            ],
            [
              -80.9970781692306,
              30.03171991136292
            ],
            [
              -80.66779153289181,
              29.26913607693574
            ],
            [
              -81.94126717798758,
              29.151901545259452
            ],
            [
              -82.98379365997219,
              28.687215255675422
            ]
          ]
        ]
      }
    },
    {
      "type": "Feature",
      "properties": {
        "dn": 2,
        "PRODUCT": "Day 2 Excessive Rainfall Potential Forecast",
        "VALID_TIME": "12Z 10/05/26 - 12Z 10/06/26",
        "OUTLOOK": "Slight (At Least 15%)",
        "ISSUE_TIME": "2026-10-04 07:35:00",
        "START_TIME": "2026-10-05 12:00:00",
        "END_TIME": "2026-10-06 12:00:00",
        "Snippet": "12Z 10/05/26 - 12Z 10/06/26",
        "risk_norm": "SLIGHT"
      },
      "geometry": {
        "type": "Polygon",
        "coordinates": [
          [
            [
              -97.2826080302515,
              25.75978087915007
            ],
            [
              -97.7440084056592,
              25.980539216877403
            ],
            [
              -97.95431689350339,
              26.251166245941732
            ],
            [
              -98.00973816705019,
              26.43282152087094
            ],
            [
              -97.97218023364651,
              26.981710801276662
            ],
            [
              -97.82232038100467,
              27.167694853394856
            ],
            [
              -97.61914799062717,
              27.262648037452085
            ],
            [
              -96.95181087127274,
              27.272648761759527
            ],
            [
              -97.05025157517821,
              27.04259482841797
            ],
            [
              -96.89009887454026,
              26.6336450427625
            ],
            [
              -96.77791333082716,
              25.94979408861993
            ],
            [
              -97.13050947297734,
              25.7621628682052
            ],
            [
              -97.2826080302515,
              25.75978087915007
            ]
          ]
        ]
      }
    }
  ]
}
