{"type": "FeatureCollection", "features": [{"type": "Feature", "properties": {"dn": 1, "PRODUCT": "Day 1 Excessive Rainfall Potential Forecast", "VALID_TIME": "16Z 09/13/26 - 12Z 09/14/26", "OUTLOOK": "Marginal (At Least 5%)", "ISSUE_TIME": "2026-09-13 15:51:00", "START_TIME": "2026-09-13 16:00:00", "END_TIME": "2026-09-14 12:00:00", "Snippet": "16Z 09/13/26 - 12Z 09/14/26"}, "geometry": {"type": "Polygon", "coordinates": [[[-108.97623571561925, 31.13024758539512], [-110.95653789383776, 31.17089174187611], [-112.91773517742972, 31.739471929336283], [-112.79603964753183, 33.03257974423321], [-112.83457203952898, 33.62097105962002], [-113.40606821970029, 34.103585409976205], [-113.55108590818472, 34.31466726028862], [-113.79486320442051, 35.1049111442279], [-113.83176559287153, 35.64496583670859], [-113.73620190803332, 36.06327776138673], [-113.45851314942817, 36.41155881423547], [-110.89299552809766, 38.021100994537576], [-108.98992382982334, 40.36398983857145], [-108.31030402103974, 40.94659736672782], [-108.03823253581591, 41.0987111493389], [-107.69651770064566, 41.16721123231198], [-107.21225337481151, 41.0248508527567], [-106.83350899683107, 40.785255615048406], [-106.1176504979219, 40.081418090532104], [-106.06602423975447, 39.59798168846739], [-106.20415501605869, 39.27887424647664], [-106.3737775763554, 38.20029390769282], [-106.29847059582536, 37.490763382938795], [-106.03352608883554, 37.105378707982034], [-105.41128829436661, 36.47240203383362], [-105.20305652892847, 36.036086847961926], [-104.97666772979858, 34.15642228711622], [-105.00287232228368, 33.83817733194558], [-105.17876728150823, 33.37438740488129], [-105.87393514697914, 32.69301035922528], [-106.48046868785647, 32.28717837548618], [-106.86899821638544, 31.895668348832128], [-107.00119760207278, 31.611585555317742], [-107.96578444528456, 31.62688053767055], [-108.06062585381395, 31.52882876890281], [-108.07866176117668, 31.20713454245347], [-108.97623571561925, 31.13024758539512]]]}}, {"type": "Feature", "properties": {"dn": 1, "PRODUCT": "Day 1 Excessive Rainfall Potential Forecast", "VALID_TIME": "16Z 09/13/26 - 12Z 09/14/26", "OUTLOOK": "Marginal (At Least 5%)", "ISSUE_TIME": "2026-09-13 15:51:00", "START_TIME": "2026-09-13 16:00:00", "END_TIME": "2026-09-14 12:00:00", "Snippet": "16Z 09/13/26 - 12Z 09/14/26"}, "geometry": {"type": "Polygon", "coordinates": [[[-93.41500779605776, 34.58650923693896], [-94.50681578882595, 34.99843120508578], [-95.49570477129502, 35.223215687309185], [-96.37948377278087, 35.53267050841682], [-97.16025112909696, 35.97304796206412], [-98.06837818365257, 36.720994026445915], [-99.23157478660367, 37.94520307592225], [-99.59262511615177, 38.46943814019513], [-100.22658029141621, 39.82405727416697], [-100.3708532360715, 40.392660051327], [-100.68823535447919, 40.910237090012906], [-101.30815671647521, 41.54690475668619], [-103.56011882664512, 43.28459254503924], [-104.6645595971315, 44.22490527741602], [-104.95659115836223, 44.726123432220426], [-104.93178352285719, 45.0706544265442], [-104.76271709772006, 45.208678743165606], [-104.23525694683259, 45.40579817032105], [-103.33758227974945, 45.57473975865841], [-100.96802199856194, 45.66226425865642], [-99.25681199485885, 45.53700534639276], [-98.21357936382964, 45.258607780821336], [-97.7831600717643, 45.05170693655124], [-96.68255881710166, 44.37899100598179], [-95.17896217287095, 43.2657774840074], [-94.76381600365644, 43.049287533497434], [-93.87802325521695, 42.785935797160036], [-91.34891109956666, 42.44910617091321], [-90.76830366438016, 42.21814785159579], [-90.49031040654899, 41.86268746789409], [-90.52126486967155, 41.16373560557059], [-91.0996214947142, 39.72597152472124], [-91.18919012925832, 38.843290303418215], [-90.47514494937646, 36.91185643078791], [-90.50477847485166, 36.19655804084194], [-90.62821137850041, 35.88594730482764], [-91.20910133120051, 35.091597813177025], [-91.88434754999497, 34.56465783136411], [-92.54423300580582, 34.39560822791091], [-93.41500779605776, 34.58650923693896]], [[-92.94864388070462, 36.15413270349836], [-92.44540397743468, 36.32639645897628], [-92.27375738660942, 36.50320551283939], [-92.19394065067257, 37.43994190053463], [-92.39791308721303, 38.28877392566199], [-92.72206297036495, 39.00298096859476], [-93.05638463206449, 39.40515210413031], [-93.56600506309033, 39.807838052580216], [-94.65438275531561, 40.42980255465349], [-95.29021913628345, 40.693509317338155], [-95.81220600248393, 40.82357023851816], [-96.45032085331614, 40.86341294990697], [-97.25806453630301, 40.67948476632105], [-97.71228130609737, 40.32106495294226], [-97.81443227413224, 39.834889667499446], [-97.68825784611326, 39.39532169152398], [-97.39138571045866, 38.9128823019996], [-96.0665260729354, 37.32590826935472], [-95.22392308702672, 36.52508885358195], [-94.66796513879062, 36.16633488782683], [-94.1140322642644, 36.07471835404818], [-92.94864388070462, 36.15413270349836]]]}}, {"type": "Feature", "properties": {"dn": 1, "PRODUCT": "Day 1 Excessive Rainfall Potential Forecast", "VALID_TIME": "16Z 09/13/26 - 12Z 09/14/26", "OUTLOOK": "Marginal (At Least 5%)", "ISSUE_TIME": "2026-09-13 15:51:00", "START_TIME": "2026-09-13 16:00:00", "END_TIME": "2026-09-14 12:00:00", "Snippet": "16Z 09/13/26 - 12Z 09/14/26"}, "geometry": {"type": "Polygon", "coordinates": [[[-69.44305336651598, 41.91936207217273], [-69.55241479439489, 41.49044848315646], [-69.48148100216909, 41.30224108066546], [-69.60378002774304, 41.052290131318514], [-69.9775637217937, 40.89691470263725], [-70.3768770012669, 40.95278175752549], [-71.03589015795623, 40.909278873620366], [-72.80859393724711, 40.338379645752106], [-73.57954567388487, 40.28460982894157], [-73.71015709341064, 40.21221992322814], [-73.75644629307637, 39.9939996457866], [-74.51095818816617, 40.88476171903749], [-74.40974928095265, 41.09481181248565], [-73.99348932024657, 41.40076612858255], [-73.31775953456363, 42.07212329474], [-72.60387678939824, 42.602738068432714], [-71.98957057132253, 42.9234360253762], [-71.00543132163527, 43.01731216694821], [-70.13185706995391, 42.90083841948281], [-69.90751913407395, 42.49153875335888], [-69.92829695476576, 42.519174218080465], [-70.33400355856459, 42.574772287675934], [-71.24612958308155, 42.51946454016047], [-72.00293307407429, 42.35194921457187], [-72.27494249160445, 42.20919830951183], [-72.99721897316384, 41.63554912094967], [-73.24493191777329, 41.31141185051041], [-73.37644567030654, 40.97247234934738], [-73.230815390261, 40.55456546648048], [-73.0394153668545, 40.35242478279611], [-72.80232401321926, 40.367310191683515], [-71.02908676342167, 40.93805796810194], [-70.36988557871831, 40.9815287987522], [-69.97046407349346, 40.925654692482], [-69.6418281258076, 41.05772641344726], [-69.51961588273812, 41.307695778370416], [-69.59062411422764, 41.49588250517834], [-69.48141906355886, 41.92480590676998], [-69.63186513006282, 42.12490614947781], [-69.44305336651598, 41.91936207217273]]]}}, {"type": "Feature", "properties": {"dn": 2, "PRODUCT": "Day 1 Excessive Rainfall Potential Forecast", "VALID_TIME": "16Z 09/13/26 - 12Z 09/14/26", "OUTLOOK": "Slight (At Least 15%)", "ISSUE_TIME": "2026-09-13 15:51:00", "START_TIME": "2026-09-13 16:00:00", "END_TIME": "2026-09-14 12:00:00", "Snippet": "16Z 09/13/26 - 12Z 09/14/26"}, "geometry": {"type": "Polygon", "coordinates": [[[-94.1140322642644, 36.07471835404818], [-94.66796513879062, 36.16633488782683], [-95.22392308702672, 36.52508885358195], [-96.0665260729354, 37.32590826935472], [-97.39138571045866, 38.9128823019996], [-97.68825784611326, 39.39532169152398], [-97.81443227413224, 39.834889667499446], [-97.71228130609737, 40.32106495294226], [-97.25806453630301, 40.67948476632105], [-96.45032085331614, 40.86341294990697], [-95.81220600248393, 40.82357023851816], [-95.29021913628345, 40.693509317338155], [-94.65438275531561, 40.42980255465349], [-93.56600506309033, 39.807838052580216], [-93.05638463206449, 39.40515210413031], [-92.72206297036495, 39.00298096859476], [-92.39791308721303, 38.28877392566199], [-92.19394065067257, 37.43994190053463], [-92.27375738660942, 36.50320551283939], [-92.44540397743468, 36.32639645897628], [-92.94864388070462, 36.15413270349836], [-94.1140322642644, 36.07471835404818]]]}}, {"type": "Feature", "properties": {"dn": 2, "PRODUCT": "Day 1 Excessive Rainfall Potential Forecast", "VALID_TIME": "16Z 09/13/26 - 12Z 09/14/26", "OUTLOOK": "Slight (At Least 15%)", "ISSUE_TIME": "2026-09-13 15:51:00", "START_TIME": "2026-09-13 16:00:00", "END_TIME": "2026-09-14 12:00:00", "Snippet": "16Z 09/13/26 - 12Z 09/14/26"}, "geometry": {"type": "Polygon", "coordinates": [[[-73.0394153668545, 40.35242478279611], [-73.230815390261, 40.55456546648048], [-73.37644567030654, 40.97247234934738], [-73.24493191777329, 41.31141185051041], [-72.99721897316384, 41.63554912094967], [-72.27494249160445, 42.20919830951183], [-72.00293307407429, 42.35194921457187], [-71.24612958308155, 42.51946454016047], [-70.33400355856459, 42.574772287675934], [-69.92829695476576, 42.519174218080465], [-69.48141906355886, 41.92480590676998], [-69.59062411422764, 41.49588250517834], [-69.51961588273812, 41.307695778370416], [-69.6418281258076, 41.05772641344726], [-69.97046407349346, 40.925654692482], [-70.36988557871831, 40.9815287987522], [-71.02908676342167, 40.93805796810194], [-72.80232401321926, 40.367310191683515], [-73.0394153668545, 40.35242478279611]]]}}]}