{"type": "FeatureCollection", "features": [{"type": "Feature", "properties": {"dn": 1, "PRODUCT": "Day 2 Excessive Rainfall Potential Forecast", "VALID_TIME": "12Z 09/14/26 - 12Z 09/15/26", "OUTLOOK": "Marginal (At Least 5%)", "ISSUE_TIME": "2026-09-13 07:43:00", "START_TIME": "2026-09-14 12:00:00", "END_TIME": "2026-09-15 12:00:00", "Snippet": "12Z 09/14/26 - 12Z 09/15/26"}, "geometry": {"type": "Polygon", "coordinates": [[[-106.055277882567, 31.224775584563876], [-106.50210402882288, 31.421674705201944], [-106.57207952163469, 31.597888069269302], [-106.78893953024682, 31.62748502168065], [-107.96578444528456, 31.62688053767055], [-108.06062585381395, 31.52882876890281], [-108.07866176117668, 31.20713454245347], [-109.5056158029096, 31.09829811405745], [-111.11678726756423, 31.170452513946977], [-111.1799216592872, 31.239614138518174], [-112.63260745438437, 31.634172301988624], [-112.80711052829601, 32.75752109491835], [-112.80829822378935, 34.488279688378036], [-112.5607464858616, 36.05559562176359], [-112.01958492037264, 37.23829117270853], [-111.17856358512739, 38.3962442245091], [-110.17232744560826, 39.335516260785155], [-109.3806748168983, 39.846411007087156], [-108.8901738666457, 40.063003897254646], [-107.61006818085124, 40.46826828924348], [-106.87220296857379, 40.60727837392904], [-105.89216584507301, 40.66986246119494], [-105.23992907221282, 40.532298495675086], [-104.80595084094041, 40.247237818272616], [-104.4822228137929, 39.867452639522625], [-103.70806361256346, 38.17751683417114], [-103.49613783060292, 36.9381682724799], [-103.53381939058632, 35.99475414670307], [-103.83050954921393, 34.85417769224372], [-104.81506793463369, 32.307975130912], [-105.53769023063707, 30.804404455106397], [-106.055277882567, 31.224775584563876]], [[-109.08683917518837, 31.166994357441897], [-109.08034157116231, 31.988869994870775], [-108.4085551278156, 34.04652054328426], [-108.3919835211996, 34.36501801817103], [-108.52232816375782, 34.53541127554076], [-108.8714789699851, 34.687773560552756], [-109.53032233917816, 34.67608266190307], [-110.20662454752339, 34.38817087946674], [-110.63852386807451, 33.93843717879371], [-111.0409265596043, 33.30801202119618], [-111.35960167239125, 32.50121256955826], [-111.29059017052697, 31.640667841275828], [-111.12137817379785, 31.200782486892045], [-109.50939311679888, 31.12840814362826], [-109.08683917518837, 31.166994357441897]]]}}, {"type": "Feature", "properties": {"dn": 1, "PRODUCT": "Day 2 Excessive Rainfall Potential Forecast", "VALID_TIME": "12Z 09/14/26 - 12Z 09/15/26", "OUTLOOK": "Marginal (At Least 5%)", "ISSUE_TIME": "2026-09-13 07:43:00", "START_TIME": "2026-09-14 12:00:00", "END_TIME": "2026-09-15 12:00:00", "Snippet": "12Z 09/14/26 - 12Z 09/15/26"}, "geometry": {"type": "Polygon", "coordinates": [[[-99.7934005775773, 39.17253027387675], [-100.56126825272035, 39.63719065520945], [-100.68778053947041, 39.853927240854055], [-100.70469351508376, 40.1620706075538], [-99.39806445967143, 41.952686956680566], [-98.64568030102949, 43.8340629180961], [-97.90527782786944, 45.04904157356017], [-95.93231914991452, 47.399262494657194], [-95.56541065042673, 48.23759097904305], [-95.44536366674684, 49.524275311148095], [-94.61988896219992, 49.52440426284683], [-94.43159410122591, 48.98581077106259], [-94.24421805023145, 48.903142092357385], [-93.61563975877733, 48.77541400180068], [-93.11109855296515, 48.81290701903468], [-92.67239385498338, 48.725376907788096], [-91.55442826900217, 48.33514599289284], [-90.79708811286235, 48.44594878423832], [-90.49402351705132, 48.23103866548584], [-89.43099065589388, 48.20470819346374], [-88.40372522494941, 48.54932395638188], [-84.91545806389256, 47.10536173385075], [-84.62505249427704, 46.92057905586879], [-84.4656190618454, 46.70142113603843], [-84.03619341073075, 46.678017196651], [-83.9475002665983, 46.37525121077926], [-83.78046803989592, 46.23911349639294], [-83.41434701639541, 46.217760887354615], [-83.30178637194973, 46.125093227664394], [-83.28420977432239, 45.78389575727251], [-82.22531878468769, 45.45950388465304], [-82.19922116050411, 45.20066995430368], [-82.59989800998896, 44.92657133721153], [-85.3877677297026, 43.10298908951216], [-87.19753069721375, 42.01242129216825], [-87.37316914096158, 42.01985480148235], [-94.25689534535069, 39.50181839028999], [-95.4001699229821, 39.19351950484744], [-96.36775060348444, 39.01160565804874], [-97.38979336208281, 38.86771427635123], [-99.04196074156272, 38.925824951746584], [-99.7934005775773, 39.17253027387675]], [[-95.63480177839925, 40.25218497230747], [-93.95891843623524, 40.68983585486353], [-92.1441950662683, 41.415192374291216], [-90.23686350383186, 42.291753148567715], [-88.77577831041208, 43.07371334983573], [-87.83731557234265, 43.73278941441081], [-86.92534580447942, 44.64343904890206], [-86.89655447403968, 44.98534659299187], [-87.18139214683772, 45.211611886674135], [-87.71608357237629, 45.36080399500936], [-88.38273939115223, 45.38483495339328], [-89.05769844379546, 45.278715387948864], [-92.78453047607296, 44.11516140719135], [-96.29748284721627, 42.523824237761694], [-98.26257672319294, 41.32166724439586], [-98.65497261045336, 40.87545192506635], [-98.70659444320644, 40.69879627382798], [-98.58320961858601, 40.481596439170616], [-98.2882731824824, 40.3109040508662], [-97.88100056780901, 40.185926172553096], [-97.13048146407948, 40.108458277607205], [-95.63480177839925, 40.25218497230747]]]}}, {"type": "Feature", "properties": {"dn": 1, "PRODUCT": "Day 2 Excessive Rainfall Potential Forecast", "VALID_TIME": "12Z 09/14/26 - 12Z 09/15/26", "OUTLOOK": "Marginal (At Least 5%)", "ISSUE_TIME": "2026-09-13 07:43:00", "START_TIME": "2026-09-14 12:00:00", "END_TIME": "2026-09-15 12:00:00", "Snippet": "12Z 09/14/26 - 12Z 09/15/26"}, "geometry": {"type": "Polygon", "coordinates": [[[-82.29596347633957, 44.94955674835822], [-82.16292562137033, 45.02743283172814], [-82.17326470799594, 44.941355424258695], [-82.29596347633957, 44.94955674835822]]]}}, {"type": "Feature", "properties": {"dn": 2, "PRODUCT": "Day 2 Excessive Rainfall Potential Forecast", "VALID_TIME": "12Z 09/14/26 - 12Z 09/15/26", "OUTLOOK": "Slight (At Least 15%)", "ISSUE_TIME": "2026-09-13 07:43:00", "START_TIME": "2026-09-14 12:00:00", "END_TIME": "2026-09-15 12:00:00", "Snippet": "12Z 09/14/26 - 12Z 09/15/26"}, "geometry": {"type": "Polygon", "coordinates": [[[-109.50939311679888, 31.12840814362826], [-111.12137817379785, 31.200782486892045], [-111.29059017052697, 31.640667841275828], [-111.35960167239125, 32.50121256955826], [-111.0409265596043, 33.30801202119618], [-110.63852386807451, 33.93843717879371], [-110.20662454752339, 34.38817087946674], [-109.53032233917816, 34.67608266190307], [-108.8714789699851, 34.687773560552756], [-108.52232816375782, 34.53541127554076], [-108.3919835211996, 34.36501801817103], [-108.4085551278156, 34.04652054328426], [-109.08034157116231, 31.988869994870775], [-109.08683917518837, 31.166994357441897], [-109.50939311679888, 31.12840814362826]]]}}, {"type": "Feature", "properties": {"dn": 2, "PRODUCT": "Day 2 Excessive Rainfall Potential Forecast", "VALID_TIME": "12Z 09/14/26 - 12Z 09/15/26", "OUTLOOK": "Slight (At Least 15%)", "ISSUE_TIME": "2026-09-13 07:43:00", "START_TIME": "2026-09-14 12:00:00", "END_TIME": "2026-09-15 12:00:00", "Snippet": "12Z 09/14/26 - 12Z 09/15/26"}, "geometry": {"type": "Polygon", "coordinates": [[[-97.13048146407948, 40.108458277607205], [-97.88100056780901, 40.185926172553096], [-98.2882731824824, 40.3109040508662], [-98.58320961858601, 40.481596439170616], [-98.70659444320644, 40.69879627382798], [-98.65497261045336, 40.87545192506635], [-98.26257672319294, 41.32166724439586], [-96.29748284721627, 42.523824237761694], [-92.78453047607296, 44.11516140719135], [-89.05769844379546, 45.278715387948864], [-88.38273939115223, 45.38483495339328], [-87.71608357237629, 45.36080399500936], [-87.18139214683772, 45.211611886674135], [-86.89655447403968, 44.98534659299187], [-86.92534580447942, 44.64343904890206], [-87.83731557234265, 43.73278941441081], [-88.77577831041208, 43.07371334983573], [-90.23686350383186, 42.291753148567715], [-92.1441950662683, 41.415192374291216], [-93.95891843623524, 40.68983585486353], [-95.63480177839925, 40.25218497230747], [-97.13048146407948, 40.108458277607205]]]}}]}