{"type": "FeatureCollection", "features": [{"type": "Feature", "properties": {"dn": 1, "PRODUCT": "Day 1 Excessive Rainfall Potential Forecast", "VALID_TIME": "16Z 08/04/26 - 12Z 08/05/26", "OUTLOOK": "Marginal (At Least 5%)", "ISSUE_TIME": "2026-08-04 15:57:00", "START_TIME": "2026-08-04 16:00:00", "END_TIME": "2026-08-05 12:00:00", "Snippet": "16Z 08/04/26 - 12Z 08/05/26"}, "geometry": {"type": "Polygon", "coordinates": [[[-82.66767253528027, 31.22151331274337], [-83.24022854825597, 31.35627945929265], [-84.52806826685477, 31.85620638579942], [-85.24657477809578, 32.21996996022211], [-85.80256458962552, 32.66238388765415], [-86.18979635974533, 33.228074423283324], [-86.45885459064782, 33.96651141422697], [-86.39328417127838, 34.82091581057033], [-86.12436970337704, 35.437399399491895], [-85.30353924730511, 36.60478642576098], [-84.81327170729693, 37.06879949088864], [-84.39553278345458, 37.31264328478285], [-83.47331068603714, 37.52110431744114], [-81.60671660339361, 37.563685151767324], [-80.56524522333598, 37.74740079438988], [-79.01932668522797, 38.236738507534746], [-77.42755030457668, 39.243705036900984], [-76.85421697267391, 39.22947878080562], [-75.90079921455013, 38.455914204335166], [-74.9745260526631, 37.90016649777361], [-75.33487895241208, 37.492098602666516], [-75.36730145078597, 37.31563663547625], [-75.67687689907939, 36.85521520589135], [-75.1544672557628, 35.70802908591141], [-75.2825951709062, 34.9969144108118], [-75.68750146652499, 34.90775557746928], [-76.21169746698526, 34.4240113310797], [-76.51309507796557, 34.27554934724023], [-76.76864650647587, 34.395268525245044], [-77.11486706439331, 34.297165663611125], [-77.5412988933626, 34.025999103894556], [-77.64390130445592, 33.71848101879983], [-77.77339189423618, 33.594818203961296], [-77.94830693276285, 33.522282812135245], [-78.21036025873504, 33.59520142264277], [-78.49252021324526, 33.53320121815604], [-78.85266302286722, 33.29740433841915], [-78.95741378027536, 32.943546965180765], [-80.49445341643577, 31.950699855526654], [-81.00334792447897, 31.311069974845672], [-81.98072521377604, 31.166410687167655], [-82.66767253528027, 31.22151331274337]]]}}, {"type": "Feature", "properties": {"dn": 1, "PRODUCT": "Day 1 Excessive Rainfall Potential Forecast", "VALID_TIME": "16Z 08/04/26 - 12Z 08/05/26", "OUTLOOK": "Marginal (At Least 5%)", "ISSUE_TIME": "2026-08-04 15:57:00", "START_TIME": "2026-08-04 16:00:00", "END_TIME": "2026-08-05 12:00:00", "Snippet": "16Z 08/04/26 - 12Z 08/05/26"}, "geometry": {"type": "Polygon", "coordinates": [[[-110.95246701233582, 31.141421864001877], [-111.72871248098218, 31.335507706925355], [-113.09048163966203, 31.811386730393764], [-112.94938089407339, 32.28477410182697], [-112.72477727220176, 32.58492034557491], [-112.57886968142623, 32.69233028370803], [-111.28296111912438, 33.10253382179256], [-111.09514443047054, 33.30261619520269], [-111.09269914323616, 33.66683061740143], [-111.25229357886977, 34.01458137473751], [-111.3373422488336, 34.59627602143947], [-111.25397496074095, 34.786843409346346], [-111.04934005374271, 34.897583713895834], [-110.6680716640422, 34.93432222349591], [-109.90512912498602, 34.597633464701], [-109.17526301989876, 34.48116340220048], [-108.63722912077188, 34.572070122098644], [-107.64370072155123, 35.01313147505564], [-107.08140254225063, 35.41618175344121], [-106.64040921482231, 35.94219175690563], [-106.19379600610594, 37.005279132818494], [-106.20734825273789, 37.6755873513716], [-105.9487058974874, 37.91651691873503], [-105.62034119447091, 38.026389465025545], [-104.89282489672213, 38.1143886945433], [-104.26146823302044, 38.01584797436144], [-103.03849876780195, 37.542344652037656], [-102.33381584505013, 37.126578155792735], [-101.90272662175953, 36.518254259162646], [-101.88295213936058, 36.20531642628873], [-101.97949674431938, 35.97699410451851], [-102.88484469594333, 35.44146503701965], [-104.374542793329, 34.77814011106069], [-104.94230648610355, 34.384500424803015], [-105.13555127428972, 34.10142996329341], [-105.14236688500438, 32.96860650941068], [-105.37497114268487, 32.54434934098262], [-105.64264457997825, 32.52682213269997], [-106.35616929168353, 32.65965659003517], [-106.88693964860009, 32.57579623873736], [-107.13904929508105, 32.42141159788944], [-107.22656631616724, 32.23278343398714], [-107.21819173885459, 31.640596906731904], [-107.96578444528456, 31.62688053767055], [-108.06062585381395, 31.52882876890281], [-108.07866176117668, 31.20713454245347], [-108.97623571561925, 31.13024758539512], [-110.95246701233582, 31.141421864001877]], [[-109.08683917518837, 31.166994357441897], [-108.99963267663254, 31.768005432574135], [-109.1502002296268, 32.11943083518109], [-109.33805593035139, 32.33052004052736], [-109.69897216614953, 32.617114834724184], [-110.04320455177474, 32.767377762043076], [-110.41740768375189, 32.731872536094336], [-111.25445574958869, 32.1473072032763], [-111.7929607567655, 31.405247260963502], [-110.9566209730521, 31.171493167955166], [-109.08683917518837, 31.166994357441897]]]}}, {"type": "Feature", "properties": {"dn": 1, "PRODUCT": "Day 1 Excessive Rainfall Potential Forecast", "VALID_TIME": "16Z 08/04/26 - 12Z 08/05/26", "OUTLOOK": "Marginal (At Least 5%)", "ISSUE_TIME": "2026-08-04 15:57:00", "START_TIME": "2026-08-04 16:00:00", "END_TIME": "2026-08-05 12:00:00", "Snippet": "16Z 08/04/26 - 12Z 08/05/26"}, "geometry": {"type": "Polygon", "coordinates": [[[-97.17050787050398, 39.26897684207557], [-98.26602473064165, 39.60554854495067], [-98.79695562099506, 39.99288489554661], [-98.91854138900294, 40.1664824158158], [-98.86919561079016, 40.38765143124802], [-98.41378657743904, 40.61765424095374], [-97.0326717212596, 40.98975946930894], [-96.45530787228867, 41.214415561306524], [-94.17671746155824, 42.396580768110645], [-90.83453819867381, 43.478761536292616], [-89.18584420750057, 44.16818921680701], [-88.57869957878302, 44.27763697080234], [-88.03943248260437, 44.25856339603865], [-87.68651264913872, 44.15913080230336], [-87.51580581962341, 44.022301685388875], [-87.41305408731516, 43.80246856396112], [-87.44962518835908, 43.32830236028956], [-87.79052785238078, 42.73451535472646], [-88.92146413559968, 41.64222415952648], [-89.83403743286989, 40.96904298998699], [-90.77849531110925, 40.598624634965404], [-92.6965171048874, 40.19392234610905], [-94.88634420688965, 39.50335303416728], [-96.08571801116645, 39.279062201101006], [-97.17050787050398, 39.26897684207557]]]}}, {"type": "Feature", "properties": {"dn": 2, "PRODUCT": "Day 1 Excessive Rainfall Potential Forecast", "VALID_TIME": "16Z 08/04/26 - 12Z 08/05/26", "OUTLOOK": "Slight (At Least 15%)", "ISSUE_TIME": "2026-08-04 15:57:00", "START_TIME": "2026-08-04 16:00:00", "END_TIME": "2026-08-05 12:00:00", "Snippet": "16Z 08/04/26 - 12Z 08/05/26"}, "geometry": {"type": "Polygon", "coordinates": [[[-110.9566209730521, 31.171493167955166], [-111.7929607567655, 31.405247260963502], [-111.25445574958869, 32.1473072032763], [-110.41740768375189, 32.731872536094336], [-110.04320455177474, 32.767377762043076], [-109.69897216614953, 32.617114834724184], [-109.33805593035139, 32.33052004052736], [-109.1502002296268, 32.11943083518109], [-108.99963267663254, 31.768005432574135], [-109.08683917518837, 31.166994357441897], [-110.9566209730521, 31.171493167955166]]]}}]}