{
  "type": "FeatureCollection",
  "features": [
    {
      "type": "Feature",
      "properties": {
        "dn": 1,
        "PRODUCT": "Day 2 Excessive Rainfall Potential Forecast",
        "VALID_TIME": "12Z 08/05/26 - 12Z 08/06/26",
        "OUTLOOK": "Marginal (At Least 5%)",
        "ISSUE_TIME": "2026-08-04 08:17:00",
        "START_TIME": "2026-08-05 12:00:00",
        "END_TIME": "2026-08-06 12:00:00",
        "Snippet": "12Z 08/05/26 - 12Z 08/06/26",
        "risk_norm": "MARGINAL"
      },
      "geometry": {
        "type": "Polygon",
        "coordinates": [
          [
            [
              -108.97623571561925,
              31.13024758539512
            ],
            [
              -110.95653789383776,
              31.17089174187611
            ],
            [
              -113.03051667452813,
              31.772449740097063
            ],
            [
              -113.9748551223431,
              34.53891802839886
            ],
            [
              -114.10541026535557,
              35.2961463955983
            ],
            [
              -114.04267609014911,
              35.575532905589625
            ],
            [
              -113.50057407346775,
              36.00003092396162
            ],
            [
              -113.18608196430326,
              36.12509065214106
            ],
            [
              -112.74630831615521,
              36.17242759873241
            ],
            [
              -112.16101875002784,
              36.007747873438696
            ],
            [
              -110.77990137894562,
              35.33099723806611
            ],
            [
              -110.20207395455188,
              35.158987525515485
            ],
            [
              -109.69247708397864,
              35.06943675554966
            ],
            [
              -108.97668296220141,
              35.08638998768678
            ],
            [
              -108.0684235855432,
              35.34132224628825
            ],
            [
              -107.22587568732985,
              35.72111196897066
            ],
            [
              -106.10047885331188,
              36.65364493760336
            ],
            [
              -105.09456915228265,
              37.25420430987222
            ],
            [
              -104.5475389858768,
              37.41990352545002
            ],
            [
              -103.76362094767664,
              37.46200079984285
            ],
            [
              -103.2457042055309,
              37.30915310406224
            ],
            [
              -103.00415262062602,
              37.09630680855203
            ],
            [
              -102.86325806782038,
              36.70016681196458
            ],
            [
              -102.91597605675418,
              35.89039603380254
            ],
            [
              -103.35841495408968,
              35.14911272590925
            ],
            [
              -104.88536606306214,
              33.1206045290669
            ],
            [
              -105.3831916130588,
              32.634643303647756
            ],
            [
              -105.63843415652005,
              32.48167271688791
            ],
            [
              -107.15980230819261,
              32.10044539978912
            ],
            [
              -107.75363530855014,
              31.644065090577392
            ],
            [
              -107.96578444528456,
              31.62688053767055
            ],
            [
              -108.06062585381395,
              31.52882876890281
            ],
            [
              -108.07866176117668,
              31.20713454245347
            ],
            [
              -108.97623571561925,
              31.13024758539512
            ]
          ]
        ]
      }
    },
    {
      "type": "Feature",
      "properties": {
        "dn": 1,
        "PRODUCT": "Day 2 Excessive Rainfall Potential Forecast",
        "VALID_TIME": "12Z 08/05/26 - 12Z 08/06/26",
        "OUTLOOK": "Marginal (At Least 5%)",
        "ISSUE_TIME": "2026-08-04 08:17:00",
        "START_TIME": "2026-08-05 12:00:00",
        "END_TIME": "2026-08-06 12:00:00",
        "Snippet": "12Z 08/05/26 - 12Z 08/06/26",
        "risk_norm": "MARGINAL"
      },
      "geometry": {
        "type": "Polygon",
        "coordinates": [
          [
            [
              -84.41562247250978,
              33.07540539722636
            ],
            [
              -85.26112135432324,
              33.309892621595175
            ],
            [
              -85.78212695929989,
              33.56680142472862
            ],
            [
              -86.34337822023761,
              34.05083421989561
            ],
            [
              -86.58455495348878,
              34.46990006095324
            ],
            [
              -86.62220074129242,
              34.69742038600394
            ],
            [
              -86.59846390939924,
              35.01178297203837
            ],
            [
              -86.33375778657295,
              35.583419480447986
            ],
            [
              -85.33129949656839,
              36.9200480455313
            ],
            [
              -79.91635497766748,
              42.29974477084144
            ],
            [
              -78.43734350745832,
              43.35255411280371
            ],
            [
              -78.18672920116911,
              43.41712639335435
            ],
            [
              -77.89173480849972,
              43.39017301698173
            ],
            [
              -77.45843732310999,
              43.131564851710145
            ],
            [
              -77.31959851588084,
              42.89897139918408
            ],
            [
              -77.36075778461957,
              42.333536629822284
            ],
            [
              -77.59797076863073,
              41.65315557927097
            ],
            [
              -77.57747707878966,
              41.43085101521341
            ],
            [
              -77.23482572909897,
              41.044932470453176
            ],
            [
              -76.46093952738326,
              40.78916976007464
            ],
            [
              -75.87101649612126,
              40.81534332891906
            ],
            [
              -75.06842894102242,
              40.72717197884009
            ],
            [
              -74.35076905009248,
              40.511776067529034
            ],
            [
              -73.71015709341064,
              40.21221992322814
            ],
            [
              -73.85341372196022,
              39.51538921313792
            ],
            [
              -74.15853207390785,
              39.14956486953465
            ],
            [
              -74.70327736720743,
              38.72152557532674
            ],
            [
              -74.81286030368888,
              38.15090576064143
            ],
            [
              -75.06332677612373,
              37.73060143840943
            ],
            [
              -75.33487895241208,
              37.492098602666516
            ],
            [
              -75.36857255924653,
              37.31488275774538
            ],
            [
              -76.0892955706315,
              37.08151913696339
            ],
            [
              -77.43249650905997,
              36.460411122631356
            ],
            [
              -80.96901031331552,
              34.21992695162331
            ],
            [
              -82.14191586264012,
              33.545865881334905
            ],
            [
              -83.16534316869917,
              33.12473990417904
            ],
            [
              -83.87792663717593,
              33.03925111698989
            ],
            [
              -84.41562247250978,
              33.07540539722636
            ]
          ]
        ]
      }
    },
    {
      "type": "Feature",
      "properties": {
        "dn": 1,
        "PRODUCT": "Day 2 Excessive Rainfall Potential Forecast",
        "VALID_TIME": "12Z 08/05/26 - 12Z 08/06/26",
        "OUTLOOK": "Marginal (At Least 5%)",
        "ISSUE_TIME": "2026-08-04 08:17:00",
        "START_TIME": "2026-08-05 12:00:00",
        "END_TIME": "2026-08-06 12:00:00",
        "Snippet": "12Z 08/05/26 - 12Z 08/06/26",
        "risk_norm": "MARGINAL"
      },
      "geometry": {
        "type": "Polygon",
        "coordinates": [
          [
            [
              -96.4122397431809,
              38.07952114104115
            ],
            [
              -98.9783941903642,
              38.74998214850529
            ],
            [
              -100.65782970582767,
              39.32373900953691
            ],
            [
              -101.18706511345505,
              39.57121380281189
            ],
            [
              -101.67398188996772,
              39.995918295428964
            ],
            [
              -101.6938523833211,
              40.3037387253488
            ],
            [
              -101.53495495670943,
              40.529746107546295
            ],
            [
              -101.31100822696874,
              40.67061268156963
            ],
            [
              -100.63157804305736,
              40.956789195296274
            ],
            [
              -100.06032064474454,
              41.149200791224416
            ],
            [
              -98.38339714830042,
              41.451141192494234
            ],
            [
              -95.8833880909293,
              42.3528081768024
            ],
            [
              -92.68722991594582,
              43.16494080144897
            ],
            [
              -88.39892044025116,
              44.27145005417123
            ],
            [
              -86.73084552771745,
              44.80763373675588
            ],
            [
              -85.51994394927625,
              45.436652805686606
            ],
            [
              -83.41434701639541,
              46.217760887354615
            ],
            [
              -83.30178637194973,
              46.125093227664394
            ],
            [
              -83.28420977432239,
              45.78389575727251
            ],
            [
              -82.22531878468769,
              45.45950388465304
            ],
            [
              -82.00790069134985,
              44.37038710111915
            ],
            [
              -82.03657954423196,
              44.15649075188468
            ],
            [
              -82.17853210772626,
              43.99331652957629
            ],
            [
              -84.36706940001085,
              42.088560582057404
            ],
            [
              -86.37555977129553,
              40.616926329243874
            ],
            [
              -88.66965847868586,
              39.12360385471285
            ],
            [
              -90.65300629331658,
              38.07491315977859
            ],
            [
              -91.96381112394113,
              37.6579529039422
            ],
            [
              -92.58430929404842,
              37.57873083510068
            ],
            [
              -93.53955875546583,
              37.5895531179727
            ],
            [
              -96.4122397431809,
              38.07952114104115
            ]
          ],
          [
            [
              -92.34082241338415,
              38.331881340006085
            ],
            [
              -91.3715324142211,
              38.53627392151324
            ],
            [
              -89.80914394271349,
              39.16162106668965
            ],
            [
              -88.92376322831129,
              39.663899157712606
            ],
            [
              -87.71700404430041,
              40.50074013692655
            ],
            [
              -87.21242546995938,
              41.05086672051635
            ],
            [
              -87.05903533065499,
              41.5263805404318
            ],
            [
              -87.3626083793393,
              42.15119196803103
            ],
            [
              -87.81358950012412,
              42.43135750063148
            ],
            [
              -88.69864019897113,
              42.42034879963226
            ],
            [
              -92.43117063010605,
              41.59524531514652
            ],
            [
              -96.15894538465619,
              40.73389034153567
            ],
            [
              -96.9065286009323,
              40.41949281385233
            ],
            [
              -97.13016135734827,
              40.06485512778404
            ],
            [
              -97.1229517483068,
              39.712213299680975
            ],
            [
              -96.76790157652006,
              39.09698729457341
            ],
            [
              -96.1948860185551,
              38.83615155421552
            ],
            [
              -95.68228187269362,
              38.70595168314546
            ],
            [
              -93.47258888778148,
              38.34558901076344
            ],
            [
              -92.34082241338415,
              38.331881340006085
            ]
          ]
        ]
      }
    },
    {
      "type": "Feature",
      "properties": {
        "dn": 2,
        "PRODUCT": "Day 2 Excessive Rainfall Potential Forecast",
        "VALID_TIME": "12Z 08/05/26 - 12Z 08/06/26",
        "OUTLOOK": "Slight (At Least 15%)",
        "ISSUE_TIME": "2026-08-04 08:17:00",
        "START_TIME": "2026-08-05 12:00:00",
        "END_TIME": "2026-08-06 12:00:00",
        "Snippet": "12Z 08/05/26 - 12Z 08/06/26",
        "risk_norm": "SLIGHT"
      },
      "geometry": {
        "type": "Polygon",
        "coordinates": [
          [
            [
              -93.47258888778148,
              38.34558901076344
            ],
            [
              -95.68228187269362,
              38.70595168314546
            ],
            [
              -96.1948860185551,
              38.83615155421552
            ],
            [
              -96.76790157652006,
              39.09698729457341
            ],
            [
              -97.1229517483068,
              39.712213299680975
            ],
            [
              -97.13016135734827,
              40.06485512778404
            ],
            [
              -96.9065286009323,
              40.41949281385233
            ],
            [
              -96.15894538465619,
              40.73389034153567
            ],
            [
              -92.43117063010605,
              41.59524531514652
            ],
            [
              -88.69864019897113,
              42.42034879963226
            ],
            [
              -87.81358950012412,
              42.43135750063148
            ],
            [
              -87.3626083793393,
              42.15119196803103
            ],
            [
              -87.05903533065499,
              41.5263805404318
            ],
            [
              -87.21242546995938,
              41.05086672051635
            ],
            [
              -87.71700404430041,
              40.50074013692655
            ],
            [
              -88.92376322831129,
              39.663899157712606
            ],
            [
              -89.80914394271349,
              39.16162106668965
            ],
            [
              -91.3715324142211,
              38.53627392151324
            ],
            [
              -92.34082241338415,
              38.331881340006085
            ],
            [
              -93.47258888778148,
              38.34558901076344
            ]
          ]
        ]
      }
    }
  ]
}
