{
  "type": "FeatureCollection",
  "features": [
    {
      "type": "Feature",
      "properties": {
        "dn": 1,
        "PRODUCT": "Day 1 Excessive Rainfall Potential Forecast",
        "VALID_TIME": "16Z 08/24/26 - 12Z 08/25/26",
        "OUTLOOK": "Marginal (At Least 5%)",
        "ISSUE_TIME": "2026-08-24 15:47:00",
        "START_TIME": "2026-08-24 16:00:00",
        "END_TIME": "2026-08-25 12:00:00",
        "Snippet": "16Z 08/24/26 - 12Z 08/25/26",
        "risk_norm": "MARGINAL"
      },
      "geometry": {
        "type": "Polygon",
        "coordinates": [
          [
            [
              -91.13612745668155,
              29.2881579391221
            ],
            [
              -92.01209852057693,
              29.763012055183193
            ],
            [
              -92.4761097555138,
              30.181806245587264
            ],
            [
              -92.9912864696949,
              30.82595812036345
            ],
            [
              -93.45474292811758,
              31.784771201485523
            ],
            [
              -93.49325832836846,
              32.917816659451184
            ],
            [
              -93.08803988605976,
              34.58393798214955
            ],
            [
              -93.07717927054524,
              35.21371475391255
            ],
            [
              -93.23353162394928,
              35.754324539922045
            ],
            [
              -93.22557319880352,
              36.24732217298356
            ],
            [
              -92.93934275216468,
              36.647741952132996
            ],
            [
              -92.60413712985245,
              36.68804053239052
            ],
            [
              -92.21752206998065,
              36.547927497987295
            ],
            [
              -91.23962615038333,
              35.81108271010352
            ],
            [
              -89.26219601339015,
              33.41122478689739
            ],
            [
              -87.98503028396854,
              32.18363745692202
            ],
            [
              -87.21105792611395,
              31.73903579946346
            ],
            [
              -86.47938525457496,
              31.51967893888063
            ],
            [
              -85.69021818924355,
              31.384359714492543
            ],
            [
              -83.94168439289687,
              31.27194961773726
            ],
            [
              -83.08121278128192,
              31.34621335149942
            ],
            [
              -82.58547728812022,
              31.490467127186033
            ],
            [
              -81.54920336563335,
              32.13436852081094
            ],
            [
              -77.49597835132566,
              35.021259158549015
            ],
            [
              -76.44970351555656,
              35.315008526436664
            ],
            [
              -75.74139553973711,
              35.23384873774004
            ],
            [
              -75.27463532345779,
              35.04141092214069
            ],
            [
              -75.81031733571525,
              34.832168945880944
            ],
            [
              -76.33608762525729,
              34.3463842825895
            ],
            [
              -76.56711972978593,
              34.28166558949719
            ],
            [
              -76.76864650647587,
              34.395268525245044
            ],
            [
              -77.11486706439331,
              34.297165663611125
            ],
            [
              -77.5412988933626,
              34.025999103894556
            ],
            [
              -77.64390130445592,
              33.71848101879983
            ],
            [
              -77.77339189423618,
              33.594818203961296
            ],
            [
              -77.94830693276285,
              33.522282812135245
            ],
            [
              -78.21036025873504,
              33.59520142264277
            ],
            [
              -78.49252021324526,
              33.53320121815604
            ],
            [
              -78.85266302286722,
              33.29740433841915
            ],
            [
              -78.95741378027536,
              32.943546965180765
            ],
            [
              -80.49445341643577,
              31.950699855526654
            ],
            [
              -80.80478819113524,
              31.613784504858923
            ],
            [
              -81.12021116667621,
              30.77425779181026
            ],
            [
              -80.91435627695665,
              29.841219225293514
            ],
            [
              -81.36996055690969,
              29.56049534213813
            ],
            [
              -81.9110899697732,
              29.42398585763585
            ],
            [
              -82.74411551040963,
              29.491982626354353
            ],
            [
              -85.78070341749245,
              30.248982173616444
            ],
            [
              -86.82853470367891,
              30.3526709718532
            ],
            [
              -88.00254431118891,
              30.13607227235956
            ],
            [
              -88.5404239870064,
              29.93137200949
            ],
            [
              -89.56664913820421,
              29.3323838380779
            ],
            [
              -89.99197797648314,
              29.164300104273302
            ],
            [
              -90.51504522137567,
              29.134704813583667
            ],
            [
              -91.13612745668155,
              29.2881579391221
            ]
          ],
          [
            [
              -90.29932055231541,
              29.31113699206114
            ],
            [
              -90.03453260115947,
              29.39407413839094
            ],
            [
              -88.57293127421497,
              30.29760790301119
            ],
            [
              -88.14414259335489,
              30.41608983244522
            ],
            [
              -87.66749991572941,
              30.440106981253777
            ],
            [
              -87.59990231114742,
              30.665086055056328
            ],
            [
              -87.85027014005092,
              30.904681934793654
            ],
            [
              -88.10925624627221,
              31.007190311496096
            ],
            [
              -88.90328525758245,
              31.03980762822541
            ],
            [
              -90.66173025476438,
              30.825039297618876
            ],
            [
              -91.40916102114855,
              30.616449990031295
            ],
            [
              -91.68401459187538,
              30.25807657131568
            ],
            [
              -91.693006817507,
              29.93963605838251
            ],
            [
              -91.441082558586,
              29.56929136084071
            ],
            [
              -90.87355677056898,
              29.327442276628695
            ],
            [
              -90.29932055231541,
              29.31113699206114
            ]
          ]
        ]
      }
    },
    {
      "type": "Feature",
      "properties": {
        "dn": 1,
        "PRODUCT": "Day 1 Excessive Rainfall Potential Forecast",
        "VALID_TIME": "16Z 08/24/26 - 12Z 08/25/26",
        "OUTLOOK": "Marginal (At Least 5%)",
        "ISSUE_TIME": "2026-08-24 15:47:00",
        "START_TIME": "2026-08-24 16:00:00",
        "END_TIME": "2026-08-25 12:00:00",
        "Snippet": "16Z 08/24/26 - 12Z 08/25/26",
        "risk_norm": "MARGINAL"
      },
      "geometry": {
        "type": "Polygon",
        "coordinates": [
          [
            [
              -110.73956450880605,
              31.14696319042524
            ],
            [
              -111.28534598770817,
              31.228769081486856
            ],
            [
              -112.80501825804292,
              31.706412059646645
            ],
            [
              -112.75502563768029,
              32.077967992063876
            ],
            [
              -112.52340432564522,
              32.333059302468385
            ],
            [
              -110.97059969696656,
              32.8149354709415
            ],
            [
              -110.68804192635399,
              33.11511710694506
            ],
            [
              -110.60782806682151,
              33.71421346871538
            ],
            [
              -110.69306440817077,
              33.933184923273046
            ],
            [
              -111.06073280306394,
              34.21433777687523
            ],
            [
              -111.35092195199404,
              34.3217342835632
            ],
            [
              -112.59504609893403,
              34.19232020629004
            ],
            [
              -113.57221163903853,
              34.44781518595248
            ],
            [
              -113.94357666939254,
              34.67896258776843
            ],
            [
              -114.11348157449986,
              35.022802809970905
            ],
            [
              -114.38559715078225,
              35.30885263267799
            ],
            [
              -114.88553401582425,
              35.6125092609287
            ],
            [
              -115.22405018261591,
              35.93440775637174
            ],
            [
              -115.24876767505683,
              36.067378366616545
            ],
            [
              -115.11619424615049,
              36.26552109908752
            ],
            [
              -113.95234314528741,
              36.988475661049016
            ],
            [
              -112.74316159591773,
              38.19705229072363
            ],
            [
              -112.46496233677692,
              38.58371620820943
            ],
            [
              -111.8883555050842,
              39.62213372015696
            ],
            [
              -111.50884394162524,
              40.501372598292654
            ],
            [
              -111.39955218396237,
              40.909517205873755
            ],
            [
              -111.46281315092719,
              41.300890702384415
            ],
            [
              -111.72850358138972,
              41.49582317832453
            ],
            [
              -112.0325313013617,
              41.55542893525162
            ],
            [
              -112.71944196710524,
              41.44505459650564
            ],
            [
              -115.51008367695292,
              40.39278160833813
            ],
            [
              -116.89955600157055,
              39.510949796129424
            ],
            [
              -117.12542422379546,
              39.482399087258884
            ],
            [
              -117.31349485528558,
              39.54793784887781
            ],
            [
              -117.55055979644762,
              39.83155013914847
            ],
            [
              -117.62687674847844,
              40.179148331135735
            ],
            [
              -117.49481937903995,
              40.64188633627693
            ],
            [
              -116.5044136483907,
              41.785104659741286
            ],
            [
              -116.09643794192121,
              42.09805707173111
            ],
            [
              -115.60989267929861,
              42.33014073686946
            ],
            [
              -114.45389304962545,
              42.501130021521156
            ],
            [
              -113.8949198485312,
              42.691336404383165
            ],
            [
              -113.66025368030803,
              43.02093754205399
            ],
            [
              -113.65670728338657,
              43.6324176388386
            ],
            [
              -113.53645732248,
              43.949034935225576
            ],
            [
              -113.2280086284829,
              44.24066275366515
            ],
            [
              -112.55306546392623,
              44.521285113903005
            ],
            [
              -111.17946463299,
              44.64362955702752
            ],
            [
              -109.5838229440619,
              44.51416085541645
            ],
            [
              -108.19090332267353,
              44.05510572873987
            ],
            [
              -105.07877308796493,
              42.42637199043073
            ],
            [
              -104.41220761219913,
              42.243776877743656
            ],
            [
              -103.28679978275055,
              42.167382810997914
            ],
            [
              -103.03712952436334,
              42.003096908327095
            ],
            [
              -102.71109229267333,
              41.5800935687461
            ],
            [
              -102.40487064020486,
              41.374844569586195
            ],
            [
              -101.20863911182363,
              40.89384591972548
            ],
            [
              -100.6665198872957,
              40.559462535121675
            ],
            [
              -100.41009193775312,
              40.08316803317013
            ],
            [
              -100.32771667783847,
              39.60023940522736
            ],
            [
              -100.29765241317571,
              37.87111234868361
            ],
            [
              -100.39679827658998,
              37.60067866899363
            ],
            [
              -100.66690853925846,
              37.36800897634528
            ],
            [
              -101.89917609600377,
              37.322575221182205
            ],
            [
              -102.28500860181207,
              37.21716220305824
            ],
            [
              -102.71639312441175,
              36.97457411503875
            ],
            [
              -103.82197444065574,
              36.11364026343048
            ],
            [
              -104.30075415542431,
              35.86308760631517
            ],
            [
              -104.84440576465202,
              35.74197215412666
            ],
            [
              -106.60606919117615,
              35.628536441952036
            ],
            [
              -106.91074083603233,
              35.382529526969535
            ],
            [
              -107.21044956116303,
              34.59300710176273
            ],
            [
              -107.55716081661308,
              34.249196272034915
            ],
            [
              -108.230605258865,
              33.92416145482449
            ],
            [
              -109.40820085690166,
              33.73336102976293
            ],
            [
              -109.79738773393339,
              33.38118609839156
            ],
            [
              -109.9111762451556,
              33.006840827916314
            ],
            [
              -109.86396160567767,
              32.64699514325737
            ],
            [
              -109.23924801559862,
              31.974740824077504
            ],
            [
              -109.14713027534489,
              31.66370446031973
            ],
            [
              -109.1918535760764,
              31.157588236337872
            ],
            [
              -110.73956450880605,
              31.14696319042524
            ]
          ]
        ]
      }
    },
    {
      "type": "Feature",
      "properties": {
        "dn": 2,
        "PRODUCT": "Day 1 Excessive Rainfall Potential Forecast",
        "VALID_TIME": "16Z 08/24/26 - 12Z 08/25/26",
        "OUTLOOK": "Slight (At Least 15%)",
        "ISSUE_TIME": "2026-08-24 15:47:00",
        "START_TIME": "2026-08-24 16:00:00",
        "END_TIME": "2026-08-25 12:00:00",
        "Snippet": "16Z 08/24/26 - 12Z 08/25/26",
        "risk_norm": "SLIGHT"
      },
      "geometry": {
        "type": "Polygon",
        "coordinates": [
          [
            [
              -90.87355677056898,
              29.327442276628695
            ],
            [
              -91.441082558586,
              29.56929136084071
            ],
            [
              -91.693006817507,
              29.93963605838251
            ],
            [
              -91.68401459187538,
              30.25807657131568
            ],
            [
              -91.40916102114855,
              30.616449990031295
            ],
            [
              -90.66173025476438,
              30.825039297618876
            ],
            [
              -88.90328525758245,
              31.03980762822541
            ],
            [
              -88.10925624627221,
              31.007190311496096
            ],
            [
              -87.85027014005092,
              30.904681934793654
            ],
            [
              -87.59990231114742,
              30.665086055056328
            ],
            [
              -87.66749991572941,
              30.440106981253777
            ],
            [
              -88.14414259335489,
              30.41608983244522
            ],
            [
              -88.57293127421497,
              30.29760790301119
            ],
            [
              -90.03453260115947,
              29.39407413839094
            ],
            [
              -90.29932055231541,
              29.31113699206114
            ],
            [
              -90.87355677056898,
              29.327442276628695
            ]
          ]
        ]
      }
    }
  ]
}
