{
  "type": "FeatureCollection",
  "features": [
    {
      "type": "Feature",
      "properties": {
        "dn": 1,
        "PRODUCT": "Day 2 Excessive Rainfall Potential Forecast",
        "VALID_TIME": "12Z 08/25/26 - 12Z 08/26/26",
        "OUTLOOK": "Marginal (At Least 5%)",
        "ISSUE_TIME": "2026-08-24 09:02:00",
        "START_TIME": "2026-08-25 12:00:00",
        "END_TIME": "2026-08-26 12:00:00",
        "Snippet": "12Z 08/25/26 - 12Z 08/26/26",
        "risk_norm": "MARGINAL"
      },
      "geometry": {
        "type": "Polygon",
        "coordinates": [
          [
            [
              -83.36671159968905,
              29.036842188500987
            ],
            [
              -83.98262333699651,
              29.721758924327382
            ],
            [
              -84.08710279402948,
              29.729113279407834
            ],
            [
              -84.58960571074063,
              29.39809269208807
            ],
            [
              -84.91399175906047,
              29.282449750682755
            ],
            [
              -85.17437984791225,
              29.29915663257841
            ],
            [
              -85.68460892611208,
              29.46759498758081
            ],
            [
              -85.72344750313837,
              29.653424985947463
            ],
            [
              -85.96634164550724,
              29.894930583775515
            ],
            [
              -86.4779610348047,
              30.107000982007918
            ],
            [
              -86.12875182971489,
              30.543459173091616
            ],
            [
              -85.40214416590351,
              31.002926133312567
            ],
            [
              -84.80101913360639,
              31.193012533279763
            ],
            [
              -83.77411305659962,
              31.351277882161213
            ],
            [
              -82.29569093190878,
              31.695415460642202
            ],
            [
              -81.38831505515628,
              32.12163562187772
            ],
            [
              -80.03552394165374,
              33.00280611193956
            ],
            [
              -79.27690227886927,
              33.385672758240226
            ],
            [
              -78.2033920539998,
              33.641807799192584
            ],
            [
              -77.71246231011706,
              33.63567406892857
            ],
            [
              -77.94830693276285,
              33.522282812135245
            ],
            [
              -78.21036025873504,
              33.59520142264277
            ],
            [
              -78.49252021324526,
              33.53320121815604
            ],
            [
              -78.85266302286722,
              33.29740433841915
            ],
            [
              -78.95741378027536,
              32.943546965180765
            ],
            [
              -80.49445341643577,
              31.950699855526654
            ],
            [
              -80.7406272890233,
              31.699283483611605
            ],
            [
              -81.13101592915555,
              30.68382020482289
            ],
            [
              -80.95568368992521,
              29.93648201788939
            ],
            [
              -81.6927375587702,
              29.496949342302962
            ],
            [
              -82.299885796995,
              29.227505038100755
            ],
            [
              -82.99878593937044,
              29.054481194111048
            ],
            [
              -83.36671159968905,
              29.036842188500987
            ]
          ]
        ]
      }
    },
    {
      "type": "Feature",
      "properties": {
        "dn": 1,
        "PRODUCT": "Day 2 Excessive Rainfall Potential Forecast",
        "VALID_TIME": "12Z 08/25/26 - 12Z 08/26/26",
        "OUTLOOK": "Marginal (At Least 5%)",
        "ISSUE_TIME": "2026-08-24 09:02:00",
        "START_TIME": "2026-08-25 12:00:00",
        "END_TIME": "2026-08-26 12:00:00",
        "Snippet": "12Z 08/25/26 - 12Z 08/26/26",
        "risk_norm": "MARGINAL"
      },
      "geometry": {
        "type": "Polygon",
        "coordinates": [
          [
            [
              -109.05626495546022,
              33.53719599027832
            ],
            [
              -110.29538055245058,
              33.83390465445514
            ],
            [
              -111.29797920799707,
              34.3279323982946
            ],
            [
              -111.99571317041132,
              34.93760075300113
            ],
            [
              -112.53929282327104,
              35.92224922274218
            ],
            [
              -112.56308695596393,
              36.416647684403024
            ],
            [
              -112.38424679631026,
              36.70679164135998
            ],
            [
              -112.01806399475217,
              36.879356552753116
            ],
            [
              -110.85360501597715,
              36.99275119675466
            ],
            [
              -110.34980522731176,
              37.397580507539374
            ],
            [
              -110.36885001506855,
              37.530439317052995
            ],
            [
              -110.8400908545656,
              37.66575407207437
            ],
            [
              -112.04644238068198,
              37.41449960737128
            ],
            [
              -112.88076134767748,
              37.32861482185565
            ],
            [
              -113.12670374363034,
              37.438357151440165
            ],
            [
              -113.23501653437586,
              37.741445731691094
            ],
            [
              -113.07175682202839,
              38.1178911346964
            ],
            [
              -111.90955143530591,
              39.39751975655124
            ],
            [
              -111.04987129710602,
              40.54346898010161
            ],
            [
              -111.00317045708779,
              40.989624687999374
            ],
            [
              -111.11334458246984,
              41.68474135480215
            ],
            [
              -111.1522453978996,
              43.38785486018903
            ],
            [
              -110.884928694758,
              44.32201847646141
            ],
            [
              -110.3362663009047,
              45.058182412499704
            ],
            [
              -109.86853658441133,
              45.18108047606176
            ],
            [
              -109.30735573676778,
              45.094941923293966
            ],
            [
              -108.84764467842432,
              44.869990936944774
            ],
            [
              -108.62504670126577,
              44.584640196312705
            ],
            [
              -108.55293808200925,
              44.071741910627225
            ],
            [
              -108.67660028029864,
              43.238764964103524
            ],
            [
              -109.35865493086452,
              42.183116705983636
            ],
            [
              -109.61421292649956,
              41.50454076991418
            ],
            [
              -109.56414839685769,
              41.15653970102594
            ],
            [
              -109.36121678063371,
              40.95345866845064
            ],
            [
              -109.11828256909017,
              40.8846218536115
            ],
            [
              -108.53546952584469,
              40.885627766363754
            ],
            [
              -106.94346784003442,
              41.218848386945076
            ],
            [
              -104.74654444229631,
              41.43889291839313
            ],
            [
              -104.21506447331286,
              41.379130947994426
            ],
            [
              -103.67304333768618,
              41.18673953000887
            ],
            [
              -103.20155201244556,
              41.121100089562226
            ],
            [
              -101.05294817024262,
              41.206216190602674
            ],
            [
              -100.3599987781198,
              41.31577263094145
            ],
            [
              -98.91981454132207,
              41.74626049397416
            ],
            [
              -98.51055979499733,
              41.754629585563556
            ],
            [
              -97.91950080882778,
              41.546667598101145
            ],
            [
              -96.96754944831827,
              40.682479186782444
            ],
            [
              -96.49497925033474,
              40.027301364741
            ],
            [
              -96.31630771971687,
              39.54350962329887
            ],
            [
              -96.31132265579257,
              39.14570480766811
            ],
            [
              -96.58842484130248,
              38.6117782102402
            ],
            [
              -97.09313795132681,
              38.25037804111724
            ],
            [
              -98.8873839009594,
              37.818905903894596
            ],
            [
              -99.60572792619071,
              37.4891722823121
            ],
            [
              -99.92702158588098,
              37.168711025012286
            ],
            [
              -100.28150980582433,
              36.39771444709012
            ],
            [
              -100.49015827067896,
              36.12213500819539
            ],
            [
              -100.90912588927432,
              35.65906671835183
            ],
            [
              -101.64701684510362,
              35.04566208701448
            ],
            [
              -101.86080197865779,
              34.94686897436226
            ],
            [
              -102.24425291301661,
              34.93050223894912
            ],
            [
              -103.3866340846022,
              35.5068828055992
            ],
            [
              -104.05046264316033,
              35.517076744727625
            ],
            [
              -104.80844707584112,
              35.33898904396011
            ],
            [
              -106.5622934945415,
              34.68417738021296
            ],
            [
              -108.1988915127134,
              33.65461679244775
            ],
            [
              -109.05626495546022,
              33.53719599027832
            ]
          ]
        ]
      }
    }
  ]
}
