{"type": "FeatureCollection", "features": [{"type": "Feature", "properties": {"dn": 1, "PRODUCT": "Day 1 Excessive Rainfall Potential Forecast", "VALID_TIME": "16Z 08/07/26 - 12Z 08/08/26", "OUTLOOK": "Marginal (At Least 5%)", "ISSUE_TIME": "2026-08-07 15:42:00", "START_TIME": "2026-08-07 16:00:00", "END_TIME": "2026-08-08 12:00:00", "Snippet": "16Z 08/07/26 - 12Z 08/08/26"}, "geometry": {"type": "Polygon", "coordinates": [[[-82.36844708088553, 25.153009473856127], [-82.59290722228265, 25.448019724918527], [-81.91407661823771, 25.619706401004528], [-82.1181065867413, 26.09627964729339], [-82.2642860577806, 26.15368335589894], [-82.53643912279504, 26.498454800815157], [-83.17876934092348, 27.78744444256655], [-83.12008427084714, 28.378261282360956], [-82.94683193937682, 28.547912441074573], [-82.98013486242392, 28.7336168061601], [-83.28088857068678, 28.847362681859316], [-83.32023214938555, 28.98850924755592], [-83.98262333699651, 29.721758924327382], [-84.08710279402948, 29.729113279407834], [-84.4813360692646, 29.436485842805258], [-84.91399175906047, 29.282449750682755], [-85.1222963585593, 29.295850180995004], [-85.68460892611208, 29.46759498758081], [-85.72344750313837, 29.653424985947463], [-85.91846441351754, 29.847442031069814], [-85.04935805748183, 30.160434589191826], [-83.68196740784147, 30.113126755039005], [-83.00809189326655, 30.518657367991885], [-82.82676241005316, 30.732944716500736], [-82.61576788540248, 31.21836779387527], [-82.25263482585278, 31.60081251212738], [-81.5903195552398, 31.774194588171934], [-80.62427294971776, 31.780948644840546], [-80.80478819113524, 31.613784504858923], [-81.13101592915555, 30.68382020482289], [-80.91979709382122, 29.79593975750715], [-80.22831009726261, 28.585879083976433], [-80.27895736516328, 28.177831850492325], [-79.78954500432337, 27.119579459547793], [-79.72225018624539, 26.83709996097543], [-79.83705590772036, 25.51566625853706], [-79.98241638370557, 25.162572825065823], [-80.08383978300793, 25.171828918804344], [-80.4187876349069, 25.342793524706465], [-80.66785565537693, 25.827228173011523], [-80.81302257506351, 25.886037793580194], [-81.38930889235294, 25.296529771889585], [-81.756014658166, 25.191748650235784], [-82.36844708088553, 25.153009473856127]]]}}, {"type": "Feature", "properties": {"dn": 1, "PRODUCT": "Day 1 Excessive Rainfall Potential Forecast", "VALID_TIME": "16Z 08/07/26 - 12Z 08/08/26", "OUTLOOK": "Marginal (At Least 5%)", "ISSUE_TIME": "2026-08-07 15:42:00", "START_TIME": "2026-08-07 16:00:00", "END_TIME": "2026-08-08 12:00:00", "Snippet": "16Z 08/07/26 - 12Z 08/08/26"}, "geometry": {"type": "Polygon", "coordinates": [[[-91.6632844398196, 29.11805931176347], [-91.820891038045, 29.075785756639466], [-92.08032577742242, 29.126467070091238], [-92.1824269179349, 29.21950606131329], [-92.5476757470499, 29.225702201592362], [-93.22266304624043, 29.462687779748723], [-93.58870427310148, 29.466435775146778], [-93.74655305788035, 29.376680902494464], [-93.95557214162247, 29.378224519021607], [-94.89668319294331, 28.83486054976214], [-95.05392232137314, 29.154830542477907], [-95.73565467026273, 29.745241457686113], [-95.84179481534355, 29.926803498952957], [-95.84375599658442, 30.19984415857192], [-95.52861274767184, 30.566006113984283], [-94.73606721422657, 30.88487068362322], [-94.36486819416122, 31.200921214653413], [-94.14956652048879, 31.608503532591275], [-94.1472203780173, 31.92604550687754], [-94.30581060386275, 32.19882597395434], [-94.94701295700926, 32.60711050418868], [-96.51109821000324, 33.05258593038581], [-98.42298221058792, 33.83696106755888], [-99.3545992013528, 34.04047575137978], [-100.11996277094771, 34.10857345300088], [-101.86007616493437, 34.044849675944825], [-102.99121715459944, 33.85784793754565], [-103.7362003985357, 33.63866582686281], [-104.25863048580216, 33.38335107708554], [-104.87065403961238, 32.93919566248545], [-106.33753439057816, 31.387063544433765], [-106.50210402882288, 31.421674705201944], [-106.57207952163469, 31.597888069269302], [-107.59448227822585, 31.656767587471624], [-107.96578444528456, 31.62688053767055], [-108.06062585381395, 31.52882876890281], [-108.07866176117668, 31.20713454245347], [-109.50931757052109, 31.12780594303685], [-110.73956450880605, 31.14696319042524], [-111.28534598770817, 31.228769081486856], [-111.8462491278468, 31.399575276763745], [-111.68087816852179, 31.737211579612943], [-111.62723854847854, 32.10837744235554], [-111.67977875837556, 32.4681391438044], [-111.9799340747184, 33.0296070531958], [-112.55878080045156, 33.60557474862387], [-113.17268213113465, 34.35724780520229], [-113.91098201957062, 34.81817424525782], [-114.63281520974773, 35.142449710751904], [-115.51895856850585, 35.71676207542759], [-115.74169378238798, 36.00665714163169], [-115.80553203565391, 36.63292378818015], [-115.60615544959369, 37.06434686305612], [-115.13489144711511, 37.57305360940698], [-114.43659813794937, 38.10392148051978], [-114.17299033774843, 38.22342601024022], [-113.72502755515639, 38.27291986966756], [-113.30985792187926, 38.183206186414175], [-112.73794490940237, 37.8387750951988], [-112.3308801530659, 37.43154432282653], [-111.96142193369496, 36.884163501226084], [-111.64469873100975, 35.92368258218385], [-111.2356387431463, 35.42171294300985], [-110.7885643132954, 35.01247532111812], [-110.12251047529742, 34.57773333657823], [-109.38097561485982, 34.37261528860312], [-108.02286363000877, 34.4862181600343], [-107.27598967942038, 34.6794485707712], [-106.8043695801279, 34.89466921640312], [-106.51012573042179, 35.23044977935267], [-106.13936235752365, 35.931363586620456], [-105.75689836073089, 37.12314464638277], [-105.39533641449114, 37.459698967035905], [-105.11964639259708, 37.5209762158123], [-104.77544382866552, 37.45167600302462], [-103.47289156971478, 36.62677013256733], [-103.01160296891143, 36.425239833799715], [-102.39183400723354, 36.31911727814279], [-100.78247367332264, 36.38214591976177], [-100.06879388108325, 36.58423899622962], [-99.46766004327779, 36.8695697327346], [-97.82697248658553, 38.19725658648608], [-97.04430727438977, 38.65224696870038], [-96.42293323623942, 38.88007170355976], [-95.73970145398592, 38.79569818687768], [-95.05627603060961, 38.39717158847616], [-94.88677643182763, 38.041702625738736], [-94.7199140845415, 37.105931641797575], [-94.44244156908353, 36.882860321920894], [-94.10781898861069, 36.83674897939082], [-93.65918140517492, 37.100874288594945], [-93.14268532496267, 37.85376998695176], [-92.163945115948, 38.596754439188345], [-91.13345259695126, 38.842947367821715], [-90.16735624858491, 38.81879368214614], [-89.37682707429651, 38.70630005424944], [-88.91530588634433, 38.82384327526995], [-87.96675415684923, 39.40755852377313], [-87.05248477390036, 40.120637767325974], [-84.77573309989516, 40.97335115907422], [-82.90685658765771, 41.998331660033095], [-82.74756275819861, 41.85631426876429], [-82.51436228639966, 41.84042133809318], [-81.26070402531013, 42.406627481895526], [-79.54933668946785, 42.75106049076701], [-79.21609475076576, 42.983840967683406], [-79.33106816917073, 43.38574377884201], [-79.23619839746056, 43.59602844913372], [-78.48307327097176, 43.79156363369032], [-76.9799881275183, 43.78298999363961], [-76.52916068956802, 44.2594847389758], [-75.62050702152317, 44.86149209774918], [-74.88210589198688, 45.17468476094672], [-72.98044492443009, 45.180806374133425], [-73.00564457024913, 44.27124096800525], [-72.9148497497285, 43.605858052602855], [-72.62095540122947, 43.04455272796593], [-72.156142700872, 42.45904454838995], [-72.01340207018973, 42.0436364150022], [-72.03472327137673, 41.69231335075848], [-72.23793027693269, 41.31916673509984], [-73.0951558823771, 40.359653993794645], [-73.71015709341064, 40.21221992322814], [-73.84451622880952, 39.559014688152565], [-74.2236031466409, 39.1125999841368], [-74.70327736720743, 38.72152557532674], [-74.73712075382832, 38.54611185111587], [-74.94717957486367, 38.346349483606126], [-75.333598107009, 38.12078439659854], [-75.69310015663072, 38.02698032141139], [-76.68168947334699, 37.911274344181706], [-79.11551177703053, 37.212778369426424], [-81.26372114846167, 35.376683126384926], [-83.10915826245157, 34.16411780687356], [-84.2659219670277, 32.93030093974422], [-84.73360105749722, 32.551329910422915], [-87.61004939371068, 31.347163801362665], [-89.38301332093991, 29.87370786861802], [-90.21706342487253, 28.76094477331129], [-91.04999807871151, 28.73885912208155], [-91.6632844398196, 29.11805931176347]], [[-76.56397352811551, 39.24225569882673], [-74.9269455246864, 39.954305786184825], [-74.06351012880086, 41.05452152729963], [-73.94319747599198, 41.35059031398526], [-74.03882566024514, 42.02467416007616], [-74.24812163528948, 42.44513760233117], [-74.49533243049393, 42.69324174294759], [-74.76968511412372, 42.811512469245834], [-75.39720860310071, 42.66036150617157], [-76.13091168576713, 42.25421259689127], [-77.02442974326415, 41.24394910175327], [-77.84941696949359, 40.52906884315226], [-77.95749069784819, 40.22920863095239], [-77.87221467658938, 40.04341745710473], [-77.32663851589348, 39.49960817802158], [-76.9600081736847, 39.283755699822095], [-76.56397352811551, 39.24225569882673]]]}}, {"type": "Feature", "properties": {"dn": 1, "PRODUCT": "Day 1 Excessive Rainfall Potential Forecast", "VALID_TIME": "16Z 08/07/26 - 12Z 08/08/26", "OUTLOOK": "Marginal (At Least 5%)", "ISSUE_TIME": "2026-08-07 15:42:00", "START_TIME": "2026-08-07 16:00:00", "END_TIME": "2026-08-08 12:00:00", "Snippet": "16Z 08/07/26 - 12Z 08/08/26"}, "geometry": {"type": "Polygon", "coordinates": [[[-92.92778787235179, 40.15274593809992], [-93.55869928799437, 40.3350290397246], [-94.19055839212469, 40.82314386949054], [-95.23652274145378, 42.0055744702006], [-96.12970783924236, 43.21830636919486], [-96.25224560514823, 43.52012775131398], [-96.25832598562562, 43.99442511007899], [-95.8478051991787, 44.94088406371732], [-95.48773152890186, 45.411905007152626], [-94.81789147193555, 45.838967658422646], [-93.4673470505117, 46.384462034461386], [-92.35626864358956, 46.626447195864195], [-90.54544118029989, 47.18447109393182], [-89.04294219482378, 47.43970727955928], [-88.53533853995596, 47.59197672112838], [-87.55336749783167, 48.186346874487704], [-84.91545806389256, 47.10536173385075], [-84.62505249427704, 46.92057905586879], [-84.4656190618454, 46.70142113603843], [-84.03619341073075, 46.678017196651], [-83.9475002665983, 46.37525121077926], [-83.71831767836856, 46.23468740978232], [-83.78573251945339, 46.195187185937925], [-84.23717011267281, 46.00782153829761], [-85.96437472305544, 45.8827604633149], [-86.71751564654213, 45.660700500070035], [-89.94137340491616, 43.455836360593906], [-90.68525884618933, 42.781472340152696], [-91.05855729278947, 42.31170509207802], [-91.80297474743561, 41.103433529229875], [-92.11820234108781, 40.23037814778966], [-92.35208286481709, 40.145084710373666], [-92.92778787235179, 40.15274593809992]]]}}, {"type": "Feature", "properties": {"dn": 2, "PRODUCT": "Day 1 Excessive Rainfall Potential Forecast", "VALID_TIME": "16Z 08/07/26 - 12Z 08/08/26", "OUTLOOK": "Slight (At Least 15%)", "ISSUE_TIME": "2026-08-07 15:42:00", "START_TIME": "2026-08-07 16:00:00", "END_TIME": "2026-08-08 12:00:00", "Snippet": "16Z 08/07/26 - 12Z 08/08/26"}, "geometry": {"type": "Polygon", "coordinates": [[[-76.9600081736847, 39.283755699822095], [-77.32663851589348, 39.49960817802158], [-77.87221467658938, 40.04341745710473], [-77.95749069784819, 40.22920863095239], [-77.84941696949359, 40.52906884315226], [-77.02442974326415, 41.24394910175327], [-76.13091168576713, 42.25421259689127], [-75.39720860310071, 42.66036150617157], [-74.76968511412372, 42.811512469245834], [-74.49533243049393, 42.69324174294759], [-74.24812163528948, 42.44513760233117], [-74.03882566024514, 42.02467416007616], [-73.94319747599198, 41.35059031398526], [-74.06351012880086, 41.05452152729963], [-74.9269455246864, 39.954305786184825], [-76.56397352811551, 39.24225569882673], [-76.9600081736847, 39.283755699822095]]]}}]}