{
  "type": "FeatureCollection",
  "features": [
    {
      "type": "Feature",
      "properties": {
        "dn": 1,
        "PRODUCT": "Day 2 Excessive Rainfall Potential Forecast",
        "VALID_TIME": "12Z 08/08/26 - 12Z 08/09/26",
        "OUTLOOK": "Marginal (At Least 5%)",
        "ISSUE_TIME": "2026-08-07 07:35:00",
        "START_TIME": "2026-08-08 12:00:00",
        "END_TIME": "2026-08-09 12:00:00",
        "Snippet": "12Z 08/08/26 - 12Z 08/09/26",
        "risk_norm": "MARGINAL"
      },
      "geometry": {
        "type": "Polygon",
        "coordinates": [
          [
            [
              -83.26003108547003,
              24.308533553390063
            ],
            [
              -83.14535551376402,
              24.988271877247925
            ],
            [
              -82.38701590963649,
              24.972866704434747
            ],
            [
              -82.3238345877115,
              25.104258088866843
            ],
            [
              -82.59290722228265,
              25.448019724918527
            ],
            [
              -81.91407661823771,
              25.619706401004528
            ],
            [
              -82.1181065867413,
              26.09627964729339
            ],
            [
              -82.2642860577806,
              26.15368335589894
            ],
            [
              -82.53643912279504,
              26.498454800815157
            ],
            [
              -83.17876934092348,
              27.78744444256655
            ],
            [
              -83.12008427084714,
              28.378261282360956
            ],
            [
              -82.94683193937682,
              28.547912441074573
            ],
            [
              -82.98013486242392,
              28.7336168061601
            ],
            [
              -83.28088857068678,
              28.847362681859316
            ],
            [
              -83.32023214938555,
              28.98850924755592
            ],
            [
              -83.98262333699651,
              29.721758924327382
            ],
            [
              -84.08710279402948,
              29.729113279407834
            ],
            [
              -84.58960571074063,
              29.39809269208807
            ],
            [
              -84.91399175906047,
              29.282449750682755
            ],
            [
              -85.17437984791225,
              29.29915663257841
            ],
            [
              -85.68460892611208,
              29.46759498758081
            ],
            [
              -85.72344750313837,
              29.653424985947463
            ],
            [
              -86.06763025312853,
              29.946373845810413
            ],
            [
              -86.47697752494051,
              30.10603567532834
            ],
            [
              -86.90414257006437,
              30.03844761744923
            ],
            [
              -86.23902252797275,
              31.18720234123077
            ],
            [
              -85.28209446221322,
              31.813936495763556
            ],
            [
              -84.35560835702046,
              32.573038443170425
            ],
            [
              -84.2893403878404,
              32.70487930813593
            ],
            [
              -84.3132963704188,
              33.024202795207295
            ],
            [
              -84.75962025639971,
              33.46022696934067
            ],
            [
              -85.33043065315766,
              33.76689030721544
            ],
            [
              -85.82152036994746,
              33.75006536805999
            ],
            [
              -87.86406928818015,
              33.264328480300705
            ],
            [
              -89.74205647112882,
              32.43051542792553
            ],
            [
              -91.20200043163432,
              32.10904379223286
            ],
            [
              -92.32521835624289,
              32.1317573124756
            ],
            [
              -93.44634974086814,
              32.32784293987735
            ],
            [
              -94.35573742625047,
              32.65110555154054
            ],
            [
              -94.51729255745848,
              32.833628218114285
            ],
            [
              -94.51671660886454,
              32.96936216798658
            ],
            [
              -94.3534738426241,
              33.24012406671199
            ],
            [
              -93.80687855353446,
              33.73488095306449
            ],
            [
              -92.20886986743267,
              34.707386751981595
            ],
            [
              -89.98628856180908,
              35.419748533847866
            ],
            [
              -88.52129073785423,
              35.95314349247775
            ],
            [
              -87.31983783147922,
              36.48550768031767
            ],
            [
              -86.44494334405084,
              36.98084916941496
            ],
            [
              -85.42748639402457,
              37.73025058181995
            ],
            [
              -83.4268380426931,
              39.52094909790024
            ],
            [
              -81.78420926497179,
              40.68821893571269
            ],
            [
              -79.356747142007,
              42.47155380974756
            ],
            [
              -78.96273299719405,
              42.70079162557923
            ],
            [
              -78.20856046608935,
              42.93935639051543
            ],
            [
              -76.51498601574274,
              43.69396386917203
            ],
            [
              -75.48502927467014,
              44.024380731067026
            ],
            [
              -74.87405086033743,
              44.3501552624883
            ],
            [
              -74.08556815469663,
              45.17545737933521
            ],
            [
              -71.75592308532418,
              45.16527476571578
            ],
            [
              -71.60681553461849,
              45.27615893875982
            ],
            [
              -71.56509177735084,
              45.444221266004
            ],
            [
              -71.05337252270442,
              45.51155953131959
            ],
            [
              -70.83223225334282,
              45.65598115258359
            ],
            [
              -70.57622010939406,
              45.92610409675092
            ],
            [
              -70.223124011811,
              46.78530386514592
            ],
            [
              -69.36321849579707,
              47.61692557619974
            ],
            [
              -68.52010158572003,
              47.46428406925875
            ],
            [
              -68.22797322951953,
              47.59611889672744
            ],
            [
              -67.65686742395188,
              47.17427021222508
            ],
            [
              -67.4804491690983,
              46.50364932003513
            ],
            [
              -67.55774921842674,
              45.82209336517042
            ],
            [
              -67.24914242920676,
              45.60386279836561
            ],
            [
              -67.18057241058808,
              45.42068924624156
            ],
            [
              -67.06077147878227,
              45.40227549623445
            ],
            [
              -68.55855015017083,
              44.70140043652985
            ],
            [
              -69.97178832152366,
              43.75789554374486
            ],
            [
              -70.40530908272581,
              43.245076865520744
            ],
            [
              -70.785932823433,
              42.19310616920272
            ],
            [
              -71.19831082508387,
              41.71648597320619
            ],
            [
              -71.62419238275636,
              41.41756825959708
            ],
            [
              -72.5171180662607,
              41.13167029628931
            ],
            [
              -73.89210788058924,
              41.03342704552708
            ],
            [
              -74.4600932589879,
              40.834523289819806
            ],
            [
              -74.50375771142457,
              40.61754912716841
            ],
            [
              -74.13519726583364,
              40.12944208851671
            ],
            [
              -74.07455075328993,
              39.854674887832054
            ],
            [
              -74.2799491380124,
              39.11934321629388
            ],
            [
              -74.50915531776555,
              38.83306578316856
            ],
            [
              -74.70327736720743,
              38.72152557532674
            ],
            [
              -74.75400047359503,
              38.4583507307789
            ],
            [
              -74.95680610696299,
              38.301676682617064
            ],
            [
              -75.445383555116,
              38.13359356136147
            ],
            [
              -76.45063119988487,
              37.93123874343345
            ],
            [
              -77.02438720932466,
              37.90279340747482
            ],
            [
              -79.03356560256047,
              37.38473102952743
            ],
            [
              -80.99348220470996,
              35.76024302471205
            ],
            [
              -82.11861191664262,
              35.17360551438769
            ],
            [
              -82.48131909437758,
              34.88623703833547
            ],
            [
              -82.5065549427102,
              34.662161258392196
            ],
            [
              -82.22190901159894,
              34.27917102320949
            ],
            [
              -81.75476538572426,
              34.06077138257263
            ],
            [
              -81.17030466835725,
              33.921544836968536
            ],
            [
              -79.38837841770756,
              33.76020358052644
            ],
            [
              -77.61613823139709,
              33.89754534600032
            ],
            [
              -77.64390130445592,
              33.71848101879983
            ],
            [
              -77.77339189423618,
              33.594818203961296
            ],
            [
              -77.94830693276285,
              33.522282812135245
            ],
            [
              -77.99526709697264,
              33.572751840595316
            ],
            [
              -78.37836769065561,
              33.567026823234485
            ],
            [
              -78.85266302286722,
              33.29740433841915
            ],
            [
              -78.95741378027536,
              32.943546965180765
            ],
            [
              -80.49445341643577,
              31.950699855526654
            ],
            [
              -80.80478819113524,
              31.613784504858923
            ],
            [
              -81.12021116667621,
              30.77425779181026
            ],
            [
              -80.91979709382122,
              29.79593975750715
            ],
            [
              -80.22831009726261,
              28.585879083976433
            ],
            [
              -80.27895736516328,
              28.177831850492325
            ],
            [
              -79.7952859485846,
              27.074208658573983
            ],
            [
              -80.11335530715323,
              27.01297501269565
            ],
            [
              -80.50708761916546,
              26.730564837409478
            ],
            [
              -80.71871613116002,
              26.24549677956881
            ],
            [
              -80.83837950009844,
              25.659676680773522
            ],
            [
              -81.09187870601947,
              25.224129712967905
            ],
            [
              -81.63019045223899,
              24.950979103256056
            ],
            [
              -82.98828001682769,
              24.516111376277827
            ],
            [
              -83.26003108547003,
              24.308533553390063
            ]
          ]
        ]
      }
    },
    {
      "type": "Feature",
      "properties": {
        "dn": 1,
        "PRODUCT": "Day 2 Excessive Rainfall Potential Forecast",
        "VALID_TIME": "12Z 08/08/26 - 12Z 08/09/26",
        "OUTLOOK": "Marginal (At Least 5%)",
        "ISSUE_TIME": "2026-08-07 07:35:00",
        "START_TIME": "2026-08-08 12:00:00",
        "END_TIME": "2026-08-09 12:00:00",
        "Snippet": "12Z 08/08/26 - 12Z 08/09/26",
        "risk_norm": "MARGINAL"
      },
      "geometry": {
        "type": "Polygon",
        "coordinates": [
          [
            [
              -108.97623571561925,
              31.13024758539512
            ],
            [
              -110.95653789383776,
              31.17089174187611
            ],
            [
              -113.36924762254571,
              31.87089018903825
            ],
            [
              -113.33517709639649,
              33.3370294051221
            ],
            [
              -113.48962662402238,
              34.27615055052482
            ],
            [
              -114.12834133868016,
              35.7469641732339
            ],
            [
              -114.4684887856057,
              37.64981104597283
            ],
            [
              -114.42198854504413,
              38.32913458241398
            ],
            [
              -114.29408227309904,
              38.567744742130515
            ],
            [
              -113.84260602199707,
              38.93186417670414
            ],
            [
              -113.1733858650303,
              39.048011036323764
            ],
            [
              -112.87599371964667,
              38.98958295388415
            ],
            [
              -112.23764048063987,
              38.606580041649934
            ],
            [
              -111.89954038755357,
              37.92377179565182
            ],
            [
              -111.56182166236856,
              36.11256278756044
            ],
            [
              -111.15243766079682,
              35.61071997965146
            ],
            [
              -110.55485538439108,
              35.30708361767174
            ],
            [
              -109.72821618302139,
              35.337517679409736
            ],
            [
              -109.41146292735567,
              35.45572659311581
            ],
            [
              -105.9744418682948,
              37.06532138577661
            ],
            [
              -105.02627431316823,
              37.124015309180464
            ],
            [
              -104.68339623503442,
              37.05441735384155
            ],
            [
              -104.38392051214157,
              36.84650881552892
            ],
            [
              -104.60301725752448,
              36.1614172381769
            ],
            [
              -105.39434806652747,
              35.12390371691886
            ],
            [
              -107.34346964653862,
              33.31453299443062
            ],
            [
              -107.57755805151307,
              32.97860997804241
            ],
            [
              -107.81808975473812,
              32.231946561428856
            ],
            [
              -107.80571814193738,
              31.64078442363351
            ],
            [
              -107.96578444528456,
              31.62688053767055
            ],
            [
              -108.06062585381395,
              31.52882876890281
            ],
            [
              -108.07770730370692,
              31.208125959207656
            ],
            [
              -108.97623571561925,
              31.13024758539512
            ]
          ]
        ]
      }
    },
    {
      "type": "Feature",
      "properties": {
        "dn": 1,
        "PRODUCT": "Day 2 Excessive Rainfall Potential Forecast",
        "VALID_TIME": "12Z 08/08/26 - 12Z 08/09/26",
        "OUTLOOK": "Marginal (At Least 5%)",
        "ISSUE_TIME": "2026-08-07 07:35:00",
        "START_TIME": "2026-08-08 12:00:00",
        "END_TIME": "2026-08-09 12:00:00",
        "Snippet": "12Z 08/08/26 - 12Z 08/09/26",
        "risk_norm": "MARGINAL"
      },
      "geometry": {
        "type": "Polygon",
        "coordinates": [
          [
            [
              -93.10454156179651,
              39.934444908736666
            ],
            [
              -94.71297802479717,
              40.12058794104534
            ],
            [
              -95.80873704845934,
              40.38301148712991
            ],
            [
              -96.389947831419,
              40.68702493287318
            ],
            [
              -96.80317738918696,
              41.07898921970166
            ],
            [
              -96.98597851282149,
              41.51472574910759
            ],
            [
              -97.06118395305205,
              42.34248453011147
            ],
            [
              -97.78881044494764,
              43.114240665020546
            ],
            [
              -97.9162922906598,
              43.41514636045339
            ],
            [
              -97.69858721849532,
              44.151466838178735
            ],
            [
              -97.52443988755975,
              44.36879437225359
            ],
            [
              -96.92961641812069,
              44.71981863551846
            ],
            [
              -96.14865260945957,
              44.94017169315452
            ],
            [
              -95.3636356264563,
              45.02879806621118
            ],
            [
              -94.63819698475828,
              44.98604433292411
            ],
            [
              -93.73445721190178,
              44.76821564389638
            ],
            [
              -92.00471485786113,
              44.14785613610021
            ],
            [
              -89.23932423916595,
              43.2632646933053
            ],
            [
              -88.66560121444067,
              42.94116366842608
            ],
            [
              -87.93618810922578,
              42.34858821968035
            ],
            [
              -87.50848111147691,
              41.764253073126056
            ],
            [
              -87.48573435488544,
              41.28180316797663
            ],
            [
              -87.80421941272745,
              40.89996036651929
            ],
            [
              -88.28896765522923,
              40.61029767708875
            ],
            [
              -89.05787627575445,
              40.32958870870923
            ],
            [
              -91.37976506881816,
              39.95162509922032
            ],
            [
              -93.10454156179651,
              39.934444908736666
            ]
          ]
        ]
      }
    }
  ]
}
