{"type": "FeatureCollection", "features": [{"type": "Feature", "properties": {"dn": 1, "PRODUCT": "Day 1 Excessive Rainfall Potential Forecast", "VALID_TIME": "16Z 09/14/26 - 12Z 09/15/26", "OUTLOOK": "Marginal (At Least 5%)", "ISSUE_TIME": "2026-09-14 16:00:00", "START_TIME": "2026-09-14 16:00:00", "END_TIME": "2026-09-15 12:00:00", "Snippet": "16Z 09/14/26 - 12Z 09/15/26"}, "geometry": {"type": "Polygon", "coordinates": [[[-103.28882997533344, 29.75379798013576], [-103.73209254903941, 30.049819824081766], [-104.32142759802126, 30.83638198830223], [-104.39987985696699, 31.150532307222313], [-104.148541295651, 31.348239431953395], [-103.46232072811416, 31.431835268434853], [-102.87211716776889, 31.371257451809768], [-102.48480635940966, 31.1616996547726], [-102.19454522289368, 30.765654404545735], [-102.12229557721088, 30.450232259995897], [-102.31969357616563, 30.212475543891003], [-102.97791629391794, 29.8156151202666], [-103.28882997533344, 29.75379798013576]]]}}, {"type": "Feature", "properties": {"dn": 1, "PRODUCT": "Day 1 Excessive Rainfall Potential Forecast", "VALID_TIME": "16Z 09/14/26 - 12Z 09/15/26", "OUTLOOK": "Marginal (At Least 5%)", "ISSUE_TIME": "2026-09-14 16:00:00", "START_TIME": "2026-09-14 16:00:00", "END_TIME": "2026-09-15 12:00:00", "Snippet": "16Z 09/14/26 - 12Z 09/15/26"}, "geometry": {"type": "Polygon", "coordinates": [[[-110.95246701233582, 31.141421864001877], [-112.07059694016749, 31.467011108288855], [-112.25424668871227, 33.04601008504558], [-112.97439915286509, 34.833482736559255], [-113.22999992214784, 35.712199009187096], [-113.26900038387201, 36.612022312010076], [-112.94499567991811, 37.36771304003173], [-112.21611964905411, 38.11723607450749], [-111.0328531955036, 38.94658426572945], [-109.11307380578539, 40.001024409085595], [-107.76854014421323, 40.80985811222129], [-106.44042506713016, 40.899787390041524], [-105.84373136759477, 40.76089271982527], [-105.46917138193687, 40.51808238687988], [-105.32404483325587, 39.0668886861154], [-104.55758456807942, 38.17700143322538], [-104.43829571360853, 37.46977772213775], [-104.23206299296169, 37.033937792932775], [-103.39886708569574, 36.405458397229005], [-102.91597605675418, 35.89039603380254], [-102.65131069694316, 35.273308029515334], [-102.53219496086554, 34.332266888002216], [-102.77013657134314, 33.82422971727664], [-103.42083953788025, 33.067587060162175], [-104.12819447512452, 32.4384896695519], [-104.48781628724069, 32.23594115409645], [-104.80443890109323, 32.1714112563052], [-105.07530319352993, 32.2000183064888], [-105.73694360247839, 32.38422944467046], [-106.69398998933485, 32.271711751554996], [-107.14447102550902, 31.965962012968493], [-107.21819173885459, 31.640596906731904], [-107.96578444528456, 31.62688053767055], [-108.06062585381395, 31.52882876890281], [-108.07866176117668, 31.20713454245347], [-108.97266938754481, 31.100727661809906], [-110.95246701233582, 31.141421864001877]], [[-108.65916002413223, 31.1589154393873], [-108.77219442857238, 32.10694750710092], [-108.69272773591341, 32.34153944343319], [-108.10470511478421, 32.8452182158177], [-107.28576024086401, 33.273086520206974], [-106.7137945251898, 34.0411041641023], [-106.58832574157604, 34.412030011416704], [-106.87274072600465, 35.02431705429077], [-106.84681043082028, 35.296916214453084], [-106.6421658616934, 35.4462229822434], [-106.04699658692361, 35.57696944877388], [-105.74272028673268, 35.86738054753771], [-105.85984889816972, 36.488931561730986], [-106.54054929127814, 37.116428722988736], [-106.80733336447491, 37.50100458077963], [-107.53596407265282, 37.94132129814649], [-108.23684928557664, 38.11202937161743], [-108.78148185835799, 37.93506718788334], [-109.13342458599152, 37.59259848904734], [-109.08096494450538, 37.19350587859148], [-108.72881877411187, 36.638715938263026], [-108.64482919717237, 35.97054899827836], [-108.76516464249393, 35.59995822785951], [-109.10300027946192, 35.21078776143557], [-109.77173079756803, 34.835657897133395], [-112.07595691576942, 34.74831762197088], [-112.16432204507852, 34.60249254816781], [-112.13673498989942, 34.423760723707794], [-111.31102409201128, 32.91653450318751], [-111.22096123610736, 32.287199249286665], [-111.23329022435014, 31.23504789670938], [-110.73964644654218, 31.1475647572386], [-108.65916002413223, 31.1589154393873]]]}}, {"type": "Feature", "properties": {"dn": 1, "PRODUCT": "Day 1 Excessive Rainfall Potential Forecast", "VALID_TIME": "16Z 09/14/26 - 12Z 09/15/26", "OUTLOOK": "Marginal (At Least 5%)", "ISSUE_TIME": "2026-09-14 16:00:00", "START_TIME": "2026-09-14 16:00:00", "END_TIME": "2026-09-15 12:00:00", "Snippet": "16Z 09/14/26 - 12Z 09/15/26"}, "geometry": {"type": "Polygon", "coordinates": [[[-101.43897463983414, 38.05474562794376], [-101.39857700124352, 38.323165413477476], [-100.92938307383315, 39.04996725529953], [-100.51801267700537, 39.90344005127614], [-100.14234854419232, 40.443409264812495], [-99.42032587378161, 41.12135767055731], [-99.15477599347928, 41.74016471291941], [-98.45656436200595, 41.88660570742449], [-98.05577465367222, 42.1544580660435], [-96.8442919818841, 43.342363915655575], [-96.553308100494, 43.733666218930146], [-96.49826518753991, 44.03572022209342], [-96.86186437817248, 44.332643863158346], [-97.95396203558337, 44.70499211164924], [-98.44787915282824, 44.99728959248391], [-98.77355635275372, 45.588782931348234], [-98.7905661710825, 46.013750908526134], [-98.44584912199812, 46.6132268020794], [-97.23324311403184, 47.38982053214611], [-96.56171322600497, 47.94008093315128], [-96.1323455682135, 48.52679240683596], [-95.82413157802927, 49.15056264540861], [-95.444961594129, 49.19308783157662], [-95.44536366674684, 49.524275311148095], [-94.61988896219992, 49.52440426284683], [-94.43159410122591, 48.98581077106259], [-94.24421805023145, 48.903142092357385], [-93.61563975877733, 48.77541400180068], [-93.11109855296515, 48.81290701903468], [-92.67239385498338, 48.725376907788096], [-91.55442826900217, 48.33514599289284], [-90.79708811286235, 48.44594878423832], [-90.49402351705132, 48.23103866548584], [-89.43099065589388, 48.20470819346374], [-88.40372522494941, 48.54932395638188], [-84.91545806389256, 47.10536173385075], [-84.62505249427704, 46.92057905586879], [-84.4656190618454, 46.70142113603843], [-84.03619341073075, 46.678017196651], [-83.9475002665983, 46.37525121077926], [-83.78046803989592, 46.23911349639294], [-83.41434701639541, 46.217760887354615], [-83.30178637194973, 46.125093227664394], [-83.28420977432239, 45.78389575727251], [-82.22531878468769, 45.45950388465304], [-82.24244686081217, 45.332153134938984], [-83.44912892935483, 44.42074093840413], [-84.74412036342737, 43.5879661287739], [-86.49122316805048, 42.72172821758395], [-87.03221758114921, 42.61544194214121], [-87.64048935317173, 42.37964073821021], [-90.43365731204672, 40.54617714897257], [-91.14343790658916, 40.1229133285328], [-91.72725932389221, 39.870212284139974], [-92.47793144845026, 39.70607025112056], [-93.68247108247968, 39.6750629385446], [-95.34369446209814, 39.370503585079014], [-98.01910145346942, 38.99084092677297], [-99.700784111361, 38.37681136813387], [-100.76107638771306, 38.077885690397714], [-101.3787564237709, 38.011583550210595], [-101.43897463983414, 38.05474562794376]], [[-94.77131748291747, 39.768526407041], [-94.02429956227246, 39.89827357208414], [-93.21490366775487, 40.20033367230198], [-91.34096312449415, 41.050358931538405], [-90.79984412430396, 41.47688187223478], [-90.03844330618655, 42.721797789801954], [-89.59713643923035, 43.22983781568823], [-88.23422257453939, 44.04903894889245], [-87.3807303195806, 44.231874790184676], [-86.80147544860922, 44.68108208034365], [-86.83986169596528, 44.94009012820121], [-87.47374896725911, 45.3514935180397], [-87.83085152663706, 45.45049665553324], [-88.68021358503887, 45.480155560912], [-90.09204601072133, 45.22243433374441], [-91.50079946993277, 44.825586982755325], [-92.83964627707118, 44.33076527450955], [-94.10581925272895, 43.738396507348945], [-96.41350944054149, 42.39254999437133], [-97.62487801906731, 41.419130608207894], [-97.96183215362842, 40.975960817219395], [-98.00826651033825, 40.58013109598584], [-97.76935590486302, 40.319745152941096], [-97.24557911422886, 40.10703742019286], [-96.03428824371554, 39.85385057643734], [-94.77131748291747, 39.768526407041]]]}}, {"type": "Feature", "properties": {"dn": 2, "PRODUCT": "Day 1 Excessive Rainfall Potential Forecast", "VALID_TIME": "16Z 09/14/26 - 12Z 09/15/26", "OUTLOOK": "Slight (At Least 15%)", "ISSUE_TIME": "2026-09-14 16:00:00", "START_TIME": "2026-09-14 16:00:00", "END_TIME": "2026-09-15 12:00:00", "Snippet": "16Z 09/14/26 - 12Z 09/15/26"}, "geometry": {"type": "Polygon", "coordinates": [[[-110.73964644654218, 31.1475647572386], [-111.23329022435014, 31.23504789670938], [-111.22096123610736, 32.287199249286665], [-111.31102409201128, 32.91653450318751], [-112.13673498989942, 34.423760723707794], [-112.16432204507852, 34.60249254816781], [-112.07595691576942, 34.74831762197088], [-109.77173079756803, 34.835657897133395], [-109.10300027946192, 35.21078776143557], [-108.76516464249393, 35.59995822785951], [-108.64482919717237, 35.97054899827836], [-108.72881877411187, 36.638715938263026], [-109.08096494450538, 37.19350587859148], [-109.13342458599152, 37.59259848904734], [-108.78148185835799, 37.93506718788334], [-108.23684928557664, 38.11202937161743], [-107.53596407265282, 37.94132129814649], [-106.80733336447491, 37.50100458077963], [-106.54054929127814, 37.116428722988736], [-105.85984889816972, 36.488931561730986], [-105.74272028673268, 35.86738054753771], [-106.04699658692361, 35.57696944877388], [-106.6421658616934, 35.4462229822434], [-106.84681043082028, 35.296916214453084], [-106.87274072600465, 35.02431705429077], [-106.58832574157604, 34.412030011416704], [-106.7137945251898, 34.0411041641023], [-107.28576024086401, 33.273086520206974], [-108.10470511478421, 32.8452182158177], [-108.69272773591341, 32.34153944343319], [-108.77219442857238, 32.10694750710092], [-108.65916002413223, 31.1589154393873], [-110.73964644654218, 31.1475647572386]]]}}, {"type": "Feature", "properties": {"dn": 2, "PRODUCT": "Day 1 Excessive Rainfall Potential Forecast", "VALID_TIME": "16Z 09/14/26 - 12Z 09/15/26", "OUTLOOK": "Slight (At Least 15%)", "ISSUE_TIME": "2026-09-14 16:00:00", "START_TIME": "2026-09-14 16:00:00", "END_TIME": "2026-09-15 12:00:00", "Snippet": "16Z 09/14/26 - 12Z 09/15/26"}, "geometry": {"type": "Polygon", "coordinates": [[[-97.24557911422886, 40.10703742019286], [-97.76935590486302, 40.319745152941096], [-98.00826651033825, 40.58013109598584], [-97.96183215362842, 40.975960817219395], [-97.62487801906731, 41.419130608207894], [-96.41350944054149, 42.39254999437133], [-94.10581925272895, 43.738396507348945], [-92.83964627707118, 44.33076527450955], [-91.50079946993277, 44.825586982755325], [-90.09204601072133, 45.22243433374441], [-88.68021358503887, 45.480155560912], [-87.83085152663706, 45.45049665553324], [-87.47374896725911, 45.3514935180397], [-86.83986169596528, 44.94009012820121], [-86.80147544860922, 44.68108208034365], [-87.3807303195806, 44.231874790184676], [-88.23422257453939, 44.04903894889245], [-89.59713643923035, 43.22983781568823], [-90.03844330618655, 42.721797789801954], [-90.79984412430396, 41.47688187223478], [-91.34096312449415, 41.050358931538405], [-93.21490366775487, 40.20033367230198], [-94.02429956227246, 39.89827357208414], [-94.77131748291747, 39.768526407041], [-96.03428824371554, 39.85385057643734], [-97.24557911422886, 40.10703742019286]], [[-94.13107343457538, 40.86655976047966], [-93.54818468550788, 41.08199370161728], [-92.66349515042748, 41.64164107702315], [-92.59783160738293, 41.94630852488235], [-93.06179082918956, 42.21343530922784], [-93.35555052459382, 42.21631019196824], [-94.47309703007137, 42.00514145004326], [-94.8837413130156, 41.83143175018503], [-95.2345697068746, 41.569165897165405], [-95.23356353519746, 41.131682978511755], [-95.05880907585149, 40.91251409100972], [-94.59509716643822, 40.82433953888644], [-94.13107343457538, 40.86655976047966]]]}}, {"type": "Feature", "properties": {"dn": 3, "PRODUCT": "Day 1 Excessive Rainfall Potential Forecast", "VALID_TIME": "16Z 09/14/26 - 12Z 09/15/26", "OUTLOOK": "Moderate (At Least 40%)", "ISSUE_TIME": "2026-09-14 16:00:00", "START_TIME": "2026-09-14 16:00:00", "END_TIME": "2026-09-15 12:00:00", "Snippet": "16Z 09/14/26 - 12Z 09/15/26"}, "geometry": {"type": "Polygon", "coordinates": [[[-94.59509716643822, 40.82433953888644], [-95.05880907585149, 40.91251409100972], [-95.23356353519746, 41.131682978511755], [-95.2345697068746, 41.569165897165405], [-94.8837413130156, 41.83143175018503], [-94.47309703007137, 42.00514145004326], [-93.35555052459382, 42.21631019196824], [-93.06179082918956, 42.21343530922784], [-92.59783160738293, 41.94630852488235], [-92.66349515042748, 41.64164107702315], [-93.54818468550788, 41.08199370161728], [-94.13107343457538, 40.86655976047966], [-94.59509716643822, 40.82433953888644]]]}}]}