{
  "type": "FeatureCollection",
  "features": [
    {
      "type": "Feature",
      "properties": {
        "dn": 1,
        "PRODUCT": "Day 2 Excessive Rainfall Potential Forecast",
        "VALID_TIME": "12Z 09/15/26 - 12Z 09/16/26",
        "OUTLOOK": "Marginal (At Least 5%)",
        "ISSUE_TIME": "2026-09-14 07:29:00",
        "START_TIME": "2026-09-15 12:00:00",
        "END_TIME": "2026-09-16 12:00:00",
        "Snippet": "12Z 09/15/26 - 12Z 09/16/26",
        "risk_norm": "MARGINAL"
      },
      "geometry": {
        "type": "Polygon",
        "coordinates": [
          [
            [
              -104.75781402954834,
              29.71531876159247
            ],
            [
              -105.028860756658,
              30.4282232571379
            ],
            [
              -106.055277882567,
              31.224775584563876
            ],
            [
              -106.50210402882288,
              31.421674705201944
            ],
            [
              -106.57207952163469,
              31.597888069269302
            ],
            [
              -107.96246091385268,
              31.597367977657036
            ],
            [
              -108.07532152085008,
              31.177599435261552
            ],
            [
              -108.97266938754481,
              31.100727661809906
            ],
            [
              -109.93311800362488,
              31.10409290556829
            ],
            [
              -110.95246701233582,
              31.141421864001877
            ],
            [
              -112.80501825804292,
              31.706412059646645
            ],
            [
              -113.09838743572938,
              32.542162163462265
            ],
            [
              -113.24251785580388,
              33.438734691408904
            ],
            [
              -113.03985792915167,
              35.234640937213335
            ],
            [
              -113.11730108390593,
              36.04124661492871
            ],
            [
              -113.75501108012004,
              37.14484822983839
            ],
            [
              -113.80921132139204,
              37.45406868864684
            ],
            [
              -113.6964555743505,
              37.781315683669526
            ],
            [
              -113.35822100328171,
              38.133180390350084
            ],
            [
              -112.10576091146645,
              38.84401707692301
            ],
            [
              -110.11600605919257,
              39.74033509339184
            ],
            [
              -109.48061871281794,
              40.14841796938352
            ],
            [
              -108.90957273946546,
              40.63627667446744
            ],
            [
              -108.36233710200631,
              40.89865367506716
            ],
            [
              -106.72166271226976,
              41.32130589754075
            ],
            [
              -106.14122543268347,
              41.358139277187135
            ],
            [
              -105.8415386752232,
              41.288627459793545
            ],
            [
              -105.58993172318884,
              41.12706177840864
            ],
            [
              -105.26054591321527,
              40.75044265060418
            ],
            [
              -104.48329651010464,
              39.24767865664531
            ],
            [
              -104.24628556337588,
              38.505555263044364
            ],
            [
              -103.9750328173848,
              37.985587088403456
            ],
            [
              -103.56079733749951,
              37.740109820996715
            ],
            [
              -103.16756198767014,
              37.75931688677599
            ],
            [
              -102.35193817390018,
              38.19710021571391
            ],
            [
              -100.7975963692385,
              39.76206584725174
            ],
            [
              -99.51988446038715,
              40.76880185420239
            ],
            [
              -98.89627788560651,
              41.13434534571843
            ],
            [
              -97.97657421799275,
              41.50202181321959
            ],
            [
              -96.64039512837101,
              41.86840141978669
            ],
            [
              -94.88328682066539,
              42.224355469141685
            ],
            [
              -92.52554520699718,
              42.512190016672385
            ],
            [
              -89.92317243151155,
              42.676091315743285
            ],
            [
              -87.32323497960216,
              42.673040950996146
            ],
            [
              -84.91847367694716,
              42.46981434136899
            ],
            [
              -83.89544683626981,
              42.10502323074163
            ],
            [
              -83.68000865245781,
              41.91594063751413
            ],
            [
              -83.58297592338147,
              41.73472079549269
            ],
            [
              -83.68027997070628,
              41.39003365307114
            ],
            [
              -84.27686093760968,
              40.723262556687544
            ],
            [
              -84.95613529730738,
              40.32127720175335
            ],
            [
              -86.80706570169639,
              39.57757287629809
            ],
            [
              -89.72403713403493,
              38.582283840169296
            ],
            [
              -91.61526863377779,
              38.00756342408363
            ],
            [
              -92.80541597874418,
              37.759870007897355
            ],
            [
              -94.83223774672071,
              37.55115185281431
            ],
            [
              -96.06507549007524,
              37.235812312528324
            ],
            [
              -97.3426033561442,
              36.73171001489874
            ],
            [
              -100.39171672103221,
              35.226269160727554
            ],
            [
              -101.58992889383961,
              34.1020190950354
            ],
            [
              -102.83240871381823,
              32.37175270042896
            ],
            [
              -103.11185017829587,
              31.767450010616667
            ],
            [
              -103.61507886915017,
              29.919493089008526
            ],
            [
              -103.97950394430003,
              29.167757182642205
            ],
            [
              -104.4733397466578,
              29.45805031415491
            ],
            [
              -104.75781402954834,
              29.71531876159247
            ]
          ],
          [
            [
              -108.06133229003933,
              31.528770695221137
            ],
            [
              -107.96585227245663,
              31.627482834813662
            ],
            [
              -107.3769301272444,
              31.629215149966694
            ],
            [
              -107.16308322209264,
              33.14663941688537
            ],
            [
              -107.11746702031873,
              34.23800296290598
            ],
            [
              -106.8583490359284,
              34.88989223332509
            ],
            [
              -106.70916853479558,
              35.03554419669952
            ],
            [
              -106.28518175837873,
              35.20038348459278
            ],
            [
              -104.62811737059553,
              35.16980283836981
            ],
            [
              -103.8160662467202,
              35.350098277155254
            ],
            [
              -103.24451577002615,
              35.82958364744902
            ],
            [
              -103.14741115971904,
              36.014009624348304
            ],
            [
              -103.17412174729671,
              36.37168797626153
            ],
            [
              -103.42359240598614,
              36.71793779748342
            ],
            [
              -103.94320903736765,
              36.91559799259897
            ],
            [
              -104.96220750822887,
              37.03781808248774
            ],
            [
              -106.33647959529608,
              36.77207921485737
            ],
            [
              -106.92803193803604,
              36.5517514768657
            ],
            [
              -109.22965918412524,
              35.33548506735198
            ],
            [
              -110.53869700057535,
              34.401863326591794
            ],
            [
              -110.97169201679534,
              33.5878489303443
            ],
            [
              -111.10981980684447,
              33.02793862162283
            ],
            [
              -111.18903534520655,
              32.06219897024668
            ],
            [
              -111.06884924995364,
              31.206141663463942
            ],
            [
              -110.73964644654218,
              31.1475647572386
            ],
            [
              -108.97630849782487,
              31.130850032815246
            ],
            [
              -108.07872992934661,
              31.207737299743084
            ],
            [
              -108.06133229003933,
              31.528770695221137
            ]
          ],
          [
            [
              -97.36400848835416,
              37.713534370925984
            ],
            [
              -96.52135112391834,
              37.81212425875846
            ],
            [
              -94.37920005996888,
              38.17353298117059
            ],
            [
              -90.19805099343883,
              39.39395500405551
            ],
            [
              -89.8488003497807,
              39.51667913167529
            ],
            [
              -89.42911346694576,
              39.857655481829696
            ],
            [
              -88.98683378213474,
              40.54811044410706
            ],
            [
              -88.95331827288284,
              41.11787517233339
            ],
            [
              -89.287614062272,
              41.392095552853945
            ],
            [
              -90.03194132592222,
              41.67648040426029
            ],
            [
              -91.42797826806174,
              41.88394081886245
            ],
            [
              -92.65766031776774,
              41.90391018331851
            ],
            [
              -93.88916843995143,
              41.78470174940095
            ],
            [
              -96.10814301409117,
              41.39149149366187
            ],
            [
              -98.06943511530261,
              40.71130869780954
            ],
            [
              -98.58015799618619,
              40.39370116764313
            ],
            [
              -99.02454327387976,
              39.9437656290129
            ],
            [
              -99.72110788246391,
              38.820970054600885
            ],
            [
              -99.69942635199827,
              38.33330638356034
            ],
            [
              -99.34372617541263,
              37.942405092271315
            ],
            [
              -98.94205838277686,
              37.77357408881294
            ],
            [
              -98.26398703662309,
              37.698753204866065
            ],
            [
              -97.36400848835416,
              37.713534370925984
            ]
          ]
        ]
      }
    },
    {
      "type": "Feature",
      "properties": {
        "dn": 2,
        "PRODUCT": "Day 2 Excessive Rainfall Potential Forecast",
        "VALID_TIME": "12Z 09/15/26 - 12Z 09/16/26",
        "OUTLOOK": "Slight (At Least 15%)",
        "ISSUE_TIME": "2026-09-14 07:29:00",
        "START_TIME": "2026-09-15 12:00:00",
        "END_TIME": "2026-09-16 12:00:00",
        "Snippet": "12Z 09/15/26 - 12Z 09/16/26",
        "risk_norm": "SLIGHT"
      },
      "geometry": {
        "type": "Polygon",
        "coordinates": [
          [
            [
              -108.97630849782487,
              31.130850032815246
            ],
            [
              -110.73964644654218,
              31.1475647572386
            ],
            [
              -111.06884924995364,
              31.206141663463942
            ],
            [
              -111.18903534520655,
              32.06219897024668
            ],
            [
              -111.10981980684447,
              33.02793862162283
            ],
            [
              -110.97169201679534,
              33.5878489303443
            ],
            [
              -110.53869700057535,
              34.401863326591794
            ],
            [
              -109.22965918412524,
              35.33548506735198
            ],
            [
              -106.92803193803604,
              36.5517514768657
            ],
            [
              -106.33647959529608,
              36.77207921485737
            ],
            [
              -104.96220750822887,
              37.03781808248774
            ],
            [
              -103.94320903736765,
              36.91559799259897
            ],
            [
              -103.42359240598614,
              36.71793779748342
            ],
            [
              -103.17412174729671,
              36.37168797626153
            ],
            [
              -103.14741115971904,
              36.014009624348304
            ],
            [
              -103.24451577002615,
              35.82958364744902
            ],
            [
              -103.8160662467202,
              35.350098277155254
            ],
            [
              -104.62811737059553,
              35.16980283836981
            ],
            [
              -106.28518175837873,
              35.20038348459278
            ],
            [
              -106.70916853479558,
              35.03554419669952
            ],
            [
              -106.8583490359284,
              34.88989223332509
            ],
            [
              -107.11746702031873,
              34.23800296290598
            ],
            [
              -107.16308322209264,
              33.14663941688537
            ],
            [
              -107.3769301272444,
              31.629215149966694
            ],
            [
              -107.96585227245663,
              31.627482834813662
            ],
            [
              -108.06133229003933,
              31.528770695221137
            ],
            [
              -108.07872992934661,
              31.207737299743084
            ],
            [
              -108.97630849782487,
              31.130850032815246
            ]
          ]
        ]
      }
    },
    {
      "type": "Feature",
      "properties": {
        "dn": 2,
        "PRODUCT": "Day 2 Excessive Rainfall Potential Forecast",
        "VALID_TIME": "12Z 09/15/26 - 12Z 09/16/26",
        "OUTLOOK": "Slight (At Least 15%)",
        "ISSUE_TIME": "2026-09-14 07:29:00",
        "START_TIME": "2026-09-15 12:00:00",
        "END_TIME": "2026-09-16 12:00:00",
        "Snippet": "12Z 09/15/26 - 12Z 09/16/26",
        "risk_norm": "SLIGHT"
      },
      "geometry": {
        "type": "Polygon",
        "coordinates": [
          [
            [
              -98.26398703662309,
              37.698753204866065
            ],
            [
              -98.94205838277686,
              37.77357408881294
            ],
            [
              -99.34372617541263,
              37.942405092271315
            ],
            [
              -99.69942635199827,
              38.33330638356034
            ],
            [
              -99.72110788246391,
              38.820970054600885
            ],
            [
              -99.02454327387976,
              39.9437656290129
            ],
            [
              -98.58015799618619,
              40.39370116764313
            ],
            [
              -98.06943511530261,
              40.71130869780954
            ],
            [
              -96.10814301409117,
              41.39149149366187
            ],
            [
              -93.88916843995143,
              41.78470174940095
            ],
            [
              -92.65766031776774,
              41.90391018331851
            ],
            [
              -91.42797826806174,
              41.88394081886245
            ],
            [
              -90.03194132592222,
              41.67648040426029
            ],
            [
              -89.287614062272,
              41.392095552853945
            ],
            [
              -88.95331827288284,
              41.11787517233339
            ],
            [
              -88.98683378213474,
              40.54811044410706
            ],
            [
              -89.42911346694576,
              39.857655481829696
            ],
            [
              -89.8488003497807,
              39.51667913167529
            ],
            [
              -90.19805099343883,
              39.39395500405551
            ],
            [
              -94.37920005996888,
              38.17353298117059
            ],
            [
              -96.52135112391834,
              37.81212425875846
            ],
            [
              -97.36400848835416,
              37.713534370925984
            ],
            [
              -98.26398703662309,
              37.698753204866065
            ]
          ]
        ]
      }
    }
  ]
}
