{"type": "FeatureCollection", "features": [{"type": "Feature", "properties": {"dn": 1, "PRODUCT": "Day 1 Excessive Rainfall Potential Forecast", "VALID_TIME": "12Z 09/15/26 - 12Z 09/16/26", "OUTLOOK": "Marginal (At Least 5%)", "ISSUE_TIME": "2026-09-15 07:56:00", "START_TIME": "2026-09-15 12:00:00", "END_TIME": "2026-09-16 12:00:00", "Snippet": "12Z 09/15/26 - 12Z 09/16/26"}, "geometry": {"type": "Polygon", "coordinates": [[[-104.87761417462117, 29.890359737728467], [-104.90828457938767, 30.253446935923108], [-105.028860756658, 30.4282232571379], [-106.055277882567, 31.224775584563876], [-106.50210402882288, 31.421674705201944], [-106.57207952163469, 31.597888069269302], [-107.96246091385268, 31.597367977657036], [-108.07532152085008, 31.177599435261552], [-108.97266938754481, 31.100727661809906], [-109.93311800362488, 31.10409290556829], [-110.95246701233582, 31.141421864001877], [-112.80501825804292, 31.706412059646645], [-113.09838743572938, 32.542162163462265], [-113.24251785580388, 33.438734691408904], [-113.02527060803081, 35.14554197016867], [-113.10991953370375, 35.99682701134903], [-114.02366696387841, 37.385130755904605], [-114.13445632879441, 37.687710699819675], [-114.0461600287239, 38.14690996522657], [-113.85274092164265, 38.34862694772482], [-113.12021887686602, 38.74071238711768], [-110.11600605919257, 39.74033509339184], [-109.42336534871376, 40.15310066871117], [-108.96116870766166, 40.58808036026159], [-108.36233710200631, 40.89865367506716], [-106.72166271226976, 41.32130589754075], [-106.14122543268347, 41.358139277187135], [-105.8415386752232, 41.288627459793545], [-105.4605720465336, 41.002800903931124], [-104.61336073331807, 39.41784188951627], [-103.72260185637488, 38.35483429787754], [-103.07193748115371, 37.98672419651427], [-101.93081387076504, 37.81379858108312], [-101.3119936787209, 37.83769029406926], [-100.92544758446682, 37.98506702286246], [-100.49163463010436, 38.30993532839245], [-99.19387558276065, 39.85161878326778], [-98.8212686794727, 40.65245575115497], [-98.1380501680193, 41.06152412626961], [-96.92234474689835, 41.29759115206924], [-93.07263999252001, 41.647323011064884], [-90.76944156151413, 42.21904530809206], [-89.10781030872948, 42.47788740974931], [-87.74215028156028, 42.60305285515809], [-85.5525680935277, 42.634193603923265], [-83.42945716978467, 43.0787783503583], [-82.90344609163239, 43.0016537366726], [-82.28154446724395, 42.74123207282494], [-82.44289354405349, 42.40329847652661], [-82.88485609396244, 42.170957840231544], [-82.90579323105966, 41.99738564827912], [-82.74756275819861, 41.85631426876429], [-82.51436228639966, 41.84042133809318], [-81.95619307664144, 42.06398497689159], [-82.12204449356275, 41.68057113789164], [-82.7987351699346, 40.93668896293523], [-83.72995997141403, 40.424151818880816], [-84.80527137124787, 40.091970920669574], [-87.74343666718725, 39.30904251649135], [-90.01164477996417, 38.50200596187803], [-91.61526863377779, 38.00756342408363], [-93.0313654707924, 37.71808706426272], [-95.22530760314187, 37.461957067643425], [-96.45595688338238, 37.143670387910085], [-98.16698232845451, 36.31553548069155], [-100.16142498733181, 35.008648302178365], [-101.36217458890285, 33.930400273362366], [-102.26931719156828, 32.80635370527159], [-102.4605931946224, 32.4348489324569], [-102.6295680317136, 31.745842267137505], [-102.67353584704607, 29.193135991427127], [-102.96863089913445, 28.90342939769026], [-103.43615605750442, 28.87863360121877], [-104.64208958358151, 29.585567873281928], [-104.87761417462117, 29.890359737728467]], [[-108.06133229003933, 31.528770695221137], [-107.96585227245663, 31.627482834813662], [-107.10686906992233, 31.604473905623415], [-107.2561192626333, 32.50345513638813], [-106.93060851810296, 34.02539625944009], [-106.90815498423886, 34.841134118309675], [-106.8228370396953, 35.07303589972216], [-106.4132569237689, 35.371971781165925], [-105.19689682310764, 35.361066252871765], [-104.76943842368651, 35.52184998524033], [-104.16086768280066, 36.18615618025884], [-104.2212168571958, 36.90023607519326], [-104.53112857760041, 37.241101942761595], [-105.24433525248811, 37.64712249443948], [-106.7642138981928, 38.12987797264043], [-107.6904161924228, 38.2871306351765], [-108.95158715417872, 38.368104125023216], [-110.82686793109094, 38.339966650572826], [-112.73473955558863, 38.15355005950003], [-113.33528831039443, 38.000580744297196], [-113.54345291251587, 37.888319625477], [-113.68042627397169, 37.693178134095064], [-113.57857417983925, 37.43447632237609], [-112.87007202678431, 36.92498674950885], [-112.45363121802006, 36.78839670401829], [-111.88624297589217, 36.756155884274854], [-108.55656086067086, 37.056360571185564], [-107.58921918522522, 36.95163231230345], [-107.3520250949195, 36.83499030205874], [-107.27625181295191, 36.66098673073126], [-107.61747310772309, 36.23171906246421], [-108.40207680822435, 35.810428210428434], [-109.24397834419804, 35.01786980631952], [-109.79634990060953, 34.60702786402195], [-110.12854033008264, 34.622036829666236], [-110.8923222193207, 34.95766521751256], [-111.30829140241275, 34.7810068895096], [-112.06907824559015, 34.70366072818587], [-112.27233782036322, 34.591592943976124], [-112.45461187664411, 34.344681188686494], [-111.97382447439068, 34.07729116990759], [-111.71756662345466, 33.83103253039946], [-111.55775109689452, 33.11916269484232], [-111.0852805503515, 31.70732922036128], [-111.01613978003293, 31.211501239635773], [-110.73964644654218, 31.1475647572386], [-108.97630849782487, 31.130850032815246], [-108.07872992934661, 31.207737299743084], [-108.06133229003933, 31.528770695221137]], [[-101.31029748527989, 34.924222124647564], [-100.83129631335751, 35.211846354609676], [-99.71163496624865, 36.05568920590618], [-98.36250942809319, 37.251009839741016], [-98.0302116137583, 37.39107222777708], [-93.81266340224099, 38.303848238422866], [-91.7033591770541, 38.80902415164763], [-90.20411841209659, 39.2614192428192], [-88.64558006725957, 39.52147553437902], [-87.53773519928137, 39.78733535527083], [-87.17687498375125, 39.99292948574393], [-86.92334192788353, 40.29028995141362], [-86.87149941966652, 40.947929555972465], [-87.08682828189224, 41.17745657573707], [-87.54179207492861, 41.32839551354164], [-89.45992822513539, 41.44123139130913], [-92.38741821535606, 41.0256603733497], [-93.54879814297821, 41.03879153349722], [-94.18696192240871, 41.130436257753516], [-95.75619006173935, 41.08687683451994], [-96.62563836329545, 40.94962428557575], [-97.31692139743451, 40.722640496612016], [-97.83065536579673, 40.45161288257741], [-98.44714944984077, 39.86777617419355], [-99.03240509814364, 38.66091623121737], [-99.61780398772713, 37.757149752978314], [-102.22516136801379, 35.4723399694113], [-102.32332825112029, 35.288109815983425], [-102.25366214814304, 35.06610704304803], [-101.80053843922373, 34.85972101830786], [-101.31029748527989, 34.924222124647564]]]}}, {"type": "Feature", "properties": {"dn": 2, "PRODUCT": "Day 1 Excessive Rainfall Potential Forecast", "VALID_TIME": "12Z 09/15/26 - 12Z 09/16/26", "OUTLOOK": "Slight (At Least 15%)", "ISSUE_TIME": "2026-09-15 07:56:00", "START_TIME": "2026-09-15 12:00:00", "END_TIME": "2026-09-16 12:00:00", "Snippet": "12Z 09/15/26 - 12Z 09/16/26"}, "geometry": {"type": "Polygon", "coordinates": [[[-108.97630849782487, 31.130850032815246], [-110.73964644654218, 31.1475647572386], [-111.01613978003293, 31.211501239635773], [-111.0852805503515, 31.70732922036128], [-111.55775109689452, 33.11916269484232], [-111.71756662345466, 33.83103253039946], [-111.97382447439068, 34.07729116990759], [-112.45461187664411, 34.344681188686494], [-112.27233782036322, 34.591592943976124], [-112.06907824559015, 34.70366072818587], [-111.30829140241275, 34.7810068895096], [-110.8923222193207, 34.95766521751256], [-110.12854033008264, 34.622036829666236], [-109.79634990060953, 34.60702786402195], [-109.24397834419804, 35.01786980631952], [-108.40207680822435, 35.810428210428434], [-107.61747310772309, 36.23171906246421], [-107.27625181295191, 36.66098673073126], [-107.3520250949195, 36.83499030205874], [-107.58921918522522, 36.95163231230345], [-108.55656086067086, 37.056360571185564], [-111.88624297589217, 36.756155884274854], [-112.45363121802006, 36.78839670401829], [-112.87007202678431, 36.92498674950885], [-113.57857417983925, 37.43447632237609], [-113.68042627397169, 37.693178134095064], [-113.54345291251587, 37.888319625477], [-113.33528831039443, 38.000580744297196], [-112.73473955558863, 38.15355005950003], [-110.82686793109094, 38.339966650572826], [-108.95158715417872, 38.368104125023216], [-107.6904161924228, 38.2871306351765], [-106.7642138981928, 38.12987797264043], [-105.24433525248811, 37.64712249443948], [-104.53112857760041, 37.241101942761595], [-104.2212168571958, 36.90023607519326], [-104.16086768280066, 36.18615618025884], [-104.76943842368651, 35.52184998524033], [-105.19689682310764, 35.361066252871765], [-106.4132569237689, 35.371971781165925], [-106.8228370396953, 35.07303589972216], [-106.90815498423886, 34.841134118309675], [-106.93060851810296, 34.02539625944009], [-107.2561192626333, 32.50345513638813], [-107.10686906992233, 31.604473905623415], [-107.96585227245663, 31.627482834813662], [-108.06133229003933, 31.528770695221137], [-108.07872992934661, 31.207737299743084], [-108.97630849782487, 31.130850032815246]]]}}, {"type": "Feature", "properties": {"dn": 2, "PRODUCT": "Day 1 Excessive Rainfall Potential Forecast", "VALID_TIME": "12Z 09/15/26 - 12Z 09/16/26", "OUTLOOK": "Slight (At Least 15%)", "ISSUE_TIME": "2026-09-15 07:56:00", "START_TIME": "2026-09-15 12:00:00", "END_TIME": "2026-09-16 12:00:00", "Snippet": "12Z 09/15/26 - 12Z 09/16/26"}, "geometry": {"type": "Polygon", "coordinates": [[[-102.25366214814304, 35.06610704304803], [-102.32332825112029, 35.288109815983425], [-102.22516136801379, 35.4723399694113], [-99.61780398772713, 37.757149752978314], [-99.03240509814364, 38.66091623121737], [-98.44714944984077, 39.86777617419355], [-97.83065536579673, 40.45161288257741], [-97.31692139743451, 40.722640496612016], [-96.62563836329545, 40.94962428557575], [-95.75619006173935, 41.08687683451994], [-94.18696192240871, 41.130436257753516], [-93.54879814297821, 41.03879153349722], [-92.38741821535606, 41.0256603733497], [-89.45992822513539, 41.44123139130913], [-87.54179207492861, 41.32839551354164], [-87.08682828189224, 41.17745657573707], [-86.87149941966652, 40.947929555972465], [-86.92334192788353, 40.29028995141362], [-87.17687498375125, 39.99292948574393], [-87.53773519928137, 39.78733535527083], [-88.64558006725957, 39.52147553437902], [-90.20411841209659, 39.2614192428192], [-91.7033591770541, 38.80902415164763], [-93.81266340224099, 38.303848238422866], [-98.0302116137583, 37.39107222777708], [-98.36250942809319, 37.251009839741016], [-99.71163496624865, 36.05568920590618], [-100.83129631335751, 35.211846354609676], [-101.31029748527989, 34.924222124647564], [-101.80053843922373, 34.85972101830786], [-102.25366214814304, 35.06610704304803]], [[-95.62918411157857, 39.326216519503106], [-95.11518948444456, 39.45988518260744], [-94.25500294937355, 39.76736598730166], [-94.08150493964415, 39.8990210214313], [-94.07916321063492, 40.163340456526555], [-94.36624835374734, 40.34079561389779], [-94.59699163074586, 40.3414680890834], [-95.46130701124179, 40.121277028794594], [-96.14789136810404, 39.72126143349734], [-96.14498459917372, 39.456366581952295], [-95.97193516683302, 39.32465086177614], [-95.62918411157857, 39.326216519503106]]]}}, {"type": "Feature", "properties": {"dn": 3, "PRODUCT": "Day 1 Excessive Rainfall Potential Forecast", "VALID_TIME": "12Z 09/15/26 - 12Z 09/16/26", "OUTLOOK": "Moderate (At Least 40%)", "ISSUE_TIME": "2026-09-15 07:56:00", "START_TIME": "2026-09-15 12:00:00", "END_TIME": "2026-09-16 12:00:00", "Snippet": "12Z 09/15/26 - 12Z 09/16/26"}, "geometry": {"type": "Polygon", "coordinates": [[[-95.97193516683302, 39.32465086177614], [-96.14498459917372, 39.456366581952295], [-96.14789136810404, 39.72126143349734], [-95.46130701124179, 40.121277028794594], [-94.59699163074586, 40.3414680890834], [-94.36624835374734, 40.34079561389779], [-94.07916321063492, 40.163340456526555], [-94.08150493964415, 39.8990210214313], [-94.25500294937355, 39.76736598730166], [-95.11518948444456, 39.45988518260744], [-95.62918411157857, 39.326216519503106], [-95.97193516683302, 39.32465086177614]]]}}]}