{"type": "FeatureCollection", "features": [{"type": "Feature", "properties": {"dn": 1, "PRODUCT": "Day 2 Excessive Rainfall Potential Forecast", "VALID_TIME": "12Z 09/16/26 - 12Z 09/17/26", "OUTLOOK": "Marginal (At Least 5%)", "ISSUE_TIME": "2026-09-15 07:56:00", "START_TIME": "2026-09-16 12:00:00", "END_TIME": "2026-09-17 12:00:00", "Snippet": "12Z 09/16/26 - 12Z 09/17/26"}, "geometry": {"type": "Polygon", "coordinates": [[[-104.90828457938767, 30.253446935923108], [-105.028860756658, 30.4282232571379], [-106.055277882567, 31.224775584563876], [-106.50210402882288, 31.421674705201944], [-106.57207952163469, 31.597888069269302], [-107.91275309104095, 31.63120323103416], [-108.0260104787706, 31.531674379305002], [-108.00051880194951, 31.305734801467175], [-108.07532152085008, 31.177599435261552], [-108.97266938754481, 31.100727661809906], [-110.73554955973741, 31.117486416569804], [-111.28118954581055, 31.199311046051452], [-113.20338285564199, 31.84423722830813], [-113.52536684337944, 33.497735711351886], [-113.51394312890106, 34.09134633620717], [-113.35940545917096, 35.154019632358505], [-113.28745375567587, 35.38874760609905], [-112.97084006405167, 35.83096217811692], [-112.86453112055412, 36.20410085482792], [-113.01865745981948, 36.458551706205554], [-113.6611606443728, 36.92986849945993], [-113.77046516723013, 37.23323787331565], [-113.42658067021776, 37.5419103977117], [-112.21611964905411, 38.11723607450749], [-111.92307686699642, 38.4141171393073], [-111.78197374914527, 39.320753809057585], [-110.950736297081, 40.28764824972979], [-110.525458829785, 40.546732237254766], [-110.1362528284851, 40.66870139965021], [-109.27300555905693, 40.739960769098744], [-108.25929058785766, 40.5534739514041], [-107.00276722170099, 40.73077772210319], [-106.56803490025209, 40.49412033424413], [-105.79422693720608, 39.747714085563196], [-105.06290978343802, 38.7268301657008], [-104.76449249588065, 38.566933155898376], [-104.42107380859963, 38.54149158471374], [-103.32744140074657, 39.08583567330061], [-101.35525150044911, 40.44912654587934], [-100.34392823267649, 41.009456065234446], [-99.25220199726223, 41.30149811020454], [-96.11293379453434, 41.82876307178528], [-93.88095092892425, 42.52543075765645], [-90.26268723989628, 42.98891215323789], [-87.1224496861534, 42.96871125896864], [-82.85438194038906, 42.43192445983496], [-82.57091689136959, 42.32467938934855], [-82.88485609396244, 42.170957840231544], [-82.90579323105966, 41.99738564827912], [-82.74756275819861, 41.85631426876429], [-82.51436228639966, 41.84042133809318], [-82.01459310010723, 42.068159709256015], [-81.71690156539151, 42.09045993222806], [-80.55394118225507, 41.5629185845983], [-79.87024810107587, 41.021517465932284], [-80.15078830606589, 39.89530227335757], [-80.46530230109954, 39.299939839636984], [-80.80899568521552, 38.88325616971345], [-81.33621462305942, 38.34608767186064], [-81.83750628049197, 37.9823835971762], [-82.72096432290589, 37.69044357993299], [-83.51043986532282, 37.7006430852377], [-84.34729076752745, 37.799466635860234], [-87.07891641602168, 38.2591082346957], [-90.18762060421479, 38.373740653949746], [-95.05721681696339, 38.040841161641296], [-96.12808274480885, 37.90371590901067], [-97.3620375147541, 37.624033718020776], [-99.24789465970764, 36.962816737524065], [-100.06871060152336, 36.582451192932716], [-101.59879999987763, 36.0812746946883], [-102.13186522399124, 35.74513923991143], [-102.59637840812043, 35.27583258708694], [-103.66721749990148, 33.462220325546866], [-104.03442818503909, 32.626250847329075], [-104.19786632747272, 31.981173340718946], [-104.0553517692332, 30.851888337225816], [-104.32481165745858, 30.243650360318274], [-104.75669327581126, 29.714476080851096], [-104.87761417462117, 29.890359737728467], [-104.90828457938767, 30.253446935923108]], [[-108.06133229003933, 31.528770695221137], [-107.96535586838947, 31.627827210575862], [-107.9478993407189, 31.948239392667013], [-107.78548662944756, 32.41659865319392], [-107.50951320990684, 32.847596474399744], [-107.10980325485735, 33.15018957252767], [-106.6841627566239, 33.226914853765436], [-106.28094308522935, 32.983739251341454], [-105.82250572377649, 32.15163222656424], [-105.51066536148599, 32.263356192544954], [-105.17240117400206, 32.69443162746007], [-105.05537809447586, 33.20079410889762], [-105.01946206601323, 34.018135054783706], [-104.80716041019332, 34.70872851278351], [-104.73767994860637, 35.79411244950244], [-104.7895449332148, 36.37511027773045], [-104.92886743941719, 36.68093328226761], [-105.43338763138249, 37.2775922831066], [-105.70992225994462, 37.79679042041652], [-106.0139980116177, 38.001144575242364], [-107.59733877728215, 37.98149446518636], [-108.20388792558147, 37.846439982498644], [-108.84191953346854, 37.527387583750695], [-109.14248648144712, 37.233247462256834], [-109.30627558684067, 36.77046037727027], [-109.47256309655421, 35.494662551213075], [-109.39657396853413, 34.91369665338946], [-109.53618073587833, 34.7208414465203], [-109.92309745453542, 34.73143534966881], [-110.8442336320595, 35.007584640569064], [-111.75602905956019, 35.55129890122286], [-111.92708404526202, 35.57916286056678], [-112.08434854924997, 35.51777998367012], [-112.49886087228161, 34.97554903102049], [-112.93769471556408, 34.610444086017345], [-113.05672355403975, 34.32464614142162], [-113.10672115387263, 33.95511718889565], [-112.91692689973857, 32.42553375771207], [-112.63899381752609, 31.67922255964882], [-110.9566209730521, 31.171493167955166], [-108.97630849782487, 31.130850032815246], [-108.0784117768567, 31.20806777199449], [-108.06133229003933, 31.528770695221137]], [[-93.6858003913623, 39.41055357769245], [-93.22621326829103, 39.539047382966444], [-91.26959823461883, 39.81746547044234], [-90.63117060279961, 39.979244358400344], [-89.47538081261256, 40.079191606281626], [-86.37055469713962, 39.99910399491214], [-85.40775693187314, 39.81685307730799], [-85.17400611561666, 39.84862938200137], [-85.04263163719935, 40.01804023245615], [-85.0129939734842, 40.32536764479394], [-85.31700165647285, 40.782674371546165], [-85.8063325291535, 41.16044081829599], [-86.750583074315, 41.731827103401045], [-87.20753908811541, 41.88314035347431], [-89.54359366317028, 42.05537601812886], [-90.25124239221425, 41.98794451590046], [-92.65563385759394, 41.99109940742922], [-93.36123020065536, 41.8679798689027], [-94.59265587698033, 41.43816266708458], [-95.58112494392056, 40.95604476598367], [-96.04237413205207, 40.60243457506733], [-96.15606178408464, 40.42594609744782], [-96.15115785178882, 39.985809769910226], [-96.03355314743233, 39.721968927248604], [-95.5153649329408, 39.414718042633886], [-94.9436623954636, 39.32707157280799], [-93.6858003913623, 39.41055357769245]]]}}, {"type": "Feature", "properties": {"dn": 2, "PRODUCT": "Day 2 Excessive Rainfall Potential Forecast", "VALID_TIME": "12Z 09/16/26 - 12Z 09/17/26", "OUTLOOK": "Slight (At Least 15%)", "ISSUE_TIME": "2026-09-15 07:56:00", "START_TIME": "2026-09-16 12:00:00", "END_TIME": "2026-09-17 12:00:00", "Snippet": "12Z 09/16/26 - 12Z 09/17/26"}, "geometry": {"type": "Polygon", "coordinates": [[[-108.97630849782487, 31.130850032815246], [-110.9566209730521, 31.171493167955166], [-112.63899381752609, 31.67922255964882], [-112.91692689973857, 32.42553375771207], [-113.10672115387263, 33.95511718889565], [-113.05672355403975, 34.32464614142162], [-112.93769471556408, 34.610444086017345], [-112.49886087228161, 34.97554903102049], [-112.08434854924997, 35.51777998367012], [-111.92708404526202, 35.57916286056678], [-111.75602905956019, 35.55129890122286], [-110.8442336320595, 35.007584640569064], [-109.92309745453542, 34.73143534966881], [-109.53618073587833, 34.7208414465203], [-109.39657396853413, 34.91369665338946], [-109.47256309655421, 35.494662551213075], [-109.30627558684067, 36.77046037727027], [-109.14248648144712, 37.233247462256834], [-108.84191953346854, 37.527387583750695], [-108.20388792558147, 37.846439982498644], [-107.59733877728215, 37.98149446518636], [-106.0139980116177, 38.001144575242364], [-105.70992225994462, 37.79679042041652], [-105.43338763138249, 37.2775922831066], [-104.92886743941719, 36.68093328226761], [-104.7895449332148, 36.37511027773045], [-104.73767994860637, 35.79411244950244], [-104.80716041019332, 34.70872851278351], [-105.01946206601323, 34.018135054783706], [-105.05537809447586, 33.20079410889762], [-105.17240117400206, 32.69443162746007], [-105.51066536148599, 32.263356192544954], [-105.82250572377649, 32.15163222656424], [-106.28094308522935, 32.983739251341454], [-106.6841627566239, 33.226914853765436], [-107.10980325485735, 33.15018957252767], [-107.50951320990684, 32.847596474399744], [-107.78548662944756, 32.41659865319392], [-107.9478993407189, 31.948239392667013], [-107.96535586838947, 31.627827210575862], [-108.06133229003933, 31.528770695221137], [-108.0784117768567, 31.20806777199449], [-108.97630849782487, 31.130850032815246]]]}}, {"type": "Feature", "properties": {"dn": 2, "PRODUCT": "Day 2 Excessive Rainfall Potential Forecast", "VALID_TIME": "12Z 09/16/26 - 12Z 09/17/26", "OUTLOOK": "Slight (At Least 15%)", "ISSUE_TIME": "2026-09-15 07:56:00", "START_TIME": "2026-09-16 12:00:00", "END_TIME": "2026-09-17 12:00:00", "Snippet": "12Z 09/16/26 - 12Z 09/17/26"}, "geometry": {"type": "Polygon", "coordinates": [[[-94.9436623954636, 39.32707157280799], [-95.5153649329408, 39.414718042633886], [-96.03355314743233, 39.721968927248604], [-96.15115785178882, 39.985809769910226], [-96.15606178408464, 40.42594609744782], [-96.04237413205207, 40.60243457506733], [-95.58112494392056, 40.95604476598367], [-94.59265587698033, 41.43816266708458], [-93.36123020065536, 41.8679798689027], [-92.65563385759394, 41.99109940742922], [-90.25124239221425, 41.98794451590046], [-89.54359366317028, 42.05537601812886], [-87.20753908811541, 41.88314035347431], [-86.750583074315, 41.731827103401045], [-85.8063325291535, 41.16044081829599], [-85.31700165647285, 40.782674371546165], [-85.0129939734842, 40.32536764479394], [-85.04263163719935, 40.01804023245615], [-85.17400611561666, 39.84862938200137], [-85.40775693187314, 39.81685307730799], [-86.37055469713962, 39.99910399491214], [-89.47538081261256, 40.079191606281626], [-90.63117060279961, 39.979244358400344], [-91.26959823461883, 39.81746547044234], [-93.22621326829103, 39.539047382966444], [-93.6858003913623, 39.41055357769245], [-94.9436623954636, 39.32707157280799]]]}}]}