{
  "type": "FeatureCollection",
  "features": [
    {
      "type": "Feature",
      "properties": {
        "dn": 1,
        "PRODUCT": "Day 1 Excessive Rainfall Potential Forecast",
        "VALID_TIME": "16Z 07/27/26 - 12Z 07/28/26",
        "OUTLOOK": "Marginal (At Least 5%)",
        "ISSUE_TIME": "2026-07-27 15:47:00",
        "START_TIME": "2026-07-27 16:00:00",
        "END_TIME": "2026-07-28 12:00:00",
        "Snippet": "16Z 07/27/26 - 12Z 07/28/26",
        "risk_norm": "MARGINAL"
      },
      "geometry": {
        "type": "Polygon",
        "coordinates": [
          [
            [
              -82.71560502082748,
              24.218576706179665
            ],
            [
              -83.24357634170903,
              24.49158102332572
            ],
            [
              -83.14535551376402,
              24.988271877247925
            ],
            [
              -82.38701590963649,
              24.972866704434747
            ],
            [
              -82.3238345877115,
              25.104258088866843
            ],
            [
              -82.59290722228265,
              25.448019724918527
            ],
            [
              -81.91407661823771,
              25.619706401004528
            ],
            [
              -82.1181065867413,
              26.09627964729339
            ],
            [
              -82.2642860577806,
              26.15368335589894
            ],
            [
              -82.53643912279504,
              26.498454800815157
            ],
            [
              -83.17876934092348,
              27.78744444256655
            ],
            [
              -83.12008427084714,
              28.378261282360956
            ],
            [
              -82.94683193937682,
              28.547912441074573
            ],
            [
              -82.98013486242392,
              28.7336168061601
            ],
            [
              -83.28088857068678,
              28.847362681859316
            ],
            [
              -83.32023214938555,
              28.98850924755592
            ],
            [
              -83.65306181548502,
              29.333371556493166
            ],
            [
              -83.53458937135073,
              29.462723573927793
            ],
            [
              -83.2083758648244,
              29.57545377456708
            ],
            [
              -82.53557749821645,
              29.477216108459835
            ],
            [
              -82.10085010461779,
              29.12042442983563
            ],
            [
              -81.97516375016582,
              28.83516218003212
            ],
            [
              -81.86371801906903,
              27.955089667107877
            ],
            [
              -81.41228110718858,
              26.906349758891317
            ],
            [
              -81.27070107377003,
              26.34272355423872
            ],
            [
              -81.13945656427975,
              26.14704360459725
            ],
            [
              -80.89268378691857,
              26.07910124148384
            ],
            [
              -80.62376454820823,
              26.19144453774213
            ],
            [
              -80.26965867836202,
              26.157198840103796
            ],
            [
              -79.98789043437644,
              25.94457210681492
            ],
            [
              -79.9599162588881,
              25.757908499644234
            ],
            [
              -80.2269757417599,
              24.81930012433882
            ],
            [
              -80.670873277322,
              24.494230782657368
            ],
            [
              -81.70910591257864,
              24.223517368340733
            ],
            [
              -82.71560502082748,
              24.218576706179665
            ]
          ]
        ]
      }
    },
    {
      "type": "Feature",
      "properties": {
        "dn": 1,
        "PRODUCT": "Day 1 Excessive Rainfall Potential Forecast",
        "VALID_TIME": "16Z 07/27/26 - 12Z 07/28/26",
        "OUTLOOK": "Marginal (At Least 5%)",
        "ISSUE_TIME": "2026-07-27 15:47:00",
        "START_TIME": "2026-07-27 16:00:00",
        "END_TIME": "2026-07-28 12:00:00",
        "Snippet": "16Z 07/27/26 - 12Z 07/28/26",
        "risk_norm": "MARGINAL"
      },
      "geometry": {
        "type": "Polygon",
        "coordinates": [
          [
            [
              -108.97623571561925,
              31.13024758539512
            ],
            [
              -110.95653789383776,
              31.17089174187611
            ],
            [
              -112.18286883959952,
              31.500606720577128
            ],
            [
              -112.07198258369232,
              32.19837215938542
            ],
            [
              -112.25553808807797,
              33.41047704872052
            ],
            [
              -112.48614520897145,
              33.84105892466227
            ],
            [
              -113.41619350457825,
              34.82992529598908
            ],
            [
              -113.88444176704837,
              36.27271459681585
            ],
            [
              -113.9610877090638,
              37.03168402809539
            ],
            [
              -113.6716173679017,
              37.963724303583184
            ],
            [
              -113.004942751326,
              39.06467439501886
            ],
            [
              -112.17259993911414,
              39.95110608236247
            ],
            [
              -111.7087691648709,
              40.306303254449645
            ],
            [
              -110.68701810092206,
              40.84194399317882
            ],
            [
              -109.06902730292664,
              41.37292550778866
            ],
            [
              -107.30181433507248,
              42.24677130492061
            ],
            [
              -106.41914251552177,
              42.7836838427726
            ],
            [
              -105.93776296093702,
              43.24661294714625
            ],
            [
              -105.80276756219371,
              43.64459942127515
            ],
            [
              -105.44179651129275,
              44.183513449659436
            ],
            [
              -104.66344643550458,
              44.827942259961496
            ],
            [
              -103.25836375024792,
              45.36466243945259
            ],
            [
              -102.60214127237668,
              45.519719549860255
            ],
            [
              -102.18050612953884,
              45.57848875338963
            ],
            [
              -101.25799888274501,
              45.43992860733697
            ],
            [
              -100.49903973342283,
              44.94939111701381
            ],
            [
              -100.08691605209835,
              44.01609780961302
            ],
            [
              -99.93681345054904,
              43.415859953310104
            ],
            [
              -99.36545907895317,
              42.60655382553515
            ],
            [
              -98.69873135816192,
              42.09987887134792
            ],
            [
              -97.39528873908812,
              41.59805848270269
            ],
            [
              -96.91951447196686,
              41.20919307190911
            ],
            [
              -96.49943333588217,
              40.33542811509168
            ],
            [
              -96.60794755631932,
              39.89409216170158
            ],
            [
              -97.17692750927557,
              39.57823873550326
            ],
            [
              -97.85911691011752,
              39.39173586749625
            ],
            [
              -98.76701275138346,
              39.19765555744549
            ],
            [
              -99.33728907294865,
              39.18444100410131
            ],
            [
              -102.6028875625282,
              38.54020847472183
            ],
            [
              -103.93094260832127,
              38.12066993849435
            ],
            [
              -104.52687950224153,
              37.821153568370704
            ],
            [
              -105.09753871235677,
              37.29786323170613
            ],
            [
              -105.56898212445446,
              36.372789059498515
            ],
            [
              -105.68986437353198,
              35.33048085394989
            ],
            [
              -105.66118897072435,
              33.88695746277214
            ],
            [
              -105.72656355393595,
              33.42970052971243
            ],
            [
              -105.90319847912701,
              33.009717710794455
            ],
            [
              -106.61935121576505,
              32.59539155546918
            ],
            [
              -107.5474834462132,
              32.20699793321425
            ],
            [
              -107.78781513011536,
              31.96117000809708
            ],
            [
              -107.86380736301251,
              31.68166791788755
            ],
            [
              -108.06062585381395,
              31.52882876890281
            ],
            [
              -108.07866176117668,
              31.20713454245347
            ],
            [
              -108.97623571561925,
              31.13024758539512
            ]
          ]
        ]
      }
    },
    {
      "type": "Feature",
      "properties": {
        "dn": 1,
        "PRODUCT": "Day 1 Excessive Rainfall Potential Forecast",
        "VALID_TIME": "16Z 07/27/26 - 12Z 07/28/26",
        "OUTLOOK": "Marginal (At Least 5%)",
        "ISSUE_TIME": "2026-07-27 15:47:00",
        "START_TIME": "2026-07-27 16:00:00",
        "END_TIME": "2026-07-28 12:00:00",
        "Snippet": "16Z 07/27/26 - 12Z 07/28/26",
        "risk_norm": "MARGINAL"
      },
      "geometry": {
        "type": "Polygon",
        "coordinates": [
          [
            [
              -76.91642627380871,
              34.50260572735379
            ],
            [
              -77.50427553011112,
              34.97588247650049
            ],
            [
              -77.65894967085158,
              35.400095452074595
            ],
            [
              -77.60253696749612,
              35.7562565362361
            ],
            [
              -76.55106204383281,
              37.35862202273542
            ],
            [
              -75.81414528393549,
              38.93800224995333
            ],
            [
              -75.49038982814403,
              39.12637328671674
            ],
            [
              -75.20003395382057,
              39.138206579949774
            ],
            [
              -74.8465502920292,
              38.87274901761963
            ],
            [
              -74.72021307469835,
              38.63383687356127
            ],
            [
              -74.81286030368888,
              38.15090576064143
            ],
            [
              -75.06332677612373,
              37.73060143840943
            ],
            [
              -75.33487895241208,
              37.492098602666516
            ],
            [
              -75.36730145078597,
              37.31563663547625
            ],
            [
              -75.67687689907939,
              36.85521520589135
            ],
            [
              -75.1544672557628,
              35.70802908591141
            ],
            [
              -75.18832632580406,
              35.21279599680805
            ],
            [
              -75.2825951709062,
              34.9969144108118
            ],
            [
              -75.68750146652499,
              34.90775557746928
            ],
            [
              -76.14371240556424,
              34.50624373414611
            ],
            [
              -76.42928359937076,
              34.44798515721893
            ],
            [
              -76.91642627380871,
              34.50260572735379
            ]
          ]
        ]
      }
    },
    {
      "type": "Feature",
      "properties": {
        "dn": 1,
        "PRODUCT": "Day 1 Excessive Rainfall Potential Forecast",
        "VALID_TIME": "16Z 07/27/26 - 12Z 07/28/26",
        "OUTLOOK": "Marginal (At Least 5%)",
        "ISSUE_TIME": "2026-07-27 15:47:00",
        "START_TIME": "2026-07-27 16:00:00",
        "END_TIME": "2026-07-28 12:00:00",
        "Snippet": "16Z 07/27/26 - 12Z 07/28/26",
        "risk_norm": "MARGINAL"
      },
      "geometry": {
        "type": "Polygon",
        "coordinates": [
          [
            [
              -83.61545661250823,
              35.64383889178809
            ],
            [
              -85.19946701092042,
              36.5081745360705
            ],
            [
              -86.73079243689685,
              36.90375110474861
            ],
            [
              -88.54233575936583,
              37.473781918034284
            ],
            [
              -89.14474383595982,
              37.76300366344905
            ],
            [
              -89.46950631766997,
              38.04184103216065
            ],
            [
              -89.77086890612114,
              38.80643712362884
            ],
            [
              -89.92142063385552,
              40.401242377086426
            ],
            [
              -90.6744212131212,
              43.084791783759016
            ],
            [
              -90.91374427345063,
              45.88031975472103
            ],
            [
              -91.02318239559578,
              46.17980054785192
            ],
            [
              -91.66764388084928,
              46.99500716741922
            ],
            [
              -91.72190201046399,
              47.20643349919692
            ],
            [
              -91.70384219349843,
              47.70994723085831
            ],
            [
              -91.49179348545071,
              48.33407791064522
            ],
            [
              -90.79708811286235,
              48.44594878423832
            ],
            [
              -90.49402351705132,
              48.23103866548584
            ],
            [
              -89.43099065589388,
              48.20470819346374
            ],
            [
              -88.40372522494941,
              48.54932395638188
            ],
            [
              -84.91545806389256,
              47.10536173385075
            ],
            [
              -84.62505249427704,
              46.92057905586879
            ],
            [
              -84.4656190618454,
              46.70142113603843
            ],
            [
              -84.03619341073075,
              46.678017196651
            ],
            [
              -83.9475002665983,
              46.37525121077926
            ],
            [
              -83.78046803989592,
              46.23911349639294
            ],
            [
              -83.41434701639541,
              46.217760887354615
            ],
            [
              -83.30178637194973,
              46.125093227664394
            ],
            [
              -83.28420977432239,
              45.78389575727251
            ],
            [
              -82.28119518683853,
              45.506855585728914
            ],
            [
              -82.00790069134985,
              44.37038710111915
            ],
            [
              -81.94410209198836,
              43.50058694901688
            ],
            [
              -82.27046455317858,
              42.827620362908796
            ],
            [
              -82.30364670049526,
              42.5683173966887
            ],
            [
              -82.44289354405349,
              42.40329847652661
            ],
            [
              -82.88485609396244,
              42.170957840231544
            ],
            [
              -82.90579323105966,
              41.99738564827912
            ],
            [
              -82.74756275819861,
              41.85631426876429
            ],
            [
              -82.39235217823789,
              41.875798427322366
            ],
            [
              -81.26070402531013,
              42.406627481895526
            ],
            [
              -79.54933668946785,
              42.75106049076701
            ],
            [
              -79.21609475076576,
              42.983840967683406
            ],
            [
              -79.3035861977337,
              43.557386460125336
            ],
            [
              -78.91923204943369,
              43.69931718061865
            ],
            [
              -78.48307327097176,
              43.79156363369032
            ],
            [
              -76.9799881275183,
              43.78298999363961
            ],
            [
              -76.52916068956802,
              44.2594847389758
            ],
            [
              -75.62050702152317,
              44.86149209774918
            ],
            [
              -74.88210589198688,
              45.17468476094672
            ],
            [
              -73.16849541440662,
              45.15829799800533
            ],
            [
              -73.462836038441,
              44.67187135406049
            ],
            [
              -75.14534574667427,
              42.72053843699004
            ],
            [
              -75.37301528232024,
              42.17397792859978
            ],
            [
              -75.49934660400174,
              41.52640121931541
            ],
            [
              -75.76347294975385,
              41.06861771228238
            ],
            [
              -76.42760647925243,
              40.65098055155733
            ],
            [
              -78.05734819022864,
              39.97162252307326
            ],
            [
              -79.91075659288583,
              38.76282064555574
            ],
            [
              -80.88840949626365,
              37.86300043784891
            ],
            [
              -82.35359949626671,
              36.00409385961623
            ],
            [
              -82.71582873015795,
              35.760068173217086
            ],
            [
              -83.12052967115598,
              35.60923781387858
            ],
            [
              -83.61545661250823,
              35.64383889178809
            ]
          ]
        ]
      }
    }
  ]
}
