{
  "type": "FeatureCollection",
  "features": [
    {
      "type": "Feature",
      "properties": {
        "dn": 1,
        "PRODUCT": "Day 2 Excessive Rainfall Potential Forecast",
        "VALID_TIME": "12Z 07/28/26 - 12Z 07/29/26",
        "OUTLOOK": "Marginal (At Least 5%)",
        "ISSUE_TIME": "2026-07-27 08:11:00",
        "START_TIME": "2026-07-28 12:00:00",
        "END_TIME": "2026-07-29 12:00:00",
        "Snippet": "12Z 07/28/26 - 12Z 07/29/26",
        "risk_norm": "MARGINAL"
      },
      "geometry": {
        "type": "Polygon",
        "coordinates": [
          [
            [
              -108.97623571561925,
              31.13024758539512
            ],
            [
              -110.73956450880605,
              31.14696319042524
            ],
            [
              -111.28534598770817,
              31.228769081486856
            ],
            [
              -111.95839033736978,
              31.433333938644633
            ],
            [
              -111.49391543614755,
              32.3048678349625
            ],
            [
              -111.53857646354538,
              32.98443388883272
            ],
            [
              -111.87297388443682,
              33.405340938889076
            ],
            [
              -112.98875251994298,
              34.24120564591617
            ],
            [
              -113.44817648303876,
              34.6900475555695
            ],
            [
              -113.60154039027901,
              34.9452779903108
            ],
            [
              -113.70721468511738,
              35.56844093596229
            ],
            [
              -113.64161551982839,
              36.164344178547665
            ],
            [
              -113.10846545531791,
              37.665085056023926
            ],
            [
              -111.10041310950268,
              40.4946367133337
            ],
            [
              -110.59181210555522,
              40.9827202027738
            ],
            [
              -110.26530766380296,
              41.14316594250119
            ],
            [
              -109.06299161319765,
              41.32941243891893
            ],
            [
              -108.10556439124396,
              41.62122469009639
            ],
            [
              -106.43321093661328,
              42.390484095675006
            ],
            [
              -104.57455657977673,
              43.32269658403946
            ],
            [
              -102.93810116634246,
              43.702408977601756
            ],
            [
              -101.4514807227723,
              43.80263360610435
            ],
            [
              -100.37051267999558,
              43.707211755650505
            ],
            [
              -99.52594798530232,
              43.513591185557544
            ],
            [
              -97.78035157378018,
              42.855189708361536
            ],
            [
              -97.35601426648468,
              42.46940757208486
            ],
            [
              -97.22756707666103,
              41.99212719918445
            ],
            [
              -96.27195945552607,
              40.60094662319055
            ],
            [
              -95.51821361005939,
              39.98967680607104
            ],
            [
              -94.42927448195597,
              39.371679595065366
            ],
            [
              -93.91880888612774,
              38.881642536795766
            ],
            [
              -93.8080437881152,
              38.61495496561075
            ],
            [
              -94.03822918826691,
              38.26127634174987
            ],
            [
              -94.49306117718618,
              37.995635014033674
            ],
            [
              -94.83167954555488,
              37.907336631144524
            ],
            [
              -95.62080601110429,
              37.906297592648734
            ],
            [
              -98.2305279455667,
              38.45492932885786
            ],
            [
              -98.62850103656108,
              38.491440833883914
            ],
            [
              -99.41785829227867,
              38.38427285529051
            ],
            [
              -100.13408319562767,
              37.96423064621324
            ],
            [
              -100.8837310293512,
              37.226729030676125
            ],
            [
              -102.36037224605548,
              36.67715727456248
            ],
            [
              -102.8864849674657,
              36.25088194222819
            ],
            [
              -103.33814020947372,
              34.879791429062635
            ],
            [
              -103.53731816818073,
              34.59809693421843
            ],
            [
              -103.80306978164802,
              34.4938178916993
            ],
            [
              -104.46852835817977,
              34.59224886978999
            ],
            [
              -104.77898934795999,
              34.39432012658388
            ],
            [
              -105.39043488046482,
              32.72588894043102
            ],
            [
              -105.58074094414185,
              32.44005746926837
            ],
            [
              -107.0437443783184,
              32.0182157878454
            ],
            [
              -107.29538761889206,
              31.86240424198249
            ],
            [
              -107.48345907542571,
              31.619963620796412
            ],
            [
              -107.96578444528456,
              31.62688053767055
            ],
            [
              -108.06062585381395,
              31.52882876890281
            ],
            [
              -108.07866176117668,
              31.20713454245347
            ],
            [
              -108.97623571561925,
              31.13024758539512
            ]
          ]
        ]
      }
    },
    {
      "type": "Feature",
      "properties": {
        "dn": 1,
        "PRODUCT": "Day 2 Excessive Rainfall Potential Forecast",
        "VALID_TIME": "12Z 07/28/26 - 12Z 07/29/26",
        "OUTLOOK": "Marginal (At Least 5%)",
        "ISSUE_TIME": "2026-07-27 08:11:00",
        "START_TIME": "2026-07-28 12:00:00",
        "END_TIME": "2026-07-29 12:00:00",
        "Snippet": "12Z 07/28/26 - 12Z 07/29/26",
        "risk_norm": "MARGINAL"
      },
      "geometry": {
        "type": "Polygon",
        "coordinates": [
          [
            [
              -77.47234813810358,
              34.47225899694396
            ],
            [
              -77.66212687465705,
              34.675009498481465
            ],
            [
              -77.81003645187128,
              35.14408275618791
            ],
            [
              -78.01959990005231,
              36.657015705078045
            ],
            [
              -78.10245315625046,
              36.84554941665966
            ],
            [
              -78.50402757921135,
              37.154321880737086
            ],
            [
              -79.27590983868552,
              37.27264817046082
            ],
            [
              -79.90715757558952,
              37.195306050820506
            ],
            [
              -80.6664895719556,
              36.99188136939327
            ],
            [
              -81.27215879802071,
              36.63879555161684
            ],
            [
              -82.34098918538031,
              35.64186750513971
            ],
            [
              -82.69086862854284,
              35.48782523947282
            ],
            [
              -83.93557534232309,
              35.21483376979101
            ],
            [
              -84.20628637927383,
              35.27868088940133
            ],
            [
              -84.16674461653992,
              35.68152280830998
            ],
            [
              -84.02091109887522,
              36.03191588743695
            ],
            [
              -84.02830420424874,
              37.06460322133915
            ],
            [
              -83.7543770532193,
              37.538973903838645
            ],
            [
              -83.01722474397737,
              38.07059821491744
            ],
            [
              -81.99159955167408,
              38.57601922047988
            ],
            [
              -80.57770360685646,
              38.90962381259089
            ],
            [
              -80.06392851958054,
              39.31052344841524
            ],
            [
              -79.79130791313857,
              39.997661341240025
            ],
            [
              -79.63519946273223,
              41.04559562079647
            ],
            [
              -79.66404287965902,
              42.0157325293221
            ],
            [
              -79.550644993288,
              42.75029682278958
            ],
            [
              -79.21609475076576,
              42.983840967683406
            ],
            [
              -79.3035861977337,
              43.557386460125336
            ],
            [
              -78.48307327097176,
              43.79156363369032
            ],
            [
              -76.9799881275183,
              43.78298999363961
            ],
            [
              -76.52916068956802,
              44.2594847389758
            ],
            [
              -75.62050702152317,
              44.86149209774918
            ],
            [
              -74.88210589198688,
              45.17468476094672
            ],
            [
              -72.31346682820413,
              45.14585471847436
            ],
            [
              -72.05794277838599,
              44.41917680579895
            ],
            [
              -71.35446851833927,
              43.06172085710599
            ],
            [
              -70.91365904226045,
              40.922734685497986
            ],
            [
              -71.52645491524046,
              40.825780774043466
            ],
            [
              -72.80244941169983,
              40.366731580764885
            ],
            [
              -73.57954567388487,
              40.28460982894157
            ],
            [
              -73.71015709341064,
              40.21221992322814
            ],
            [
              -73.85341372196022,
              39.51538921313792
            ],
            [
              -74.15853207390785,
              39.14956486953465
            ],
            [
              -74.70327736720743,
              38.72152557532674
            ],
            [
              -74.81286030368888,
              38.15090576064143
            ],
            [
              -75.66100038532956,
              36.94365311235639
            ],
            [
              -75.1544672557628,
              35.70802908591141
            ],
            [
              -75.2825951709062,
              34.9969144108118
            ],
            [
              -75.68750146652499,
              34.90775557746928
            ],
            [
              -76.14371240556424,
              34.50624373414611
            ],
            [
              -76.60639267857435,
              34.37707127383617
            ],
            [
              -77.21587041258395,
              34.353663638983775
            ],
            [
              -77.47234813810358,
              34.47225899694396
            ]
          ],
          [
            [
              -75.30348377164127,
              39.50605100823025
            ],
            [
              -75.11692126955788,
              39.57417106615106
            ],
            [
              -74.21903834253337,
              40.00566244688796
            ],
            [
              -73.27751350791839,
              40.604805386772384
            ],
            [
              -72.89827680623169,
              41.0025791581658
            ],
            [
              -72.62148972157027,
              41.4562272907783
            ],
            [
              -72.4961791750005,
              42.01596874632368
            ],
            [
              -72.71873129075708,
              42.352890690435935
            ],
            [
              -73.88460495906833,
              42.755580753563464
            ],
            [
              -74.52704463290523,
              42.8284622144148
            ],
            [
              -75.03826245053669,
              42.66545456696546
            ],
            [
              -75.79006929946648,
              42.17455942138784
            ],
            [
              -76.5971703825499,
              41.333097369494936
            ],
            [
              -76.73025398886013,
              40.594614737166275
            ],
            [
              -76.60280652878386,
              40.00419723938008
            ],
            [
              -76.40593658308515,
              39.8050379007306
            ],
            [
              -75.87004557506233,
              39.56904879643952
            ],
            [
              -75.30348377164127,
              39.50605100823025
            ]
          ]
        ]
      }
    },
    {
      "type": "Feature",
      "properties": {
        "dn": 2,
        "PRODUCT": "Day 2 Excessive Rainfall Potential Forecast",
        "VALID_TIME": "12Z 07/28/26 - 12Z 07/29/26",
        "OUTLOOK": "Slight (At Least 15%)",
        "ISSUE_TIME": "2026-07-27 08:11:00",
        "START_TIME": "2026-07-28 12:00:00",
        "END_TIME": "2026-07-29 12:00:00",
        "Snippet": "12Z 07/28/26 - 12Z 07/29/26",
        "risk_norm": "SLIGHT"
      },
      "geometry": {
        "type": "Polygon",
        "coordinates": [
          [
            [
              -75.87004557506233,
              39.56904879643952
            ],
            [
              -76.40593658308515,
              39.8050379007306
            ],
            [
              -76.60280652878386,
              40.00419723938008
            ],
            [
              -76.73025398886013,
              40.594614737166275
            ],
            [
              -76.5971703825499,
              41.333097369494936
            ],
            [
              -75.79006929946648,
              42.17455942138784
            ],
            [
              -75.03826245053669,
              42.66545456696546
            ],
            [
              -74.52704463290523,
              42.8284622144148
            ],
            [
              -73.88460495906833,
              42.755580753563464
            ],
            [
              -72.71873129075708,
              42.352890690435935
            ],
            [
              -72.4961791750005,
              42.01596874632368
            ],
            [
              -72.62148972157027,
              41.4562272907783
            ],
            [
              -72.89827680623169,
              41.0025791581658
            ],
            [
              -73.27751350791839,
              40.604805386772384
            ],
            [
              -74.21903834253337,
              40.00566244688796
            ],
            [
              -75.11692126955788,
              39.57417106615106
            ],
            [
              -75.30348377164127,
              39.50605100823025
            ],
            [
              -75.87004557506233,
              39.56904879643952
            ]
          ]
        ]
      }
    }
  ]
}
