{"type": "FeatureCollection", "features": [{"type": "Feature", "properties": {"dn": 1, "PRODUCT": "Day 1 Excessive Rainfall Potential Forecast", "VALID_TIME": "16Z 07/30/26 - 12Z 07/31/26", "OUTLOOK": "Marginal (At Least 5%)", "ISSUE_TIME": "2026-07-30 15:56:00", "START_TIME": "2026-07-30 16:00:00", "END_TIME": "2026-07-31 12:00:00", "Snippet": "16Z 07/30/26 - 12Z 07/31/26"}, "geometry": {"type": "Polygon", "coordinates": [[[-82.96768729796246, 27.312737786150286], [-83.17876934092348, 27.78744444256655], [-83.12008427084714, 28.378261282360956], [-82.94683193937682, 28.547912441074573], [-82.98013486242392, 28.7336168061601], [-83.28088857068678, 28.847362681859316], [-83.32023214938555, 28.98850924755592], [-83.98262333699651, 29.721758924327382], [-84.08710279402948, 29.729113279407834], [-84.58960571074063, 29.39809269208807], [-84.91399175906047, 29.282449750682755], [-85.17437984791225, 29.29915663257841], [-85.68460892611208, 29.46759498758081], [-85.72344750313837, 29.653424985947463], [-85.96634164550724, 29.894930583775515], [-86.47697752494051, 30.10603567532834], [-87.4366374211962, 29.927434162649472], [-88.17601120872845, 29.870309382947376], [-89.27259426279146, 30.005460309720327], [-90.72966064811844, 30.41613734692742], [-91.66537948231428, 30.893526785876702], [-92.23893739792967, 31.26808006394923], [-93.02335307432072, 32.05213373790409], [-93.33627165303483, 32.59942464768673], [-94.45191727222236, 35.22394969699079], [-95.16834636351807, 36.21181815776961], [-96.3434725206551, 37.099960649300954], [-97.59009023004832, 37.7543516359507], [-99.07659370392982, 38.34823459488715], [-100.24058361036015, 38.982522654076895], [-100.77560040305747, 39.36502310761746], [-101.45247397535923, 40.13642596873246], [-102.90145157428582, 42.48861326708913], [-103.53073291185387, 43.63224993082332], [-104.13086189756889, 44.939077017401615], [-104.21707493790313, 45.83250031207562], [-104.08355643603959, 46.34898409728313], [-103.43693079515815, 47.34966316052665], [-102.68045189015885, 47.96850668670775], [-101.47554136533812, 48.594809228965744], [-99.99857164248293, 49.17552222739157], [-95.50672436238419, 49.15240911350793], [-95.44536366674684, 49.524275311148095], [-94.61988896219992, 49.52440426284683], [-94.37003183777543, 48.94502040391903], [-93.61563975877733, 48.77541400180068], [-93.11109855296515, 48.81290701903468], [-92.67239385498338, 48.725376907788096], [-91.55442826900217, 48.33514599289284], [-90.79708811286235, 48.44594878423832], [-90.49402351705132, 48.23103866548584], [-89.43099065589388, 48.20470819346374], [-88.40372522494941, 48.54932395638188], [-86.46390731383165, 47.76567122770336], [-86.80475812853449, 47.44385534261452], [-87.72007861807228, 46.88861758411074], [-88.54147336446594, 46.62132367453602], [-90.27732280876064, 46.37433008142218], [-91.38091899647216, 46.39775744782311], [-92.35991040655456, 46.49796956725465], [-92.73039584308725, 46.417968933079955], [-93.10329145669267, 46.1261929072819], [-93.11266173510305, 45.65890732878759], [-92.93656652228331, 45.35884717473072], [-91.81398316202825, 44.44472764799096], [-91.35436336202874, 43.87717168267126], [-91.08507037051443, 43.137223330899324], [-90.8946661597677, 42.00312879476894], [-90.91903041840857, 39.942471930763595], [-91.18759066903361, 38.887574782043295], [-91.86711829518764, 37.0772857774506], [-91.88766882206826, 36.36222973568398], [-91.79365599989806, 35.77776205841337], [-91.64158986154597, 35.32571419013424], [-91.37969670114256, 34.915456016448864], [-90.4782352382986, 34.17311288647754], [-89.41874449780671, 33.55323101768945], [-87.24741128454905, 32.78473089779343], [-85.14738477404036, 32.12482122562021], [-82.77828459774427, 31.687707136973906], [-80.8159178257465, 31.523515175391672], [-81.12021116667621, 30.77425779181026], [-81.06926742590505, 30.312625737486528], [-80.75520059408946, 29.414626373216457], [-80.22831009726261, 28.585879083976433], [-80.27895736516328, 28.177831850492325], [-79.91394555565996, 27.36168847103483], [-81.95417731065076, 27.13652751050995], [-82.72494526735471, 27.15490753313543], [-82.96768729796246, 27.312737786150286]], [[-93.91995109152846, 38.881206760197024], [-93.23293050634287, 39.141249348829284], [-92.82590125882497, 39.49082094629461], [-92.52734002701334, 40.01634492996645], [-92.32878872384188, 41.02435994369947], [-92.36084039191893, 42.030229800820024], [-92.58074352370306, 42.6423947310149], [-93.20951497545092, 43.774677664063304], [-94.57411815530199, 45.667621311869155], [-95.67591400231099, 46.431172855698506], [-96.29368264476939, 46.72395421293477], [-97.09867033994996, 46.92799988751704], [-97.90320911027551, 47.002160746415015], [-99.19930500643731, 46.97899707418101], [-100.29758358209321, 46.74168933808173], [-101.12041934203586, 46.124475052484335], [-101.39706070479748, 45.69032913449022], [-101.59589094078176, 45.04317929040528], [-101.54914944166387, 44.3584168091001], [-101.39238138097124, 43.80379246121028], [-100.91233829001881, 42.78064193868425], [-100.59275801034009, 42.35582478268562], [-99.61121786979197, 41.510172179654894], [-97.89576846407286, 40.71332698738956], [-96.25754856236453, 39.3225688404553], [-95.34239639763898, 38.97279765510162], [-94.65960618731805, 38.839920251271295], [-93.91995109152846, 38.881206760197024]]]}}, {"type": "Feature", "properties": {"dn": 1, "PRODUCT": "Day 1 Excessive Rainfall Potential Forecast", "VALID_TIME": "16Z 07/30/26 - 12Z 07/31/26", "OUTLOOK": "Marginal (At Least 5%)", "ISSUE_TIME": "2026-07-30 15:56:00", "START_TIME": "2026-07-30 16:00:00", "END_TIME": "2026-07-31 12:00:00", "Snippet": "16Z 07/30/26 - 12Z 07/31/26"}, "geometry": {"type": "Polygon", "coordinates": [[[-108.97623571561925, 31.13024758539512], [-110.73956450880605, 31.14696319042524], [-111.28534598770817, 31.228769081486856], [-111.95839033736978, 31.433333938644633], [-111.55365493600304, 31.97992711766635], [-110.82931866502419, 32.19054567346744], [-110.52857900820041, 32.35693835322876], [-110.20461474113164, 32.751716794327294], [-110.133659211499, 33.03159554151008], [-110.23565004062402, 33.38595281664509], [-110.62655462695567, 33.84873421205709], [-111.23608297387628, 34.28779164303093], [-111.89354685881732, 34.630630876082684], [-112.02950987866062, 34.79805325303015], [-112.22848727535727, 35.36657440005511], [-112.17491782198356, 35.734182885273206], [-111.975401161922, 35.89120283521653], [-111.59100232003453, 35.92994274435378], [-111.30297972200744, 35.86804638348392], [-110.83977071866406, 35.3696019888601], [-110.4205009455465, 35.13873086002195], [-110.09894198053668, 35.2136753961829], [-109.33094274743745, 35.688407268289566], [-108.85340774663264, 35.86412681030591], [-108.14841555297151, 36.01126881882987], [-107.31598375786223, 36.029668083821086], [-106.62991251740563, 35.85381563766326], [-105.98767360095684, 35.53721124264448], [-105.56724086571663, 35.20312528470912], [-105.25569571952562, 34.81680877879929], [-104.98468662875331, 34.24634805621966], [-104.91693336001897, 33.4812277783958], [-105.17993542344394, 32.78473680036573], [-105.61743181017178, 32.25585218612994], [-106.22256635733183, 31.850584883070923], [-106.68278869720191, 31.635328426799934], [-107.96578444528456, 31.62688053767055], [-108.06062585381395, 31.52882876890281], [-108.07866176117668, 31.20713454245347], [-108.97623571561925, 31.13024758539512]]]}}, {"type": "Feature", "properties": {"dn": 1, "PRODUCT": "Day 1 Excessive Rainfall Potential Forecast", "VALID_TIME": "16Z 07/30/26 - 12Z 07/31/26", "OUTLOOK": "Marginal (At Least 5%)", "ISSUE_TIME": "2026-07-30 15:56:00", "START_TIME": "2026-07-30 16:00:00", "END_TIME": "2026-07-31 12:00:00", "Snippet": "16Z 07/30/26 - 12Z 07/31/26"}, "geometry": {"type": "Polygon", "coordinates": [[[-71.99325476724908, 40.84239999571311], [-72.37412613575005, 40.98026708273985], [-72.6232028093581, 41.190294057458615], [-72.79582692616735, 41.47790261067574], [-72.84447817189977, 41.79379353273976], [-72.38775008052099, 43.80483371995572], [-71.8826700699877, 44.39770064111885], [-71.3140064379024, 44.71976229330122], [-70.91544258059388, 44.843390296543475], [-69.50955907800838, 45.050915501551835], [-68.05073757173216, 44.97964496183049], [-67.58924079208647, 44.869587801464974], [-67.04781212684674, 44.614977788332304], [-67.00030409613403, 44.56320832799026], [-67.23826018804331, 44.379432096049186], [-67.29921538641231, 44.1690468673581], [-68.19409450383115, 43.81603555294271], [-68.3697914904479, 43.84134327804543], [-68.8602961015326, 43.603499387071416], [-69.72092454783335, 43.327483995658945], [-70.10930004617522, 42.9850581797129], [-69.85485072207551, 42.33177992011856], [-69.480651749618, 41.92469703007804], [-69.58985992783097, 41.49577382473789], [-69.51885318512674, 41.30758668441631], [-69.64106716384632, 41.057617687804694], [-70.19879233007363, 40.95711875647116], [-71.02922283131235, 40.937482386212295], [-71.52645491524046, 40.825780774043466], [-71.99325476724908, 40.84239999571311]]]}}, {"type": "Feature", "properties": {"dn": 2, "PRODUCT": "Day 1 Excessive Rainfall Potential Forecast", "VALID_TIME": "16Z 07/30/26 - 12Z 07/31/26", "OUTLOOK": "Slight (At Least 15%)", "ISSUE_TIME": "2026-07-30 15:56:00", "START_TIME": "2026-07-30 16:00:00", "END_TIME": "2026-07-31 12:00:00", "Snippet": "16Z 07/30/26 - 12Z 07/31/26"}, "geometry": {"type": "Polygon", "coordinates": [[[-94.65960618731805, 38.839920251271295], [-95.34239639763898, 38.97279765510162], [-96.25754856236453, 39.3225688404553], [-97.89576846407286, 40.71332698738956], [-99.61121786979197, 41.510172179654894], [-100.59275801034009, 42.35582478268562], [-100.91233829001881, 42.78064193868425], [-101.39238138097124, 43.80379246121028], [-101.54914944166387, 44.3584168091001], [-101.59589094078176, 45.04317929040528], [-101.39706070479748, 45.69032913449022], [-101.12041934203586, 46.124475052484335], [-100.29758358209321, 46.74168933808173], [-99.19930500643731, 46.97899707418101], [-97.90320911027551, 47.002160746415015], [-97.09867033994996, 46.92799988751704], [-96.29368264476939, 46.72395421293477], [-95.67591400231099, 46.431172855698506], [-94.57411815530199, 45.667621311869155], [-93.20951497545092, 43.774677664063304], [-92.58074352370306, 42.6423947310149], [-92.36084039191893, 42.030229800820024], [-92.32878872384188, 41.02435994369947], [-92.52734002701334, 40.01634492996645], [-92.82590125882497, 39.49082094629461], [-93.23293050634287, 39.141249348829284], [-93.91995109152846, 38.881206760197024], [-94.65960618731805, 38.839920251271295]]]}}]}