{"type": "FeatureCollection", "features": [{"type": "Feature", "properties": {"dn": 1, "PRODUCT": "Day 2 Excessive Rainfall Potential Forecast", "VALID_TIME": "12Z 07/31/26 - 12Z 08/01/26", "OUTLOOK": "Marginal (At Least 5%)", "ISSUE_TIME": "2026-07-30 07:54:00", "START_TIME": "2026-07-31 12:00:00", "END_TIME": "2026-08-01 12:00:00", "Snippet": "12Z 07/31/26 - 12Z 08/01/26"}, "geometry": {"type": "Polygon", "coordinates": [[[-83.17876934092348, 27.78744444256655], [-83.12008427084714, 28.378261282360956], [-82.94683193937682, 28.547912441074573], [-82.98013486242392, 28.7336168061601], [-83.28088857068678, 28.847362681859316], [-83.32023214938555, 28.98850924755592], [-83.98262333699651, 29.721758924327382], [-84.08710279402948, 29.729113279407834], [-84.4813360692646, 29.436485842805258], [-84.91399175906047, 29.282449750682755], [-85.17437984791225, 29.29915663257841], [-85.68460892611208, 29.46759498758081], [-85.72344750313837, 29.653424985947463], [-85.96634164550724, 29.894930583775515], [-86.47697752494051, 30.10603567532834], [-87.70158905530097, 29.894447696549744], [-88.38566408006709, 29.879326641562674], [-88.44712950193036, 29.700508416265503], [-88.72582426544463, 29.392829315223135], [-88.6263269559462, 29.297570372466986], [-88.64102342874018, 29.024471877489752], [-88.75100675852823, 28.93678365157617], [-88.9590501446108, 28.945041449810216], [-89.62919290290844, 29.106563059476123], [-89.98618989257113, 29.300894036453183], [-90.33997449282927, 29.631838625247298], [-90.68804991976734, 30.14282229226493], [-90.98166662330769, 30.787584225722917], [-91.21051836126222, 31.88335655195799], [-91.161058347159, 34.95552450338647], [-91.3136444237738, 35.31876065401456], [-91.95418425548306, 36.04984647464724], [-93.3207618591083, 37.276368618053915], [-93.98436296171644, 38.21654017607815], [-94.37564167791503, 38.97245873912894], [-94.37485379040069, 39.1052567069707], [-94.20283113247038, 39.23727608515721], [-94.20148590363605, 39.41409978166604], [-94.42533318353121, 40.29682987795126], [-95.4136795661517, 42.31009513848365], [-95.41639006400789, 42.96145111104207], [-95.29877699840164, 43.22149650119997], [-95.2996957824666, 43.524081129164514], [-95.84068507675069, 44.12585550889509], [-95.96389820975763, 44.469005418836566], [-95.96776173484935, 44.854733417827674], [-95.72958632333194, 45.28317874110251], [-95.30656425114184, 45.71039508707373], [-94.63362194656776, 46.17829426178589], [-93.95709930368375, 46.47230024610683], [-92.34905139344998, 46.87964640168926], [-90.92207560701611, 47.06622190649565], [-88.87941492784151, 47.09813894037933], [-87.41206401720594, 46.87875150644173], [-86.6998842404662, 46.55405924254744], [-86.23991495035861, 46.193894565290094], [-85.4795541039763, 45.21998065355366], [-84.82591174600547, 43.93921630316237], [-84.35048171320571, 43.350118793711225], [-84.22467449786814, 42.86507194046807], [-84.3115883561019, 42.60893232563851], [-84.52900570988919, 42.228962182071896], [-84.89375333095744, 42.118507448645424], [-85.01280225013592, 41.5125386465144], [-84.65320463548979, 38.710126219264], [-84.81943574804859, 36.97961620850728], [-85.21901308086497, 35.656631552121134], [-85.77110535120443, 35.01272782728802], [-86.30086199279006, 33.867736862666824], [-86.40672315272882, 33.19443713771978], [-86.36657787877101, 33.011044786000156], [-86.17591151630039, 32.68330245401], [-85.57809872569086, 32.10535298815492], [-84.52727242648187, 31.265313605111455], [-84.45028983468498, 30.941259554633668], [-84.35398371054201, 30.84453335522817], [-83.71680506924562, 30.845789381690995], [-82.9941491159807, 31.157271524338803], [-82.53737826601866, 31.441108154987585], [-81.70693626721567, 31.692817413682427], [-81.38872693130865, 31.6658593045353], [-80.93377297905216, 31.443660793908997], [-80.90201650882112, 31.257323925396776], [-81.13101592915555, 30.68382020482289], [-80.9970781692306, 30.03171991136292], [-80.75520059408946, 29.414626373216457], [-80.22831009726261, 28.585879083976433], [-80.27895736516328, 28.177831850492325], [-79.78954500432337, 27.119579459547793], [-80.55548430434561, 27.193495072610197], [-81.85705456483856, 27.08228022623644], [-82.831717386833, 27.117653865322442], [-83.17876934092348, 27.78744444256655]], [[-88.83547947284544, 37.26189255767712], [-88.15266940655751, 37.414405843487344], [-87.51414318472192, 37.70039069438095], [-87.50792621793151, 37.78929550501779], [-87.88081916976121, 38.11697600736528], [-87.97899919962228, 38.34344443861911], [-87.96954332634463, 41.038216214504196], [-88.08729091018304, 41.874579867040076], [-88.33656035965785, 42.53768021558757], [-88.76698471931303, 43.20385960542187], [-89.2241702024206, 43.521924651366], [-89.80996925971452, 43.71186391084997], [-91.29581261179325, 43.876458516568796], [-92.00869530033029, 44.018374125740486], [-92.78648700230967, 44.02911103343245], [-93.80592052012308, 43.86605544321637], [-94.04573401252811, 43.78122092969492], [-94.22677184251769, 43.609070593831326], [-94.29134434940705, 42.917219151008325], [-93.8897582845406, 41.78426887895976], [-93.50666880028585, 39.98325265696869], [-93.28546499512386, 39.451728528761684], [-92.78665596923356, 38.69363394121665], [-92.0707165762628, 37.883334166790476], [-91.41057322778349, 37.38022231809116], [-90.7990886373836, 37.232387158643355], [-88.83547947284544, 37.26189255767712]]]}}, {"type": "Feature", "properties": {"dn": 1, "PRODUCT": "Day 2 Excessive Rainfall Potential Forecast", "VALID_TIME": "12Z 07/31/26 - 12Z 08/01/26", "OUTLOOK": "Marginal (At Least 5%)", "ISSUE_TIME": "2026-07-30 07:54:00", "START_TIME": "2026-07-31 12:00:00", "END_TIME": "2026-08-01 12:00:00", "Snippet": "12Z 07/31/26 - 12Z 08/01/26"}, "geometry": {"type": "Polygon", "coordinates": [[[-108.97623571561925, 31.13024758539512], [-110.3130414594145, 31.1441461220184], [-110.11438034635916, 31.665792805718254], [-109.8305241450904, 31.967276448094566], [-109.52893185875499, 32.131873941660594], [-109.2499236129265, 32.47505233143196], [-109.331615433201, 32.69543356494335], [-110.11608097743844, 33.30622520707472], [-110.19399563931754, 33.48080755763081], [-110.08670269388756, 33.899723087114914], [-109.89351086585687, 34.099966892104], [-109.47786585325728, 34.27341590801916], [-107.98627547613944, 34.1721934118812], [-107.22668435143348, 34.23077954703863], [-106.70716640620948, 34.494930189382245], [-106.20881697792902, 34.98044887495353], [-105.9292702507191, 35.49511644503669], [-106.07325268910071, 36.923582471109796], [-105.88519594722453, 38.94389135719495], [-105.62167814814815, 40.28851016016155], [-105.47147589979038, 40.51794681821436], [-105.03504207558512, 40.80813571665992], [-104.2256367436958, 40.85171328771438], [-103.81314708517235, 40.78456681841736], [-103.62740631552705, 40.66078879467843], [-103.63724394065044, 40.087446739760665], [-102.97803596670028, 38.257372846086575], [-102.63751623326768, 36.6657447329816], [-101.99377772858804, 36.200735665388066], [-101.57892030836307, 35.768746645204374], [-101.01324497547424, 35.5214510638711], [-100.72266372615893, 35.2610596303619], [-100.52413639685136, 34.5924661081642], [-100.48431542699527, 33.78157819318835], [-100.63125493108369, 33.46017717047559], [-101.25374107294714, 32.93863326981576], [-102.25018818694105, 32.48894309795459], [-102.67585451856989, 32.423788412171696], [-103.27138044899839, 32.484944713231194], [-103.99963899820065, 32.85410941004227], [-104.65949318419217, 32.99733306801518], [-105.53558506465373, 32.533886568949036], [-105.92816684033835, 32.14489507745531], [-106.44348064514372, 31.379446531079445], [-106.57207952163469, 31.597888069269302], [-107.96578444528456, 31.62688053767055], [-108.06062585381395, 31.52882876890281], [-108.07866176117668, 31.20713454245347], [-108.97623571561925, 31.13024758539512]]]}}, {"type": "Feature", "properties": {"dn": 2, "PRODUCT": "Day 2 Excessive Rainfall Potential Forecast", "VALID_TIME": "12Z 07/31/26 - 12Z 08/01/26", "OUTLOOK": "Slight (At Least 15%)", "ISSUE_TIME": "2026-07-30 07:54:00", "START_TIME": "2026-07-31 12:00:00", "END_TIME": "2026-08-01 12:00:00", "Snippet": "12Z 07/31/26 - 12Z 08/01/26"}, "geometry": {"type": "Polygon", "coordinates": [[[-90.7990886373836, 37.232387158643355], [-91.41057322778349, 37.38022231809116], [-92.0707165762628, 37.883334166790476], [-92.78665596923356, 38.69363394121665], [-93.28546499512386, 39.451728528761684], [-93.50666880028585, 39.98325265696869], [-93.8897582845406, 41.78426887895976], [-94.29134434940705, 42.917219151008325], [-94.22677184251769, 43.609070593831326], [-94.04573401252811, 43.78122092969492], [-93.80592052012308, 43.86605544321637], [-92.78648700230967, 44.02911103343245], [-92.00869530033029, 44.018374125740486], [-91.29581261179325, 43.876458516568796], [-89.80996925971452, 43.71186391084997], [-89.2241702024206, 43.521924651366], [-88.76698471931303, 43.20385960542187], [-88.33656035965785, 42.53768021558757], [-88.08729091018304, 41.874579867040076], [-87.96954332634463, 41.038216214504196], [-87.97899919962228, 38.34344443861911], [-87.88081916976121, 38.11697600736528], [-87.50792621793151, 37.78929550501779], [-87.51414318472192, 37.70039069438095], [-88.15266940655751, 37.414405843487344], [-88.83547947284544, 37.26189255767712], [-90.7990886373836, 37.232387158643355]]]}}]}