{"type": "FeatureCollection", "features": [{"type": "Feature", "properties": {"dn": 1, "PRODUCT": "Day 1 Excessive Rainfall Potential Forecast", "VALID_TIME": "16Z 07/28/26 - 12Z 07/29/26", "OUTLOOK": "Marginal (At Least 5%)", "ISSUE_TIME": "2026-07-28 15:56:00", "START_TIME": "2026-07-28 16:00:00", "END_TIME": "2026-07-29 12:00:00", "Snippet": "16Z 07/28/26 - 12Z 07/29/26"}, "geometry": {"type": "Polygon", "coordinates": [[[-82.06282104109513, 24.208920372508555], [-82.84279555401297, 24.458409746398], [-83.24357634170903, 24.49158102332572], [-83.14535551376402, 24.988271877247925], [-82.38701590963649, 24.972866704434747], [-82.3238345877115, 25.104258088866843], [-82.59290722228265, 25.448019724918527], [-81.91407661823771, 25.619706401004528], [-82.1181065867413, 26.09627964729339], [-82.4489989551686, 26.353602289152548], [-82.69804041945062, 26.92440830933655], [-83.05644772549002, 27.45720815714832], [-83.0428546274088, 27.5936080096715], [-83.17876934092348, 27.78744444256655], [-83.12802825674781, 28.288219116273197], [-82.76704538387588, 28.259881811187654], [-82.37396502291679, 28.044773133198248], [-82.1867727189533, 27.844979019969433], [-81.66632188760791, 26.470014578047174], [-81.29732567558212, 26.116503002492056], [-80.71719316194762, 25.832851137615936], [-80.40137511436431, 25.479872792444123], [-80.28339380640232, 25.192562872491788], [-80.3270251048012, 24.829200295408626], [-80.670873277322, 24.494230782657368], [-81.70910591257864, 24.223517368340733], [-82.06282104109513, 24.208920372508555]]]}}, {"type": "Feature", "properties": {"dn": 1, "PRODUCT": "Day 1 Excessive Rainfall Potential Forecast", "VALID_TIME": "16Z 07/28/26 - 12Z 07/29/26", "OUTLOOK": "Marginal (At Least 5%)", "ISSUE_TIME": "2026-07-28 15:56:00", "START_TIME": "2026-07-28 16:00:00", "END_TIME": "2026-07-29 12:00:00", "Snippet": "16Z 07/28/26 - 12Z 07/29/26"}, "geometry": {"type": "Polygon", "coordinates": [[[-110.95653789383776, 31.17089174187611], [-113.09048163966203, 31.811386730393764], [-112.67243937742987, 32.58979665587936], [-112.62861834086374, 33.00540494182237], [-112.85981951047239, 33.43592367167271], [-113.51394312890106, 34.09134633620717], [-113.88178157251745, 34.640635415311706], [-113.96496012470342, 35.44843000860472], [-113.74101035227724, 36.74054896188803], [-113.45041361414737, 37.67330998047304], [-113.01969692153537, 38.48184861603484], [-112.0235620211322, 39.74248563119167], [-110.80216655461581, 40.83178090987472], [-110.26530766380296, 41.14316594250119], [-109.6483275404383, 41.32669451880244], [-108.29803351642282, 41.29962578404952], [-107.54430755020633, 41.35373543334045], [-106.88359887954726, 41.70559668499807], [-106.13024440864324, 42.321861501807], [-104.77307040010014, 42.92169434666009], [-103.76919857872869, 42.97202344870304], [-102.62609997920131, 42.76208794259138], [-102.0177461723561, 42.525365361413854], [-100.85059486037534, 41.73800718161773], [-99.6013737941379, 41.29292932367019], [-98.42841744558058, 41.056220758691815], [-96.50894894674941, 40.9072297844091], [-95.28997267318613, 40.60612003934789], [-94.36785848231555, 40.07741507166268], [-92.78328330936982, 38.827464992570604], [-90.13533700847928, 37.03740381058418], [-89.54671319466874, 36.481811506560774], [-89.29224443620166, 36.02517045566134], [-89.31315886240355, 35.62187750029672], [-89.4370405046116, 35.35642285160462], [-89.84729770367142, 34.82974697933293], [-90.40724957516414, 34.57512424482165], [-91.06147623837519, 34.637124869531135], [-92.09124054946673, 35.01858411726001], [-93.23388114082688, 35.66368746878727], [-95.73171022664106, 37.63876633796758], [-96.92511770570054, 38.341172905072426], [-97.43745600044684, 38.46791242100999], [-99.07829670685248, 38.39261532484174], [-99.91068834826713, 38.015260742563264], [-101.72600846183737, 36.345277538313056], [-102.36456132246383, 35.91469600196808], [-104.36697720749238, 34.68833045495985], [-105.83336217466051, 33.965229718314916], [-106.48610773898663, 33.422988710443654], [-106.61543404261926, 33.096177515440374], [-106.44348064514372, 31.379446531079445], [-106.57207952163469, 31.597888069269302], [-107.96246091385268, 31.597367977657036], [-108.07532152085008, 31.177599435261552], [-108.97266938754481, 31.100727661809906], [-110.14972486381974, 31.142356940372345], [-108.97630849782487, 31.130850032815246], [-108.07872992934661, 31.207737299743084], [-108.06133229003933, 31.528770695221137], [-107.96585227245663, 31.627482834813662], [-107.59405054770447, 31.65771319849614], [-107.49373396780743, 32.21212014523834], [-107.51944694328193, 32.93770311210211], [-107.26563985113643, 33.59264338633818], [-106.92154314065709, 33.93502820787715], [-105.2691907637408, 34.95087861347649], [-103.81480358671567, 36.02465498520014], [-102.6695897828641, 37.11174819124122], [-101.6794714540968, 38.312527554742495], [-101.32873767857178, 39.08024632272714], [-101.38239894169422, 39.962568630452424], [-101.69782209205894, 40.39166348327533], [-102.90460567939199, 41.04619212156782], [-104.24139782186991, 41.026256361228114], [-104.6268074308814, 40.78570945847834], [-105.0438450368315, 39.70365103034302], [-105.80070111065415, 38.68244037083413], [-105.72267220500784, 37.3490748735296], [-106.12785101759772, 36.92044888815405], [-107.72798430093316, 36.223361707486795], [-108.48455073056485, 36.029064277576275], [-109.05275486156675, 36.11738898651774], [-109.77443820511346, 36.50558701636869], [-110.65478031379843, 36.785976924020396], [-111.7547384908642, 36.995287528160354], [-112.19827283693037, 36.950682618655264], [-112.66776942201095, 36.72187529931603], [-113.14633725460324, 36.218910745704136], [-113.3091625358994, 35.522303253315734], [-113.22046596950105, 34.98794939768358], [-113.05337329612343, 34.64316116683046], [-112.60217376177258, 34.23747118669148], [-111.31343508374728, 33.68979412015856], [-110.95259791082205, 33.453271437678474], [-110.87353442870035, 33.279042826109084], [-110.85460879858182, 33.144343158361764], [-111.20611537462618, 32.562443996924294], [-111.22096123610736, 32.287199249286665], [-111.15088898897638, 31.792041563301176], [-110.94185782539671, 31.447625549516985], [-110.58760761898145, 31.208231787566184], [-110.33290731777004, 31.14883560986325], [-110.95653789383776, 31.17089174187611]]]}}, {"type": "Feature", "properties": {"dn": 1, "PRODUCT": "Day 1 Excessive Rainfall Potential Forecast", "VALID_TIME": "16Z 07/28/26 - 12Z 07/29/26", "OUTLOOK": "Marginal (At Least 5%)", "ISSUE_TIME": "2026-07-28 15:56:00", "START_TIME": "2026-07-28 16:00:00", "END_TIME": "2026-07-29 12:00:00", "Snippet": "16Z 07/28/26 - 12Z 07/29/26"}, "geometry": {"type": "Polygon", "coordinates": [[[-74.66658562418245, 38.71720153763917], [-74.81286030368888, 38.15090576064143], [-75.66100038532956, 36.94365311235639], [-75.1544672557628, 35.70802908591141], [-75.71831145798463, 35.36550100919108], [-76.25471668483257, 35.15504324752609], [-76.71996945602532, 35.02581798478268], [-77.32584158733701, 35.04661964623563], [-77.52952863716551, 35.15901978458475], [-78.23918636925839, 35.95631214977245], [-78.44548891331888, 36.067241211724], [-79.71199558586623, 36.187930807185424], [-80.63575374494249, 35.95435059054829], [-82.45717690204086, 35.10933736756892], [-83.81649398744045, 34.75552968983404], [-84.19861715350548, 34.78103706603128], [-84.46315771747426, 34.88843553666987], [-84.7125721224854, 35.17566841462417], [-84.78909859342528, 35.540796095667815], [-84.66230350651637, 35.71300979875886], [-83.11731704904835, 37.18240339097018], [-80.30959886714503, 39.19793114075804], [-79.56281592163656, 39.97779007385347], [-79.25446301344483, 40.482226080327855], [-79.12960198590237, 40.91317002784867], [-79.39059683935012, 42.25552137645543], [-79.34995965614488, 42.51472622120545], [-78.79750742876506, 42.99118549724568], [-78.73577623576497, 43.72599566431606], [-78.48307327097176, 43.79156363369032], [-76.9799881275183, 43.78298999363961], [-76.52916068956802, 44.2594847389758], [-75.62050702152317, 44.86149209774918], [-74.88210589198688, 45.17468476094672], [-71.88555073461235, 45.137713181158034], [-71.60681553461849, 45.27615893875982], [-71.56509177735084, 45.444221266004], [-71.31390076208947, 45.45742534825728], [-71.12110318618079, 43.031519531348096], [-71.18704295383222, 42.51130336573755], [-71.38485785179653, 42.18375435640391], [-71.49635447260685, 41.71136739359658], [-71.48212798511966, 41.265696268951196], [-71.34381154742502, 40.846950038900275], [-72.80244941169983, 40.366731580764885], [-73.67298123944643, 40.20771864327401], [-73.85341372196022, 39.51538921313792], [-74.25276060081997, 39.123401054073824], [-73.9105179039166, 39.52230710431371], [-73.71091578430789, 40.212311786084356], [-72.87871737976805, 40.55495307461343], [-72.57458914101674, 40.60571948645978], [-72.02027838829652, 40.98026198393592], [-71.92008265200722, 41.677633206822655], [-72.1369441444228, 42.544804024589766], [-72.16055152950426, 43.73334138432283], [-72.23830584389836, 43.91773581380721], [-72.50394096731358, 44.0813411866062], [-73.16366568269659, 44.115896341990116], [-74.02537436417595, 43.778584539959894], [-74.45645229934986, 43.73937452984051], [-75.0990920046562, 43.547441780738474], [-76.04092074926452, 43.034611740026385], [-77.0827241262837, 42.569572587037925], [-77.5245725010736, 42.085925309093405], [-77.54176222785395, 41.64772597858359], [-77.05516302259332, 41.07030408657519], [-77.04362585984015, 40.80373705069964], [-77.40847157520487, 40.04212310386744], [-77.30478095823464, 39.63144525910814], [-76.278255699949, 38.585644200174535], [-75.75683065006862, 38.303962782231864], [-75.4209056366589, 38.265949362877635], [-74.98706732346747, 38.44077377249811], [-74.57963141363369, 38.802553452779215], [-74.66658562418245, 38.71720153763917]]]}}, {"type": "Feature", "properties": {"dn": 2, "PRODUCT": "Day 1 Excessive Rainfall Potential Forecast", "VALID_TIME": "16Z 07/28/26 - 12Z 07/29/26", "OUTLOOK": "Slight (At Least 15%)", "ISSUE_TIME": "2026-07-28 15:56:00", "START_TIME": "2026-07-28 16:00:00", "END_TIME": "2026-07-29 12:00:00", "Snippet": "16Z 07/28/26 - 12Z 07/29/26"}, "geometry": {"type": "Polygon", "coordinates": [[[-108.97630849782487, 31.130850032815246], [-110.31194738447142, 31.143947747866523], [-110.58760761898145, 31.208231787566184], [-110.94185782539671, 31.447625549516985], [-111.15088898897638, 31.792041563301176], [-111.22096123610736, 32.287199249286665], [-111.20611537462618, 32.562443996924294], [-110.85460879858182, 33.144343158361764], [-110.87353442870035, 33.279042826109084], [-110.95259791082205, 33.453271437678474], [-111.31343508374728, 33.68979412015856], [-112.60217376177258, 34.23747118669148], [-113.05337329612343, 34.64316116683046], [-113.22046596950105, 34.98794939768358], [-113.3091625358994, 35.522303253315734], [-113.14633725460324, 36.218910745704136], [-112.66776942201095, 36.72187529931603], [-112.19827283693037, 36.950682618655264], [-111.7547384908642, 36.995287528160354], [-110.65478031379843, 36.785976924020396], [-109.77443820511346, 36.50558701636869], [-109.05275486156675, 36.11738898651774], [-108.48455073056485, 36.029064277576275], [-107.72798430093316, 36.223361707486795], [-106.12785101759772, 36.92044888815405], [-105.72267220500784, 37.3490748735296], [-105.80070111065415, 38.68244037083413], [-105.0438450368315, 39.70365103034302], [-104.6268074308814, 40.78570945847834], [-104.24139782186991, 41.026256361228114], [-102.90460567939199, 41.04619212156782], [-101.69782209205894, 40.39166348327533], [-101.38239894169422, 39.962568630452424], [-101.32873767857178, 39.08024632272714], [-101.6794714540968, 38.312527554742495], [-102.6695897828641, 37.11174819124122], [-103.81480358671567, 36.02465498520014], [-105.2691907637408, 34.95087861347649], [-106.92154314065709, 33.93502820787715], [-107.26563985113643, 33.59264338633818], [-107.51944694328193, 32.93770311210211], [-107.49373396780743, 32.21212014523834], [-107.59405054770447, 31.65771319849614], [-107.96585227245663, 31.627482834813662], [-108.06133229003933, 31.528770695221137], [-108.07872992934661, 31.207737299743084], [-108.97630849782487, 31.130850032815246]]]}}, {"type": "Feature", "properties": {"dn": 2, "PRODUCT": "Day 1 Excessive Rainfall Potential Forecast", "VALID_TIME": "16Z 07/28/26 - 12Z 07/29/26", "OUTLOOK": "Slight (At Least 15%)", "ISSUE_TIME": "2026-07-28 15:56:00", "START_TIME": "2026-07-28 16:00:00", "END_TIME": "2026-07-29 12:00:00", "Snippet": "16Z 07/28/26 - 12Z 07/29/26"}, "geometry": {"type": "Polygon", "coordinates": [[[-76.278255699949, 38.585644200174535], [-77.30478095823464, 39.63144525910814], [-77.40847157520487, 40.04212310386744], [-77.04362585984015, 40.80373705069964], [-77.05516302259332, 41.07030408657519], [-77.54176222785395, 41.64772597858359], [-77.5245725010736, 42.085925309093405], [-77.0827241262837, 42.569572587037925], [-76.04092074926452, 43.034611740026385], [-75.0990920046562, 43.547441780738474], [-74.45645229934986, 43.73937452984051], [-74.02537436417595, 43.778584539959894], [-73.16366568269659, 44.115896341990116], [-72.50394096731358, 44.0813411866062], [-72.23830584389836, 43.91773581380721], [-72.16055152950426, 43.73334138432283], [-72.1369441444228, 42.544804024589766], [-71.92008265200722, 41.677633206822655], [-72.02027838829652, 40.98026198393592], [-72.57458914101674, 40.60571948645978], [-72.87871737976805, 40.55495307461343], [-73.71091578430789, 40.212311786084356], [-73.9105179039166, 39.52230710431371], [-74.36300066757377, 38.9949091096004], [-74.98706732346747, 38.44077377249811], [-75.4209056366589, 38.265949362877635], [-75.75683065006862, 38.303962782231864], [-76.278255699949, 38.585644200174535]], [[-75.23017996499685, 39.587296308279676], [-74.44674035571066, 40.03245342048623], [-73.3571838274226, 41.058918676464266], [-73.09168335969626, 41.469984436029854], [-73.03521312670247, 41.72868672891628], [-73.63661169840765, 42.242450328599894], [-74.45000684599947, 42.33621048848426], [-74.86901133118499, 42.030681326047954], [-75.94450394205043, 40.4231203785048], [-76.01704589063404, 40.03091704467118], [-75.93541004502826, 39.844025812941176], [-75.57845508850893, 39.58174767772023], [-75.23017996499685, 39.587296308279676]]]}}, {"type": "Feature", "properties": {"dn": 3, "PRODUCT": "Day 1 Excessive Rainfall Potential Forecast", "VALID_TIME": "16Z 07/28/26 - 12Z 07/29/26", "OUTLOOK": "Moderate (At Least 40%)", "ISSUE_TIME": "2026-07-28 15:56:00", "START_TIME": "2026-07-28 16:00:00", "END_TIME": "2026-07-29 12:00:00", "Snippet": "16Z 07/28/26 - 12Z 07/29/26"}, "geometry": {"type": "Polygon", "coordinates": [[[-75.57845508850893, 39.58174767772023], [-75.93541004502826, 39.844025812941176], [-76.01704589063404, 40.03091704467118], [-75.94450394205043, 40.4231203785048], [-74.86901133118499, 42.030681326047954], [-74.45000684599947, 42.33621048848426], [-73.63661169840765, 42.242450328599894], [-73.03521312670247, 41.72868672891628], [-73.09168335969626, 41.469984436029854], [-73.3571838274226, 41.058918676464266], [-74.44674035571066, 40.03245342048623], [-75.23017996499685, 39.587296308279676], [-75.57845508850893, 39.58174767772023]]]}}]}