{"type": "FeatureCollection", "features": [{"type": "Feature", "properties": {"dn": 1, "PRODUCT": "Day 2 Excessive Rainfall Potential Forecast", "VALID_TIME": "12Z 07/29/26 - 12Z 07/30/26", "OUTLOOK": "Marginal (At Least 5%)", "ISSUE_TIME": "2026-07-28 08:12:00", "START_TIME": "2026-07-29 12:00:00", "END_TIME": "2026-07-30 12:00:00", "Snippet": "12Z 07/29/26 - 12Z 07/30/26"}, "geometry": {"type": "Polygon", "coordinates": [[[-85.17437984791225, 29.29915663257841], [-85.68460892611208, 29.46759498758081], [-85.72344750313837, 29.653424985947463], [-85.96634164550724, 29.894930583775515], [-86.47697752494051, 30.10603567532834], [-87.4366374211962, 29.927434162649472], [-88.22842140352417, 29.872590064527582], [-88.41358421265923, 30.33699764736142], [-88.43815816260451, 30.83875910398685], [-88.36199417699866, 31.24493752525533], [-88.01098937889171, 31.775234334118018], [-87.4535258791617, 32.114055650125145], [-86.9035198943583, 32.31415458503744], [-85.37245453924996, 32.63810850198289], [-82.55975675383088, 32.71752766191098], [-80.25576991020579, 32.977620538580325], [-79.01726862397777, 32.90394897475249], [-80.49445341643577, 31.950699855526654], [-80.80478819113524, 31.613784504858923], [-81.13101592915555, 30.68382020482289], [-80.9970781692306, 30.03171991136292], [-80.79077488638313, 29.55528439662159], [-80.84943017095408, 29.513931969718485], [-82.03514070145957, 29.251340243780547], [-83.30132192605788, 29.169131603542105], [-83.50923166598811, 29.18469465745956], [-83.88245127110501, 29.66895422242978], [-84.08710279402948, 29.729113279407834], [-84.4813360692646, 29.436485842805258], [-84.91399175906047, 29.282449750682755], [-85.17437984791225, 29.29915663257841]]]}}, {"type": "Feature", "properties": {"dn": 1, "PRODUCT": "Day 2 Excessive Rainfall Potential Forecast", "VALID_TIME": "12Z 07/29/26 - 12Z 07/30/26", "OUTLOOK": "Marginal (At Least 5%)", "ISSUE_TIME": "2026-07-28 08:12:00", "START_TIME": "2026-07-29 12:00:00", "END_TIME": "2026-07-30 12:00:00", "Snippet": "12Z 07/29/26 - 12Z 07/30/26"}, "geometry": {"type": "Polygon", "coordinates": [[[-110.73956450880605, 31.14696319042524], [-111.01666687522015, 31.21144764563229], [-110.85842502492189, 32.004167165197735], [-110.94626638541882, 32.63412388729026], [-111.73854899657749, 33.60140059067655], [-111.82589505952262, 33.81984236044749], [-111.87986836475994, 34.17794952799588], [-111.78475926831881, 35.004578734104754], [-111.48208901673824, 35.93984933464351], [-110.88726872530631, 37.21341610072726], [-110.78845540408837, 38.07463700892897], [-110.63562410795049, 38.580392572863616], [-110.45538571976036, 38.908918359398086], [-110.00198072237481, 39.35023768580811], [-109.04398955490373, 39.91792546148386], [-107.61543687090987, 40.51202922468903], [-107.08211442439607, 40.90074590882521], [-106.5550852966111, 41.90114517839113], [-106.20907012330575, 43.01321718641024], [-105.9891910243364, 44.238688966840876], [-105.78342463096854, 44.55205652372294], [-105.45019248083912, 44.82940428193582], [-105.04684021463767, 45.02264962117632], [-104.27920759845064, 45.23263575843793], [-103.42873633302345, 45.229026395284926], [-102.87375916011842, 45.124226271181115], [-101.93480626111784, 44.73126255982003], [-101.19801146815102, 43.594408321272795], [-101.1143093284933, 43.207802349058824], [-101.30725996528828, 42.50674349052071], [-101.29498342437172, 41.37228705957263], [-100.62335597876555, 39.76771062586987], [-100.53558144712005, 39.19575903902374], [-100.63536324371346, 38.9267688919166], [-101.58665709433154, 37.73733970622734], [-102.90370605675521, 36.47337292561843], [-103.32735737559481, 36.1838228787978], [-104.07629331837951, 35.830488295266704], [-105.15018780505272, 35.45355970702129], [-105.77875321160455, 35.09839672107378], [-106.54831993106308, 34.54958205766108], [-106.94443337612469, 34.16020961297795], [-107.2700003337791, 33.637659573804086], [-107.38743907781861, 33.22038825502992], [-107.49320077652457, 32.212161747832326], [-107.42944975799668, 31.625112375780176], [-107.96578444528456, 31.62688053767055], [-108.06062585381395, 31.52882876890281], [-108.07866176117668, 31.20713454245347], [-108.97623571561925, 31.13024758539512], [-110.73956450880605, 31.14696319042524]], [[-104.52691904594052, 37.82159757080539], [-103.87462137361244, 38.12402919284758], [-103.46189206211857, 38.634577266044246], [-103.06946266815406, 39.45143895495286], [-103.07366481788168, 40.24634664403664], [-103.20965522510193, 40.50445669245238], [-103.58183388167835, 40.79537773100516], [-104.1216110104004, 40.98845619241345], [-104.64274583064152, 40.96118402155806], [-104.75487893902506, 40.91071396830032], [-104.84952545968679, 40.685550863637744], [-104.90019251894695, 39.40186559542378], [-105.23971809216548, 38.182338105249265], [-105.20994417085046, 37.87195349802935], [-105.0324248002294, 37.79273726893693], [-104.52691904594052, 37.82159757080539]]]}}, {"type": "Feature", "properties": {"dn": 1, "PRODUCT": "Day 2 Excessive Rainfall Potential Forecast", "VALID_TIME": "12Z 07/29/26 - 12Z 07/30/26", "OUTLOOK": "Marginal (At Least 5%)", "ISSUE_TIME": "2026-07-28 08:12:00", "START_TIME": "2026-07-29 12:00:00", "END_TIME": "2026-07-30 12:00:00", "Snippet": "12Z 07/29/26 - 12Z 07/30/26"}, "geometry": {"type": "MultiPolygon", "coordinates": [[[[-71.02922283131235, 40.937482386212295], [-72.80244941169983, 40.366731580764885], [-73.27656039288556, 40.33664329169611], [-75.72346990981168, 41.59381474698996], [-75.97271534443705, 41.841643415065896], [-76.15831607199026, 42.73976591660909], [-75.92583017536217, 43.633675169560775], [-75.70654594469747, 43.82891621915617], [-74.96744604764437, 44.18720160817962], [-73.48288434110673, 44.588193622720325], [-72.22553530796417, 44.7448664038665], [-71.31744715634392, 45.197949496933646], [-70.98728700197233, 45.28669590358226], [-70.14163222576282, 45.22160606414358], [-69.29477816931282, 44.93482055216727], [-68.6535506042393, 44.58452994064989], [-67.8525550733421, 43.94308343525315], [-68.19409450383115, 43.81603555294271], [-68.3697914904479, 43.84134327804543], [-68.8602961015326, 43.603499387071416], [-69.38446726864781, 43.457021573511], [-69.80947329224814, 43.258907446423024], [-69.70909621660263, 43.370736864934706], [-70.42582677992844, 44.125408300996696], [-70.87627563393178, 44.27143544931721], [-71.63006584808973, 43.92988145130484], [-72.26966754462104, 43.52831898399755], [-73.40339648022416, 43.3137686092144], [-73.74387956180566, 43.13380495197968], [-74.11878502368926, 42.78198310342971], [-74.40138069200786, 42.28652060064421], [-74.33872309147212, 42.015044478500855], [-74.04477284662818, 41.715894618558096], [-73.51358372460527, 41.43200679416163], [-72.72739822410104, 41.247254948733605], [-71.46627049408309, 41.08532647369058], [-70.98991987010808, 40.93596627697189], [-71.02922283131235, 40.937482386212295]]], [[[-69.9775637217937, 40.89691470263725], [-70.9320468613497, 40.93373382932265], [-70.36988557871831, 40.9815287987522], [-69.97046407349346, 40.925654692482], [-69.74971928466906, 41.014367276602655], [-69.9775637217937, 40.89691470263725]]], [[[-69.52500632946855, 41.13020558858757], [-69.63825617189505, 41.071825907863165], [-69.5477466127224, 41.42909228234078], [-69.52500632946855, 41.13020558858757]]], [[[-69.44305336651598, 41.91936207217273], [-69.46678664522271, 41.82628057217167], [-69.5102490831243, 41.992512607444766], [-69.44305336651598, 41.91936207217273]]], [[[-69.81708007095752, 42.32653465722633], [-69.63141128340844, 42.12441208337695], [-69.85562155169015, 42.331886966300026], [-70.13168530189334, 42.89993323399071], [-70.06783663770639, 42.97106659728963], [-69.81708007095752, 42.32653465722633]]]]}}, {"type": "Feature", "properties": {"dn": 2, "PRODUCT": "Day 2 Excessive Rainfall Potential Forecast", "VALID_TIME": "12Z 07/29/26 - 12Z 07/30/26", "OUTLOOK": "Slight (At Least 15%)", "ISSUE_TIME": "2026-07-28 08:12:00", "START_TIME": "2026-07-29 12:00:00", "END_TIME": "2026-07-30 12:00:00", "Snippet": "12Z 07/29/26 - 12Z 07/30/26"}, "geometry": {"type": "Polygon", "coordinates": [[[-105.0324248002294, 37.79273726893693], [-105.20994417085046, 37.87195349802935], [-105.23971809216548, 38.182338105249265], [-104.90019251894695, 39.40186559542378], [-104.84952545968679, 40.685550863637744], [-104.75487893902506, 40.91071396830032], [-104.64274583064152, 40.96118402155806], [-104.1216110104004, 40.98845619241345], [-103.58183388167835, 40.79537773100516], [-103.20965522510193, 40.50445669245238], [-103.07366481788168, 40.24634664403664], [-103.06946266815406, 39.45143895495286], [-103.46189206211857, 38.634577266044246], [-103.87462137361244, 38.12402919284758], [-104.52691904594052, 37.82159757080539], [-105.0324248002294, 37.79273726893693]]]}}, {"type": "Feature", "properties": {"dn": 2, "PRODUCT": "Day 2 Excessive Rainfall Potential Forecast", "VALID_TIME": "12Z 07/29/26 - 12Z 07/30/26", "OUTLOOK": "Slight (At Least 15%)", "ISSUE_TIME": "2026-07-28 08:12:00", "START_TIME": "2026-07-29 12:00:00", "END_TIME": "2026-07-30 12:00:00", "Snippet": "12Z 07/29/26 - 12Z 07/30/26"}, "geometry": {"type": "Polygon", "coordinates": [[[-70.97197372564723, 40.93033924609987], [-71.46627049408309, 41.08532647369058], [-72.72739822410104, 41.247254948733605], [-73.51358372460527, 41.43200679416163], [-74.04477284662818, 41.715894618558096], [-74.33872309147212, 42.015044478500855], [-74.40138069200786, 42.28652060064421], [-74.11878502368926, 42.78198310342971], [-73.74387956180566, 43.13380495197968], [-73.40339648022416, 43.3137686092144], [-72.26966754462104, 43.52831898399755], [-71.63006584808973, 43.92988145130484], [-70.87627563393178, 44.27143544931721], [-70.42582677992844, 44.125408300996696], [-69.70909621660263, 43.370736864934706], [-70.13168530189334, 42.89993323399071], [-69.85562155169015, 42.331886966300026], [-69.51707159961971, 42.01860688235145], [-69.45679993121551, 41.78808410010844], [-69.6418281258076, 41.05772641344726], [-69.97046407349346, 40.925654692482], [-70.36988557871831, 40.9815287987522], [-70.97197372564723, 40.93033924609987]]]}}]}