{"type": "FeatureCollection", "features": [{"type": "Feature", "properties": {"dn": 1, "PRODUCT": "Day 1 Excessive Rainfall Potential Forecast", "VALID_TIME": "16Z 09/08/26 - 12Z 09/09/26", "OUTLOOK": "Marginal (At Least 5%)", "ISSUE_TIME": "2026-09-08 15:52:00", "START_TIME": "2026-09-08 16:00:00", "END_TIME": "2026-09-09 12:00:00", "Snippet": "16Z 09/08/26 - 12Z 09/09/26"}, "geometry": {"type": "Polygon", "coordinates": [[[-83.26527655922753, 24.26400876516199], [-83.14535551376402, 24.988271877247925], [-82.38701590963649, 24.972866704434747], [-82.3238345877115, 25.104258088866843], [-82.59290722228265, 25.448019724918527], [-81.91407661823771, 25.619706401004528], [-82.1181065867413, 26.09627964729339], [-82.4489989551686, 26.353602289152548], [-82.69804041945062, 26.92440830933655], [-83.05644772549002, 27.45720815714832], [-83.0428546274088, 27.5936080096715], [-83.17876934092348, 27.78744444256655], [-83.12008427084714, 28.378261282360956], [-82.88938893935827, 28.59010111980196], [-81.9910562384121, 28.700020993411698], [-81.10706648442209, 28.66864414127391], [-80.297694783397, 28.455833281894403], [-80.27895736516328, 28.177831850492325], [-79.72225018624539, 26.83709996097543], [-79.83705590772036, 25.51566625853706], [-80.0492359105366, 25.03138136682195], [-80.17146254650426, 24.859740330306195], [-80.670873277322, 24.494230782657368], [-80.9859265476488, 24.386510904189212], [-81.70910591257864, 24.223517368340733], [-82.72013611643823, 24.173080021327728], [-83.26527655922753, 24.26400876516199]]]}}, {"type": "Feature", "properties": {"dn": 1, "PRODUCT": "Day 1 Excessive Rainfall Potential Forecast", "VALID_TIME": "16Z 09/08/26 - 12Z 09/09/26", "OUTLOOK": "Marginal (At Least 5%)", "ISSUE_TIME": "2026-09-08 15:52:00", "START_TIME": "2026-09-08 16:00:00", "END_TIME": "2026-09-09 12:00:00", "Snippet": "16Z 09/08/26 - 12Z 09/09/26"}, "geometry": {"type": "Polygon", "coordinates": [[[-110.95653789383776, 31.17089174187611], [-112.2424058188701, 31.53988405179294], [-112.03079292441451, 31.929525800239322], [-111.35367267585055, 32.456195647545314], [-111.08234429449878, 33.212844840275935], [-111.0606386870788, 33.44257821286814], [-111.15299689785715, 33.70630813519181], [-111.49470954447516, 34.171938409181216], [-111.56111626556915, 34.61918242784708], [-111.47811486470161, 34.809849157056675], [-111.32810769262909, 34.91546499924517], [-110.50459433140348, 34.94979677890282], [-109.91081995641146, 35.049845925556845], [-109.51613706547523, 35.40052109664822], [-109.18925797590106, 35.880963142796375], [-108.87602234919345, 36.04250792919474], [-108.54525478158038, 36.06964350622777], [-107.35633489403605, 36.38649328448241], [-106.12789684493652, 36.92089403254085], [-105.40067318818508, 37.50317965869881], [-104.87454494262666, 38.51531401944699], [-104.56724587248193, 38.88813291862804], [-104.08582172256128, 39.26967503823262], [-103.64454059559296, 39.46918297807328], [-102.23781353382464, 39.842183123647835], [-101.3229327374759, 39.921466578393954], [-100.58377094847933, 40.078658702780245], [-99.51024724602388, 40.54936304094519], [-96.81997663165558, 42.08468426827902], [-94.76381600365644, 43.049287533497434], [-93.62910574124389, 43.778210072947196], [-93.07925108438049, 44.418811053683115], [-92.12852553098365, 46.071879142613604], [-91.68576119079722, 46.48862213358658], [-90.73679612917596, 47.062338211798895], [-89.08597904830566, 47.73475576606054], [-87.49437333471985, 48.142383718678474], [-86.2234345431697, 47.67139051935856], [-86.23147762666946, 47.587739019800686], [-87.29127735872397, 46.83100021891721], [-87.97386031064735, 45.96651094798707], [-88.10010960438095, 45.07527670923597], [-87.67732442631545, 43.467241019158934], [-87.66618497218553, 42.81651512775938], [-88.00708340039634, 42.17699237282693], [-88.9939920730152, 41.42503415835703], [-90.13030310484469, 40.84568112913589], [-91.77647334911644, 40.13555463554075], [-92.70529496689453, 39.797420973948775], [-93.6841406206586, 39.54262981677875], [-94.4290433363666, 39.41410404343707], [-95.34383946039351, 39.41469602996604], [-96.54902284410662, 39.717309895467594], [-97.17969042157259, 39.71063803046866], [-98.25776411613153, 39.34057248892944], [-99.48944853928393, 38.737529965592515], [-100.0529019139033, 38.633313112796166], [-100.62464693557904, 38.70447740988182], [-101.0708860687972, 38.55625965615069], [-101.81997316498716, 37.861910580582226], [-101.94548515321105, 37.18758109800228], [-102.14552933740346, 36.82155727014243], [-102.84174271100197, 36.386616100834864], [-103.91439468377186, 35.88415089727351], [-104.5328495694213, 35.35595178804662], [-104.85723152844395, 34.660599385464444], [-105.2001676033766, 33.01032490534507], [-105.44091112091023, 32.676310029684956], [-107.3243100452428, 31.63239673115736], [-107.96578444528456, 31.62688053767055], [-108.06062585381395, 31.52882876890281], [-108.07866176117668, 31.20713454245347], [-108.97623571561925, 31.13024758539512], [-110.95653789383776, 31.17089174187611]], [[-95.00079853439529, 40.517168324783036], [-92.97329909265679, 40.7691827760441], [-92.04163157945739, 40.931725703466206], [-91.21997722732388, 41.17932233238465], [-90.74337536028465, 41.43181692320721], [-90.25683117689448, 41.856751242929256], [-90.17330248806827, 42.37758550293472], [-90.32947693833806, 42.816223626315335], [-90.73059325219947, 43.12984603694432], [-91.4341366424349, 43.361056685270626], [-92.14723675235875, 43.37333067196239], [-93.16255911309327, 43.126523113628856], [-94.29352566924328, 42.52704338284456], [-95.93348361497, 41.34829592683014], [-96.16150459325829, 40.9089388835446], [-96.10067449377284, 40.64600640747498], [-95.80977496361953, 40.5153298115058], [-95.00079853439529, 40.517168324783036]]]}}, {"type": "Feature", "properties": {"dn": 2, "PRODUCT": "Day 1 Excessive Rainfall Potential Forecast", "VALID_TIME": "16Z 09/08/26 - 12Z 09/09/26", "OUTLOOK": "Slight (At Least 15%)", "ISSUE_TIME": "2026-09-08 15:52:00", "START_TIME": "2026-09-08 16:00:00", "END_TIME": "2026-09-09 12:00:00", "Snippet": "16Z 09/08/26 - 12Z 09/09/26"}, "geometry": {"type": "Polygon", "coordinates": [[[-95.80977496361953, 40.5153298115058], [-96.10067449377284, 40.64600640747498], [-96.16150459325829, 40.9089388835446], [-95.93348361497, 41.34829592683014], [-94.29352566924328, 42.52704338284456], [-93.16255911309327, 43.126523113628856], [-92.14723675235875, 43.37333067196239], [-91.4341366424349, 43.361056685270626], [-90.73059325219947, 43.12984603694432], [-90.32947693833806, 42.816223626315335], [-90.17330248806827, 42.37758550293472], [-90.25683117689448, 41.856751242929256], [-90.74337536028465, 41.43181692320721], [-91.21997722732388, 41.17932233238465], [-92.04163157945739, 40.931725703466206], [-92.97329909265679, 40.7691827760441], [-95.00079853439529, 40.517168324783036], [-95.80977496361953, 40.5153298115058]]]}}]}