{
  "type": "FeatureCollection",
  "features": [
    {
      "type": "Feature",
      "properties": {
        "dn": 1,
        "PRODUCT": "Day 2 Excessive Rainfall Potential Forecast",
        "VALID_TIME": "12Z 09/09/26 - 12Z 09/10/26",
        "OUTLOOK": "Marginal (At Least 5%)",
        "ISSUE_TIME": "2026-09-08 08:14:00",
        "START_TIME": "2026-09-09 12:00:00",
        "END_TIME": "2026-09-10 12:00:00",
        "Snippet": "12Z 09/09/26 - 12Z 09/10/26",
        "risk_norm": "MARGINAL"
      },
      "geometry": {
        "type": "Polygon",
        "coordinates": [
          [
            [
              -108.97623571561925,
              31.13024758539512
            ],
            [
              -110.73956450880605,
              31.14696319042524
            ],
            [
              -111.28534598770817,
              31.228769081486856
            ],
            [
              -114.38768258073324,
              32.16099216884709
            ],
            [
              -114.850323126095,
              32.332944393135755
            ],
            [
              -115.05679202879364,
              32.581849836099614
            ],
            [
              -115.79180706434614,
              32.441952570601686
            ],
            [
              -116.22536971118372,
              32.43155314412273
            ],
            [
              -116.80088418217039,
              33.728352101422914
            ],
            [
              -117.25420730656602,
              34.07729755076113
            ],
            [
              -117.85601913172334,
              34.31464503907952
            ],
            [
              -117.90188925447625,
              34.53671903151418
            ],
            [
              -117.63364824631975,
              35.12173553932494
            ],
            [
              -117.62511856999653,
              35.35077439981362
            ],
            [
              -118.00525371298133,
              35.5705572591608
            ],
            [
              -118.29589876900823,
              35.62089924403921
            ],
            [
              -118.75460535722121,
              35.9209100125462
            ],
            [
              -119.17330329043965,
              37.04249731115853
            ],
            [
              -119.85164214151659,
              37.759786648240244
            ],
            [
              -120.49133134892453,
              38.75022639518664
            ],
            [
              -120.67552609452414,
              39.26376741305977
            ],
            [
              -120.55989625960413,
              39.50673347037701
            ],
            [
              -120.27872983168878,
              39.54787871614273
            ],
            [
              -120.01026876208894,
              39.40607712487389
            ],
            [
              -118.92505406864964,
              38.47967157549558
            ],
            [
              -118.08970148262125,
              37.556593245343116
            ],
            [
              -116.38344793922869,
              35.28904033576414
            ],
            [
              -115.60697128940812,
              34.70645961611817
            ],
            [
              -114.94712849344204,
              34.423985837018705
            ],
            [
              -114.54534954743188,
              34.335996700373606
            ],
            [
              -113.8505105124959,
              34.463243767843025
            ],
            [
              -112.90813234259166,
              35.11386696488267
            ],
            [
              -112.43185184166232,
              35.25555465551529
            ],
            [
              -111.39428793019101,
              35.36173475744341
            ],
            [
              -110.55485538439108,
              35.30708361767174
            ],
            [
              -108.36402974703164,
              35.49826980846985
            ],
            [
              -107.60577091020373,
              35.647713489029066
            ],
            [
              -106.44211295802084,
              36.181645591406
            ],
            [
              -106.08783853689587,
              36.518951720582635
            ],
            [
              -105.85502202544596,
              36.982526440165735
            ],
            [
              -105.6486941131705,
              37.175630866969165
            ],
            [
              -104.83142389947626,
              37.44845677311415
            ],
            [
              -103.86463979589139,
              37.32273731752259
            ],
            [
              -103.39965400054963,
              37.12281395642652
            ],
            [
              -103.158215418489,
              36.91002961044417
            ],
            [
              -102.83427499267978,
              36.29817811419571
            ],
            [
              -102.78010745765465,
              35.53725021236467
            ],
            [
              -103.01625365282,
              34.98585931255919
            ],
            [
              -103.96593351010789,
              33.80805073258011
            ],
            [
              -105.073599307698,
              32.79051912701665
            ],
            [
              -106.67820345651589,
              31.590117875959166
            ],
            [
              -107.96578444528456,
              31.62688053767055
            ],
            [
              -108.06062585381395,
              31.52882876890281
            ],
            [
              -108.07866176117668,
              31.20713454245347
            ],
            [
              -108.97623571561925,
              31.13024758539512
            ]
          ]
        ]
      }
    },
    {
      "type": "Feature",
      "properties": {
        "dn": 1,
        "PRODUCT": "Day 2 Excessive Rainfall Potential Forecast",
        "VALID_TIME": "12Z 09/09/26 - 12Z 09/10/26",
        "OUTLOOK": "Marginal (At Least 5%)",
        "ISSUE_TIME": "2026-09-08 08:14:00",
        "START_TIME": "2026-09-09 12:00:00",
        "END_TIME": "2026-09-10 12:00:00",
        "Snippet": "12Z 09/09/26 - 12Z 09/10/26",
        "risk_norm": "MARGINAL"
      },
      "geometry": {
        "type": "Polygon",
        "coordinates": [
          [
            [
              -96.39653201100667,
              36.8762367214301
            ],
            [
              -97.07781411716952,
              37.40577331188737
            ],
            [
              -97.25169458270128,
              37.67095609982247
            ],
            [
              -97.3165806138798,
              38.07061955840233
            ],
            [
              -96.98339750756969,
              38.43109513623065
            ],
            [
              -96.41995322031963,
              38.65847666017134
            ],
            [
              -93.45775588631722,
              39.36582664430806
            ],
            [
              -86.51020174095069,
              40.404106880261246
            ],
            [
              -81.69786194760857,
              41.34328931214524
            ],
            [
              -80.46909088995808,
              41.336219627768614
            ],
            [
              -79.9215110329019,
              41.06993757215475
            ],
            [
              -79.92825017174201,
              40.62910402127067
            ],
            [
              -80.13873596954039,
              40.38154390085019
            ],
            [
              -81.52934177592829,
              39.51754582810108
            ],
            [
              -82.38032881088492,
              39.13696301771865
            ],
            [
              -84.15400120302449,
              38.58973990176768
            ],
            [
              -87.2836996548185,
              37.77845373075962
            ],
            [
              -88.83550493946821,
              37.26144689478618
            ],
            [
              -89.46046543531949,
              37.10429556316415
            ],
            [
              -90.81122293491313,
              36.91960069778779
            ],
            [
              -93.71824888103637,
              36.74307452515508
            ],
            [
              -95.55840218925098,
              36.74700824427671
            ],
            [
              -96.39653201100667,
              36.8762367214301
            ]
          ],
          [
            [
              -90.2698623324185,
              37.798182836713536
            ],
            [
              -89.75474402244832,
              37.96131898341763
            ],
            [
              -89.28437568896821,
              38.30266635003013
            ],
            [
              -89.10250304921969,
              38.51872709418605
            ],
            [
              -89.03089025851925,
              38.78260458588597
            ],
            [
              -89.47645462952744,
              38.975115092919246
            ],
            [
              -90.32999552302277,
              39.00006852280327
            ],
            [
              -93.01069329545594,
              38.82977018158278
            ],
            [
              -94.43333927821328,
              38.618567457891096
            ],
            [
              -95.45360145381466,
              38.35262992741456
            ],
            [
              -96.24241448940583,
              37.992784982466155
            ],
            [
              -96.2413810553399,
              37.903824509975614
            ],
            [
              -96.12761845832127,
              37.85966773471794
            ],
            [
              -95.33841558048135,
              37.72950407368488
            ],
            [
              -90.2698623324185,
              37.798182836713536
            ]
          ]
        ]
      }
    },
    {
      "type": "Feature",
      "properties": {
        "dn": 1,
        "PRODUCT": "Day 2 Excessive Rainfall Potential Forecast",
        "VALID_TIME": "12Z 09/09/26 - 12Z 09/10/26",
        "OUTLOOK": "Marginal (At Least 5%)",
        "ISSUE_TIME": "2026-09-08 08:14:00",
        "START_TIME": "2026-09-09 12:00:00",
        "END_TIME": "2026-09-10 12:00:00",
        "Snippet": "12Z 09/09/26 - 12Z 09/10/26",
        "risk_norm": "MARGINAL"
      },
      "geometry": {
        "type": "Polygon",
        "coordinates": [
          [
            [
              -75.60536882706322,
              43.119227096375745
            ],
            [
              -76.22678419287001,
              43.31450349456536
            ],
            [
              -76.59157228957635,
              43.61357640834485
            ],
            [
              -76.77986104901535,
              43.893166468507594
            ],
            [
              -76.52916068956802,
              44.2594847389758
            ],
            [
              -75.62050702152317,
              44.86149209774918
            ],
            [
              -74.88210589198688,
              45.17468476094672
            ],
            [
              -71.75592308532418,
              45.16527476571578
            ],
            [
              -71.60681553461849,
              45.27615893875982
            ],
            [
              -71.56509177735084,
              45.444221266004
            ],
            [
              -71.05337252270442,
              45.51155953131959
            ],
            [
              -70.83223225334282,
              45.65598115258359
            ],
            [
              -70.57622010939406,
              45.92610409675092
            ],
            [
              -70.3380186864586,
              46.585985746738395
            ],
            [
              -70.20258096594299,
              45.921582346894986
            ],
            [
              -70.28008352826758,
              45.62888099867437
            ],
            [
              -71.0927083216937,
              44.864997860552464
            ],
            [
              -71.2991922831876,
              44.28131760808414
            ],
            [
              -71.47955621973058,
              44.042087030905016
            ],
            [
              -71.61941915865945,
              43.971385967800515
            ],
            [
              -72.33708069463356,
              44.01622946483921
            ],
            [
              -72.70083413836826,
              43.75432341342691
            ],
            [
              -72.87748485502003,
              43.77541281359697
            ],
            [
              -73.13469018081634,
              43.98126596186884
            ],
            [
              -73.26581433560341,
              44.47553063557321
            ],
            [
              -73.55218836656985,
              44.55091471790026
            ],
            [
              -73.69791857671653,
              44.43796649276475
            ],
            [
              -73.99295781455605,
              43.64352530738038
            ],
            [
              -74.23337925598946,
              43.364649460503394
            ],
            [
              -74.94278653004586,
              43.13587762208074
            ],
            [
              -75.60536882706322,
              43.119227096375745
            ]
          ]
        ]
      }
    },
    {
      "type": "Feature",
      "properties": {
        "dn": 2,
        "PRODUCT": "Day 2 Excessive Rainfall Potential Forecast",
        "VALID_TIME": "12Z 09/09/26 - 12Z 09/10/26",
        "OUTLOOK": "Slight (At Least 15%)",
        "ISSUE_TIME": "2026-09-08 08:14:00",
        "START_TIME": "2026-09-09 12:00:00",
        "END_TIME": "2026-09-10 12:00:00",
        "Snippet": "12Z 09/09/26 - 12Z 09/10/26",
        "risk_norm": "SLIGHT"
      },
      "geometry": {
        "type": "Polygon",
        "coordinates": [
          [
            [
              -95.33841558048135,
              37.72950407368488
            ],
            [
              -96.12761845832127,
              37.85966773471794
            ],
            [
              -96.2413810553399,
              37.903824509975614
            ],
            [
              -96.24241448940583,
              37.992784982466155
            ],
            [
              -95.45360145381466,
              38.35262992741456
            ],
            [
              -94.43333927821328,
              38.618567457891096
            ],
            [
              -93.01069329545594,
              38.82977018158278
            ],
            [
              -90.32999552302277,
              39.00006852280327
            ],
            [
              -89.47645462952744,
              38.975115092919246
            ],
            [
              -89.03089025851925,
              38.78260458588597
            ],
            [
              -89.10250304921969,
              38.51872709418605
            ],
            [
              -89.28437568896821,
              38.30266635003013
            ],
            [
              -89.75474402244832,
              37.96131898341763
            ],
            [
              -90.2698623324185,
              37.798182836713536
            ],
            [
              -95.33841558048135,
              37.72950407368488
            ]
          ]
        ]
      }
    }
  ]
}
