{"type": "FeatureCollection", "features": [{"type": "Feature", "properties": {"dn": 1, "PRODUCT": "Day 1 Excessive Rainfall Potential Forecast", "VALID_TIME": "16Z 09/19/26 - 12Z 09/20/26", "OUTLOOK": "Marginal (At Least 5%)", "ISSUE_TIME": "2026-09-19 15:58:00", "START_TIME": "2026-09-19 16:00:00", "END_TIME": "2026-09-20 12:00:00", "Snippet": "16Z 09/19/26 - 12Z 09/20/26"}, "geometry": {"type": "Polygon", "coordinates": [[[-82.03891435438963, 24.43630571852267], [-82.28392698061086, 24.503379538889604], [-82.4161413722934, 24.69909450706824], [-82.1219004791247, 25.087890173514158], [-81.49576824659202, 25.26118936066743], [-81.74307051927983, 25.78829533323033], [-81.70332493403006, 26.15199930050147], [-81.5819691624597, 26.324841475369226], [-80.88739920473944, 26.124534109362106], [-80.65936246573867, 26.33172369005502], [-80.46377271059231, 26.680475124526975], [-80.23727010834946, 26.843194125696773], [-80.03950817415767, 26.77782653753419], [-79.82453723615556, 26.433778651901715], [-79.8982473900858, 25.84364651647009], [-80.3106936007345, 24.96546273251295], [-80.58901052594159, 24.761985662016446], [-81.17013059391265, 24.54157467960467], [-82.03891435438963, 24.43630571852267]]]}}, {"type": "Feature", "properties": {"dn": 1, "PRODUCT": "Day 1 Excessive Rainfall Potential Forecast", "VALID_TIME": "16Z 09/19/26 - 12Z 09/20/26", "OUTLOOK": "Marginal (At Least 5%)", "ISSUE_TIME": "2026-09-19 15:58:00", "START_TIME": "2026-09-19 16:00:00", "END_TIME": "2026-09-20 12:00:00", "Snippet": "16Z 09/19/26 - 12Z 09/20/26"}, "geometry": {"type": "Polygon", "coordinates": [[[-103.43615605750442, 28.87863360121877], [-104.64208958358151, 29.585567873281928], [-104.87761417462117, 29.890359737728467], [-104.90828457938767, 30.253446935923108], [-105.028860756658, 30.4282232571379], [-105.59569367338989, 30.847013073980197], [-105.38048040771085, 31.40800213170628], [-105.43364465296006, 31.99607728997849], [-105.71428554564781, 32.704637719293366], [-106.07977734679415, 33.13381814729921], [-106.48709462862573, 33.422011951089935], [-107.26608169603881, 33.591703062004854], [-108.17650432648006, 33.92854724243382], [-108.65410945484638, 34.252757259474954], [-108.85017797099319, 34.50804938874477], [-108.96636179052786, 34.99594338106651], [-108.86422949175022, 35.501463881870144], [-107.88594637023948, 36.61635414531712], [-107.46271708830784, 36.827756732430366], [-106.86096899759404, 36.96075119450317], [-106.29952396709244, 36.954340407680796], [-105.720496613716, 36.76791248712652], [-105.46674508232023, 36.46896136803289], [-105.03925538918146, 35.46120081563306], [-104.16884611039941, 34.2940526284524], [-103.65580509673698, 34.00658181091904], [-101.90621686507053, 33.90919447996699], [-101.3985154073114, 33.612643016919975], [-101.27766635815868, 33.3912397193166], [-101.25022984395355, 32.89438360072293], [-101.66557635676527, 31.698249024103944], [-101.91970106388925, 30.59588078342203], [-101.81126048734107, 29.64384392745977], [-102.33806625490003, 29.664618481651512], [-102.49208393197327, 29.611684267347027], [-102.67353584704607, 29.193135991427127], [-102.96863089913445, 28.90342939769026], [-103.43615605750442, 28.87863360121877]]]}}, {"type": "Feature", "properties": {"dn": 1, "PRODUCT": "Day 1 Excessive Rainfall Potential Forecast", "VALID_TIME": "16Z 09/19/26 - 12Z 09/20/26", "OUTLOOK": "Marginal (At Least 5%)", "ISSUE_TIME": "2026-09-19 15:58:00", "START_TIME": "2026-09-19 16:00:00", "END_TIME": "2026-09-20 12:00:00", "Snippet": "16Z 09/19/26 - 12Z 09/20/26"}, "geometry": {"type": "Polygon", "coordinates": [[[-82.8676419319711, 41.99484361455043], [-82.74410778353783, 41.88469552548327], [-82.51084229197022, 41.868800715003324], [-82.14380289676224, 41.98890030942564], [-81.26070402531013, 42.406627481895526], [-80.35104918680098, 42.554652486825134], [-79.29413623777072, 42.86045349675876], [-77.73139401202563, 42.93893217954271], [-76.79295690553835, 42.84846349809298], [-76.28212379941695, 42.70950175615055], [-75.73940643739299, 42.43379832769192], [-75.50610772964869, 42.10029614297416], [-75.60654736280523, 41.582140263449034], [-76.09152978228859, 40.88231506013424], [-76.73760529953253, 40.550151057834285], [-78.30018410459341, 40.261041747719474], [-79.30161038417216, 39.77714870731282], [-79.96077487225722, 39.212674327613215], [-81.38209980079216, 37.54499146927781], [-82.12898926532881, 36.97483826230446], [-82.77138787723824, 36.75332716854496], [-83.49847234508081, 36.75957073835993], [-84.19006885082969, 37.118878710950995], [-85.65674502181024, 38.32146064376313], [-86.90524740006691, 39.05067539755256], [-88.35698107217286, 39.55456882080599], [-90.00352057888514, 39.87396427386116], [-91.3254324335914, 39.86230824410406], [-92.7111098062446, 39.532652920198316], [-93.28851892174517, 39.2298391096535], [-95.05719299969218, 37.99637240904813], [-95.78793463935119, 37.63851680641199], [-96.57112851556826, 37.36570951632675], [-97.46525104041861, 37.22129590620741], [-99.92809978498617, 37.16778679406068], [-100.77181137280203, 37.23056203507466], [-101.73677372918284, 37.4183622300324], [-102.5429556212919, 37.696992076443074], [-103.3039178867394, 38.0629897952895], [-103.84521073463904, 38.43757784870903], [-104.10170333751233, 38.77990003281679], [-104.54583647547747, 39.908216318742774], [-104.60277497996263, 40.522861340490806], [-104.47018257234548, 40.969944605814675], [-104.50679546394244, 41.36311352647569], [-104.98214171487737, 42.03796851330368], [-105.55279411211973, 42.44155908648994], [-106.29625114999745, 42.74597510061795], [-107.15695617809772, 42.99595161287505], [-107.69313081406038, 43.00342255706724], [-108.3764370213096, 43.21630698594153], [-111.63578825881214, 44.81911551019689], [-112.01821086055882, 45.259268763045164], [-112.30663993819763, 45.83466399621713], [-112.38659501290688, 46.596705858029594], [-112.02017288907406, 46.96988728070925], [-110.90602514559511, 47.35901392282516], [-110.06417993654378, 47.55106100809384], [-107.79353177382913, 47.83499071114833], [-105.90816810929215, 48.280832062307034], [-104.65450674042924, 48.30240642078617], [-104.07949255944037, 48.20351341870789], [-102.85288934986436, 47.79429334002998], [-102.51647225015392, 47.51250418914409], [-102.65686777331943, 46.95969676387388], [-102.66614718622986, 46.324663750469746], [-102.52663732941842, 44.58001920019434], [-102.22848365513212, 43.816617039121795], [-100.13785186908521, 40.39954083405081], [-99.66168632635936, 40.06125691052812], [-98.9648806240794, 39.901898820432656], [-98.1047815125976, 39.96318997103875], [-97.19178182005876, 40.28512437490758], [-96.56541619735992, 40.730356371540644], [-95.29502986825617, 41.961897121083524], [-94.05488803477769, 42.830305074224015], [-92.19435132668934, 43.80623403596388], [-90.86497262377158, 44.16937041525885], [-89.66255334910825, 44.22528531387373], [-87.75275736112225, 44.07552691867552], [-86.27441390650729, 43.84020882143283], [-83.12906578057827, 43.103231548248054], [-82.19594359045725, 42.95398407880908], [-82.30364670049526, 42.5683173966887], [-82.78255244671996, 42.21561280330875], [-83.32376296171009, 42.46199621815432], [-87.60933672536697, 43.59473616826816], [-88.97037754460864, 43.77307318511807], [-90.58112791097108, 43.81789851205217], [-91.24436274316531, 43.659769961320585], [-92.45111873710061, 43.11812204490798], [-93.76523013002341, 42.35034461229553], [-94.41580852351872, 41.87398189501957], [-94.53373062380474, 41.69975597605276], [-94.59359039840027, 41.3502511924369], [-94.47909319487708, 40.9557911299806], [-94.07546895076747, 40.60264439385985], [-93.84513209839392, 40.51342884023694], [-92.6916016099428, 40.414296609098216], [-90.07656166807925, 40.75683484165472], [-89.03755615885964, 40.68126829890295], [-86.60365815475768, 39.966182123273875], [-85.2325004481042, 39.2315812907981], [-84.48891299701998, 38.655326202175985], [-83.99353334689405, 38.49102409346081], [-82.91590399898978, 38.46354870229528], [-82.27411851555979, 38.59570517727892], [-81.61394097143472, 38.85770840203552], [-80.65684269558564, 39.582357963862755], [-80.3164546098144, 39.953535791915414], [-80.14562224261313, 40.33787523602132], [-80.27386542711716, 40.658040291852245], [-81.16450023142285, 41.39058225476659], [-82.14813126294489, 41.9458516031785], [-82.51443412302065, 41.83984216713583], [-82.74763326788556, 41.855735059443475], [-82.90657182900024, 41.99743752651846], [-82.88563602531953, 42.171009755549086], [-82.8146440872656, 42.19197794588894], [-82.84663945746513, 42.16841398967161], [-82.8676419319711, 41.99484361455043]], [[-103.13195438615668, 42.43456503828742], [-102.84768752696193, 42.577966042493415], [-102.63542394161354, 42.89116185247789], [-102.61623406624355, 43.41221166912377], [-102.90222373286073, 44.00522364809004], [-103.51855336915085, 44.8815896867331], [-103.77744587943246, 45.725035238685095], [-104.49593338532061, 46.7955597383481], [-105.15246921954628, 47.14368605755035], [-106.75167198188802, 47.51961983054799], [-108.78402191782212, 47.34759361237544], [-109.86582257170613, 47.1005252476167], [-110.44480433237547, 46.84417611389996], [-110.83452085130698, 46.216796908355484], [-110.68883305786585, 45.715623417303725], [-110.40533734159975, 45.4813215558319], [-109.22163767667101, 44.92807763143432], [-106.4609542619083, 44.16705055525422], [-105.94504879527867, 43.85264528851658], [-105.01836599876135, 42.99460764016989], [-104.44893537556007, 42.632810532552256], [-103.59836246550118, 42.36971909490397], [-103.13195438615668, 42.43456503828742]]]}}, {"type": "Feature", "properties": {"dn": 2, "PRODUCT": "Day 1 Excessive Rainfall Potential Forecast", "VALID_TIME": "16Z 09/19/26 - 12Z 09/20/26", "OUTLOOK": "Slight (At Least 15%)", "ISSUE_TIME": "2026-09-19 15:58:00", "START_TIME": "2026-09-19 16:00:00", "END_TIME": "2026-09-20 12:00:00", "Snippet": "16Z 09/19/26 - 12Z 09/20/26"}, "geometry": {"type": "Polygon", "coordinates": [[[-84.48891299701998, 38.655326202175985], [-85.2325004481042, 39.2315812907981], [-86.60365815475768, 39.966182123273875], [-89.03755615885964, 40.68126829890295], [-90.07656166807925, 40.75683484165472], [-92.6916016099428, 40.414296609098216], [-93.84513209839392, 40.51342884023694], [-94.07546895076747, 40.60264439385985], [-94.47909319487708, 40.9557911299806], [-94.59359039840027, 41.3502511924369], [-94.53373062380474, 41.69975597605276], [-94.41580852351872, 41.87398189501957], [-93.76523013002341, 42.35034461229553], [-92.45111873710061, 43.11812204490798], [-91.24436274316531, 43.659769961320585], [-90.58112791097108, 43.81789851205217], [-88.97037754460864, 43.77307318511807], [-87.60933672536697, 43.59473616826816], [-83.32376296171009, 42.46199621815432], [-82.76369264559963, 42.207026971964694], [-82.88563602531953, 42.171009755549086], [-82.90657182900024, 41.99743752651846], [-82.74763326788556, 41.855735059443475], [-82.51443412302065, 41.83984216713583], [-82.14813126294489, 41.9458516031785], [-81.16450023142285, 41.39058225476659], [-80.27386542711716, 40.658040291852245], [-80.14562224261313, 40.33787523602132], [-80.3164546098144, 39.953535791915414], [-80.65684269558564, 39.582357963862755], [-81.61394097143472, 38.85770840203552], [-82.27411851555979, 38.59570517727892], [-82.91590399898978, 38.46354870229528], [-83.99353334689405, 38.49102409346081], [-84.48891299701998, 38.655326202175985]], [[-86.4014470577376, 41.01367608517494], [-85.92631347434114, 41.122024479533785], [-85.73223428116536, 41.33170417050932], [-85.68422659923877, 41.85474183788929], [-85.82381581816219, 42.2549004521095], [-86.20795934123137, 42.578934032183184], [-87.01476459733978, 42.8331111050955], [-88.95071570494196, 43.12345168140091], [-90.31576037047141, 43.11958453056691], [-91.0373734822552, 42.87631886877641], [-91.58170905293768, 42.53966507749655], [-92.00726094964209, 42.11193617457256], [-92.1320807438527, 41.85232668100769], [-92.08237061164174, 41.54582360361475], [-91.91239998520751, 41.36789354329735], [-91.73905209244204, 41.321083957275086], [-90.69310174281175, 41.25536161797047], [-90.2236687978393, 41.331115724695856], [-88.36198131585579, 41.272204422145], [-87.1004280202767, 41.001897890714794], [-86.4014470577376, 41.01367608517494]]]}}, {"type": "Feature", "properties": {"dn": 2, "PRODUCT": "Day 1 Excessive Rainfall Potential Forecast", "VALID_TIME": "16Z 09/19/26 - 12Z 09/20/26", "OUTLOOK": "Slight (At Least 15%)", "ISSUE_TIME": "2026-09-19 15:58:00", "START_TIME": "2026-09-19 16:00:00", "END_TIME": "2026-09-20 12:00:00", "Snippet": "16Z 09/19/26 - 12Z 09/20/26"}, "geometry": {"type": "Polygon", "coordinates": [[[-104.44893537556007, 42.632810532552256], [-105.01836599876135, 42.99460764016989], [-105.94504879527867, 43.85264528851658], [-106.4609542619083, 44.16705055525422], [-109.22163767667101, 44.92807763143432], [-110.40533734159975, 45.4813215558319], [-110.68883305786585, 45.715623417303725], [-110.83452085130698, 46.216796908355484], [-110.44480433237547, 46.84417611389996], [-109.86582257170613, 47.1005252476167], [-108.78402191782212, 47.34759361237544], [-106.75167198188802, 47.51961983054799], [-105.15246921954628, 47.14368605755035], [-104.49593338532061, 46.7955597383481], [-103.77744587943246, 45.725035238685095], [-103.51855336915085, 44.8815896867331], [-102.90222373286073, 44.00522364809004], [-102.61623406624355, 43.41221166912377], [-102.63542394161354, 42.89116185247789], [-102.84768752696193, 42.577966042493415], [-103.13195438615668, 42.43456503828742], [-103.59836246550118, 42.36971909490397], [-104.44893537556007, 42.632810532552256]], [[-105.68758365646133, 45.32966544421938], [-105.27338811567866, 45.43774063419424], [-105.04892074850574, 45.620591552301875], [-105.10785909504996, 46.17135163532176], [-105.32352689877587, 46.45740339143925], [-106.30790793782668, 46.95426325298588], [-106.94440141908255, 47.086060453425276], [-107.99025420618779, 47.020347836306975], [-109.16716933992842, 46.60018493812608], [-109.385871451844, 46.41400947168128], [-109.27325087056465, 46.0813942274337], [-108.91249631412158, 45.723003212032744], [-108.5972798004931, 45.65988409963029], [-107.4344728735322, 45.652642824541466], [-106.2316281895522, 45.29867030408622], [-105.68758365646133, 45.32966544421938]]]}}, {"type": "Feature", "properties": {"dn": 3, "PRODUCT": "Day 1 Excessive Rainfall Potential Forecast", "VALID_TIME": "16Z 09/19/26 - 12Z 09/20/26", "OUTLOOK": "Moderate (At Least 40%)", "ISSUE_TIME": "2026-09-19 15:58:00", "START_TIME": "2026-09-19 16:00:00", "END_TIME": "2026-09-20 12:00:00", "Snippet": "16Z 09/19/26 - 12Z 09/20/26"}, "geometry": {"type": "Polygon", "coordinates": [[[-87.1004280202767, 41.001897890714794], [-88.36198131585579, 41.272204422145], [-90.2236687978393, 41.331115724695856], [-90.69310174281175, 41.25536161797047], [-91.73905209244204, 41.321083957275086], [-91.91239998520751, 41.36789354329735], [-92.08237061164174, 41.54582360361475], [-92.1320807438527, 41.85232668100769], [-92.00726094964209, 42.11193617457256], [-91.58170905293768, 42.53966507749655], [-91.0373734822552, 42.87631886877641], [-90.31576037047141, 43.11958453056691], [-88.95071570494196, 43.12345168140091], [-87.01476459733978, 42.8331111050955], [-86.20795934123137, 42.578934032183184], [-85.82381581816219, 42.2549004521095], [-85.68422659923877, 41.85474183788929], [-85.73223428116536, 41.33170417050932], [-85.92631347434114, 41.122024479533785], [-86.4014470577376, 41.01367608517494], [-87.1004280202767, 41.001897890714794]]]}}, {"type": "Feature", "properties": {"dn": 3, "PRODUCT": "Day 1 Excessive Rainfall Potential Forecast", "VALID_TIME": "16Z 09/19/26 - 12Z 09/20/26", "OUTLOOK": "Moderate (At Least 40%)", "ISSUE_TIME": "2026-09-19 15:58:00", "START_TIME": "2026-09-19 16:00:00", "END_TIME": "2026-09-20 12:00:00", "Snippet": "16Z 09/19/26 - 12Z 09/20/26"}, "geometry": {"type": "Polygon", "coordinates": [[[-106.2316281895522, 45.29867030408622], [-107.4344728735322, 45.652642824541466], [-108.5972798004931, 45.65988409963029], [-108.91249631412158, 45.723003212032744], [-109.27325087056465, 46.0813942274337], [-109.385871451844, 46.41400947168128], [-109.16716933992842, 46.60018493812608], [-107.99025420618779, 47.020347836306975], [-106.94440141908255, 47.086060453425276], [-106.30790793782668, 46.95426325298588], [-105.32352689877587, 46.45740339143925], [-105.10785909504996, 46.17135163532176], [-105.04892074850574, 45.620591552301875], [-105.27338811567866, 45.43774063419424], [-105.68758365646133, 45.32966544421938], [-106.2316281895522, 45.29867030408622]]]}}]}