{
  "type": "FeatureCollection",
  "features": [
    {
      "type": "Feature",
      "properties": {
        "dn": 1,
        "PRODUCT": "Day 2 Excessive Rainfall Potential Forecast",
        "VALID_TIME": "12Z 09/20/26 - 12Z 09/21/26",
        "OUTLOOK": "Marginal (At Least 5%)",
        "ISSUE_TIME": "2026-09-19 08:10:00",
        "START_TIME": "2026-09-20 12:00:00",
        "END_TIME": "2026-09-21 12:00:00",
        "Snippet": "12Z 09/20/26 - 12Z 09/21/26",
        "risk_norm": "MARGINAL"
      },
      "geometry": {
        "type": "Polygon",
        "coordinates": [
          [
            [
              -82.23395908992899,
              24.499093837061707
            ],
            [
              -82.37076715806401,
              24.649363426232533
            ],
            [
              -82.28307191608747,
              25.00901058873419
            ],
            [
              -81.49968507243626,
              25.21654621684609
            ],
            [
              -81.2641441636923,
              25.51560999892447
            ],
            [
              -81.15704126974987,
              26.010903418025524
            ],
            [
              -80.6033023510701,
              26.372313072943065
            ],
            [
              -80.24838575173797,
              26.752402829899747
            ],
            [
              -79.94920562442438,
              26.676965219773578
            ],
            [
              -79.82453723615556,
              26.433778651901715
            ],
            [
              -79.89260270424931,
              25.889046564417168
            ],
            [
              -80.12182828961265,
              25.268470495238066
            ],
            [
              -80.36620869442352,
              24.924970670563827
            ],
            [
              -80.6443422419553,
              24.721390778850942
            ],
            [
              -81.12018769458517,
              24.536915561548454
            ],
            [
              -81.63461948787743,
              24.446359089387887
            ],
            [
              -82.23395908992899,
              24.499093837061707
            ]
          ]
        ]
      }
    },
    {
      "type": "Feature",
      "properties": {
        "dn": 1,
        "PRODUCT": "Day 2 Excessive Rainfall Potential Forecast",
        "VALID_TIME": "12Z 09/20/26 - 12Z 09/21/26",
        "OUTLOOK": "Marginal (At Least 5%)",
        "ISSUE_TIME": "2026-09-19 08:10:00",
        "START_TIME": "2026-09-20 12:00:00",
        "END_TIME": "2026-09-21 12:00:00",
        "Snippet": "12Z 09/20/26 - 12Z 09/21/26",
        "risk_norm": "MARGINAL"
      },
      "geometry": {
        "type": "Polygon",
        "coordinates": [
          [
            [
              -104.75781402954834,
              29.71531876159247
            ],
            [
              -104.87761417462117,
              29.890359737728467
            ],
            [
              -104.96465722721396,
              30.2954869933918
            ],
            [
              -104.98015690734317,
              30.47692987300744
            ],
            [
              -104.84914100790142,
              30.80428718231709
            ],
            [
              -104.36894122380454,
              31.42547170748342
            ],
            [
              -102.965793869253,
              32.72898784339508
            ],
            [
              -101.3556663490675,
              33.79602151053608
            ],
            [
              -99.78246020349893,
              35.110921169677
            ],
            [
              -99.20913942657968,
              35.93497648821524
            ],
            [
              -99.05807834516749,
              36.34208213335685
            ],
            [
              -98.96979369689872,
              36.97044653486135
            ],
            [
              -99.09500402296528,
              37.324665170278145
            ],
            [
              -99.60954664932193,
              37.57823940438098
            ],
            [
              -100.33950156174498,
              37.55700001204204
            ],
            [
              -101.44853315282786,
              37.29557977913919
            ],
            [
              -103.12359041971456,
              37.17916198298846
            ],
            [
              -103.85717086117302,
              37.23193595647365
            ],
            [
              -104.20388014622576,
              37.34764329561728
            ],
            [
              -104.44835688290334,
              37.55856331713317
            ],
            [
              -104.71678651234687,
              38.03438753830733
            ],
            [
              -104.87163932954759,
              39.09309449220933
            ],
            [
              -104.34637916153461,
              40.88853630435947
            ],
            [
              -104.39054682489255,
              41.369203842269144
            ],
            [
              -104.60203522596838,
              41.7523421368862
            ],
            [
              -105.5816208428882,
              42.702211912899486
            ],
            [
              -106.86513932762446,
              43.53593705400457
            ],
            [
              -107.92951267188965,
              43.898517614250714
            ],
            [
              -109.21209548488258,
              44.4543957669627
            ],
            [
              -109.80358532410544,
              44.75500796337594
            ],
            [
              -110.09016944558286,
              45.033899745842156
            ],
            [
              -110.15088511237124,
              45.415733748935516
            ],
            [
              -109.92925762938283,
              45.94674903542019
            ],
            [
              -109.72620992404575,
              46.21829253964985
            ],
            [
              -108.8929370278032,
              46.83262629316626
            ],
            [
              -107.8234019433331,
              47.158735918402925
            ],
            [
              -106.84833427554072,
              47.303596394113576
            ],
            [
              -105.67004539631608,
              47.32792543277703
            ],
            [
              -104.97658689438232,
              47.23735459627357
            ],
            [
              -103.881848778895,
              46.824935573475116
            ],
            [
              -102.33816577773395,
              46.040887371608164
            ],
            [
              -98.49000744666587,
              44.526094690984074
            ],
            [
              -95.9542387487131,
              43.609098805078744
            ],
            [
              -93.93292759845014,
              43.17626606363108
            ],
            [
              -90.62543449997094,
              42.824335845509204
            ],
            [
              -86.3694425321777,
              42.76128983000589
            ],
            [
              -85.38854470957249,
              42.49503686235509
            ],
            [
              -83.30785431023014,
              41.58654192272747
            ],
            [
              -82.22529451237598,
              41.337536946980066
            ],
            [
              -80.02521028028885,
              41.16766282433846
            ],
            [
              -77.56554080681227,
              41.16582352501198
            ],
            [
              -76.6121930396059,
              41.247183730853166
            ],
            [
              -74.69790398524623,
              41.703645141575855
            ],
            [
              -74.03549413611906,
              41.760321344089014
            ],
            [
              -73.6311208167796,
              41.712823552768846
            ],
            [
              -72.98604126441812,
              41.41362263958455
            ],
            [
              -71.96420061307707,
              40.70594050669408
            ],
            [
              -72.80244941169983,
              40.366731580764885
            ],
            [
              -73.57954567388487,
              40.28460982894157
            ],
            [
              -73.71015709341064,
              40.21221992322814
            ],
            [
              -73.85341372196022,
              39.51538921313792
            ],
            [
              -74.08594874156381,
              39.229467240483736
            ],
            [
              -75.78103553743182,
              39.4249753349797
            ],
            [
              -76.6617688630781,
              39.34138505699224
            ],
            [
              -77.08834551234735,
              39.2073352024125
            ],
            [
              -77.79639615821051,
              38.74407503422028
            ],
            [
              -78.14872250827425,
              38.33167112687915
            ],
            [
              -78.76056913938889,
              37.31482145579479
            ],
            [
              -79.22193683901708,
              36.86400959482965
            ],
            [
              -79.90787179543761,
              36.38592812602328
            ],
            [
              -80.31867856079032,
              36.24225297686848
            ],
            [
              -81.14692116156729,
              36.3127794480204
            ],
            [
              -82.21620124185243,
              36.71216551280335
            ],
            [
              -83.75800482634392,
              37.49360269884431
            ],
            [
              -84.33844018224107,
              37.88819539462818
            ],
            [
              -85.59637217592427,
              38.36269426094241
            ],
            [
              -88.2283334516014,
              38.88539275139394
            ],
            [
              -88.6261079685814,
              38.90041417485392
            ],
            [
              -89.20184788898489,
              38.78750433318119
            ],
            [
              -90.48749414473889,
              37.98167042116082
            ],
            [
              -93.10181214100878,
              36.91603788659433
            ],
            [
              -94.27947463603743,
              36.03114443816509
            ],
            [
              -95.49201340833359,
              34.6393311983154
            ],
            [
              -96.66785783417545,
              32.780469966631806
            ],
            [
              -97.98192059483063,
              31.536538229761558
            ],
            [
              -98.87128401762386,
              31.063103905879263
            ],
            [
              -100.6039595989317,
              30.69280516504445
            ],
            [
              -101.06963041081987,
              30.49349763666531
            ],
            [
              -101.67236951456283,
              29.968915859427067
            ],
            [
              -101.91686645689273,
              29.63828105544926
            ],
            [
              -102.0241837393526,
              29.679077841975136
            ],
            [
              -102.49208393197327,
              29.611684267347027
            ],
            [
              -102.67353584704607,
              29.193135991427127
            ],
            [
              -102.96863089913445,
              28.90342939769026
            ],
            [
              -103.43615605750442,
              28.87863360121877
            ],
            [
              -104.14267331873411,
              29.249555816492244
            ],
            [
              -104.75781402954834,
              29.71531876159247
            ]
          ],
          [
            [
              -80.29505631221608,
              38.88456546090318
            ],
            [
              -79.97397012516345,
              39.12478758023246
            ],
            [
              -79.8160265130509,
              39.42256248024038
            ],
            [
              -79.86595292144088,
              39.871034068892016
            ],
            [
              -80.07583831954832,
              40.0224239256057
            ],
            [
              -80.80131999657401,
              40.21511197823933
            ],
            [
              -81.96140151285027,
              40.657598077506435
            ],
            [
              -84.69143880783055,
              41.23169607434298
            ],
            [
              -87.85084740658617,
              41.90955425783655
            ],
            [
              -89.02130475672023,
              41.95174655336009
            ],
            [
              -89.7285774981352,
              41.88630273800729
            ],
            [
              -90.67636697189113,
              41.64928675662186
            ],
            [
              -90.91937191664216,
              41.435875361882765
            ],
            [
              -90.9316223444186,
              41.12966026343387
            ],
            [
              -90.82258227622405,
              40.95178646859525
            ],
            [
              -90.4297401187119,
              40.63442238630198
            ],
            [
              -89.35080838516683,
              40.25151372829383
            ],
            [
              -87.02221538683966,
              39.76474969910959
            ],
            [
              -84.42697658732511,
              39.27339406645159
            ],
            [
              -83.74415985828318,
              39.230734158819985
            ],
            [
              -81.96998231317025,
              38.75124872595018
            ],
            [
              -81.12220522187377,
              38.68539067125548
            ],
            [
              -80.29505631221608,
              38.88456546090318
            ]
          ],
          [
            [
              -101.36450677464123,
              42.46082258726129
            ],
            [
              -100.95777124308573,
              42.56146108904159
            ],
            [
              -100.72904957870136,
              42.699551335817056
            ],
            [
              -100.62085849980588,
              42.876565366494304
            ],
            [
              -100.6454904761505,
              43.3092167145041
            ],
            [
              -100.85432976292817,
              43.8213408261526
            ],
            [
              -101.04457695313722,
              43.98823281841128
            ],
            [
              -102.08513399104102,
              44.296538827951814
            ],
            [
              -103.14672110170804,
              44.769570901216554
            ],
            [
              -104.06942192005002,
              44.94242943458023
            ],
            [
              -104.61176692864822,
              44.91593312292496
            ],
            [
              -104.77997709910707,
              44.77821612632281
            ],
            [
              -104.87393477865632,
              44.51549972293764
            ],
            [
              -104.83468769528041,
              44.129891251269264
            ],
            [
              -104.61296295370536,
              43.709514566290096
            ],
            [
              -104.1400895520983,
              43.12686350603631
            ],
            [
              -103.50303712464971,
              42.63543114323342
            ],
            [
              -102.89680980768523,
              42.444835413526874
            ],
            [
              -102.41993257676009,
              42.37764106116272
            ],
            [
              -101.36450677464123,
              42.46082258726129
            ]
          ]
        ]
      }
    },
    {
      "type": "Feature",
      "properties": {
        "dn": 2,
        "PRODUCT": "Day 2 Excessive Rainfall Potential Forecast",
        "VALID_TIME": "12Z 09/20/26 - 12Z 09/21/26",
        "OUTLOOK": "Slight (At Least 15%)",
        "ISSUE_TIME": "2026-09-19 08:10:00",
        "START_TIME": "2026-09-20 12:00:00",
        "END_TIME": "2026-09-21 12:00:00",
        "Snippet": "12Z 09/20/26 - 12Z 09/21/26",
        "risk_norm": "SLIGHT"
      },
      "geometry": {
        "type": "Polygon",
        "coordinates": [
          [
            [
              -81.96998231317025,
              38.75124872595018
            ],
            [
              -83.74415985828318,
              39.230734158819985
            ],
            [
              -84.42697658732511,
              39.27339406645159
            ],
            [
              -87.02221538683966,
              39.76474969910959
            ],
            [
              -89.35080838516683,
              40.25151372829383
            ],
            [
              -90.4297401187119,
              40.63442238630198
            ],
            [
              -90.82258227622405,
              40.95178646859525
            ],
            [
              -90.9316223444186,
              41.12966026343387
            ],
            [
              -90.91937191664216,
              41.435875361882765
            ],
            [
              -90.67636697189113,
              41.64928675662186
            ],
            [
              -89.7285774981352,
              41.88630273800729
            ],
            [
              -89.02130475672023,
              41.95174655336009
            ],
            [
              -87.85084740658617,
              41.90955425783655
            ],
            [
              -84.69143880783055,
              41.23169607434298
            ],
            [
              -81.96140151285027,
              40.657598077506435
            ],
            [
              -80.80131999657401,
              40.21511197823933
            ],
            [
              -80.07583831954832,
              40.0224239256057
            ],
            [
              -79.86595292144088,
              39.871034068892016
            ],
            [
              -79.8160265130509,
              39.42256248024038
            ],
            [
              -79.97397012516345,
              39.12478758023246
            ],
            [
              -80.29505631221608,
              38.88456546090318
            ],
            [
              -81.12220522187377,
              38.68539067125548
            ],
            [
              -81.96998231317025,
              38.75124872595018
            ]
          ]
        ]
      }
    },
    {
      "type": "Feature",
      "properties": {
        "dn": 2,
        "PRODUCT": "Day 2 Excessive Rainfall Potential Forecast",
        "VALID_TIME": "12Z 09/20/26 - 12Z 09/21/26",
        "OUTLOOK": "Slight (At Least 15%)",
        "ISSUE_TIME": "2026-09-19 08:10:00",
        "START_TIME": "2026-09-20 12:00:00",
        "END_TIME": "2026-09-21 12:00:00",
        "Snippet": "12Z 09/20/26 - 12Z 09/21/26",
        "risk_norm": "SLIGHT"
      },
      "geometry": {
        "type": "Polygon",
        "coordinates": [
          [
            [
              -102.41993257676009,
              42.37764106116272
            ],
            [
              -102.89680980768523,
              42.444835413526874
            ],
            [
              -103.50303712464971,
              42.63543114323342
            ],
            [
              -104.1400895520983,
              43.12686350603631
            ],
            [
              -104.61296295370536,
              43.709514566290096
            ],
            [
              -104.83468769528041,
              44.129891251269264
            ],
            [
              -104.87393477865632,
              44.51549972293764
            ],
            [
              -104.77997709910707,
              44.77821612632281
            ],
            [
              -104.61176692864822,
              44.91593312292496
            ],
            [
              -104.06942192005002,
              44.94242943458023
            ],
            [
              -103.14672110170804,
              44.769570901216554
            ],
            [
              -102.08513399104102,
              44.296538827951814
            ],
            [
              -101.04457695313722,
              43.98823281841128
            ],
            [
              -100.85432976292817,
              43.8213408261526
            ],
            [
              -100.6454904761505,
              43.3092167145041
            ],
            [
              -100.62085849980588,
              42.876565366494304
            ],
            [
              -100.72904957870136,
              42.699551335817056
            ],
            [
              -100.95777124308573,
              42.56146108904159
            ],
            [
              -101.36450677464123,
              42.46082258726129
            ],
            [
              -102.41993257676009,
              42.37764106116272
            ]
          ]
        ]
      }
    }
  ]
}
