{"type": "FeatureCollection", "features": [{"type": "Feature", "properties": {"dn": 1, "PRODUCT": "Day 1 Excessive Rainfall Potential Forecast", "VALID_TIME": "16Z 08/17/26 - 12Z 08/18/26", "OUTLOOK": "Marginal (At Least 5%)", "ISSUE_TIME": "2026-08-17 15:56:00", "START_TIME": "2026-08-17 16:00:00", "END_TIME": "2026-08-18 12:00:00", "Snippet": "16Z 08/17/26 - 12Z 08/18/26"}, "geometry": {"type": "Polygon", "coordinates": [[[-103.43615605750442, 28.87863360121877], [-104.64208958358151, 29.585567873281928], [-104.87761417462117, 29.890359737728467], [-104.90828457938767, 30.253446935923108], [-105.028860756658, 30.4282232571379], [-106.055277882567, 31.224775584563876], [-106.50210402882288, 31.421674705201944], [-106.57207952163469, 31.597888069269302], [-107.96578444528456, 31.62688053767055], [-108.06062585381395, 31.52882876890281], [-108.07866176117668, 31.20713454245347], [-108.97623571561925, 31.13024758539512], [-110.73956450880605, 31.14696319042524], [-111.28534598770817, 31.228769081486856], [-112.0694078245717, 31.466224537323132], [-111.27468707085848, 32.28172955629975], [-111.19384371593628, 32.472460991865894], [-111.15971018815011, 32.612737706728765], [-111.32930772785895, 33.4156654693443], [-111.13779840341998, 33.98053926057519], [-110.755166506596, 34.38206243429527], [-109.46235681780105, 34.9993143609663], [-107.20527007112202, 36.532323262154925], [-106.50325260202005, 36.76124751388183], [-105.18526980182887, 37.025009790372096], [-103.84635590421694, 37.100125796648506], [-103.27429178406291, 36.950043661737745], [-103.20045130249441, 36.72891706870358], [-103.24254656994478, 36.54766862445469], [-104.19951635213839, 35.329735024265226], [-104.99486795693628, 33.74814687602962], [-104.88143425087887, 33.07550227261358], [-104.45205791739053, 32.46604215274992], [-103.27711878981624, 30.348044558156264], [-103.23552006711465, 29.757534086589757], [-103.43615605750442, 28.87863360121877]]]}}, {"type": "Feature", "properties": {"dn": 1, "PRODUCT": "Day 1 Excessive Rainfall Potential Forecast", "VALID_TIME": "16Z 08/17/26 - 12Z 08/18/26", "OUTLOOK": "Marginal (At Least 5%)", "ISSUE_TIME": "2026-08-17 15:56:00", "START_TIME": "2026-08-17 16:00:00", "END_TIME": "2026-08-18 12:00:00", "Snippet": "16Z 08/17/26 - 12Z 08/18/26"}, "geometry": {"type": "Polygon", "coordinates": [[[-85.27986190871555, 34.351737098399774], [-85.90022007598688, 34.79353908426898], [-86.15312460329937, 35.078676242431484], [-86.29286763812313, 35.40130930288082], [-86.21291838422866, 35.71200161347301], [-85.22391122198458, 36.86909026013916], [-84.89147610498416, 37.43135373280676], [-84.85791064753357, 37.78672336789865], [-84.96806204882292, 38.41724665167514], [-85.49924876759837, 40.08732886668213], [-85.4628323592795, 40.482330745191135], [-85.32286857749654, 40.738991471206774], [-84.88283597961656, 41.067327046365676], [-84.28534136439126, 41.20840385999128], [-83.47381970806342, 41.15819366762468], [-82.11767824137658, 40.80168620829743], [-81.31057832347858, 40.74159428493276], [-80.94699467198035, 40.84566739002305], [-79.87075842604875, 41.41892592130282], [-79.50331007303818, 41.51969424928281], [-78.93076693658735, 41.425508945256176], [-78.56695749357107, 41.127198909982276], [-78.47983442744649, 40.94257350226266], [-78.60587175759116, 40.15753047252303], [-79.1539993059368, 39.230206152005024], [-79.19384853678906, 38.9664884475115], [-79.10741094136715, 38.78016596338927], [-78.95253245998428, 38.6774821748937], [-78.5648857753542, 38.59636506791169], [-76.80983335745304, 38.82280516236289], [-76.24672234196551, 38.76263282184728], [-76.04445215425629, 38.60532346088457], [-75.73969158866285, 38.07804833291507], [-75.67606012187662, 37.801231160352614], [-75.7874996186874, 37.4989159739544], [-76.04250176242643, 37.34661445878256], [-76.58049665697581, 37.18083599429046], [-79.54494330664409, 36.57805727629636], [-81.58868306841514, 35.898463863195914], [-82.58612188407412, 35.434931222399065], [-84.02013092480017, 34.362581933733935], [-84.42223608499206, 34.162960927566004], [-84.75225707236714, 34.13875375209312], [-85.27986190871555, 34.351737098399774]], [[-83.61541031167197, 35.64428612411077], [-82.58549692949273, 35.931001537983676], [-81.99744500138794, 36.20137616642012], [-81.4334323098598, 36.69680104097731], [-80.06200138664727, 38.90966388790605], [-80.02443249747444, 39.57385844535537], [-80.2147107390091, 39.856332177135144], [-80.52716231352727, 40.10432750664152], [-81.18495091949498, 40.3781424648379], [-82.26573162630082, 40.54725383113132], [-82.90932462526025, 40.50391320209196], [-83.26967611829903, 40.39567492345402], [-83.64918635194114, 40.110795927919824], [-83.61597723854122, 39.88757442907475], [-83.2230357786186, 39.2855808748509], [-83.01929400772016, 38.56028968244823], [-83.00790924293085, 38.1583054769813], [-83.23554956210135, 37.63813167962431], [-83.69335317551004, 37.04259021938922], [-84.67900671631858, 36.11873479195448], [-84.70845040107362, 35.805844859223726], [-84.39021929154323, 35.65044558885129], [-83.61541031167197, 35.64428612411077]]]}}, {"type": "Feature", "properties": {"dn": 1, "PRODUCT": "Day 1 Excessive Rainfall Potential Forecast", "VALID_TIME": "16Z 08/17/26 - 12Z 08/18/26", "OUTLOOK": "Marginal (At Least 5%)", "ISSUE_TIME": "2026-08-17 15:56:00", "START_TIME": "2026-08-17 16:00:00", "END_TIME": "2026-08-18 12:00:00", "Snippet": "16Z 08/17/26 - 12Z 08/18/26"}, "geometry": {"type": "Polygon", "coordinates": [[[-98.62797589017184, 40.127739204401216], [-99.37968585845586, 40.198857382540524], [-99.84848973421234, 40.36277693607089], [-100.27347239058655, 40.747297245704], [-100.29155801900592, 41.0978355432539], [-99.9145329490065, 41.721192825292924], [-99.63121309033586, 41.947783157547235], [-98.93509595149472, 42.13851652344466], [-98.70514878060102, 42.2739756833412], [-98.31211640311469, 42.80217326771756], [-97.75727543760901, 44.10759587848609], [-97.84354286906684, 45.00720635124704], [-97.7336352864182, 45.39316932103068], [-97.31695859279392, 45.78273849667037], [-96.64880782988432, 45.917054511626056], [-95.67226398660257, 45.92287001164746], [-94.87898409931513, 45.753985240477625], [-94.39225598858854, 45.45419283871735], [-93.55750077798291, 44.42304808995245], [-93.44216845472953, 44.12130158115654], [-93.45038738368518, 43.60425438221571], [-93.57268848614575, 43.389253368294746], [-94.23225888149248, 42.82939184998424], [-94.8829844240897, 42.483600683346545], [-95.64406041350121, 41.917394523867735], [-96.44977534797289, 40.90684058214005], [-97.07821819355594, 40.37271436131209], [-97.59304323637937, 40.189927507178886], [-98.62797589017184, 40.127739204401216]]]}}, {"type": "Feature", "properties": {"dn": 2, "PRODUCT": "Day 1 Excessive Rainfall Potential Forecast", "VALID_TIME": "16Z 08/17/26 - 12Z 08/18/26", "OUTLOOK": "Slight (At Least 15%)", "ISSUE_TIME": "2026-08-17 15:56:00", "START_TIME": "2026-08-17 16:00:00", "END_TIME": "2026-08-18 12:00:00", "Snippet": "16Z 08/17/26 - 12Z 08/18/26"}, "geometry": {"type": "Polygon", "coordinates": [[[-84.39021929154323, 35.65044558885129], [-84.70845040107362, 35.805844859223726], [-84.67900671631858, 36.11873479195448], [-83.69335317551004, 37.04259021938922], [-83.23554956210135, 37.63813167962431], [-83.00790924293085, 38.1583054769813], [-83.01929400772016, 38.56028968244823], [-83.2230357786186, 39.2855808748509], [-83.61597723854122, 39.88757442907475], [-83.64918635194114, 40.110795927919824], [-83.26967611829903, 40.39567492345402], [-82.90932462526025, 40.50391320209196], [-82.26573162630082, 40.54725383113132], [-81.18495091949498, 40.3781424648379], [-80.52716231352727, 40.10432750664152], [-80.2147107390091, 39.856332177135144], [-80.02443249747444, 39.57385844535537], [-80.06200138664727, 38.90966388790605], [-81.4334323098598, 36.69680104097731], [-81.99744500138794, 36.20137616642012], [-82.58549692949273, 35.931001537983676], [-83.61541031167197, 35.64428612411077], [-84.39021929154323, 35.65044558885129]]]}}]}