{
  "type": "FeatureCollection",
  "features": [
    {
      "type": "Feature",
      "properties": {
        "dn": 1,
        "PRODUCT": "Day 2 Excessive Rainfall Potential Forecast",
        "VALID_TIME": "12Z 08/18/26 - 12Z 08/19/26",
        "OUTLOOK": "Marginal (At Least 5%)",
        "ISSUE_TIME": "2026-08-17 08:05:00",
        "START_TIME": "2026-08-18 12:00:00",
        "END_TIME": "2026-08-19 12:00:00",
        "Snippet": "12Z 08/18/26 - 12Z 08/19/26",
        "risk_norm": "MARGINAL"
      },
      "geometry": {
        "type": "Polygon",
        "coordinates": [
          [
            [
              -92.36067033829984,
              37.530861937625055
            ],
            [
              -94.04336022468783,
              37.815756351646066
            ],
            [
              -96.41518743849102,
              38.301687772814404
            ],
            [
              -97.55610675382864,
              38.688040623786534
            ],
            [
              -98.14072291637765,
              39.2109068627358
            ],
            [
              -98.92855633258837,
              40.430338901776835
            ],
            [
              -99.18613738255105,
              41.08313067583735
            ],
            [
              -99.26799712680655,
              41.65016736643714
            ],
            [
              -99.1691663369035,
              42.08887492710596
            ],
            [
              -98.54999693708481,
              42.841145782876154
            ],
            [
              -98.02475071459303,
              43.11141340755599
            ],
            [
              -96.72427502900995,
              43.34437754870516
            ],
            [
              -89.9513815087682,
              43.28394339574722
            ],
            [
              -87.82562344358644,
              43.084051600799484
            ],
            [
              -87.35888389641207,
              42.97862296745334
            ],
            [
              -85.58124997200294,
              42.33068003790049
            ],
            [
              -84.89046171253862,
              42.16287226039774
            ],
            [
              -84.66857300877548,
              42.018494447594314
            ],
            [
              -84.56967053787228,
              41.83791283143135
            ],
            [
              -84.70798171855084,
              41.05650574184089
            ],
            [
              -85.20166516758886,
              40.15939664216522
            ],
            [
              -85.50623694501535,
              39.99850112732628
            ],
            [
              -85.73960946531928,
              39.96671844183719
            ],
            [
              -87.00194764442996,
              40.02835419814974
            ],
            [
              -87.35295993894529,
              39.95561529107484
            ],
            [
              -88.44921985984597,
              39.91139802565569
            ],
            [
              -89.32221455743819,
              39.72092672662083
            ],
            [
              -89.74213855719093,
              39.33708523828992
            ],
            [
              -89.76200721585379,
              38.93917117247697
            ],
            [
              -89.58229094527488,
              38.000925993328245
            ],
            [
              -89.6542362663951,
              37.69142770449035
            ],
            [
              -89.89085607730257,
              37.474853128936644
            ],
            [
              -90.11931210112476,
              37.39232407563949
            ],
            [
              -90.96206530798834,
              37.36974746209651
            ],
            [
              -92.36067033829984,
              37.530861937625055
            ]
          ],
          [
            [
              -91.93839230049238,
              38.547215591748824
            ],
            [
              -91.4790029450029,
              38.71595080051031
            ],
            [
              -90.8952309888094,
              39.10241021920923
            ],
            [
              -90.53460677846736,
              39.53589009705158
            ],
            [
              -90.39490977012183,
              40.10592442877417
            ],
            [
              -90.48503422154086,
              40.680204972375535
            ],
            [
              -90.91469164790341,
              41.523243595248246
            ],
            [
              -91.3124864291944,
              41.83799888535762
            ],
            [
              -91.65927717964958,
              41.97556836886759
            ],
            [
              -92.82773211462785,
              42.167522826121576
            ],
            [
              -95.70534248751831,
              42.13551255997318
            ],
            [
              -96.52526251716428,
              41.99978779381172
            ],
            [
              -97.04845650783382,
              41.77655470090422
            ],
            [
              -97.33645544803429,
              41.5542525111313
            ],
            [
              -97.61812124172019,
              41.15659828986954
            ],
            [
              -97.71922420668307,
              40.58476873745143
            ],
            [
              -97.47529933123243,
              40.06036810003284
            ],
            [
              -96.94601615961474,
              39.44931529615337
            ],
            [
              -96.36775634925951,
              39.01204840003121
            ],
            [
              -95.7965298599213,
              38.794117774807084
            ],
            [
              -95.17108873241501,
              38.662868704101804
            ],
            [
              -93.8101798885217,
              38.52580003882665
            ],
            [
              -91.93839230049238,
              38.547215591748824
            ]
          ]
        ]
      }
    },
    {
      "type": "Feature",
      "properties": {
        "dn": 2,
        "PRODUCT": "Day 2 Excessive Rainfall Potential Forecast",
        "VALID_TIME": "12Z 08/18/26 - 12Z 08/19/26",
        "OUTLOOK": "Slight (At Least 15%)",
        "ISSUE_TIME": "2026-08-17 08:05:00",
        "START_TIME": "2026-08-18 12:00:00",
        "END_TIME": "2026-08-19 12:00:00",
        "Snippet": "12Z 08/18/26 - 12Z 08/19/26",
        "risk_norm": "SLIGHT"
      },
      "geometry": {
        "type": "Polygon",
        "coordinates": [
          [
            [
              -93.8101798885217,
              38.52580003882665
            ],
            [
              -95.17108873241501,
              38.662868704101804
            ],
            [
              -95.7965298599213,
              38.794117774807084
            ],
            [
              -96.36775634925951,
              39.01204840003121
            ],
            [
              -96.94601615961474,
              39.44931529615337
            ],
            [
              -97.47529933123243,
              40.06036810003284
            ],
            [
              -97.71922420668307,
              40.58476873745143
            ],
            [
              -97.61812124172019,
              41.15659828986954
            ],
            [
              -97.33645544803429,
              41.5542525111313
            ],
            [
              -97.04845650783382,
              41.77655470090422
            ],
            [
              -96.52526251716428,
              41.99978779381172
            ],
            [
              -95.70534248751831,
              42.13551255997318
            ],
            [
              -92.82773211462785,
              42.167522826121576
            ],
            [
              -91.65927717964958,
              41.97556836886759
            ],
            [
              -91.3124864291944,
              41.83799888535762
            ],
            [
              -90.91469164790341,
              41.523243595248246
            ],
            [
              -90.48503422154086,
              40.680204972375535
            ],
            [
              -90.39490977012183,
              40.10592442877417
            ],
            [
              -90.53460677846736,
              39.53589009705158
            ],
            [
              -90.8952309888094,
              39.10241021920923
            ],
            [
              -91.4790029450029,
              38.71595080051031
            ],
            [
              -91.93839230049238,
              38.547215591748824
            ],
            [
              -93.8101798885217,
              38.52580003882665
            ]
          ]
        ]
      }
    }
  ]
}
