{
  "type": "FeatureCollection",
  "features": [
    {
      "type": "Feature",
      "properties": {
        "dn": 1,
        "PRODUCT": "Day 1 Excessive Rainfall Potential Forecast",
        "VALID_TIME": "12Z 09/24/26 - 12Z 09/25/26",
        "OUTLOOK": "Marginal (At Least 5%)",
        "ISSUE_TIME": "2026-09-24 08:08:00",
        "START_TIME": "2026-09-24 12:00:00",
        "END_TIME": "2026-09-25 12:00:00",
        "Snippet": "12Z 09/24/26 - 12Z 09/25/26",
        "risk_norm": "MARGINAL"
      },
      "geometry": {
        "type": "Polygon",
        "coordinates": [
          [
            [
              -106.0524527273449,
              31.19520214001641
            ],
            [
              -106.53672111250663,
              31.419156804310024
            ],
            [
              -106.56911306512949,
              31.56834619771564
            ],
            [
              -107.96246091385268,
              31.597367977657036
            ],
            [
              -108.07532152085008,
              31.177599435261552
            ],
            [
              -108.76163628034145,
              31.119273452230004
            ],
            [
              -109.0344798478074,
              31.170744275706063
            ],
            [
              -110.73956450880605,
              31.14696319042524
            ],
            [
              -111.28534598770817,
              31.228769081486856
            ],
            [
              -112.01781635944609,
              31.472700670468583
            ],
            [
              -112.08470762913831,
              31.922823518999813
            ],
            [
              -111.59291523028,
              32.61405406805001
            ],
            [
              -111.45113718863367,
              33.13008630652381
            ],
            [
              -111.65817313878293,
              33.427626657383506
            ],
            [
              -112.02780147463609,
              33.7077842266578
            ],
            [
              -113.09557959888748,
              34.22847282680328
            ],
            [
              -113.52678222105345,
              34.4993542498206
            ],
            [
              -113.73430399874209,
              34.74847483282425
            ],
            [
              -113.81885450114912,
              34.920533316781885
            ],
            [
              -113.89410591825767,
              35.68318584346777
            ],
            [
              -113.66883086264882,
              36.974109066333064
            ],
            [
              -113.20390435221374,
              37.565905277492
            ],
            [
              -112.73185973551129,
              37.795415099291226
            ],
            [
              -112.06150999275489,
              37.86373160017162
            ],
            [
              -111.02116402841311,
              37.74030996708216
            ],
            [
              -110.18226743440056,
              37.81695230535316
            ],
            [
              -109.37800887321036,
              38.15477769667881
            ],
            [
              -108.81250361680907,
              38.6019043211105
            ],
            [
              -108.03974156966765,
              39.728409755436886
            ],
            [
              -107.62459465550039,
              40.11373524486715
            ],
            [
              -106.71932512126959,
              40.79366501165965
            ],
            [
              -105.8902254369886,
              41.19785641917235
            ],
            [
              -105.47975990374128,
              41.17832814853718
            ],
            [
              -105.29695828786892,
              41.10104164009483
            ],
            [
              -104.84359332743958,
              40.64185101517734
            ],
            [
              -104.78931294024805,
              40.071594488604696
            ],
            [
              -104.98725299187969,
              39.130882904693166
            ],
            [
              -104.94961078392667,
              38.733365449323614
            ],
            [
              -104.81164202581921,
              38.4744011738587
            ],
            [
              -104.39750116345427,
              38.275773232588776
            ],
            [
              -103.99493907644275,
              38.20819634156659
            ],
            [
              -103.32137579415172,
              38.28654045889966
            ],
            [
              -102.99590490418362,
              38.47982767935741
            ],
            [
              -102.73347421916706,
              38.75740557385066
            ],
            [
              -101.86079100176953,
              40.209246556456726
            ],
            [
              -101.04775780527152,
              41.11871593797618
            ],
            [
              -100.30864841609113,
              41.448613404538506
            ],
            [
              -98.46105090547154,
              42.01736311388581
            ],
            [
              -98.06240873833475,
              42.37200714119956
            ],
            [
              -97.66675449957998,
              42.98606671262998
            ],
            [
              -96.78840291845597,
              43.60298895684339
            ],
            [
              -96.37193701072043,
              43.64966230364342
            ],
            [
              -95.47669860739461,
              43.43818350122886
            ],
            [
              -95.17769514686037,
              43.22165154981643
            ],
            [
              -95.05885828433985,
              43.005241753083006
            ],
            [
              -95.17615219015676,
              42.35398047327708
            ],
            [
              -96.09940818667543,
              40.68992564768127
            ],
            [
              -97.34163308781459,
              39.3118772529811
            ],
            [
              -97.5614315190242,
              38.954761237098886
            ],
            [
              -97.71960767215758,
              38.464597884087354
            ],
            [
              -97.78745912692298,
              36.725857582983856
            ],
            [
              -98.20044046453661,
              35.59834066052079
            ],
            [
              -98.7187346706063,
              34.598088633442806
            ],
            [
              -99.39662950814623,
              33.72329852854731
            ],
            [
              -99.92704514331665,
              33.43694949758777
            ],
            [
              -100.88859748809443,
              33.17870861401547
            ],
            [
              -101.76402575872437,
              32.46571406230366
            ],
            [
              -103.0950434730415,
              30.767502812605727
            ],
            [
              -103.65072586607239,
              29.689429529567086
            ],
            [
              -104.03850496613191,
              29.255659013777443
            ],
            [
              -104.14267331873411,
              29.249555816492244
            ],
            [
              -104.75781402954834,
              29.71531876159247
            ],
            [
              -105.028860756658,
              30.4282232571379
            ],
            [
              -105.14071785164579,
              30.512037933505663
            ],
            [
              -103.41164283909383,
              32.20620297229232
            ],
            [
              -102.1602817916457,
              33.62565996065167
            ],
            [
              -101.53660998937623,
              34.103706749966605
            ],
            [
              -99.88916551148293,
              35.06236532687413
            ],
            [
              -99.03985398943364,
              35.89429246637252
            ],
            [
              -98.67368518864221,
              36.52997986880771
            ],
            [
              -98.42504736657574,
              37.47323337795955
            ],
            [
              -98.55940036495662,
              38.13834949456204
            ],
            [
              -98.58479892661606,
              38.89240924305556
            ],
            [
              -98.32274222699165,
              39.60536969208789
            ],
            [
              -98.6218687947949,
              39.95291430903833
            ],
            [
              -99.42790934075744,
              39.978656882949196
            ],
            [
              -99.82595525769997,
              39.880030534210285
            ],
            [
              -101.0573844163795,
              39.311702618973456
            ],
            [
              -102.55611968484783,
              37.875630418976414
            ],
            [
              -103.05834770291634,
              37.04902185661922
            ],
            [
              -103.72264552243942,
              36.2543917767108
            ],
            [
              -104.44714443421998,
              35.63136171391007
            ],
            [
              -105.20112038059162,
              35.40675263786364
            ],
            [
              -106.29900959210019,
              35.33561655581523
            ],
            [
              -107.64876511974066,
              35.05745741467389
            ],
            [
              -108.39211367226508,
              34.81798562788366
            ],
            [
              -108.74091258577585,
              34.517242907285905
            ],
            [
              -108.91746991783928,
              33.731665353282494
            ],
            [
              -108.96774243239116,
              32.81850558493251
            ],
            [
              -108.86733402985962,
              31.551544373171474
            ],
            [
              -108.76578482329539,
              31.149654715768065
            ],
            [
              -108.07872992934661,
              31.207737299743084
            ],
            [
              -108.06133229003933,
              31.528770695221137
            ],
            [
              -107.96585227245663,
              31.627482834813662
            ],
            [
              -106.57214006156336,
              31.59849096460713
            ],
            [
              -106.50139755772729,
              31.421726090934403
            ],
            [
              -106.05533553879603,
              31.22537912424851
            ],
            [
              -105.146738781508,
              30.516549424599635
            ],
            [
              -106.0524527273449,
              31.19520214001641
            ]
          ]
        ]
      }
    },
    {
      "type": "Feature",
      "properties": {
        "dn": 2,
        "PRODUCT": "Day 1 Excessive Rainfall Potential Forecast",
        "VALID_TIME": "12Z 09/24/26 - 12Z 09/25/26",
        "OUTLOOK": "Slight (At Least 15%)",
        "ISSUE_TIME": "2026-09-24 08:08:00",
        "START_TIME": "2026-09-24 12:00:00",
        "END_TIME": "2026-09-25 12:00:00",
        "Snippet": "12Z 09/24/26 - 12Z 09/25/26",
        "risk_norm": "SLIGHT"
      },
      "geometry": {
        "type": "Polygon",
        "coordinates": [
          [
            [
              -105.14082334200606,
              30.51193457299267
            ],
            [
              -106.05533553879603,
              31.22537912424851
            ],
            [
              -106.50139755772729,
              31.421726090934403
            ],
            [
              -106.57214006156336,
              31.59849096460713
            ],
            [
              -107.96585227245663,
              31.627482834813662
            ],
            [
              -108.06133229003933,
              31.528770695221137
            ],
            [
              -108.07872992934661,
              31.207737299743084
            ],
            [
              -108.76578482329539,
              31.149654715768065
            ],
            [
              -108.86733402985962,
              31.551544373171474
            ],
            [
              -108.96774243239116,
              32.81850558493251
            ],
            [
              -108.91746991783928,
              33.731665353282494
            ],
            [
              -108.74091258577585,
              34.517242907285905
            ],
            [
              -108.39211367226508,
              34.81798562788366
            ],
            [
              -107.64876511974066,
              35.05745741467389
            ],
            [
              -106.29900959210019,
              35.33561655581523
            ],
            [
              -105.20112038059162,
              35.40675263786364
            ],
            [
              -104.44714443421998,
              35.63136171391007
            ],
            [
              -103.72264552243942,
              36.2543917767108
            ],
            [
              -103.05834770291634,
              37.04902185661922
            ],
            [
              -102.55611968484783,
              37.875630418976414
            ],
            [
              -101.0573844163795,
              39.311702618973456
            ],
            [
              -99.82595525769997,
              39.880030534210285
            ],
            [
              -99.42790934075744,
              39.978656882949196
            ],
            [
              -98.6218687947949,
              39.95291430903833
            ],
            [
              -98.32274222699165,
              39.60536969208789
            ],
            [
              -98.58479892661606,
              38.89240924305556
            ],
            [
              -98.55940036495662,
              38.13834949456204
            ],
            [
              -98.42504736657574,
              37.47323337795955
            ],
            [
              -98.67368518864221,
              36.52997986880771
            ],
            [
              -99.03985398943364,
              35.89429246637252
            ],
            [
              -99.88916551148293,
              35.06236532687413
            ],
            [
              -101.53660998937623,
              34.103706749966605
            ],
            [
              -102.1602817916457,
              33.62565996065167
            ],
            [
              -103.41164283909383,
              32.20620297229232
            ],
            [
              -105.14082334200606,
              30.51193457299267
            ]
          ]
        ]
      }
    }
  ]
}
