{"type": "FeatureCollection", "features": [{"type": "Feature", "properties": {"dn": 1, "PRODUCT": "Day 2 Excessive Rainfall Potential Forecast", "VALID_TIME": "12Z 09/25/26 - 12Z 09/26/26", "OUTLOOK": "Marginal (At Least 5%)", "ISSUE_TIME": "2026-09-24 08:08:00", "START_TIME": "2026-09-25 12:00:00", "END_TIME": "2026-09-26 12:00:00", "Snippet": "12Z 09/25/26 - 12Z 09/26/26"}, "geometry": {"type": "Polygon", "coordinates": [[[-104.21959171107241, 29.56460559812983], [-104.81766953924051, 29.80285646342429], [-104.90828457938767, 30.253446935923108], [-105.028860756658, 30.4282232571379], [-106.055277882567, 31.224775584563876], [-106.50210402882288, 31.421674705201944], [-106.57207952163469, 31.597888069269302], [-106.95398600498919, 31.661611235615762], [-107.27234855908213, 32.13825701164368], [-107.93016852957179, 33.677143340688126], [-108.31634349694014, 35.094867921695226], [-108.56865502258255, 36.696632897986696], [-108.45197628808042, 37.11000991528557], [-108.30586767191643, 37.3017744983852], [-108.14393617171814, 37.359183968580375], [-107.14356282564545, 37.47827225235901], [-104.4797998434045, 37.28958282447053], [-103.85366041548464, 37.18919436313252], [-103.38926900384969, 36.989135691863645], [-102.49025022979178, 36.94177603657541], [-101.8793784362687, 37.012384531197604], [-101.6615428967851, 37.11047228882931], [-101.23606833593993, 37.48291284541627], [-100.8283662787066, 38.25443694909382], [-100.13141925034168, 40.22363418870537], [-99.70876169117705, 41.0702019225989], [-98.03387237558708, 43.37003956663087], [-97.33278796459375, 43.94197925508752], [-96.85696206793017, 44.07642990918737], [-95.83875295995522, 44.04066758776797], [-94.58314884223726, 43.740495195988736], [-93.63391671279925, 43.34734652707197], [-93.33925795910845, 43.12775389887235], [-93.11118089618617, 42.64859429985951], [-93.01989665571473, 41.2960911644118], [-93.08797391848064, 40.770883203915425], [-93.44746074488428, 39.98274292084974], [-94.08831410505687, 39.0154700944073], [-95.16840218864766, 37.685673288451376], [-96.55458038575486, 36.29428010026798], [-98.18208502215141, 34.92357246665085], [-101.9849868411021, 31.684554842319088], [-102.85936149401697, 30.41508222171659], [-103.65170483242774, 29.688462801660123], [-103.90623140935895, 29.58285149618667], [-104.21959171107241, 29.56460559812983]]]}}, {"type": "Feature", "properties": {"dn": 1, "PRODUCT": "Day 2 Excessive Rainfall Potential Forecast", "VALID_TIME": "12Z 09/25/26 - 12Z 09/26/26", "OUTLOOK": "Marginal (At Least 5%)", "ISSUE_TIME": "2026-09-24 08:08:00", "START_TIME": "2026-09-25 12:00:00", "END_TIME": "2026-09-26 12:00:00", "Snippet": "12Z 09/25/26 - 12Z 09/26/26"}, "geometry": {"type": "Polygon", "coordinates": [[[-73.46568781412788, 40.27073256842668], [-73.5647898498057, 40.63980748543504], [-73.43645882210932, 41.24594372478838], [-72.92199356302336, 41.98010481470756], [-72.21653615081658, 42.4666133286081], [-71.41698945838306, 42.80658877971704], [-70.841053548249, 42.95170537642668], [-70.11024793354957, 42.986068468223394], [-69.85485072207551, 42.33177992011856], [-69.480651749618, 41.92469703007804], [-69.58985992783097, 41.49577382473789], [-69.51885318512674, 41.30758668441631], [-69.64106716384632, 41.057617687804694], [-69.97060606645945, 40.92507989268513], [-70.37002540716928, 40.980953857927666], [-71.02922283131235, 40.937482386212295], [-72.80244941169983, 40.366731580764885], [-73.46568781412788, 40.27073256842668]]]}}, {"type": "Feature", "properties": {"dn": 1, "PRODUCT": "Day 2 Excessive Rainfall Potential Forecast", "VALID_TIME": "12Z 09/25/26 - 12Z 09/26/26", "OUTLOOK": "Marginal (At Least 5%)", "ISSUE_TIME": "2026-09-24 08:08:00", "START_TIME": "2026-09-25 12:00:00", "END_TIME": "2026-09-26 12:00:00", "Snippet": "12Z 09/25/26 - 12Z 09/26/26"}, "geometry": {"type": "Polygon", "coordinates": [[[-70.04257389270921, 43.02005412692506], [-70.04119212039822, 43.020747447978735], [-70.04024460575286, 43.01973702348631], [-70.04257389270921, 43.02005412692506]]]}}]}