{"type": "FeatureCollection", "features": [{"type": "Feature", "properties": {"dn": 1, "PRODUCT": "Day 1 Excessive Rainfall Potential Forecast", "VALID_TIME": "16Z 09/22/26 - 12Z 09/23/26", "OUTLOOK": "Marginal (At Least 5%)", "ISSUE_TIME": "2026-09-22 15:50:00", "START_TIME": "2026-09-22 16:00:00", "END_TIME": "2026-09-23 12:00:00", "Snippet": "16Z 09/22/26 - 12Z 09/23/26"}, "geometry": {"type": "Polygon", "coordinates": [[[-82.9195666675606, 24.189469172157363], [-83.04361466973577, 24.47562538571994], [-83.02146761914254, 24.70317254812089], [-82.69263234946249, 24.952520904021807], [-82.33324890549201, 25.013279945310703], [-82.41491828702068, 25.203736136255223], [-82.3458359724285, 25.38145152708085], [-82.17465500468957, 25.551361557827562], [-81.91407661823771, 25.619706401004528], [-82.04115026786128, 25.860216333674284], [-81.92056477088613, 26.033346400425675], [-81.58085450806979, 26.325660449387648], [-80.8396598491894, 26.533386138005167], [-80.66699961654567, 26.69988071993575], [-80.63997740376675, 26.92693096370815], [-80.51632470993049, 27.098846723848908], [-79.95453283659205, 27.458490060090405], [-79.72225018624539, 26.83709996097543], [-79.7917199942816, 25.878856364606552], [-79.91545384251842, 25.293733558916493], [-80.17146254650426, 24.859740330306195], [-80.670873277322, 24.494230782657368], [-80.9859265476488, 24.386510904189212], [-81.70910591257864, 24.223517368340733], [-82.9195666675606, 24.189469172157363]]]}}, {"type": "Feature", "properties": {"dn": 1, "PRODUCT": "Day 1 Excessive Rainfall Potential Forecast", "VALID_TIME": "16Z 09/22/26 - 12Z 09/23/26", "OUTLOOK": "Marginal (At Least 5%)", "ISSUE_TIME": "2026-09-22 15:50:00", "START_TIME": "2026-09-22 16:00:00", "END_TIME": "2026-09-23 12:00:00", "Snippet": "16Z 09/22/26 - 12Z 09/23/26"}, "geometry": {"type": "Polygon", "coordinates": [[[-104.87761417462117, 29.890359737728467], [-104.90828457938767, 30.253446935923108], [-105.028860756658, 30.4282232571379], [-106.0524527273449, 31.19520214001641], [-106.53672111250663, 31.419156804310024], [-106.56911306512949, 31.56834619771564], [-107.96246091385268, 31.597367977657036], [-108.07532152085008, 31.177599435261552], [-109.50931757052109, 31.12780594303685], [-110.95653789383776, 31.17089174187611], [-112.2952059385548, 31.534120710624684], [-111.10555902517251, 33.75649113241715], [-110.8166876978894, 34.42058296143031], [-110.4607038593499, 35.81202636959607], [-110.40250059326299, 36.58378127601627], [-110.23741197032636, 37.00357990916432], [-109.54219135731073, 37.69350377083422], [-108.59101468450103, 38.218811898566], [-107.74678695494893, 38.283413507683086], [-106.53434142424952, 38.10128785235893], [-106.12187205131329, 37.95000774020048], [-105.5465348058577, 37.852464073737366], [-103.80370363263067, 37.950773472431685], [-103.05184099164809, 37.720196436825695], [-102.68806512350827, 37.37901240628969], [-102.52933953964249, 36.715380135346244], [-102.46793274661094, 35.82118667592645], [-101.88391026433797, 34.45098292507994], [-101.83982776948103, 33.73031862963749], [-101.94955915379842, 32.86577023567152], [-102.22628846941925, 32.12793647804528], [-102.57036866725913, 31.657785122016712], [-104.70067319197192, 29.672323400435804], [-104.87761417462117, 29.890359737728467]], [[-104.56079831464787, 31.186419002967146], [-104.33075369113318, 32.29150569424464], [-103.81097078064512, 33.906953627614314], [-103.57413025618287, 34.37139909066098], [-103.26936166814993, 35.42367687320721], [-103.34736064058467, 36.452858850611165], [-103.58403580653317, 36.62070333428844], [-103.92483252171733, 36.692639328607505], [-104.81426507124604, 36.64325548247387], [-105.41671132118113, 36.51738888393898], [-106.65361575594984, 36.076681146743944], [-107.76022204389687, 35.545314419975504], [-108.64865673088451, 34.66073053292457], [-109.16164610586026, 33.93746488256219], [-109.2780986292592, 33.56413042261122], [-109.32298795413453, 33.06021334963962], [-109.20447220899891, 32.11460638262224], [-108.6127457324314, 31.208571525936335], [-108.07872992934661, 31.207737299743084], [-108.06133229003933, 31.528770695221137], [-107.96585227245663, 31.627482834813662], [-106.57214006156336, 31.59849096460713], [-106.50139755772729, 31.421726090934403], [-106.05533553879603, 31.22537912424851], [-105.08428295616376, 30.46997306811749], [-104.56079831464787, 31.186419002967146]]]}}, {"type": "Feature", "properties": {"dn": 1, "PRODUCT": "Day 1 Excessive Rainfall Potential Forecast", "VALID_TIME": "16Z 09/22/26 - 12Z 09/23/26", "OUTLOOK": "Marginal (At Least 5%)", "ISSUE_TIME": "2026-09-22 15:50:00", "START_TIME": "2026-09-22 16:00:00", "END_TIME": "2026-09-23 12:00:00", "Snippet": "16Z 09/22/26 - 12Z 09/23/26"}, "geometry": {"type": "Polygon", "coordinates": [[[-83.8108329158413, 33.17074128631508], [-84.52701152738253, 33.62659276585758], [-85.2847805404406, 34.307748428702645], [-85.56953439933778, 34.820963702606825], [-85.53512076933006, 35.224718931112776], [-85.28419340326117, 35.57045040858185], [-83.48529090284724, 36.89410871008813], [-82.59452158732391, 37.816322617510515], [-82.45921594688961, 38.96573257060299], [-82.24958680928258, 39.74963532787949], [-81.86981397349454, 40.4738645731026], [-81.2529648853715, 40.73716205312151], [-80.09541894997088, 40.6882470159383], [-78.79213729890746, 40.08691769785361], [-77.3385356331233, 39.769254824628455], [-76.90657206038044, 39.59160800672872], [-76.35225623839045, 39.13081197373232], [-76.03653891032192, 38.64924048951754], [-75.89115539406686, 37.87042638862643], [-76.16551965916247, 36.63981317019125], [-76.48491030347587, 36.08798560214561], [-77.11073498152658, 35.34168380965211], [-77.4335027668115, 35.05904611158855], [-78.4140253124656, 34.4342400363309], [-80.5911590510103, 33.32446034833676], [-82.21844368803134, 32.870757947071276], [-83.18883335613438, 32.89943792109898], [-83.8108329158413, 33.17074128631508]], [[-81.18153621068592, 33.830412082929584], [-80.66678702225633, 34.012733954712594], [-79.34626691245012, 34.843744065987245], [-78.33418931313884, 35.33323925230637], [-77.34583366812655, 35.95532140778477], [-76.81062802903449, 36.48525713357256], [-76.41340465089509, 37.16345182933771], [-76.29789855134119, 37.82563268788639], [-76.47761112883455, 38.428920787889936], [-76.91919700734385, 38.52066294327503], [-77.46174318438278, 38.35294469563131], [-78.92196902248875, 37.37554900070961], [-79.26273062292279, 37.3625743749464], [-79.57106417337218, 37.569850471378714], [-79.65097196393114, 37.80115823275814], [-79.5420197301999, 38.551735391177296], [-79.77203047513964, 39.3297809307113], [-79.92383541322462, 39.4767934610412], [-80.32195252188026, 39.51064268048892], [-80.68150836327371, 39.40714653522147], [-80.99595186199659, 39.209945496173155], [-81.28070551255495, 38.787580711313055], [-81.63564120847545, 37.788810376661075], [-82.16642627409962, 36.66437252133322], [-82.42449195511999, 36.36932281876072], [-83.91806734599835, 35.39488461933001], [-83.7209033056287, 35.15569399176687], [-82.71575789714267, 34.76787446590374], [-82.12384267805858, 34.17955058379733], [-81.55985546593475, 33.862106481598076], [-81.18153621068592, 33.830412082929584]]]}}, {"type": "Feature", "properties": {"dn": 2, "PRODUCT": "Day 1 Excessive Rainfall Potential Forecast", "VALID_TIME": "16Z 09/22/26 - 12Z 09/23/26", "OUTLOOK": "Slight (At Least 15%)", "ISSUE_TIME": "2026-09-22 15:50:00", "START_TIME": "2026-09-22 16:00:00", "END_TIME": "2026-09-23 12:00:00", "Snippet": "16Z 09/22/26 - 12Z 09/23/26"}, "geometry": {"type": "Polygon", "coordinates": [[[-106.05533553879603, 31.22537912424851], [-106.50139755772729, 31.421726090934403], [-106.57214006156336, 31.59849096460713], [-107.96585227245663, 31.627482834813662], [-108.06133229003933, 31.528770695221137], [-108.07872992934661, 31.207737299743084], [-108.6127457324314, 31.208571525936335], [-109.20447220899891, 32.11460638262224], [-109.32298795413453, 33.06021334963962], [-109.2780986292592, 33.56413042261122], [-109.16164610586026, 33.93746488256219], [-108.64865673088451, 34.66073053292457], [-107.76022204389687, 35.545314419975504], [-106.65361575594984, 36.076681146743944], [-105.41671132118113, 36.51738888393898], [-104.81426507124604, 36.64325548247387], [-103.92483252171733, 36.692639328607505], [-103.58403580653317, 36.62070333428844], [-103.34736064058467, 36.452858850611165], [-103.26936166814993, 35.42367687320721], [-103.57413025618287, 34.37139909066098], [-103.81097078064512, 33.906953627614314], [-104.33075369113318, 32.29150569424464], [-104.56079831464787, 31.186419002967146], [-105.08428295616376, 30.46997306811749], [-106.05533553879603, 31.22537912424851]], [[-106.48404559179063, 31.78714464707849], [-105.79473369396051, 32.426516527939825], [-105.32557963446574, 32.59367410435424], [-105.12311482820225, 32.742933804272674], [-104.59720184346891, 34.1791270575431], [-104.6165150490546, 34.40392624046286], [-104.85833890178549, 34.660713772763586], [-105.08066484775028, 34.69238677890756], [-105.7465895972333, 34.19826736755344], [-106.22180358716261, 34.030586003086455], [-106.66014247452007, 34.045127230172845], [-107.18700465475139, 34.36878047165892], [-107.5130510137069, 34.34419287423606], [-107.72030589166836, 34.23749259269535], [-107.89323866062384, 33.3624415623696], [-107.81155056488738, 32.64196127941283], [-107.47479338190112, 32.03151460201408], [-107.17954928957754, 31.780953206950567], [-106.95760136073822, 31.706706279295393], [-106.48404559179063, 31.78714464707849]]]}}, {"type": "Feature", "properties": {"dn": 2, "PRODUCT": "Day 1 Excessive Rainfall Potential Forecast", "VALID_TIME": "16Z 09/22/26 - 12Z 09/23/26", "OUTLOOK": "Slight (At Least 15%)", "ISSUE_TIME": "2026-09-22 15:50:00", "START_TIME": "2026-09-22 16:00:00", "END_TIME": "2026-09-23 12:00:00", "Snippet": "16Z 09/22/26 - 12Z 09/23/26"}, "geometry": {"type": "Polygon", "coordinates": [[[-81.55985546593475, 33.862106481598076], [-82.12384267805858, 34.17955058379733], [-82.71575789714267, 34.76787446590374], [-83.7209033056287, 35.15569399176687], [-83.91806734599835, 35.39488461933001], [-82.42449195511999, 36.36932281876072], [-82.16642627409962, 36.66437252133322], [-81.63564120847545, 37.788810376661075], [-81.28070551255495, 38.787580711313055], [-80.99595186199659, 39.209945496173155], [-80.68150836327371, 39.40714653522147], [-80.32195252188026, 39.51064268048892], [-79.92383541322462, 39.4767934610412], [-79.77203047513964, 39.3297809307113], [-79.5420197301999, 38.551735391177296], [-79.65097196393114, 37.80115823275814], [-79.57106417337218, 37.569850471378714], [-79.26273062292279, 37.3625743749464], [-78.92196902248875, 37.37554900070961], [-77.46174318438278, 38.35294469563131], [-76.91919700734385, 38.52066294327503], [-76.47761112883455, 38.428920787889936], [-76.29789855134119, 37.82563268788639], [-76.41340465089509, 37.16345182933771], [-76.81062802903449, 36.48525713357256], [-77.34583366812655, 35.95532140778477], [-78.33418931313884, 35.33323925230637], [-79.34626691245012, 34.843744065987245], [-80.66678702225633, 34.012733954712594], [-81.18153621068592, 33.830412082929584], [-81.55985546593475, 33.862106481598076]]]}}, {"type": "Feature", "properties": {"dn": 3, "PRODUCT": "Day 1 Excessive Rainfall Potential Forecast", "VALID_TIME": "16Z 09/22/26 - 12Z 09/23/26", "OUTLOOK": "Moderate (At Least 40%)", "ISSUE_TIME": "2026-09-22 15:50:00", "START_TIME": "2026-09-22 16:00:00", "END_TIME": "2026-09-23 12:00:00", "Snippet": "16Z 09/22/26 - 12Z 09/23/26"}, "geometry": {"type": "Polygon", "coordinates": [[[-106.95760136073822, 31.706706279295393], [-107.17954928957754, 31.780953206950567], [-107.47479338190112, 32.03151460201408], [-107.81155056488738, 32.64196127941283], [-107.89323866062384, 33.3624415623696], [-107.72030589166836, 34.23749259269535], [-107.5130510137069, 34.34419287423606], [-107.18700465475139, 34.36878047165892], [-106.66014247452007, 34.045127230172845], [-106.22180358716261, 34.030586003086455], [-105.7465895972333, 34.19826736755344], [-105.08066484775028, 34.69238677890756], [-104.85833890178549, 34.660713772763586], [-104.6165150490546, 34.40392624046286], [-104.59720184346891, 34.1791270575431], [-105.12311482820225, 32.742933804272674], [-105.32557963446574, 32.59367410435424], [-105.79473369396051, 32.426516527939825], [-106.48404559179063, 31.78714464707849], [-106.95760136073822, 31.706706279295393]]]}}]}