{"type": "FeatureCollection", "features": [{"type": "Feature", "properties": {"dn": 1, "PRODUCT": "Day 2 Excessive Rainfall Potential Forecast", "VALID_TIME": "12Z 09/23/26 - 12Z 09/24/26", "OUTLOOK": "Marginal (At Least 5%)", "ISSUE_TIME": "2026-09-22 08:06:00", "START_TIME": "2026-09-23 12:00:00", "END_TIME": "2026-09-24 12:00:00", "Snippet": "12Z 09/23/26 - 12Z 09/24/26"}, "geometry": {"type": "Polygon", "coordinates": [[[-82.16251387549381, 24.21758939942418], [-82.52549739746519, 24.6165384722064], [-82.45225303655826, 24.83979764554041], [-82.22341040074915, 25.095696220212417], [-81.25814201014205, 26.02017864864483], [-80.64207960284395, 26.46879341104008], [-79.93787252959062, 26.76773809071565], [-79.72890416873167, 26.79273431326955], [-79.83705590772036, 25.51566625853706], [-80.17146254650426, 24.859740330306195], [-80.670873277322, 24.494230782657368], [-80.9859265476488, 24.386510904189212], [-81.70910591257864, 24.223517368340733], [-82.16251387549381, 24.21758939942418]]]}}, {"type": "Feature", "properties": {"dn": 1, "PRODUCT": "Day 2 Excessive Rainfall Potential Forecast", "VALID_TIME": "12Z 09/23/26 - 12Z 09/24/26", "OUTLOOK": "Marginal (At Least 5%)", "ISSUE_TIME": "2026-09-22 08:06:00", "START_TIME": "2026-09-23 12:00:00", "END_TIME": "2026-09-24 12:00:00", "Snippet": "12Z 09/23/26 - 12Z 09/24/26"}, "geometry": {"type": "Polygon", "coordinates": [[[-106.0524527273449, 31.19520214001641], [-106.53672111250663, 31.419156804310024], [-106.56911306512949, 31.56834619771564], [-107.96578444528456, 31.62688053767055], [-108.06062585381395, 31.52882876890281], [-108.07866176117668, 31.20713454245347], [-109.50931757052109, 31.12780594303685], [-110.95653789383776, 31.17089174187611], [-112.51888179786205, 31.60012057653653], [-112.88545780157465, 32.56612106944928], [-113.03511576609905, 33.50760559306265], [-112.92034272319268, 34.157775915495016], [-112.91631853480312, 35.15741990069707], [-112.68950523204533, 35.815896310539785], [-112.38345097490902, 36.3451222426796], [-111.85879154736614, 36.94037246610339], [-111.50457975816954, 37.200237409528164], [-109.93334573447956, 38.06264393377788], [-109.33972789482148, 38.292014187780175], [-107.660532153876, 38.51272123204465], [-105.46087301444777, 39.28147260293511], [-104.80633335827306, 39.629439536909786], [-104.00697979079507, 40.33369295687441], [-103.58662229512845, 40.83867171763083], [-102.59572970815626, 41.58584535750715], [-101.79976602276861, 41.923377423843945], [-100.80719939073116, 42.0013631109701], [-100.27078554611275, 41.84310279274457], [-100.02039359116857, 41.54345668301385], [-99.88985152964811, 38.816307838420876], [-100.17679021614155, 36.53530200168947], [-100.4938760920234, 35.08885129382592], [-100.8354517520811, 34.26604475041493], [-102.1504659025296, 32.63035831902512], [-103.29000296847425, 30.529623744579542], [-103.86328258737242, 29.723115359896802], [-104.25395372959673, 29.33428880976601], [-104.75781402954834, 29.71531876159247], [-104.87761417462117, 29.890359737728467], [-104.96852764017558, 30.340853037773524], [-105.02276989526364, 30.38360675063309], [-104.18297032540742, 31.117747530769122], [-103.21408496003201, 32.44341799620088], [-102.38811892183429, 33.7967865843473], [-101.75893542096388, 35.087049349202196], [-101.37945670139514, 36.13551630215815], [-101.21893314377662, 37.215700139324355], [-101.2759705879205, 38.194255522138455], [-101.4614944702719, 38.45416640115103], [-101.7534860251429, 38.57674208852254], [-102.37342228054327, 38.50702896191362], [-103.50812513604112, 37.78689372678473], [-104.10716040884459, 37.53289023725224], [-106.00615526140926, 37.37616143122847], [-106.8706955982201, 37.04927239413524], [-107.57814391457534, 36.36912535863077], [-108.06886547840288, 35.34038469142831], [-108.1864184653114, 34.47224006044419], [-108.3774617404179, 33.77701494430846], [-108.48010760853448, 33.72316768473705], [-108.68439395520959, 33.161124905614884], [-108.67826997480813, 32.661420087427224], [-108.60861912802649, 32.530817977488695], [-107.90086073118711, 31.99760566504514], [-107.70121835350254, 31.64917801930422], [-106.57214006156336, 31.59849096460713], [-106.50139755772729, 31.421726090934403], [-106.05533553879603, 31.22537912424851], [-105.08824096027682, 30.435211004726856], [-106.0524527273449, 31.19520214001641]]]}}, {"type": "Feature", "properties": {"dn": 1, "PRODUCT": "Day 2 Excessive Rainfall Potential Forecast", "VALID_TIME": "12Z 09/23/26 - 12Z 09/24/26", "OUTLOOK": "Marginal (At Least 5%)", "ISSUE_TIME": "2026-09-22 08:06:00", "START_TIME": "2026-09-23 12:00:00", "END_TIME": "2026-09-24 12:00:00", "Snippet": "12Z 09/23/26 - 12Z 09/24/26"}, "geometry": {"type": "Polygon", "coordinates": [[[-85.95966564635573, 34.075257371577074], [-86.09759501420938, 34.39906753646414], [-86.13064642655505, 34.67167494761128], [-86.03626044114644, 35.16249609783199], [-85.04627156057887, 36.36546707251282], [-84.39673815607975, 37.311823591924906], [-84.07739909033592, 39.34104872960964], [-83.66833284737803, 40.99382268597554], [-83.45528812617746, 41.33185786649662], [-83.20673594313531, 41.4483507098583], [-82.97440130752959, 41.433011486826665], [-82.57865669536959, 41.31832243113716], [-81.37400973952035, 40.70233242352363], [-80.68059296518992, 40.250078799551694], [-80.06818568963683, 39.66641874939322], [-79.78426398361403, 39.24185794281232], [-79.42447715218819, 38.18359185648185], [-78.6543229984807, 36.89994873413692], [-78.53412192859776, 36.2123055630851], [-78.58106620635952, 35.90091909325227], [-78.7920919466204, 35.605311941665995], [-79.21546867129237, 35.37397495643865], [-82.09524971696416, 34.90074324129517], [-84.9855915837454, 33.97230505333388], [-85.7525711709331, 33.92711381788022], [-85.95966564635573, 34.075257371577074]], [[-84.24449156454595, 34.87477169146573], [-83.95284779083157, 35.036467092641125], [-83.33506919411718, 35.67036504554769], [-82.60969312182401, 36.20324237799544], [-82.29192068406147, 36.539123724800966], [-82.01173086243368, 37.011636215503316], [-81.44976951136643, 37.46080946817847], [-81.23671280814861, 37.80190074891935], [-81.2861857521601, 38.29747354940816], [-81.48369593309074, 38.53659536259309], [-82.21753155000862, 38.59242319090789], [-82.62333817333771, 38.53284144624842], [-83.28386056732961, 38.222370253887554], [-83.77727319658231, 37.85325704448129], [-83.84674205458313, 37.1871098208586], [-84.06381201520553, 36.708337453249044], [-84.93308348431422, 35.77456978507324], [-85.1895583017215, 35.384810658391736], [-85.20149368848887, 35.250380317030995], [-85.05254338074327, 35.060761362956654], [-84.68179365749542, 34.902706658006885], [-84.24449156454595, 34.87477169146573]]]}}, {"type": "Feature", "properties": {"dn": 2, "PRODUCT": "Day 2 Excessive Rainfall Potential Forecast", "VALID_TIME": "12Z 09/23/26 - 12Z 09/24/26", "OUTLOOK": "Slight (At Least 15%)", "ISSUE_TIME": "2026-09-22 08:06:00", "START_TIME": "2026-09-23 12:00:00", "END_TIME": "2026-09-24 12:00:00", "Snippet": "12Z 09/23/26 - 12Z 09/24/26"}, "geometry": {"type": "Polygon", "coordinates": [[[-106.05533553879603, 31.22537912424851], [-106.50139755772729, 31.421726090934403], [-106.57214006156336, 31.59849096460713], [-107.70121835350254, 31.64917801930422], [-107.90086073118711, 31.99760566504514], [-108.60861912802649, 32.530817977488695], [-108.67826997480813, 32.661420087427224], [-108.68439395520959, 33.161124905614884], [-108.48010760853448, 33.72316768473705], [-108.3774617404179, 33.77701494430846], [-108.1864184653114, 34.47224006044419], [-108.06886547840288, 35.34038469142831], [-107.57814391457534, 36.36912535863077], [-106.8706955982201, 37.04927239413524], [-106.00615526140926, 37.37616143122847], [-104.10716040884459, 37.53289023725224], [-103.50812513604112, 37.78689372678473], [-102.37342228054327, 38.50702896191362], [-101.7534860251429, 38.57674208852254], [-101.4614944702719, 38.45416640115103], [-101.2759705879205, 38.194255522138455], [-101.21893314377662, 37.215700139324355], [-101.37945670139514, 36.13551630215815], [-101.75893542096388, 35.087049349202196], [-102.38811892183429, 33.7967865843473], [-103.21408496003201, 32.44341799620088], [-104.18297032540742, 31.117747530769122], [-105.02388689633062, 30.382630284266398], [-106.05533553879603, 31.22537912424851]], [[-105.66668672135359, 32.207844718699434], [-105.05371985422673, 32.56551535414192], [-104.30132923941571, 33.24590216914042], [-104.05702967898068, 33.57675284337844], [-103.49629478353243, 34.78155036346321], [-102.891102018243, 35.53202419850821], [-102.84881514367622, 35.71384955653372], [-102.92332551994967, 35.97986618422959], [-103.46240831954302, 36.49212649408125], [-103.80633737669807, 36.60897469206447], [-104.30256947058845, 36.53749112683791], [-104.87668756021002, 36.10077318777812], [-105.69686856669527, 35.96045554439452], [-105.90001525935106, 35.76718955664764], [-105.98333944287377, 35.4915511860794], [-105.98609711124531, 34.408277433578], [-106.32570031721738, 33.9781399390447], [-107.12453685741079, 33.285707288023985], [-107.15899902302833, 33.10154524352681], [-107.1300576584318, 32.831208447738035], [-106.94075476563904, 32.572709874395], [-106.53392724843414, 32.2840608367787], [-106.0935937187956, 32.178789180964806], [-105.66668672135359, 32.207844718699434]]]}}, {"type": "Feature", "properties": {"dn": 2, "PRODUCT": "Day 2 Excessive Rainfall Potential Forecast", "VALID_TIME": "12Z 09/23/26 - 12Z 09/24/26", "OUTLOOK": "Slight (At Least 15%)", "ISSUE_TIME": "2026-09-22 08:06:00", "START_TIME": "2026-09-23 12:00:00", "END_TIME": "2026-09-24 12:00:00", "Snippet": "12Z 09/23/26 - 12Z 09/24/26"}, "geometry": {"type": "Polygon", "coordinates": [[[-84.68179365749542, 34.902706658006885], [-85.05254338074327, 35.060761362956654], [-85.20149368848887, 35.250380317030995], [-85.1895583017215, 35.384810658391736], [-84.93308348431422, 35.77456978507324], [-84.06381201520553, 36.708337453249044], [-83.84674205458313, 37.1871098208586], [-83.77727319658231, 37.85325704448129], [-83.28386056732961, 38.222370253887554], [-82.62333817333771, 38.53284144624842], [-82.21753155000862, 38.59242319090789], [-81.48369593309074, 38.53659536259309], [-81.2861857521601, 38.29747354940816], [-81.23671280814861, 37.80190074891935], [-81.44976951136643, 37.46080946817847], [-82.01173086243368, 37.011636215503316], [-82.29192068406147, 36.539123724800966], [-82.60969312182401, 36.20324237799544], [-83.33506919411718, 35.67036504554769], [-83.95284779083157, 35.036467092641125], [-84.24449156454595, 34.87477169146573], [-84.68179365749542, 34.902706658006885]]]}}, {"type": "Feature", "properties": {"dn": 3, "PRODUCT": "Day 2 Excessive Rainfall Potential Forecast", "VALID_TIME": "12Z 09/23/26 - 12Z 09/24/26", "OUTLOOK": "Moderate (At Least 40%)", "ISSUE_TIME": "2026-09-22 08:06:00", "START_TIME": "2026-09-23 12:00:00", "END_TIME": "2026-09-24 12:00:00", "Snippet": "12Z 09/23/26 - 12Z 09/24/26"}, "geometry": {"type": "Polygon", "coordinates": [[[-106.0935937187956, 32.178789180964806], [-106.53392724843414, 32.2840608367787], [-106.94075476563904, 32.572709874395], [-107.1300576584318, 32.831208447738035], [-107.15899902302833, 33.10154524352681], [-107.12453685741079, 33.285707288023985], [-106.32570031721738, 33.9781399390447], [-105.98609711124531, 34.408277433578], [-105.98333944287377, 35.4915511860794], [-105.90001525935106, 35.76718955664764], [-105.69686856669527, 35.96045554439452], [-104.87668756021002, 36.10077318777812], [-104.30256947058845, 36.53749112683791], [-103.80633737669807, 36.60897469206447], [-103.46240831954302, 36.49212649408125], [-102.92332551994967, 35.97986618422959], [-102.84881514367622, 35.71384955653372], [-102.891102018243, 35.53202419850821], [-103.49629478353243, 34.78155036346321], [-104.05702967898068, 33.57675284337844], [-104.30132923941571, 33.24590216914042], [-105.05371985422673, 32.56551535414192], [-105.66668672135359, 32.207844718699434], [-106.0935937187956, 32.178789180964806]]]}}]}