{
  "type": "FeatureCollection",
  "features": [
    {
      "type": "Feature",
      "properties": {
        "dn": 1,
        "PRODUCT": "Day 1 Excessive Rainfall Potential Forecast",
        "VALID_TIME": "16Z 08/11/26 - 12Z 08/12/26",
        "OUTLOOK": "Marginal (At Least 5%)",
        "ISSUE_TIME": "2026-08-11 15:46:00",
        "START_TIME": "2026-08-11 16:00:00",
        "END_TIME": "2026-08-12 12:00:00",
        "Snippet": "16Z 08/11/26 - 12Z 08/12/26",
        "risk_norm": "MARGINAL"
      },
      "geometry": {
        "type": "Polygon",
        "coordinates": [
          [
            [
              -104.64208958358151,
              29.585567873281928
            ],
            [
              -104.87761417462117,
              29.890359737728467
            ],
            [
              -104.90828457938767,
              30.253446935923108
            ],
            [
              -105.028860756658,
              30.4282232571379
            ],
            [
              -106.055277882567,
              31.224775584563876
            ],
            [
              -106.50210402882288,
              31.421674705201944
            ],
            [
              -106.57207952163469,
              31.597888069269302
            ],
            [
              -107.96578444528456,
              31.62688053767055
            ],
            [
              -108.06062585381395,
              31.52882876890281
            ],
            [
              -108.07770730370692,
              31.208125959207656
            ],
            [
              -108.28656855191107,
              31.15997040029264
            ],
            [
              -108.97266938754481,
              31.100727661809906
            ],
            [
              -110.73554955973741,
              31.117486416569804
            ],
            [
              -111.28118954581055,
              31.199311046051452
            ],
            [
              -114.38768258073324,
              32.16099216884709
            ],
            [
              -114.850323126095,
              32.332944393135755
            ],
            [
              -115.05679202879364,
              32.581849836099614
            ],
            [
              -115.79180706434614,
              32.441952570601686
            ],
            [
              -116.65638961652103,
              32.41848288805473
            ],
            [
              -116.76766635120947,
              33.27520572702185
            ],
            [
              -117.18352995101223,
              34.27068530379414
            ],
            [
              -118.45877842074185,
              36.37230685344683
            ],
            [
              -119.78605391833997,
              37.72411153463555
            ],
            [
              -120.15969809046045,
              38.573529581357086
            ],
            [
              -120.16338928009878,
              39.06892507572326
            ],
            [
              -119.93447763029377,
              39.32797599011173
            ],
            [
              -119.31090223387959,
              39.64091738837268
            ],
            [
              -116.47022912990138,
              40.23577369431544
            ],
            [
              -113.44394111011493,
              40.577479031022015
            ],
            [
              -107.92806953211482,
              41.15068681957433
            ],
            [
              -106.63865967682872,
              41.106977071283765
            ],
            [
              -105.98263892541489,
              40.97244985491518
            ],
            [
              -105.49724155306491,
              40.781588401253856
            ],
            [
              -105.05721796694576,
              40.45369011377342
            ],
            [
              -104.65405625343246,
              39.85812853142286
            ],
            [
              -104.28119577928372,
              38.903633719401434
            ],
            [
              -104.09137589743297,
              38.02404014035759
            ],
            [
              -103.80071187498008,
              35.17124003380461
            ],
            [
              -103.85300217396211,
              34.44689189189648
            ],
            [
              -104.14238129232653,
              33.30026194935226
            ],
            [
              -104.10247228220435,
              32.80388476347642
            ],
            [
              -103.73169279245865,
              32.18905664174268
            ],
            [
              -102.69670090516385,
              31.15153635774741
            ],
            [
              -102.27744492253099,
              30.397575587933723
            ],
            [
              -102.25488125734358,
              30.034126326514116
            ],
            [
              -102.3399125011546,
              29.711043911027556
            ],
            [
              -102.38751840992553,
              29.616677912898542
            ],
            [
              -102.540464226531,
              29.564651167053935
            ],
            [
              -102.67353584704607,
              29.193135991427127
            ],
            [
              -102.96863089913445,
              28.90342939769026
            ],
            [
              -103.43615605750442,
              28.87863360121877
            ],
            [
              -104.64208958358151,
              29.585567873281928
            ]
          ],
          [
            [
              -108.28953775899562,
              31.190450403976975
            ],
            [
              -108.4105112316744,
              31.77321272403569
            ],
            [
              -108.72438111565535,
              32.156629568819945
            ],
            [
              -109.07764692794467,
              32.39966496335863
            ],
            [
              -109.69897216614953,
              32.617114834724184
            ],
            [
              -110.0727900906594,
              32.58239662571579
            ],
            [
              -110.78853004413965,
              32.2853843996554
            ],
            [
              -111.18219816161229,
              32.017688691109214
            ],
            [
              -111.4621627989603,
              31.714355883275083
            ],
            [
              -111.58186652123877,
              31.42753395684895
            ],
            [
              -111.50912128867196,
              31.29762095167506
            ],
            [
              -110.73964644654218,
              31.1475647572386
            ],
            [
              -108.97630849782487,
              31.130850032815246
            ],
            [
              -108.28953775899562,
              31.190450403976975
            ]
          ]
        ]
      }
    },
    {
      "type": "Feature",
      "properties": {
        "dn": 1,
        "PRODUCT": "Day 1 Excessive Rainfall Potential Forecast",
        "VALID_TIME": "16Z 08/11/26 - 12Z 08/12/26",
        "OUTLOOK": "Marginal (At Least 5%)",
        "ISSUE_TIME": "2026-08-11 15:46:00",
        "START_TIME": "2026-08-11 16:00:00",
        "END_TIME": "2026-08-12 12:00:00",
        "Snippet": "16Z 08/11/26 - 12Z 08/12/26",
        "risk_norm": "MARGINAL"
      },
      "geometry": {
        "type": "Polygon",
        "coordinates": [
          [
            [
              -86.61964405141205,
              32.52466788190378
            ],
            [
              -87.46245143324083,
              32.793122723034216
            ],
            [
              -87.9293094085256,
              33.08609030096526
            ],
            [
              -88.23211904831177,
              33.462011813264716
            ],
            [
              -88.26467274094159,
              33.825064074908205
            ],
            [
              -87.82757776834187,
              34.7092230963548
            ],
            [
              -87.62295659539431,
              36.13946439533351
            ],
            [
              -87.64524097915077,
              36.63351729937713
            ],
            [
              -87.78246612350722,
              37.086859318995096
            ],
            [
              -88.3504065136354,
              37.86859791030168
            ],
            [
              -89.43366386171606,
              38.70635655721297
            ],
            [
              -90.7140923404892,
              39.362666482106555
            ],
            [
              -92.24163981065378,
              39.96716894310693
            ],
            [
              -97.98037179945462,
              41.631330059659476
            ],
            [
              -99.88015049263836,
              42.244689544018456
            ],
            [
              -101.02713277537556,
              42.73262484847329
            ],
            [
              -102.20548177673628,
              43.47180252272426
            ],
            [
              -103.24261450247367,
              44.46435012182435
            ],
            [
              -103.95355935314396,
              45.63169119386445
            ],
            [
              -104.05490049227267,
              46.05293931115167
            ],
            [
              -103.95714347071156,
              46.31236105766859
            ],
            [
              -103.60844294171143,
              46.540818551812684
            ],
            [
              -103.06375313081624,
              46.64854148149691
            ],
            [
              -101.3317400913379,
              46.5425076474679
            ],
            [
              -95.18191128376952,
              44.857951562734264
            ],
            [
              -93.55805035213533,
              44.46683672229834
            ],
            [
              -91.5869341946149,
              44.097738289435355
            ],
            [
              -89.33066241652247,
              43.74157926883023
            ],
            [
              -87.14382282090399,
              43.44640463434924
            ],
            [
              -84.72964030610608,
              43.15539318446844
            ],
            [
              -82.20152539589819,
              42.91083143359749
            ],
            [
              -82.44289354405349,
              42.40329847652661
            ],
            [
              -82.88485609396244,
              42.170957840231544
            ],
            [
              -82.90579323105966,
              41.99738564827912
            ],
            [
              -82.74756275819861,
              41.85631426876429
            ],
            [
              -82.39235217823789,
              41.875798427322366
            ],
            [
              -81.26070402531013,
              42.406627481895526
            ],
            [
              -80.35104918680098,
              42.554652486825134
            ],
            [
              -79.6080293959633,
              42.755983970416175
            ],
            [
              -72.74748814804322,
              42.22453357413773
            ],
            [
              -71.56218706628212,
              41.942299083508026
            ],
            [
              -71.02658928991843,
              41.6945474391806
            ],
            [
              -70.83699966823092,
              41.49067174929267
            ],
            [
              -70.86226855731121,
              41.13840374029377
            ],
            [
              -71.09652577760603,
              40.90201227760623
            ],
            [
              -71.52645491524046,
              40.825780774043466
            ],
            [
              -72.80244941169983,
              40.366731580764885
            ],
            [
              -73.57954567388487,
              40.28460982894157
            ],
            [
              -73.71015709341064,
              40.21221992322814
            ],
            [
              -73.85341372196022,
              39.51538921313792
            ],
            [
              -74.15853207390785,
              39.14956486953465
            ],
            [
              -74.70327736720743,
              38.72152557532674
            ],
            [
              -74.81286030368888,
              38.15090576064143
            ],
            [
              -75.66100038532956,
              36.94365311235639
            ],
            [
              -75.1544672557628,
              35.70802908591141
            ],
            [
              -75.18832632580406,
              35.21279599680805
            ],
            [
              -75.2838402153967,
              34.996154828329274
            ],
            [
              -75.92007333794213,
              34.84405968167251
            ],
            [
              -77.9869350290564,
              34.70811817858558
            ],
            [
              -79.69274052517443,
              34.332071103911375
            ],
            [
              -81.03069645573801,
              33.726308356941495
            ],
            [
              -82.40429891923571,
              32.65813153481037
            ],
            [
              -83.19608616660807,
              32.309120782129185
            ],
            [
              -83.9035728291346,
              32.22333787642964
            ],
            [
              -85.4526979170102,
              32.32325371700194
            ],
            [
              -86.61964405141205,
              32.52466788190378
            ]
          ],
          [
            [
              -81.78857817131035,
              36.54483764268332
            ],
            [
              -81.10707816513693,
              36.62480455381534
            ],
            [
              -79.59235233804421,
              37.032641125181314
            ],
            [
              -78.44256620296308,
              37.55311326417859
            ],
            [
              -77.37103265826474,
              38.20882574510792
            ],
            [
              -76.56868979791673,
              38.88581539979437
            ],
            [
              -76.12007219251144,
              39.462900185487
            ],
            [
              -76.04831494385631,
              39.856258994180536
            ],
            [
              -76.16322198380033,
              40.180022447825
            ],
            [
              -76.87068826672134,
              40.78665234821423
            ],
            [
              -78.14263854290432,
              41.22059790310917
            ],
            [
              -79.85131529766988,
              41.54882283691396
            ],
            [
              -84.7459042198337,
              41.848385401243355
            ],
            [
              -85.83989063674231,
              42.08156396276151
            ],
            [
              -88.25772618116207,
              42.839491620158746
            ],
            [
              -89.19274339224775,
              43.04475319469883
            ],
            [
              -89.90544692673326,
              43.02235634037872
            ],
            [
              -90.1513222234388,
              42.85503352180926
            ],
            [
              -90.27776049992322,
              42.684647224292156
            ],
            [
              -90.29415604130347,
              42.33720285308024
            ],
            [
              -90.08459447363231,
              41.80852031295493
            ],
            [
              -88.6029157200415,
              40.226573604705806
            ],
            [
              -87.76831731121618,
              38.95647935094709
            ],
            [
              -87.23531016506092,
              38.444571394474465
            ],
            [
              -86.47934838726982,
              37.963715306164026
            ],
            [
              -85.01884492540078,
              37.25955819720234
            ],
            [
              -84.0452975248244,
              36.88603350059181
            ],
            [
              -82.95282933686963,
              36.63217385612033
            ],
            [
              -81.78857817131035,
              36.54483764268332
            ]
          ]
        ]
      }
    },
    {
      "type": "Feature",
      "properties": {
        "dn": 2,
        "PRODUCT": "Day 1 Excessive Rainfall Potential Forecast",
        "VALID_TIME": "16Z 08/11/26 - 12Z 08/12/26",
        "OUTLOOK": "Slight (At Least 15%)",
        "ISSUE_TIME": "2026-08-11 15:46:00",
        "START_TIME": "2026-08-11 16:00:00",
        "END_TIME": "2026-08-12 12:00:00",
        "Snippet": "16Z 08/11/26 - 12Z 08/12/26",
        "risk_norm": "SLIGHT"
      },
      "geometry": {
        "type": "Polygon",
        "coordinates": [
          [
            [
              -108.97630849782487,
              31.130850032815246
            ],
            [
              -110.73964644654218,
              31.1475647572386
            ],
            [
              -111.50912128867196,
              31.29762095167506
            ],
            [
              -111.58186652123877,
              31.42753395684895
            ],
            [
              -111.4621627989603,
              31.714355883275083
            ],
            [
              -111.18219816161229,
              32.017688691109214
            ],
            [
              -110.78853004413965,
              32.2853843996554
            ],
            [
              -110.0727900906594,
              32.58239662571579
            ],
            [
              -109.69897216614953,
              32.617114834724184
            ],
            [
              -109.07764692794467,
              32.39966496335863
            ],
            [
              -108.72438111565535,
              32.156629568819945
            ],
            [
              -108.4105112316744,
              31.77321272403569
            ],
            [
              -108.28953775899562,
              31.190450403976975
            ],
            [
              -108.97630849782487,
              31.130850032815246
            ]
          ]
        ]
      }
    },
    {
      "type": "Feature",
      "properties": {
        "dn": 2,
        "PRODUCT": "Day 1 Excessive Rainfall Potential Forecast",
        "VALID_TIME": "16Z 08/11/26 - 12Z 08/12/26",
        "OUTLOOK": "Slight (At Least 15%)",
        "ISSUE_TIME": "2026-08-11 15:46:00",
        "START_TIME": "2026-08-11 16:00:00",
        "END_TIME": "2026-08-12 12:00:00",
        "Snippet": "16Z 08/11/26 - 12Z 08/12/26",
        "risk_norm": "SLIGHT"
      },
      "geometry": {
        "type": "Polygon",
        "coordinates": [
          [
            [
              -84.0452975248244,
              36.88603350059181
            ],
            [
              -85.01884492540078,
              37.25955819720234
            ],
            [
              -86.47934838726982,
              37.963715306164026
            ],
            [
              -87.23531016506092,
              38.444571394474465
            ],
            [
              -87.76831731121618,
              38.95647935094709
            ],
            [
              -88.6029157200415,
              40.226573604705806
            ],
            [
              -90.08459447363231,
              41.80852031295493
            ],
            [
              -90.29415604130347,
              42.33720285308024
            ],
            [
              -90.27776049992322,
              42.684647224292156
            ],
            [
              -90.1513222234388,
              42.85503352180926
            ],
            [
              -89.90544692673326,
              43.02235634037872
            ],
            [
              -89.19274339224775,
              43.04475319469883
            ],
            [
              -88.25772618116207,
              42.839491620158746
            ],
            [
              -85.83989063674231,
              42.08156396276151
            ],
            [
              -84.7459042198337,
              41.848385401243355
            ],
            [
              -79.85131529766988,
              41.54882283691396
            ],
            [
              -78.14263854290432,
              41.22059790310917
            ],
            [
              -76.87068826672134,
              40.78665234821423
            ],
            [
              -76.16322198380033,
              40.180022447825
            ],
            [
              -76.04831494385631,
              39.856258994180536
            ],
            [
              -76.12007219251144,
              39.462900185487
            ],
            [
              -76.56868979791673,
              38.88581539979437
            ],
            [
              -77.37103265826474,
              38.20882574510792
            ],
            [
              -78.44256620296308,
              37.55311326417859
            ],
            [
              -79.59235233804421,
              37.032641125181314
            ],
            [
              -81.10707816513693,
              36.62480455381534
            ],
            [
              -81.78857817131035,
              36.54483764268332
            ],
            [
              -82.95282933686963,
              36.63217385612033
            ],
            [
              -84.0452975248244,
              36.88603350059181
            ]
          ],
          [
            [
              -81.61792760514957,
              37.47393108605694
            ],
            [
              -81.24845707538694,
              37.7133500140618
            ],
            [
              -80.92197629221964,
              38.04465229563265
            ],
            [
              -80.75048818858302,
              38.477189125036425
            ],
            [
              -80.72342138965807,
              39.098854606666436
            ],
            [
              -80.91472133605266,
              39.38121518939396
            ],
            [
              -81.17594341334092,
              39.57985534546388
            ],
            [
              -82.58000872307682,
              40.348487510806315
            ],
            [
              -83.30731409923496,
              40.57435594250676
            ],
            [
              -83.6002346080122,
              40.54925972168828
            ],
            [
              -83.97433892308878,
              40.307994529373985
            ],
            [
              -84.23631083782017,
              40.0149432083151
            ],
            [
              -84.54046807824172,
              39.85656886167997
            ],
            [
              -85.90409868551122,
              40.06446105437568
            ],
            [
              -86.03032664200582,
              39.93843644356588
            ],
            [
              -86.04928857933888,
              39.71842353027265
            ],
            [
              -85.96161065794415,
              39.404154672176986
            ],
            [
              -85.65486174873097,
              38.98899262370551
            ],
            [
              -85.23308509802054,
              38.610202296579644
            ],
            [
              -83.87516853483477,
              37.99337269579476
            ],
            [
              -82.18211570746061,
              37.47255255109177
            ],
            [
              -81.61792760514957,
              37.47393108605694
            ]
          ]
        ]
      }
    },
    {
      "type": "Feature",
      "properties": {
        "dn": 3,
        "PRODUCT": "Day 1 Excessive Rainfall Potential Forecast",
        "VALID_TIME": "16Z 08/11/26 - 12Z 08/12/26",
        "OUTLOOK": "Moderate (At Least 40%)",
        "ISSUE_TIME": "2026-08-11 15:46:00",
        "START_TIME": "2026-08-11 16:00:00",
        "END_TIME": "2026-08-12 12:00:00",
        "Snippet": "16Z 08/11/26 - 12Z 08/12/26",
        "risk_norm": "MODERATE"
      },
      "geometry": {
        "type": "Polygon",
        "coordinates": [
          [
            [
              -82.18211570746061,
              37.47255255109177
            ],
            [
              -83.87516853483477,
              37.99337269579476
            ],
            [
              -85.23308509802054,
              38.610202296579644
            ],
            [
              -85.65486174873097,
              38.98899262370551
            ],
            [
              -85.96161065794415,
              39.404154672176986
            ],
            [
              -86.04928857933888,
              39.71842353027265
            ],
            [
              -86.03032664200582,
              39.93843644356588
            ],
            [
              -85.90409868551122,
              40.06446105437568
            ],
            [
              -84.54046807824172,
              39.85656886167997
            ],
            [
              -84.23631083782017,
              40.0149432083151
            ],
            [
              -83.97433892308878,
              40.307994529373985
            ],
            [
              -83.6002346080122,
              40.54925972168828
            ],
            [
              -83.30731409923496,
              40.57435594250676
            ],
            [
              -82.58000872307682,
              40.348487510806315
            ],
            [
              -81.17594341334092,
              39.57985534546388
            ],
            [
              -80.91472133605266,
              39.38121518939396
            ],
            [
              -80.72342138965807,
              39.098854606666436
            ],
            [
              -80.75048818858302,
              38.477189125036425
            ],
            [
              -80.92197629221964,
              38.04465229563265
            ],
            [
              -81.24845707538694,
              37.7133500140618
            ],
            [
              -81.61792760514957,
              37.47393108605694
            ],
            [
              -82.18211570746061,
              37.47255255109177
            ]
          ]
        ]
      }
    }
  ]
}
