{
  "type": "FeatureCollection",
  "features": [
    {
      "type": "Feature",
      "properties": {
        "dn": 1,
        "PRODUCT": "Day 2 Excessive Rainfall Potential Forecast",
        "VALID_TIME": "12Z 08/12/26 - 12Z 08/13/26",
        "OUTLOOK": "Marginal (At Least 5%)",
        "ISSUE_TIME": "2026-08-11 07:07:00",
        "START_TIME": "2026-08-12 12:00:00",
        "END_TIME": "2026-08-13 12:00:00",
        "Snippet": "12Z 08/12/26 - 12Z 08/13/26",
        "risk_norm": "MARGINAL"
      },
      "geometry": {
        "type": "Polygon",
        "coordinates": [
          [
            [
              -111.28118954581055,
              31.199311046051452
            ],
            [
              -114.38768258073324,
              32.16099216884709
            ],
            [
              -114.850323126095,
              32.332944393135755
            ],
            [
              -115.05679202879364,
              32.581849836099614
            ],
            [
              -115.79180706434614,
              32.441952570601686
            ],
            [
              -116.2783573950951,
              32.42448424754956
            ],
            [
              -116.57330859963115,
              33.11824756174697
            ],
            [
              -117.08257190135814,
              35.1511649302982
            ],
            [
              -117.3716422069284,
              35.74945703079953
            ],
            [
              -118.03941407585141,
              36.52156092055531
            ],
            [
              -119.40349838239605,
              37.55326354348593
            ],
            [
              -119.96505864926775,
              38.24074640912007
            ],
            [
              -120.20164583423295,
              38.74785210788248
            ],
            [
              -120.37082848158344,
              39.443641931839586
            ],
            [
              -120.29775882280379,
              39.858552343615415
            ],
            [
              -119.8158888749556,
              40.28685135852777
            ],
            [
              -118.3513818917295,
              40.79915104576137
            ],
            [
              -117.71326075477147,
              40.837476254691595
            ],
            [
              -116.74215565106526,
              40.69225197775365
            ],
            [
              -115.25945115016015,
              40.60123853064428
            ],
            [
              -114.18794224634873,
              40.8089951030481
            ],
            [
              -113.21638137590227,
              41.26468773799942
            ],
            [
              -112.48843594066385,
              41.469425819978525
            ],
            [
              -110.50495379470928,
              41.562973155360254
            ],
            [
              -109.76412386039341,
              41.317223949319924
            ],
            [
              -109.05932863200024,
              40.88838825228233
            ],
            [
              -108.64444921789045,
              40.391789600397786
            ],
            [
              -108.16251974746118,
              40.2514140100509
            ],
            [
              -107.40584261132864,
              40.21763616333777
            ],
            [
              -106.95684778505328,
              40.33685270783589
            ],
            [
              -106.35350819593017,
              40.641083366784166
            ],
            [
              -105.02654562766354,
              41.905260256794286
            ],
            [
              -104.14387433505225,
              42.518046754731
            ],
            [
              -103.83323799995092,
              43.01153108603655
            ],
            [
              -103.81262189113865,
              43.4460849293403
            ],
            [
              -104.08591303675672,
              43.822245371301726
            ],
            [
              -104.67311244415883,
              44.31063639316057
            ],
            [
              -106.06616493326305,
              44.92177129245252
            ],
            [
              -109.10679114464556,
              45.793771021318086
            ],
            [
              -109.75910686372428,
              46.04430569520465
            ],
            [
              -110.50510414636284,
              46.4563413620481
            ],
            [
              -110.95016282601789,
              46.88847580723062
            ],
            [
              -111.39770206553689,
              47.65644963832559
            ],
            [
              -111.5557445731042,
              48.86167453861915
            ],
            [
              -111.46116870493809,
              49.03629659567221
            ],
            [
              -111.2319160182938,
              49.18038519341326
            ],
            [
              -109.8977541005404,
              49.197670689704864
            ],
            [
              -109.24205999269192,
              49.0774825896534
            ],
            [
              -104.91646694709182,
              47.829167688428306
            ],
            [
              -100.84860779404698,
              46.684315234514386
            ],
            [
              -95.78235761350786,
              44.47069817726944
            ],
            [
              -92.86236078075429,
              43.29684867431075
            ],
            [
              -91.33777196181506,
              42.753028658560794
            ],
            [
              -88.89891507813817,
              42.03539334383371
            ],
            [
              -85.85254363404833,
              41.29486941453926
            ],
            [
              -82.89896877897745,
              40.59187678819885
            ],
            [
              -79.44732910146489,
              39.96851787618704
            ],
            [
              -78.46236352403594,
              39.61201613669855
            ],
            [
              -78.26220757611377,
              39.41407352868396
            ],
            [
              -78.20527279515295,
              39.0520603171549
            ],
            [
              -78.36719926238618,
              38.755244212863865
            ],
            [
              -79.06476690249008,
              37.92670789078118
            ],
            [
              -79.16020472927575,
              37.666678239526725
            ],
            [
              -79.12735699648032,
              37.12492174396665
            ],
            [
              -78.80959676703847,
              36.23919988917591
            ],
            [
              -78.4634461277789,
              35.57287919329309
            ],
            [
              -77.51123529549666,
              34.568168471018616
            ],
            [
              -77.29007823748407,
              34.22625821467436
            ],
            [
              -77.60918365561945,
              33.94229653704453
            ],
            [
              -77.7115248092838,
              33.63466331486307
            ],
            [
              -77.94830693276285,
              33.522282812135245
            ],
            [
              -78.21036025873504,
              33.59520142264277
            ],
            [
              -78.49252021324526,
              33.53320121815604
            ],
            [
              -78.85266302286722,
              33.29740433841915
            ],
            [
              -78.95741378027536,
              32.943546965180765
            ],
            [
              -80.49445341643577,
              31.950699855526654
            ],
            [
              -80.68316964632875,
              31.73882289601451
            ],
            [
              -82.34576749701506,
              32.698997242346195
            ],
            [
              -86.97732341103128,
              35.839487833605844
            ],
            [
              -89.95739884609044,
              37.253727559934106
            ],
            [
              -90.83616528508695,
              37.72334517320371
            ],
            [
              -91.49627419781505,
              38.22839412768258
            ],
            [
              -92.3721899086427,
              39.39623756437054
            ],
            [
              -92.9339324667897,
              39.84435168253972
            ],
            [
              -93.16199660845383,
              39.93505154934992
            ],
            [
              -94.54009328442103,
              40.16425361857548
            ],
            [
              -96.95865279315538,
              40.154036338327174
            ],
            [
              -98.52185493170143,
              40.39398472223469
            ],
            [
              -101.34433404928602,
              40.271640110580705
            ],
            [
              -101.74163510999406,
              40.168860806518964
            ],
            [
              -103.35187282702906,
              39.39305772420221
            ],
            [
              -104.00595174963841,
              39.0059731307829
            ],
            [
              -104.48039104968721,
              38.581834617864516
            ],
            [
              -104.77895888234805,
              38.12000803155057
            ],
            [
              -104.86287088296424,
              37.803031681005066
            ],
            [
              -104.71794568495474,
              36.827644258850405
            ],
            [
              -104.80103722119779,
              36.509042198201044
            ],
            [
              -105.3571054673351,
              35.89084388253375
            ],
            [
              -106.16145622142835,
              35.61391523711282
            ],
            [
              -106.79244073772037,
              35.29989267767927
            ],
            [
              -107.29959967973609,
              34.90273047758862
            ],
            [
              -107.75278465203037,
              34.05379141640096
            ],
            [
              -108.17949392091553,
              32.566671420695876
            ],
            [
              -108.1807950110806,
              32.11135200835983
            ],
            [
              -107.96482555073626,
              31.627870437766486
            ],
            [
              -108.06062585381395,
              31.52882876890281
            ],
            [
              -108.03506727048713,
              31.302893447660725
            ],
            [
              -108.07866176117668,
              31.20713454245347
            ],
            [
              -108.97266938754481,
              31.100727661809906
            ],
            [
              -110.73554955973741,
              31.117486416569804
            ],
            [
              -111.28118954581055,
              31.199311046051452
            ]
          ],
          [
            [
              -108.8989773839665,
              31.822441597462994
            ],
            [
              -109.33805593035139,
              32.33052004052736
            ],
            [
              -109.86508902152195,
              32.647346265092196
            ],
            [
              -110.57770859549018,
              32.71638919845118
            ],
            [
              -111.05834718656394,
              32.668979270586846
            ],
            [
              -111.73203586710318,
              32.46313506962608
            ],
            [
              -111.91875271118572,
              32.26038326085837
            ],
            [
              -111.98487162824198,
              31.97923031292427
            ],
            [
              -111.84515008571381,
              31.39938759913749
            ],
            [
              -110.73964644654218,
              31.1475647572386
            ],
            [
              -108.97630849782487,
              31.130850032815246
            ],
            [
              -108.80789777126722,
              31.511109261684858
            ],
            [
              -108.8989773839665,
              31.822441597462994
            ]
          ],
          [
            [
              -82.26844104740275,
              36.26717119697486
            ],
            [
              -81.02874508817936,
              36.798095355939836
            ],
            [
              -80.65400543367284,
              37.081519907549406
            ],
            [
              -80.17932637688864,
              37.668646910591384
            ],
            [
              -79.53732922516497,
              38.19378995434168
            ],
            [
              -79.61763210130391,
              38.42449748266363
            ],
            [
              -80.18804113720658,
              38.83178195161975
            ],
            [
              -81.4381506980858,
              39.33420793618396
            ],
            [
              -84.43849726435378,
              40.292544855199594
            ],
            [
              -88.53360346789604,
              41.32286661815988
            ],
            [
              -91.14194337324797,
              41.703471637582936
            ],
            [
              -92.42895502381228,
              41.68258560548662
            ],
            [
              -92.78150810865654,
              41.59987147840778
            ],
            [
              -92.95991829994617,
              41.47040531439362
            ],
            [
              -93.02249281441998,
              41.25234816635211
            ],
            [
              -92.91059157095157,
              41.032066744410734
            ],
            [
              -91.95098982638538,
              40.09547617652167
            ],
            [
              -90.55584183995248,
              39.049376888255914
            ],
            [
              -89.06878026950571,
              38.117048328540164
            ],
            [
              -88.02617165975397,
              37.63238304982795
            ],
            [
              -86.38217703381633,
              37.065809766082914
            ],
            [
              -84.74295018162256,
              36.61600695310339
            ],
            [
              -83.32416137835494,
              36.299025420357154
            ],
            [
              -82.26844104740275,
              36.26717119697486
            ]
          ]
        ]
      }
    },
    {
      "type": "Feature",
      "properties": {
        "dn": 2,
        "PRODUCT": "Day 2 Excessive Rainfall Potential Forecast",
        "VALID_TIME": "12Z 08/12/26 - 12Z 08/13/26",
        "OUTLOOK": "Slight (At Least 15%)",
        "ISSUE_TIME": "2026-08-11 07:07:00",
        "START_TIME": "2026-08-12 12:00:00",
        "END_TIME": "2026-08-13 12:00:00",
        "Snippet": "12Z 08/12/26 - 12Z 08/13/26",
        "risk_norm": "SLIGHT"
      },
      "geometry": {
        "type": "Polygon",
        "coordinates": [
          [
            [
              -108.97630849782487,
              31.130850032815246
            ],
            [
              -110.73964644654218,
              31.1475647572386
            ],
            [
              -111.84515008571381,
              31.39938759913749
            ],
            [
              -111.98487162824198,
              31.97923031292427
            ],
            [
              -111.91875271118572,
              32.26038326085837
            ],
            [
              -111.73203586710318,
              32.46313506962608
            ],
            [
              -111.05834718656394,
              32.668979270586846
            ],
            [
              -110.57770859549018,
              32.71638919845118
            ],
            [
              -109.86508902152195,
              32.647346265092196
            ],
            [
              -109.33805593035139,
              32.33052004052736
            ],
            [
              -108.8989773839665,
              31.822441597462994
            ],
            [
              -108.80789777126722,
              31.511109261684858
            ],
            [
              -108.97630849782487,
              31.130850032815246
            ]
          ]
        ]
      }
    },
    {
      "type": "Feature",
      "properties": {
        "dn": 2,
        "PRODUCT": "Day 2 Excessive Rainfall Potential Forecast",
        "VALID_TIME": "12Z 08/12/26 - 12Z 08/13/26",
        "OUTLOOK": "Slight (At Least 15%)",
        "ISSUE_TIME": "2026-08-11 07:07:00",
        "START_TIME": "2026-08-12 12:00:00",
        "END_TIME": "2026-08-13 12:00:00",
        "Snippet": "12Z 08/12/26 - 12Z 08/13/26",
        "risk_norm": "SLIGHT"
      },
      "geometry": {
        "type": "Polygon",
        "coordinates": [
          [
            [
              -83.32416137835494,
              36.299025420357154
            ],
            [
              -84.74295018162256,
              36.61600695310339
            ],
            [
              -86.38217703381633,
              37.065809766082914
            ],
            [
              -88.02617165975397,
              37.63238304982795
            ],
            [
              -89.06878026950571,
              38.117048328540164
            ],
            [
              -90.55584183995248,
              39.049376888255914
            ],
            [
              -91.95098982638538,
              40.09547617652167
            ],
            [
              -92.91059157095157,
              41.032066744410734
            ],
            [
              -93.02249281441998,
              41.25234816635211
            ],
            [
              -92.95991829994617,
              41.47040531439362
            ],
            [
              -92.78150810865654,
              41.59987147840778
            ],
            [
              -92.42895502381228,
              41.68258560548662
            ],
            [
              -91.14194337324797,
              41.703471637582936
            ],
            [
              -88.53360346789604,
              41.32286661815988
            ],
            [
              -84.43849726435378,
              40.292544855199594
            ],
            [
              -81.4381506980858,
              39.33420793618396
            ],
            [
              -80.18804113720658,
              38.83178195161975
            ],
            [
              -79.61763210130391,
              38.42449748266363
            ],
            [
              -79.53732922516497,
              38.19378995434168
            ],
            [
              -80.17932637688864,
              37.668646910591384
            ],
            [
              -80.65400543367284,
              37.081519907549406
            ],
            [
              -81.02874508817936,
              36.798095355939836
            ],
            [
              -82.26844104740275,
              36.26717119697486
            ],
            [
              -83.32416137835494,
              36.299025420357154
            ]
          ]
        ]
      }
    }
  ]
}
