{"type": "FeatureCollection", "features": [{"type": "Feature", "properties": {"dn": 1, "PRODUCT": "Day 1 Excessive Rainfall Potential Forecast", "VALID_TIME": "12Z 09/30/26 - 12Z 10/01/26", "OUTLOOK": "Marginal (At Least 5%)", "ISSUE_TIME": "2026-09-30 07:56:00", "START_TIME": "2026-09-30 12:00:00", "END_TIME": "2026-10-01 12:00:00", "Snippet": "12Z 09/30/26 - 12Z 10/01/26"}, "geometry": {"type": "MultiPolygon", "coordinates": [[[[-102.96863089913445, 28.90342939769026], [-103.07254217089827, 28.89804128096833], [-103.24848654933389, 29.163624462200346], [-103.38486394385517, 29.61271265980176], [-103.50609145445506, 30.56363980117413], [-103.35387650352153, 31.39118769729726], [-102.76873099698467, 32.193304015505426], [-101.70408467063064, 33.238419851417106], [-101.20890510945465, 34.07177497420367], [-100.98993380982628, 35.07164798198388], [-101.01429777117265, 35.52051409572969], [-101.19719503647453, 35.82824973170469], [-101.59879999987763, 36.0812746946883], [-102.15519240078642, 36.10331390156799], [-103.23828186976334, 35.73911432955261], [-103.94769826718512, 35.61261219115962], [-104.58879231564929, 35.35182822973594], [-105.9006710219484, 34.096507031786494], [-106.72613259516753, 33.63159637500355], [-108.13591652972495, 33.11491362028747], [-109.1077318019617, 33.07828775781085], [-109.72696740218757, 33.25031218141182], [-110.48644815153229, 33.63403658333909], [-110.9217578833675, 34.00181762218796], [-111.20917919752819, 34.4729110112616], [-111.42992932436024, 35.22150234587273], [-111.48208901673824, 35.93984933464351], [-111.38916994918584, 36.80571069759507], [-111.19199368499154, 37.36426958652378], [-110.64928767494439, 37.90920859186187], [-110.0269251946385, 38.32273194944228], [-107.2858677132764, 39.694985884890215], [-105.3862511887495, 40.25920509485755], [-102.94221154861071, 40.78140252620899], [-100.36691576613822, 41.44689295310928], [-98.46705110822633, 42.19155197905068], [-95.23771764901335, 43.005965283658924], [-91.82921700322704, 44.015870921441845], [-89.84231862754189, 44.230273772138126], [-87.92588387862656, 44.16825083694692], [-87.0214317510049, 44.218338738348784], [-85.72176865722713, 43.98642018466172], [-85.26163517012827, 43.790367376430645], [-84.92992177833808, 43.51234719447938], [-84.74200313950026, 43.02492603661237], [-84.96305533530867, 42.60209550003626], [-85.72693895937468, 42.030868942718214], [-86.70305701506408, 41.5970857987558], [-88.61107444948837, 41.01743061572592], [-91.67126211516378, 39.82505760340453], [-92.71957702187723, 39.091490407863105], [-93.13032822327644, 38.43147321656605], [-93.43382362696039, 37.0543028466403], [-94.40176393262857, 33.91778230396982], [-94.83796414899669, 32.970003601475405], [-95.26757480315938, 32.29073897737679], [-97.25181458340978, 29.63965554313606], [-98.327914037504, 28.753502444396275], [-100.0038241294337, 27.79543308173425], [-100.36404195190876, 28.149452987360135], [-100.89412995654929, 29.01380381608216], [-100.7853954269916, 28.918498893524028], [-100.78011221409265, 28.91017558309293], [-100.7767232445619, 28.91089779681413], [-100.72626134371556, 28.86666835496287], [-100.32923104344327, 28.150361622836662], [-99.5678069401865, 28.539804191609985], [-98.70302991609148, 29.110204370036158], [-97.83488873669309, 29.903376638901054], [-95.59076266401816, 32.51637436042222], [-94.83707759811313, 33.96391549917518], [-94.28383434337329, 35.44793685052627], [-94.169912450174, 35.940987458468356], [-94.21565378497155, 37.282838504006826], [-94.09647828157114, 38.12828332748364], [-93.86105985200972, 39.014134775849264], [-93.57028073855668, 39.454278858700405], [-92.99047698847257, 39.88954052878179], [-91.94003310854829, 40.44694184900731], [-89.41612757496472, 41.176232634175186], [-88.34198755603579, 41.57768677974387], [-87.85029334632556, 41.90909573918416], [-87.5907196783227, 42.247787928002445], [-87.77909395978645, 42.90825017301882], [-89.12841873154893, 43.12941737452977], [-90.61397629420657, 43.08380634438952], [-93.76146627939433, 42.65454526540645], [-97.46109069240404, 41.90234428560422], [-98.56286358741112, 41.57842917732904], [-100.89620109786905, 40.508472995407764], [-101.85384454522014, 40.12179467489683], [-103.26923575336288, 39.7963852109758], [-105.42583844015456, 39.50473858416934], [-106.31438327281327, 39.22783820256226], [-107.12118427055817, 38.773548478254924], [-107.98008913995632, 37.86311001731343], [-108.06697227328135, 37.18496308388462], [-107.79943349170084, 36.35239769643633], [-106.81644975822815, 35.5240562113908], [-106.35377415645068, 35.33097368478618], [-106.07496177651213, 35.30475332476065], [-104.61224210441597, 35.621013356121956], [-103.58665226636279, 35.94668545900427], [-102.77990967611721, 36.300255690225086], [-100.94216741235616, 37.26979890398019], [-100.335101364644, 37.46838812518288], [-99.65993098291553, 37.443549962983454], [-99.03173681193272, 37.14764297554507], [-98.91338045065646, 36.97175735599254], [-98.9627006067198, 36.79183432832767], [-99.8564969080906, 35.55830610819062], [-100.60790199606248, 34.048341234617446], [-102.23931836640419, 32.30888199253987], [-102.6311653424202, 31.74576582290742], [-102.99728934603783, 30.863550675353263], [-102.94457818386834, 30.091789343508538], [-102.62914329834867, 29.287286213599774], [-102.67353584704607, 29.193135991427127], [-102.96863089913445, 28.90342939769026]]], [[[-102.62769049622042, 29.290367398329195], [-102.54116102289309, 29.564617535917147], [-102.33810404099302, 29.66522474822245], [-102.10381492415347, 29.629914865529965], [-102.49019443993608, 29.581976792853386], [-102.62769049622042, 29.290367398329195]]], [[[-101.66827690939843, 29.56427461549799], [-101.49182886490806, 29.537682002762416], [-101.35704886891355, 29.419548442679027], [-101.49120239425704, 29.52630927482325], [-101.66827690939843, 29.56427461549799]]]]}}, {"type": "Feature", "properties": {"dn": 2, "PRODUCT": "Day 1 Excessive Rainfall Potential Forecast", "VALID_TIME": "12Z 09/30/26 - 12Z 10/01/26", "OUTLOOK": "Slight (At Least 15%)", "ISSUE_TIME": "2026-09-30 07:56:00", "START_TIME": "2026-09-30 12:00:00", "END_TIME": "2026-10-01 12:00:00", "Snippet": "12Z 09/30/26 - 12Z 10/01/26"}, "geometry": {"type": "Polygon", "coordinates": [[[-102.54116102289309, 29.564617535917147], [-102.6288769672108, 29.286606947469608], [-102.94457818386834, 30.091789343508538], [-102.99728934603783, 30.863550675353263], [-102.6311653424202, 31.74576582290742], [-102.23931836640419, 32.30888199253987], [-100.60790199606248, 34.048341234617446], [-99.8564969080906, 35.55830610819062], [-98.9627006067198, 36.79183432832767], [-98.91338045065646, 36.97175735599254], [-99.03173681193272, 37.14764297554507], [-99.65993098291553, 37.443549962983454], [-100.335101364644, 37.46838812518288], [-100.94216741235616, 37.26979890398019], [-102.77990967611721, 36.300255690225086], [-103.58665226636279, 35.94668545900427], [-104.61224210441597, 35.621013356121956], [-106.07496177651213, 35.30475332476065], [-106.35377415645068, 35.33097368478618], [-106.81644975822815, 35.5240562113908], [-107.79943349170084, 36.35239769643633], [-108.06697227328135, 37.18496308388462], [-107.98008913995632, 37.86311001731343], [-107.12118427055817, 38.773548478254924], [-106.31438327281327, 39.22783820256226], [-105.42583844015456, 39.50473858416934], [-103.26923575336288, 39.7963852109758], [-101.85384454522014, 40.12179467489683], [-100.89620109786905, 40.508472995407764], [-98.56286358741112, 41.57842917732904], [-97.46109069240404, 41.90234428560422], [-93.76146627939433, 42.65454526540645], [-90.61397629420657, 43.08380634438952], [-89.12841873154893, 43.12941737452977], [-87.77909395978645, 42.90825017301882], [-87.5907196783227, 42.247787928002445], [-87.85029334632556, 41.90909573918416], [-88.34198755603579, 41.57768677974387], [-89.41612757496472, 41.176232634175186], [-91.94003310854829, 40.44694184900731], [-92.99047698847257, 39.88954052878179], [-93.57028073855668, 39.454278858700405], [-93.86105985200972, 39.014134775849264], [-94.09647828157114, 38.12828332748364], [-94.21565378497155, 37.282838504006826], [-94.169912450174, 35.940987458468356], [-94.28383434337329, 35.44793685052627], [-94.83707759811313, 33.96391549917518], [-95.59076266401816, 32.51637436042222], [-97.83488873669309, 29.903376638901054], [-98.70302991609148, 29.110204370036158], [-99.5678069401865, 28.539804191609985], [-100.32923104344327, 28.150361622836662], [-100.72626134371556, 28.86666835496287], [-100.7767232445619, 28.91089779681413], [-100.52219093757022, 28.96514045757866], [-99.7039453415174, 29.3568954168818], [-99.19445068394997, 29.736168509534618], [-98.74460882401361, 30.430451811097356], [-97.97472113441052, 31.265124651188586], [-96.83086471712562, 32.823961958640616], [-96.08935612633024, 34.095694436644834], [-95.76920698893707, 35.04324999136277], [-95.72043242394392, 35.986323660053465], [-95.9444688414058, 36.25421314188012], [-96.27752288884771, 36.25201214227522], [-97.1040497376769, 35.9300042809125], [-98.57023916893091, 35.05170149332048], [-98.88403547448598, 34.59427242614626], [-98.92760411079793, 34.277732213580535], [-99.1799405330745, 33.729904303079906], [-100.15450460001163, 32.48010293097609], [-100.67032544143363, 32.05471260832423], [-101.60821277087581, 31.60996450191706], [-102.00918330748443, 31.18347376868499], [-102.27587959595381, 30.352098082780813], [-102.13183977155283, 29.720698144463462], [-101.49339504153559, 29.566113822610276], [-100.89330217971101, 29.088497986438433], [-100.7853954269916, 28.918498893524028], [-101.49182886490806, 29.537682002762416], [-102.33810404099302, 29.66522474822245], [-102.54116102289309, 29.564617535917147]], [[-102.67647084054764, 37.200656483077154], [-102.15251411225229, 37.75922594990193], [-102.16739177476678, 37.981399726497976], [-102.35471684365409, 38.24058757528922], [-102.71296092595486, 38.49196217335403], [-103.17580168881781, 38.60405270250594], [-104.70379850309854, 38.525154896394874], [-105.37347195414318, 38.39724593694932], [-105.80699978936852, 38.192407761010784], [-106.01417710502828, 38.00068689571749], [-106.15039688070048, 37.67931265676408], [-106.02122987216055, 36.97179057508719], [-105.5787397644016, 36.46177717068075], [-104.95227518336645, 36.32048645595087], [-104.06924956362948, 36.41532216654241], [-102.67647084054764, 37.200656483077154]], [[-97.34178441627225, 39.267477630587365], [-95.8049719772935, 39.899398284929255], [-92.9019230799945, 41.42583711398655], [-92.54348934318524, 41.77106163572523], [-92.59575251768153, 42.03347572741569], [-92.82773776493099, 42.167261619882545], [-93.17929267773424, 42.214641838919384], [-94.53152865454857, 42.04888216505058], [-95.99371967998192, 41.610459326671254], [-97.43894852321739, 40.98399997284801], [-98.06680727408325, 40.623247327932795], [-98.62977856351918, 40.172626854666944], [-98.79121173507276, 39.860724564635305], [-98.60526778325473, 39.467271943534506], [-98.37059950610592, 39.2949241126712], [-98.025477529695, 39.21276105513751], [-97.34178441627225, 39.267477630587365]]]}}, {"type": "Feature", "properties": {"dn": 3, "PRODUCT": "Day 1 Excessive Rainfall Potential Forecast", "VALID_TIME": "12Z 09/30/26 - 12Z 10/01/26", "OUTLOOK": "Moderate (At Least 40%)", "ISSUE_TIME": "2026-09-30 07:56:00", "START_TIME": "2026-09-30 12:00:00", "END_TIME": "2026-10-01 12:00:00", "Snippet": "12Z 09/30/26 - 12Z 10/01/26"}, "geometry": {"type": "Polygon", "coordinates": [[[-100.78011221409265, 28.91017558309293], [-100.78539542699161, 28.918498893524042], [-100.7853954269916, 28.918498893524028], [-100.89330217971101, 29.088497986438433], [-101.49339504153559, 29.566113822610276], [-102.13183977155283, 29.720698144463462], [-102.27587959595381, 30.352098082780813], [-102.00918330748443, 31.18347376868499], [-101.60821277087581, 31.60996450191706], [-100.67032544143363, 32.05471260832423], [-100.15450460001163, 32.48010293097609], [-99.1799405330745, 33.729904303079906], [-98.92760411079793, 34.277732213580535], [-98.88403547448598, 34.59427242614626], [-98.57023916893091, 35.05170149332048], [-97.1040497376769, 35.9300042809125], [-96.27752288884771, 36.25201214227522], [-95.9444688414058, 36.25421314188012], [-95.72043242394392, 35.986323660053465], [-95.76920698893707, 35.04324999136277], [-96.08935612633024, 34.095694436644834], [-96.83086471712562, 32.823961958640616], [-97.97472113441052, 31.265124651188586], [-98.74460882401361, 30.430451811097356], [-99.19445068394997, 29.736168509534618], [-99.7039453415174, 29.3568954168818], [-100.52219093757022, 28.96514045757866], [-100.78011221409265, 28.91017558309293]]]}}, {"type": "Feature", "properties": {"dn": 3, "PRODUCT": "Day 1 Excessive Rainfall Potential Forecast", "VALID_TIME": "12Z 09/30/26 - 12Z 10/01/26", "OUTLOOK": "Moderate (At Least 40%)", "ISSUE_TIME": "2026-09-30 07:56:00", "START_TIME": "2026-09-30 12:00:00", "END_TIME": "2026-10-01 12:00:00", "Snippet": "12Z 09/30/26 - 12Z 10/01/26"}, "geometry": {"type": "Polygon", "coordinates": [[[-104.95227518336645, 36.32048645595087], [-105.5787397644016, 36.46177717068075], [-106.02122987216055, 36.97179057508719], [-106.15039688070048, 37.67931265676408], [-106.01417710502828, 38.00068689571749], [-105.80699978936852, 38.192407761010784], [-105.37347195414318, 38.39724593694932], [-104.70379850309854, 38.525154896394874], [-103.17580168881781, 38.60405270250594], [-102.71296092595486, 38.49196217335403], [-102.35471684365409, 38.24058757528922], [-102.16739177476678, 37.981399726497976], [-102.15251411225229, 37.75922594990193], [-102.67647084054764, 37.200656483077154], [-104.06924956362948, 36.41532216654241], [-104.95227518336645, 36.32048645595087]]]}}, {"type": "Feature", "properties": {"dn": 3, "PRODUCT": "Day 1 Excessive Rainfall Potential Forecast", "VALID_TIME": "12Z 09/30/26 - 12Z 10/01/26", "OUTLOOK": "Moderate (At Least 40%)", "ISSUE_TIME": "2026-09-30 07:56:00", "START_TIME": "2026-09-30 12:00:00", "END_TIME": "2026-10-01 12:00:00", "Snippet": "12Z 09/30/26 - 12Z 10/01/26"}, "geometry": {"type": "Polygon", "coordinates": [[[-98.025477529695, 39.21276105513751], [-98.37059950610592, 39.2949241126712], [-98.60526778325473, 39.467271943534506], [-98.79121173507276, 39.860724564635305], [-98.62977856351918, 40.172626854666944], [-98.06680727408325, 40.623247327932795], [-97.43894852321739, 40.98399997284801], [-95.99371967998192, 41.610459326671254], [-94.53152865454857, 42.04888216505058], [-93.17929267773424, 42.214641838919384], [-92.82773776493099, 42.167261619882545], [-92.59575251768153, 42.03347572741569], [-92.54348934318524, 41.77106163572523], [-92.9019230799945, 41.42583711398655], [-95.8049719772935, 39.899398284929255], [-97.34178441627225, 39.267477630587365], [-98.025477529695, 39.21276105513751]]]}}]}