{"type": "FeatureCollection", "features": [{"type": "Feature", "properties": {"dn": 1, "PRODUCT": "Day 2 Excessive Rainfall Potential Forecast", "VALID_TIME": "12Z 10/01/26 - 12Z 10/02/26", "OUTLOOK": "Marginal (At Least 5%)", "ISSUE_TIME": "2026-09-30 07:56:00", "START_TIME": "2026-10-01 12:00:00", "END_TIME": "2026-10-02 12:00:00", "Snippet": "12Z 10/01/26 - 12Z 10/02/26"}, "geometry": {"type": "MultiPolygon", "coordinates": [[[[-97.01609184229048, 27.043049299901167], [-96.85605385798928, 26.634063688698795], [-96.7440589533017, 25.950187690062577], [-97.03011835869816, 25.82446924839117], [-97.22968651911765, 25.638882983859123], [-97.74127205292228, 25.858896037653125], [-98.1483248230526, 25.896633704885833], [-99.02116619328962, 26.186442750134884], [-99.32964037129932, 26.446513835195432], [-99.65996379385072, 27.076416063237513], [-99.72728107225873, 27.485458209884253], [-99.91981037479138, 27.682840081587027], [-99.85181861871169, 27.62673186595926], [-99.71443030079769, 27.48585424931702], [-99.64715635537797, 27.07680655959788], [-99.31689838446242, 26.44687667735305], [-99.02154369823629, 26.1978573266334], [-98.9207215090479, 26.22887841499159], [-98.14911104210977, 25.92708069905813], [-97.7419564233542, 25.889345329269325], [-97.23024218066091, 25.66933593201249], [-97.03062505912973, 25.854921623729904], [-96.77791333082716, 25.94979408861993], [-96.89009887454026, 26.6336450427625], [-97.05025157517821, 27.04259482841797], [-97.00203998898563, 27.225882977430462], [-96.85299709369487, 27.547336942150984], [-96.54837057843883, 27.87020476011624], [-96.45461956597308, 27.923114214181275], [-96.81869324753524, 27.54774697586698], [-97.01609184229048, 27.043049299901167]]], [[[-100.3745931311283, 28.149085325729544], [-100.92823854444845, 29.087164175716314], [-101.35647517615118, 29.427969364975898], [-100.89351917576529, 29.088489701899782], [-100.5574985422712, 28.599049893225516], [-100.49914908027311, 28.46510942682542], [-100.49698973120049, 28.41865914138659], [-100.45312220231108, 28.359455299262503], [-100.36167331983907, 28.149535523644534], [-100.0948694417191, 27.87595553495892], [-100.05280992192634, 27.819191791190637], [-100.3745931311283, 28.149085325729544]]], [[[-102.0241837393526, 29.679077841975136], [-102.38862113286724, 29.617537596011147], [-102.31796092402926, 30.16790278506084], [-101.94887224306, 31.04968143568733], [-100.65813255759343, 32.870944602140696], [-100.05652767127556, 33.88573317472952], [-99.91925388284663, 34.476447193516684], [-99.9959888999201, 34.9696205799172], [-100.34875645935938, 35.45335445660437], [-101.09052831938551, 35.921047800294566], [-103.38615761863156, 36.22576884013466], [-104.31394368458322, 36.67027273777442], [-105.03973229304957, 37.25655658288313], [-105.36613806448581, 37.728654579606136], [-105.45694458002545, 38.08011605880758], [-105.22653361863954, 38.62832521831723], [-104.7661430867001, 39.18775439962165], [-104.1814383734698, 39.707421213524114], [-103.52722084146704, 40.13778759401636], [-102.9117897216789, 40.38671409595151], [-102.16868519037816, 40.50625732433662], [-98.64195932881817, 40.525248648237536], [-96.62703863252497, 41.037723989961876], [-93.94539243683276, 42.00355154664224], [-90.41015316552192, 43.64161773246174], [-88.7069202981459, 44.152837667420975], [-86.71119238847095, 44.334145844047136], [-84.43677457619313, 44.22074192397532], [-83.04024315059122, 43.83479140262602], [-82.48849825785516, 43.45116625389331], [-82.29057119671619, 43.13367365504673], [-82.35686238392424, 42.61561541472111], [-82.56552750124517, 42.367996192028286], [-82.88485609396244, 42.170957840231544], [-82.89533369204354, 42.08419397261196], [-84.28552514752074, 41.20665800900748], [-86.29845739949093, 40.17166159174255], [-87.56800844392379, 39.346840741728336], [-88.95226513030539, 38.15793119567299], [-90.1382703417309, 36.9472243182932], [-91.1306744696853, 35.76372167550604], [-92.56372776284084, 33.44910999126447], [-93.29727605710158, 31.465498723614438], [-93.79775295608812, 29.377995952433785], [-94.26995427925398, 29.24334244579901], [-95.20831027943626, 28.561200309284196], [-95.98412972350866, 28.2389437172858], [-96.18904157605434, 28.02520486678666], [-96.4268273704057, 27.938799057001237], [-96.13775897484834, 28.10193810578731], [-95.52481005593214, 29.837146618420068], [-94.73387688659999, 31.61055279394941], [-93.13731548964644, 34.80961090277461], [-91.87155064808722, 36.94337294476001], [-90.7599634144667, 38.2118688428331], [-90.23422705199867, 38.5975030833197], [-89.00383241737619, 39.26866711983536], [-87.499040077262, 40.31554145884666], [-86.61111652016623, 41.287051672355204], [-86.54212510066927, 42.1150311523398], [-86.69271981894023, 42.42714521422799], [-86.96973006970241, 42.65753132242216], [-87.31657904311786, 42.759274664208675], [-88.2016396738161, 42.79400472039576], [-89.57167187199386, 42.62218190026773], [-91.95097187447998, 42.02427773725222], [-94.6526067955386, 40.95664923326212], [-97.30021577137913, 39.97504235747185], [-98.89753489947137, 39.63817822967728], [-101.00791575027903, 39.44612299685565], [-101.97008263091715, 39.27773986990513], [-102.5812422792247, 39.03074972442151], [-103.10615288350596, 38.42934270145592], [-103.24134435067239, 37.977789845494954], [-103.2564338240935, 37.44175238989407], [-103.11082158973782, 37.001790815998405], [-102.8119036166708, 36.746878816759704], [-102.3604024851103, 36.67760375704457], [-100.52286766115193, 36.747647996871436], [-100.01721226009776, 36.67393618814989], [-99.449280471901, 36.42131369746582], [-99.04922463048422, 36.118271253177056], [-98.69703349023447, 35.54315949297392], [-98.68205070011555, 35.09405311361786], [-98.8312474539119, 34.64055557322992], [-99.29217576063918, 33.817313179191004], [-101.14682612062403, 30.94644984905053], [-101.48168086767066, 30.295816674399216], [-101.61379989252819, 29.834684359212925], [-101.60102897471415, 29.607297510784452], [-101.5177570825555, 29.54623530644934], [-101.7599448220184, 29.645166296224176], [-102.0241837393526, 29.679077841975136]]]]}}, {"type": "Feature", "properties": {"dn": 2, "PRODUCT": "Day 2 Excessive Rainfall Potential Forecast", "VALID_TIME": "12Z 10/01/26 - 12Z 10/02/26", "OUTLOOK": "Slight (At Least 15%)", "ISSUE_TIME": "2026-09-30 07:56:00", "START_TIME": "2026-10-01 12:00:00", "END_TIME": "2026-10-02 12:00:00", "Snippet": "12Z 10/01/26 - 12Z 10/02/26"}, "geometry": {"type": "MultiPolygon", "coordinates": [[[[-100.5574985422712, 28.599049893225516], [-100.89351917576529, 29.088489701899782], [-101.60102897471415, 29.607297510784452], [-101.61379989252819, 29.834684359212925], [-101.48168086767066, 30.295816674399216], [-101.14682612062403, 30.94644984905053], [-99.29217576063918, 33.817313179191004], [-98.8312474539119, 34.64055557322992], [-98.68205070011555, 35.09405311361786], [-98.69703349023447, 35.54315949297392], [-99.04922463048422, 36.118271253177056], [-99.449280471901, 36.42131369746582], [-100.01721226009776, 36.67393618814989], [-100.52286766115193, 36.747647996871436], [-102.3604024851103, 36.67760375704457], [-102.8119036166708, 36.746878816759704], [-103.11082158973782, 37.001790815998405], [-103.2564338240935, 37.44175238989407], [-103.24134435067239, 37.977789845494954], [-103.10615288350596, 38.42934270145592], [-102.5812422792247, 39.03074972442151], [-101.97008263091715, 39.27773986990513], [-101.00791575027903, 39.44612299685565], [-98.89753489947137, 39.63817822967728], [-97.30021577137913, 39.97504235747185], [-94.6526067955386, 40.95664923326212], [-91.95097187447998, 42.02427773725222], [-89.57167187199386, 42.62218190026773], [-88.2016396738161, 42.79400472039576], [-87.31657904311786, 42.759274664208675], [-86.96973006970241, 42.65753132242216], [-86.69271981894023, 42.42714521422799], [-86.54212510066927, 42.1150311523398], [-86.61111652016623, 41.287051672355204], [-87.499040077262, 40.31554145884666], [-89.00383241737619, 39.26866711983536], [-90.23422705199867, 38.5975030833197], [-90.7599634144667, 38.2118688428331], [-91.87155064808722, 36.94337294476001], [-93.13731548964644, 34.80961090277461], [-94.73387688659999, 31.61055279394941], [-95.52481005593214, 29.837146618420068], [-96.13775897484834, 28.10193810578731], [-96.54837057843883, 27.87020476011624], [-96.85299709369487, 27.547336942150984], [-97.00203998898563, 27.225882977430462], [-97.05025157517821, 27.04259482841797], [-96.89009887454026, 26.6336450427625], [-96.77791333082716, 25.94979408861993], [-97.03062505912973, 25.854921623729904], [-97.23024218066091, 25.66933593201249], [-97.7419564233542, 25.889345329269325], [-98.14911104210977, 25.92708069905813], [-98.9207215090479, 26.22887841499159], [-99.02154369823629, 26.1978573266334], [-99.31689838446242, 26.44687667735305], [-99.64715635537797, 27.07680655959788], [-99.71443030079769, 27.48585424931702], [-99.85181861871169, 27.62673186595926], [-99.68230337214507, 27.486844347898902], [-99.67343670856033, 27.258734907651313], [-99.44798337779685, 26.71725707469449], [-99.28504341737016, 26.447783782747024], [-99.022487460603, 26.226393767879586], [-98.59811869948844, 27.379233751372947], [-97.84906316004421, 28.30787288799028], [-97.24484512665903, 29.229750535960235], [-94.78432528945507, 33.28647301289931], [-94.62081076567922, 33.692755161996566], [-94.61913382587704, 34.18906120484455], [-94.7818015655855, 34.594892851283575], [-95.11043554970867, 34.91024716304503], [-95.32992392273776, 34.954938973005255], [-95.6037371514896, 34.86419065880291], [-96.20204839444216, 34.410464984372624], [-97.4752051504361, 32.724827295383996], [-99.640870317696, 30.40654167675159], [-100.43085858117226, 29.24219142109784], [-100.51816798736863, 28.87422978375202], [-100.49914908027311, 28.46510942682542], [-100.5574985422712, 28.599049893225516]]], [[[-100.36167331983907, 28.149535523644534], [-100.45312220231108, 28.359455299262503], [-100.0948694417191, 27.87595553495892], [-100.36167331983907, 28.149535523644534]]]]}}, {"type": "Feature", "properties": {"dn": 3, "PRODUCT": "Day 2 Excessive Rainfall Potential Forecast", "VALID_TIME": "12Z 10/01/26 - 12Z 10/02/26", "OUTLOOK": "Moderate (At Least 40%)", "ISSUE_TIME": "2026-09-30 07:56:00", "START_TIME": "2026-10-01 12:00:00", "END_TIME": "2026-10-02 12:00:00", "Snippet": "12Z 10/01/26 - 12Z 10/02/26"}, "geometry": {"type": "Polygon", "coordinates": [[[-99.28504341737016, 26.447783782747024], [-99.44798337779685, 26.71725707469449], [-99.67343670856033, 27.258734907651313], [-99.68230337214507, 27.486844347898902], [-99.85181861871169, 27.62673186595926], [-100.00208813238329, 27.750737403711266], [-100.0948694417191, 27.87595553495892], [-100.45312220231108, 28.359455299262503], [-100.49698973120049, 28.41865914138659], [-100.51816798736863, 28.87422978375202], [-100.43085858117226, 29.24219142109784], [-99.640870317696, 30.40654167675159], [-97.4752051504361, 32.724827295383996], [-96.20204839444216, 34.410464984372624], [-95.6037371514896, 34.86419065880291], [-95.32992392273776, 34.954938973005255], [-95.11043554970867, 34.91024716304503], [-94.7818015655855, 34.594892851283575], [-94.61913382587704, 34.18906120484455], [-94.62081076567922, 33.692755161996566], [-94.78432528945507, 33.28647301289931], [-97.24484512665903, 29.229750535960235], [-97.84906316004421, 28.30787288799028], [-98.59811869948844, 27.379233751372947], [-99.022487460603, 26.226393767879586], [-99.28504341737016, 26.447783782747024]]]}}]}