{
  "type": "FeatureCollection",
  "features": [
    {
      "type": "Feature",
      "properties": {
        "dn": 1,
        "PRODUCT": "Day 1 Excessive Rainfall Potential Forecast",
        "VALID_TIME": "16Z 09/23/26 - 12Z 09/24/26",
        "OUTLOOK": "Marginal (At Least 5%)",
        "ISSUE_TIME": "2026-09-23 15:55:00",
        "START_TIME": "2026-09-23 16:00:00",
        "END_TIME": "2026-09-24 12:00:00",
        "Snippet": "16Z 09/23/26 - 12Z 09/24/26",
        "risk_norm": "MARGINAL"
      },
      "geometry": {
        "type": "Polygon",
        "coordinates": [
          [
            [
              -82.11266571089146,
              24.2132632411066
            ],
            [
              -82.52549739746519,
              24.6165384722064
            ],
            [
              -82.54786605473957,
              24.89370193755967
            ],
            [
              -82.33324890549201,
              25.013279945310703
            ],
            [
              -82.3238345877115,
              25.104258088866843
            ],
            [
              -82.15778897445735,
              25.22866477240682
            ],
            [
              -81.31338289613943,
              25.521037956477578
            ],
            [
              -80.8791333531349,
              25.756308983412243
            ],
            [
              -80.20245828525948,
              26.288458609957463
            ],
            [
              -79.77476921771698,
              26.429680385949588
            ],
            [
              -79.83705590772036,
              25.51566625853706
            ],
            [
              -80.17146254650426,
              24.859740330306195
            ],
            [
              -80.670873277322,
              24.494230782657368
            ],
            [
              -80.9859265476488,
              24.386510904189212
            ],
            [
              -81.70910591257864,
              24.223517368340733
            ],
            [
              -82.11266571089146,
              24.2132632411066
            ]
          ]
        ]
      }
    },
    {
      "type": "Feature",
      "properties": {
        "dn": 1,
        "PRODUCT": "Day 1 Excessive Rainfall Potential Forecast",
        "VALID_TIME": "16Z 09/23/26 - 12Z 09/24/26",
        "OUTLOOK": "Marginal (At Least 5%)",
        "ISSUE_TIME": "2026-09-23 15:55:00",
        "START_TIME": "2026-09-23 16:00:00",
        "END_TIME": "2026-09-24 12:00:00",
        "Snippet": "16Z 09/23/26 - 12Z 09/24/26",
        "risk_norm": "MARGINAL"
      },
      "geometry": {
        "type": "Polygon",
        "coordinates": [
          [
            [
              -104.64208958358151,
              29.585567873281928
            ],
            [
              -104.91181220869848,
              29.88819017716309
            ],
            [
              -104.94258803789049,
              30.25127190067938
            ],
            [
              -105.06321323105779,
              30.42602250255805
            ],
            [
              -106.0524527273449,
              31.19520214001641
            ],
            [
              -106.53672111250663,
              31.419156804310024
            ],
            [
              -106.56911306512949,
              31.56834619771564
            ],
            [
              -107.96246091385268,
              31.597367977657036
            ],
            [
              -108.07532152085008,
              31.177599435261552
            ],
            [
              -108.97266938754481,
              31.100727661809906
            ],
            [
              -110.73554955973741,
              31.117486416569804
            ],
            [
              -111.28118954581055,
              31.199311046051452
            ],
            [
              -113.14216276674715,
              31.804567456482538
            ],
            [
              -113.58267179042905,
              32.85217224662711
            ],
            [
              -113.64750397544076,
              33.57488617545281
            ],
            [
              -113.34961967956576,
              34.42840400991612
            ],
            [
              -112.29299453071775,
              36.128741543900134
            ],
            [
              -111.36641705743102,
              37.03380237121904
            ],
            [
              -109.38998420268591,
              38.243146299739756
            ],
            [
              -108.50097486987991,
              38.85014093462444
            ],
            [
              -107.68355689128175,
              39.17853933793905
            ],
            [
              -106.40007425598995,
              39.48885028359524
            ],
            [
              -103.91044917008078,
              39.89814430287503
            ],
            [
              -102.49247897341483,
              40.184562804734576
            ],
            [
              -100.82856261468827,
              40.335110187876516
            ],
            [
              -100.65325887115976,
              40.296743684747895
            ],
            [
              -100.34805367431004,
              39.99687942885454
            ],
            [
              -99.76622594549417,
              38.5979343268299
            ],
            [
              -99.5579679505902,
              37.71420411366853
            ],
            [
              -99.52416505914772,
              36.91187484925224
            ],
            [
              -99.66088424242685,
              36.19204176792288
            ],
            [
              -99.96105320949965,
              35.465367719174715
            ],
            [
              -100.41923055399074,
              34.686075790310575
            ],
            [
              -101.65326547034226,
              33.33102493463708
            ],
            [
              -102.1504659025296,
              32.63035831902512
            ],
            [
              -102.6647240488181,
              31.471442686488064
            ],
            [
              -103.01724518373533,
              30.40710036345505
            ],
            [
              -103.48074166128657,
              29.51625872503635
            ],
            [
              -103.87198664846683,
              29.128281949625347
            ],
            [
              -104.64208958358151,
              29.585567873281928
            ]
          ],
          [
            [
              -104.71196372618405,
              29.80901803432105
            ],
            [
              -104.22029454442058,
              30.249835390331867
            ],
            [
              -103.8801419884186,
              30.63408837433902
            ],
            [
              -103.45509187099873,
              31.340334173143972
            ],
            [
              -102.58673524193154,
              33.51630277332882
            ],
            [
              -101.75346346440556,
              34.997224713156314
            ],
            [
              -101.41385916913399,
              35.7751689280851
            ],
            [
              -100.95147172696602,
              37.4484562902555
            ],
            [
              -100.98118681540994,
              37.98224621813502
            ],
            [
              -101.10463307148453,
              38.15636967815565
            ],
            [
              -101.56977675528601,
              38.361640284133316
            ],
            [
              -102.02495954809774,
              38.388189522219534
            ],
            [
              -102.58079182382077,
              38.231241293155726
            ],
            [
              -104.37181483234703,
              37.33982347418221
            ],
            [
              -105.42107525334153,
              37.1445460107766
            ],
            [
              -106.22530999520768,
              36.77950569839612
            ],
            [
              -107.57120563055008,
              35.83010496114084
            ],
            [
              -109.19526570704217,
              34.20709384697132
            ],
            [
              -109.63455879422624,
              34.21366092168871
            ],
            [
              -111.3942214572863,
              35.36128886155374
            ],
            [
              -111.79031550375285,
              35.41208090183834
            ],
            [
              -111.92731897224517,
              35.21654356493321
            ],
            [
              -111.66304988460614,
              34.200250404271166
            ],
            [
              -111.10742768185342,
              33.39241889320814
            ],
            [
              -111.05626921180675,
              33.03328971848694
            ],
            [
              -111.13134707113522,
              32.7979527660794
            ],
            [
              -111.36560005593657,
              32.546673987103354
            ],
            [
              -111.66561425959316,
              32.37878920885465
            ],
            [
              -111.89876633154076,
              32.1254745971582
            ],
            [
              -112.01112833524003,
              31.793575257661455
            ],
            [
              -111.95768679543825,
              31.43340953767806
            ],
            [
              -111.28543081305303,
              31.22937026588354
            ],
            [
              -110.73964644654218,
              31.1475647572386
            ],
            [
              -108.97630849782487,
              31.130850032815246
            ],
            [
              -108.07872992934661,
              31.207737299743084
            ],
            [
              -108.06133229003933,
              31.528770695221137
            ],
            [
              -107.96585227245663,
              31.627482834813662
            ],
            [
              -106.57214006156336,
              31.59849096460713
            ],
            [
              -106.50139755772729,
              31.421726090934403
            ],
            [
              -106.05533553879603,
              31.22537912424851
            ],
            [
              -105.02815968575189,
              30.42826817049666
            ],
            [
              -104.90758450880598,
              30.25349132439746
            ],
            [
              -104.81659811146449,
              29.80261976433399
            ],
            [
              -104.71196372618405,
              29.80901803432105
            ]
          ]
        ]
      }
    },
    {
      "type": "Feature",
      "properties": {
        "dn": 1,
        "PRODUCT": "Day 1 Excessive Rainfall Potential Forecast",
        "VALID_TIME": "16Z 09/23/26 - 12Z 09/24/26",
        "OUTLOOK": "Marginal (At Least 5%)",
        "ISSUE_TIME": "2026-09-23 15:55:00",
        "START_TIME": "2026-09-23 16:00:00",
        "END_TIME": "2026-09-24 12:00:00",
        "Snippet": "16Z 09/23/26 - 12Z 09/24/26",
        "risk_norm": "MARGINAL"
      },
      "geometry": {
        "type": "Polygon",
        "coordinates": [
          [
            [
              -86.74743785978139,
              32.259886572927634
            ],
            [
              -86.82855378274287,
              32.627066002672464
            ],
            [
              -86.78781720544647,
              33.93818915431629
            ],
            [
              -86.68689797486866,
              34.56536549035414
            ],
            [
              -86.43759079504503,
              34.95846149722174
            ],
            [
              -85.28786756086512,
              36.155130898235605
            ],
            [
              -84.66338414929406,
              37.46237560859506
            ],
            [
              -83.97038109763464,
              38.17810664902407
            ],
            [
              -83.63201048193172,
              38.69064227032836
            ],
            [
              -83.59861037946297,
              38.999691673566794
            ],
            [
              -83.74531561077352,
              39.76312597003074
            ],
            [
              -83.6734830232918,
              40.42144274392441
            ],
            [
              -83.52425542568477,
              40.72050518602175
            ],
            [
              -83.38906410168559,
              40.88792272996036
            ],
            [
              -82.95256041598743,
              41.12397837055073
            ],
            [
              -82.1369217007038,
              41.1113570096865
            ],
            [
              -81.69697881635716,
              40.903077006480466
            ],
            [
              -81.59768120021867,
              40.762515437209245
            ],
            [
              -81.41961603640397,
              39.90908261458384
            ],
            [
              -81.19230042000855,
              39.44777657980067
            ],
            [
              -80.66331604405805,
              38.693008607556926
            ],
            [
              -79.64175809696519,
              36.67784327110312
            ],
            [
              -79.53909935349864,
              36.21802155563281
            ],
            [
              -79.63817408033843,
              35.911445658932145
            ],
            [
              -80.02918639342937,
              35.49560561487202
            ],
            [
              -81.17906641873317,
              34.735925421232395
            ],
            [
              -81.58751398439294,
              34.54352381432587
            ],
            [
              -82.26617073965015,
              34.37134709915048
            ],
            [
              -83.91135523161121,
              34.355257268533556
            ],
            [
              -84.2506978020726,
              34.24222828219641
            ],
            [
              -85.25608161719043,
              33.35580722678563
            ],
            [
              -85.68208297212196,
              32.7915627261563
            ],
            [
              -86.00411831296492,
              32.128991023688556
            ],
            [
              -86.17239812073518,
              32.04660696352974
            ],
            [
              -86.49257079672438,
              32.06397918251348
            ],
            [
              -86.74743785978139,
              32.259886572927634
            ]
          ],
          [
            [
              -84.92496566505432,
              34.646953686403734
            ],
            [
              -84.2531769870278,
              34.78505724704993
            ],
            [
              -83.20364653740528,
              35.34561350138312
            ],
            [
              -82.63968064761714,
              36.43024348884964
            ],
            [
              -82.05137694870558,
              37.14920808474891
            ],
            [
              -81.76854628176537,
              37.62018602001041
            ],
            [
              -81.66289212999196,
              38.01447222070842
            ],
            [
              -81.91700952268874,
              38.25774661870646
            ],
            [
              -82.35164658122255,
              38.42401696317097
            ],
            [
              -82.74651117430079,
              38.45250189751733
            ],
            [
              -83.22754051103729,
              38.21852765078423
            ],
            [
              -84.08524553210421,
              37.60515597149914
            ],
            [
              -84.59395661498408,
              36.42784579636678
            ],
            [
              -85.76153163128755,
              35.14739479741413
            ],
            [
              -85.72549393013618,
              34.92000513437407
            ],
            [
              -85.47070968513673,
              34.679465084133895
            ],
            [
              -84.92496566505432,
              34.646953686403734
            ]
          ]
        ]
      }
    },
    {
      "type": "Feature",
      "properties": {
        "dn": 2,
        "PRODUCT": "Day 1 Excessive Rainfall Potential Forecast",
        "VALID_TIME": "16Z 09/23/26 - 12Z 09/24/26",
        "OUTLOOK": "Slight (At Least 15%)",
        "ISSUE_TIME": "2026-09-23 15:55:00",
        "START_TIME": "2026-09-23 16:00:00",
        "END_TIME": "2026-09-24 12:00:00",
        "Snippet": "16Z 09/23/26 - 12Z 09/24/26",
        "risk_norm": "SLIGHT"
      },
      "geometry": {
        "type": "Polygon",
        "coordinates": [
          [
            [
              -104.90758450880598,
              30.25349132439746
            ],
            [
              -105.02815968575189,
              30.42826817049666
            ],
            [
              -106.05533553879603,
              31.22537912424851
            ],
            [
              -106.50139755772729,
              31.421726090934403
            ],
            [
              -106.57214006156336,
              31.59849096460713
            ],
            [
              -107.96585227245663,
              31.627482834813662
            ],
            [
              -108.06133229003933,
              31.528770695221137
            ],
            [
              -108.07872992934661,
              31.207737299743084
            ],
            [
              -108.97630849782487,
              31.130850032815246
            ],
            [
              -110.73964644654218,
              31.1475647572386
            ],
            [
              -111.28543081305303,
              31.22937026588354
            ],
            [
              -111.95768679543825,
              31.43340953767806
            ],
            [
              -112.01112833524003,
              31.793575257661455
            ],
            [
              -111.89876633154076,
              32.1254745971582
            ],
            [
              -111.66561425959316,
              32.37878920885465
            ],
            [
              -111.36560005593657,
              32.546673987103354
            ],
            [
              -111.13134707113522,
              32.7979527660794
            ],
            [
              -111.05626921180675,
              33.03328971848694
            ],
            [
              -111.10742768185342,
              33.39241889320814
            ],
            [
              -111.66304988460614,
              34.200250404271166
            ],
            [
              -111.92731897224517,
              35.21654356493321
            ],
            [
              -111.79031550375285,
              35.41208090183834
            ],
            [
              -111.3942214572863,
              35.36128886155374
            ],
            [
              -109.63455879422624,
              34.21366092168871
            ],
            [
              -109.19526570704217,
              34.20709384697132
            ],
            [
              -107.57120563055008,
              35.83010496114084
            ],
            [
              -106.22530999520768,
              36.77950569839612
            ],
            [
              -105.42107525334153,
              37.1445460107766
            ],
            [
              -104.37181483234703,
              37.33982347418221
            ],
            [
              -102.58079182382077,
              38.231241293155726
            ],
            [
              -102.02495954809774,
              38.388189522219534
            ],
            [
              -101.56977675528601,
              38.361640284133316
            ],
            [
              -101.10463307148453,
              38.15636967815565
            ],
            [
              -100.98118681540994,
              37.98224621813502
            ],
            [
              -100.95147172696602,
              37.4484562902555
            ],
            [
              -101.41385916913399,
              35.7751689280851
            ],
            [
              -101.75346346440556,
              34.997224713156314
            ],
            [
              -102.58673524193154,
              33.51630277332882
            ],
            [
              -103.45509187099873,
              31.340334173143972
            ],
            [
              -103.8801419884186,
              30.63408837433902
            ],
            [
              -104.22029454442058,
              30.249835390331867
            ],
            [
              -104.71196372618405,
              29.80901803432105
            ],
            [
              -104.81659811146449,
              29.80261976433399
            ],
            [
              -104.90758450880598,
              30.25349132439746
            ]
          ],
          [
            [
              -106.00550373828418,
              31.820954191441675
            ],
            [
              -105.38336614526617,
              32.044647916363644
            ],
            [
              -104.3366356802968,
              33.01723931264167
            ],
            [
              -103.7971942843395,
              33.72677700882152
            ],
            [
              -103.43140844800352,
              34.649576498649225
            ],
            [
              -102.42268706782717,
              35.9579238361533
            ],
            [
              -102.2310811367704,
              36.41486369053555
            ],
            [
              -102.24296004560817,
              36.5935672225811
            ],
            [
              -102.36347122939223,
              36.722869387897056
            ],
            [
              -102.59236751531711,
              36.80227258656804
            ],
            [
              -103.48328910668914,
              36.75991719895885
            ],
            [
              -104.29875372171367,
              36.49285856367327
            ],
            [
              -104.71081303125898,
              36.11047126495536
            ],
            [
              -106.42645693246574,
              34.96570720937131
            ],
            [
              -107.22189440191394,
              34.18496432021366
            ],
            [
              -107.77536111986909,
              33.28099551710538
            ],
            [
              -107.88035538531634,
              32.7728709895671
            ],
            [
              -107.82949365782936,
              32.32206468217845
            ],
            [
              -107.5277929253065,
              32.02717753670399
            ],
            [
              -106.74977904962815,
              31.767740368173303
            ],
            [
              -106.00550373828418,
              31.820954191441675
            ]
          ]
        ]
      }
    },
    {
      "type": "Feature",
      "properties": {
        "dn": 2,
        "PRODUCT": "Day 1 Excessive Rainfall Potential Forecast",
        "VALID_TIME": "16Z 09/23/26 - 12Z 09/24/26",
        "OUTLOOK": "Slight (At Least 15%)",
        "ISSUE_TIME": "2026-09-23 15:55:00",
        "START_TIME": "2026-09-23 16:00:00",
        "END_TIME": "2026-09-24 12:00:00",
        "Snippet": "16Z 09/23/26 - 12Z 09/24/26",
        "risk_norm": "SLIGHT"
      },
      "geometry": {
        "type": "Polygon",
        "coordinates": [
          [
            [
              -85.47070968513673,
              34.679465084133895
            ],
            [
              -85.72549393013618,
              34.92000513437407
            ],
            [
              -85.76153163128755,
              35.14739479741413
            ],
            [
              -84.59395661498408,
              36.42784579636678
            ],
            [
              -84.08524553210421,
              37.60515597149914
            ],
            [
              -83.22754051103729,
              38.21852765078423
            ],
            [
              -82.74651117430079,
              38.45250189751733
            ],
            [
              -82.35164658122255,
              38.42401696317097
            ],
            [
              -81.91700952268874,
              38.25774661870646
            ],
            [
              -81.66289212999196,
              38.01447222070842
            ],
            [
              -81.76854628176537,
              37.62018602001041
            ],
            [
              -82.05137694870558,
              37.14920808474891
            ],
            [
              -82.63968064761714,
              36.43024348884964
            ],
            [
              -83.20364653740528,
              35.34561350138312
            ],
            [
              -84.2531769870278,
              34.78505724704993
            ],
            [
              -84.92496566505432,
              34.646953686403734
            ],
            [
              -85.47070968513673,
              34.679465084133895
            ]
          ]
        ]
      }
    },
    {
      "type": "Feature",
      "properties": {
        "dn": 3,
        "PRODUCT": "Day 1 Excessive Rainfall Potential Forecast",
        "VALID_TIME": "16Z 09/23/26 - 12Z 09/24/26",
        "OUTLOOK": "Moderate (At Least 40%)",
        "ISSUE_TIME": "2026-09-23 15:55:00",
        "START_TIME": "2026-09-23 16:00:00",
        "END_TIME": "2026-09-24 12:00:00",
        "Snippet": "16Z 09/23/26 - 12Z 09/24/26",
        "risk_norm": "MODERATE"
      },
      "geometry": {
        "type": "Polygon",
        "coordinates": [
          [
            [
              -106.74977904962815,
              31.767740368173303
            ],
            [
              -107.5277929253065,
              32.02717753670399
            ],
            [
              -107.82949365782936,
              32.32206468217845
            ],
            [
              -107.88035538531634,
              32.7728709895671
            ],
            [
              -107.77536111986909,
              33.28099551710538
            ],
            [
              -107.22189440191394,
              34.18496432021366
            ],
            [
              -106.42645693246574,
              34.96570720937131
            ],
            [
              -104.71081303125898,
              36.11047126495536
            ],
            [
              -104.29875372171367,
              36.49285856367327
            ],
            [
              -103.48328910668914,
              36.75991719895885
            ],
            [
              -102.59236751531711,
              36.80227258656804
            ],
            [
              -102.36347122939223,
              36.722869387897056
            ],
            [
              -102.24296004560817,
              36.5935672225811
            ],
            [
              -102.2310811367704,
              36.41486369053555
            ],
            [
              -102.42268706782717,
              35.9579238361533
            ],
            [
              -103.43140844800352,
              34.649576498649225
            ],
            [
              -103.7971942843395,
              33.72677700882152
            ],
            [
              -104.3366356802968,
              33.01723931264167
            ],
            [
              -105.38336614526617,
              32.044647916363644
            ],
            [
              -106.00550373828418,
              31.820954191441675
            ],
            [
              -106.74977904962815,
              31.767740368173303
            ]
          ]
        ]
      }
    }
  ]
}
