{
  "type": "FeatureCollection",
  "features": [
    {
      "type": "Feature",
      "properties": {
        "dn": 1,
        "PRODUCT": "Day 2 Excessive Rainfall Potential Forecast",
        "VALID_TIME": "12Z 09/24/26 - 12Z 09/25/26",
        "OUTLOOK": "Marginal (At Least 5%)",
        "ISSUE_TIME": "2026-09-23 08:28:00",
        "START_TIME": "2026-09-24 12:00:00",
        "END_TIME": "2026-09-25 12:00:00",
        "Snippet": "12Z 09/24/26 - 12Z 09/25/26",
        "risk_norm": "MARGINAL"
      },
      "geometry": {
        "type": "Polygon",
        "coordinates": [
          [
            [
              -106.0524527273449,
              31.19520214001641
            ],
            [
              -106.53672111250663,
              31.419156804310024
            ],
            [
              -106.56911306512949,
              31.56834619771564
            ],
            [
              -107.96246091385268,
              31.597367977657036
            ],
            [
              -108.07532152085008,
              31.177599435261552
            ],
            [
              -108.76163628034145,
              31.119273452230004
            ],
            [
              -109.0344798478074,
              31.170744275706063
            ],
            [
              -110.73956450880605,
              31.14696319042524
            ],
            [
              -111.28534598770817,
              31.228769081486856
            ],
            [
              -112.01781635944609,
              31.472700670468583
            ],
            [
              -112.08470762913831,
              31.922823518999813
            ],
            [
              -111.59291523028,
              32.61405406805001
            ],
            [
              -111.49816012598923,
              33.07971849589128
            ],
            [
              -111.70522751651762,
              33.37723810413699
            ],
            [
              -113.16966197179231,
              34.67573347249831
            ],
            [
              -113.59973517601796,
              35.26318058183822
            ],
            [
              -113.71182173963194,
              36.24692495585924
            ],
            [
              -113.6611606443728,
              36.92986849945993
            ],
            [
              -113.4526959687699,
              37.358212968928825
            ],
            [
              -112.79505525061026,
              37.833728163807365
            ],
            [
              -112.25063170916613,
              37.979288388287046
            ],
            [
              -111.07444070021353,
              38.093723020719246
            ],
            [
              -109.77029051768596,
              38.523555715563944
            ],
            [
              -108.81277487390324,
              39.04818384393746
            ],
            [
              -107.83203514615373,
              39.92176741464838
            ],
            [
              -106.94669101619576,
              40.249202880159444
            ],
            [
              -106.26702771399125,
              40.38198467240665
            ],
            [
              -105.91725125433052,
              40.359710402735004
            ],
            [
              -105.53503093397828,
              40.02872612041839
            ],
            [
              -105.31105039097037,
              38.93445017461568
            ],
            [
              -104.78710927368711,
              38.20865840034119
            ],
            [
              -104.12988530819231,
              37.799939332349574
            ],
            [
              -103.45196654777138,
              37.790119309412084
            ],
            [
              -103.12148791516975,
              37.895261751771685
            ],
            [
              -102.8011596043354,
              38.131940539901926
            ],
            [
              -102.7576932808357,
              38.311913947988536
            ],
            [
              -102.9102697378424,
              38.838226261116134
            ],
            [
              -102.59567556349077,
              40.002848376318326
            ],
            [
              -102.12726567820815,
              40.72695201045525
            ],
            [
              -101.68635233761552,
              41.096101777165764
            ],
            [
              -100.38544860179057,
              41.79607583348616
            ],
            [
              -98.65589315782672,
              42.53596563472601
            ],
            [
              -97.49343042106825,
              43.205890079385895
            ],
            [
              -96.3665272574622,
              43.260848195422994
            ],
            [
              -95.59358208902503,
              43.091797479434774
            ],
            [
              -95.35451443588704,
              42.8748805306876
            ],
            [
              -95.35251441067719,
              42.31022295432811
            ],
            [
              -95.46831047948818,
              41.91793103348359
            ],
            [
              -95.9273511186402,
              40.86644235261145
            ],
            [
              -96.99811518958381,
              39.271913214598705
            ],
            [
              -97.88942950306493,
              36.36620345411835
            ],
            [
              -98.92629595536653,
              34.27776339096831
            ],
            [
              -99.29054739315937,
              33.81735592882736
            ],
            [
              -99.60801287867237,
              33.58191138788812
            ],
            [
              -100.88859748809443,
              33.17870861401547
            ],
            [
              -101.76402575872437,
              32.46571406230366
            ],
            [
              -103.0950434730415,
              30.767502812605727
            ],
            [
              -103.55606146343217,
              29.831513448868463
            ],
            [
              -103.79836035972284,
              29.543347602069876
            ],
            [
              -104.19829358754035,
              29.291933467692818
            ],
            [
              -104.75781402954834,
              29.71531876159247
            ],
            [
              -105.028860756658,
              30.4282232571379
            ],
            [
              -105.14071785164579,
              30.512037933505663
            ],
            [
              -103.41164283909383,
              32.20620297229232
            ],
            [
              -102.1602817916457,
              33.62565996065167
            ],
            [
              -101.74599110197798,
              33.95971530602365
            ],
            [
              -100.0476588972698,
              34.92258814083763
            ],
            [
              -99.5190963463042,
              35.4330255027573
            ],
            [
              -98.83427680017417,
              36.34733072448114
            ],
            [
              -98.4725379967345,
              37.2046184249228
            ],
            [
              -98.54757219181135,
              37.78263403859663
            ],
            [
              -98.96018426901105,
              38.26341007894852
            ],
            [
              -99.76339255461231,
              38.50967219329948
            ],
            [
              -100.04662672586812,
              38.50164966825213
            ],
            [
              -100.43626153660124,
              38.3565755897584
            ],
            [
              -100.76408891149639,
              38.12316801364479
            ],
            [
              -101.13095160380097,
              37.62052369781558
            ],
            [
              -102.35441760862139,
              36.58919269893396
            ],
            [
              -103.0472737405486,
              36.15396373532666
            ],
            [
              -103.85207443946663,
              35.79892689431813
            ],
            [
              -104.76951785645682,
              35.52274558793573
            ],
            [
              -106.29900959210019,
              35.33561655581523
            ],
            [
              -108.22851535162843,
              34.831213311004944
            ],
            [
              -108.5447398608519,
              34.71502745950024
            ],
            [
              -108.789725240137,
              34.4678650285787
            ],
            [
              -108.96774243239116,
              32.81850558493251
            ],
            [
              -108.86733402985962,
              31.551544373171474
            ],
            [
              -108.76578482329539,
              31.149654715768065
            ],
            [
              -108.07872992934661,
              31.207737299743084
            ],
            [
              -108.06133229003933,
              31.528770695221137
            ],
            [
              -107.96585227245663,
              31.627482834813662
            ],
            [
              -106.57214006156336,
              31.59849096460713
            ],
            [
              -106.50139755772729,
              31.421726090934403
            ],
            [
              -106.05533553879603,
              31.22537912424851
            ],
            [
              -105.146738781508,
              30.516549424599635
            ],
            [
              -106.0524527273449,
              31.19520214001641
            ]
          ]
        ]
      }
    },
    {
      "type": "Feature",
      "properties": {
        "dn": 2,
        "PRODUCT": "Day 2 Excessive Rainfall Potential Forecast",
        "VALID_TIME": "12Z 09/24/26 - 12Z 09/25/26",
        "OUTLOOK": "Slight (At Least 15%)",
        "ISSUE_TIME": "2026-09-23 08:28:00",
        "START_TIME": "2026-09-24 12:00:00",
        "END_TIME": "2026-09-25 12:00:00",
        "Snippet": "12Z 09/24/26 - 12Z 09/25/26",
        "risk_norm": "SLIGHT"
      },
      "geometry": {
        "type": "Polygon",
        "coordinates": [
          [
            [
              -105.14082334200606,
              30.51193457299267
            ],
            [
              -106.05533553879603,
              31.22537912424851
            ],
            [
              -106.50139755772729,
              31.421726090934403
            ],
            [
              -106.57214006156336,
              31.59849096460713
            ],
            [
              -107.96585227245663,
              31.627482834813662
            ],
            [
              -108.06133229003933,
              31.528770695221137
            ],
            [
              -108.07872992934661,
              31.207737299743084
            ],
            [
              -108.76578482329539,
              31.149654715768065
            ],
            [
              -108.86733402985962,
              31.551544373171474
            ],
            [
              -108.96774243239116,
              32.81850558493251
            ],
            [
              -108.789725240137,
              34.4678650285787
            ],
            [
              -108.5447398608519,
              34.71502745950024
            ],
            [
              -108.22851535162843,
              34.831213311004944
            ],
            [
              -106.29900959210019,
              35.33561655581523
            ],
            [
              -104.76951785645682,
              35.52274558793573
            ],
            [
              -103.85207443946663,
              35.79892689431813
            ],
            [
              -103.0472737405486,
              36.15396373532666
            ],
            [
              -102.35441760862139,
              36.58919269893396
            ],
            [
              -101.13095160380097,
              37.62052369781558
            ],
            [
              -100.76408891149639,
              38.12316801364479
            ],
            [
              -100.43626153660124,
              38.3565755897584
            ],
            [
              -100.04662672586812,
              38.50164966825213
            ],
            [
              -99.76339255461231,
              38.50967219329948
            ],
            [
              -98.96018426901105,
              38.26341007894852
            ],
            [
              -98.54757219181135,
              37.78263403859663
            ],
            [
              -98.4725379967345,
              37.2046184249228
            ],
            [
              -98.83427680017417,
              36.34733072448114
            ],
            [
              -99.5190963463042,
              35.4330255027573
            ],
            [
              -100.0476588972698,
              34.92258814083763
            ],
            [
              -101.74599110197798,
              33.95971530602365
            ],
            [
              -102.1602817916457,
              33.62565996065167
            ],
            [
              -103.41164283909383,
              32.20620297229232
            ],
            [
              -105.14082334200606,
              30.51193457299267
            ]
          ]
        ]
      }
    }
  ]
}
