{"type": "FeatureCollection", "features": [{"type": "Feature", "properties": {"dn": 1, "PRODUCT": "Day 1 Excessive Rainfall Potential Forecast", "VALID_TIME": "16Z 09/09/26 - 12Z 09/10/26", "OUTLOOK": "Marginal (At Least 5%)", "ISSUE_TIME": "2026-09-09 15:42:00", "START_TIME": "2026-09-09 16:00:00", "END_TIME": "2026-09-10 12:00:00", "Snippet": "16Z 09/09/26 - 12Z 09/10/26"}, "geometry": {"type": "Polygon", "coordinates": [[[-81.91316595771532, 25.61870906965235], [-82.1181065867413, 26.09627964729339], [-82.2642860577806, 26.15368335589894], [-82.53643912279504, 26.498454800815157], [-83.17876934092348, 27.78744444256655], [-82.98359283206753, 28.184478088199036], [-82.43860829355755, 28.416580515555527], [-81.92266365085827, 28.373535564194015], [-81.72652366530464, 28.265047593494405], [-81.40133343259848, 27.914679901573358], [-81.32980890511907, 27.63309624640222], [-81.2845721284071, 27.124317132027503], [-81.38741485692354, 26.215581358138458], [-81.58462808662944, 25.820124193349148], [-81.91316595771532, 25.61870906965235]]]}}, {"type": "Feature", "properties": {"dn": 1, "PRODUCT": "Day 1 Excessive Rainfall Potential Forecast", "VALID_TIME": "16Z 09/09/26 - 12Z 09/10/26", "OUTLOOK": "Marginal (At Least 5%)", "ISSUE_TIME": "2026-09-09 15:42:00", "START_TIME": "2026-09-09 16:00:00", "END_TIME": "2026-09-10 12:00:00", "Snippet": "16Z 09/09/26 - 12Z 09/10/26"}, "geometry": {"type": "Polygon", "coordinates": [[[-113.25627299851355, 31.838158932693048], [-113.10237833646195, 32.90708025802917], [-112.69285200801663, 34.45537506053781], [-112.53258124578915, 34.835858368325624], [-112.24721032528643, 35.13901161541564], [-111.66077275015282, 35.289835194984406], [-109.72224764464966, 35.292854510663496], [-107.45605345913613, 35.794155614873446], [-106.7136626068804, 36.11791250653355], [-106.16619457135498, 36.738127708646616], [-105.74989046273446, 37.615613240119], [-105.44824792185763, 37.9914492843102], [-105.02215873821159, 38.285126650257375], [-104.36842270145003, 38.58881805863386], [-103.08287557308572, 38.87555767727203], [-101.54606112434072, 38.895798491562466], [-100.01306291112898, 38.990985930999535], [-97.80083277897403, 39.35023800871856], [-90.95184023830153, 40.60439775693915], [-89.71795606758762, 40.9674188301811], [-88.28069152586451, 41.6204767028819], [-87.33107057273239, 41.80143361280421], [-83.67129556416847, 42.003774377104634], [-82.94963657449908, 42.13240104215474], [-82.74756275819861, 41.85631426876429], [-82.51436228639966, 41.84042133809318], [-81.26070402531013, 42.406627481895526], [-79.54933668946785, 42.75106049076701], [-79.22165902066737, 42.94155693716537], [-77.7813153647464, 43.33637750722742], [-76.84706810951901, 43.856227075879474], [-76.52916068956802, 44.2594847389758], [-75.62050702152317, 44.86149209774918], [-74.88210589198688, 45.17468476094672], [-71.75592308532418, 45.16527476571578], [-71.60681553461849, 45.27615893875982], [-71.56509177735084, 45.444221266004], [-70.91366164768066, 45.579717800497654], [-70.57622010939406, 45.92610409675092], [-70.33945050481304, 46.585307239688944], [-70.28772701268329, 46.535777265170495], [-70.19146992598972, 45.96334270571683], [-70.52057379473563, 44.704724240998715], [-70.76212501288423, 43.99398691723574], [-71.03351527405391, 43.63502642040632], [-71.64515607242838, 43.36151125267687], [-72.4077142300946, 43.193211726332684], [-74.07294029498071, 42.99527461411575], [-74.60214461832166, 42.74863104502474], [-75.43246905256407, 42.17951160101447], [-75.87258889482676, 42.050397421480284], [-76.84194855785073, 41.93007096244054], [-77.34476561460569, 41.75978374781571], [-78.0765799833912, 41.25805304308741], [-79.10709679258424, 40.291966862900466], [-81.82245833657802, 38.56142506447563], [-82.42394626798705, 38.29418081269126], [-82.89489920258023, 38.149494611129555], [-85.19380378013133, 37.8053932590879], [-86.00286678598799, 37.58203752297905], [-87.98948957637357, 36.468107751276], [-89.01179926974102, 36.104195669496164], [-89.4571790714092, 36.07466244599517], [-90.11780348630637, 36.184856431440295], [-91.98755940449459, 36.81051828135448], [-92.93513265101825, 36.869411141101885], [-93.55157138274637, 36.69702379443123], [-95.82767657645792, 35.491427061633104], [-96.70548747730402, 35.215192078459296], [-97.63907292090713, 35.15801245707019], [-99.84407894123659, 35.288127098738], [-100.99850796663173, 35.25041695757052], [-101.92960593653481, 35.16912220407457], [-102.79814448841336, 34.995391869559555], [-103.69402567198519, 34.49962524193907], [-104.4458981651155, 33.69041440053794], [-105.12225650493394, 32.742987667707176], [-105.71576518897821, 32.15837092508787], [-106.01843568367595, 31.955839132369736], [-106.68278869720191, 31.635328426799934], [-107.96578444528456, 31.62688053767055], [-108.06062585381395, 31.52882876890281], [-108.07866176117668, 31.20713454245347], [-108.97623571561925, 31.13024758539512], [-109.5047995668768, 31.13323626376755], [-108.70277289525475, 31.97621853046493], [-108.54876582281304, 32.49037402259926], [-108.64533031353243, 32.84619035636101], [-108.92029309956992, 33.322732014562995], [-109.28902162558947, 33.654448171411715], [-109.95371396496921, 33.73081491347376], [-110.86356724022824, 33.59892727769262], [-111.20195466328262, 33.29193182531535], [-111.43886878299992, 32.67554623838055], [-111.65950556662102, 32.33332113110009], [-112.4667277714026, 31.606799099558067], [-110.9566209730521, 31.171493167955166], [-109.71067091418384, 31.134400329833994], [-110.95246701233582, 31.141421864001877], [-112.40196166761822, 31.53736141921679], [-113.25627299851355, 31.838158932693048]], [[-102.16135083148961, 37.044085856285975], [-101.94370737273672, 37.14252269107704], [-101.51748025374856, 37.517018882151234], [-101.36500116945142, 37.79028379404289], [-101.38090144609524, 38.056909333835506], [-101.7365758289591, 38.3107534597792], [-102.25414979923745, 38.423178185437614], [-103.99865205610072, 38.25208342071457], [-104.75575323340617, 37.85423180955083], [-105.01639688141705, 37.61552360620353], [-105.10756798450187, 37.38670434332965], [-105.0143562354627, 36.989523034940724], [-104.83437974317391, 36.865263763263144], [-104.26981392228451, 36.80756376629338], [-102.7658129487458, 36.88328318913899], [-102.16135083148961, 37.044085856285975]], [[-94.16121951897156, 37.14828026408536], [-92.47297820448519, 37.53300481566655], [-91.57879075276685, 37.383679107547884], [-90.96204860652475, 37.37019319397047], [-90.44814872325472, 37.58023070712696], [-90.26927994952473, 37.79861209715539], [-90.23762660404239, 38.509256165099785], [-90.44901671664647, 38.869834757128295], [-90.7266498860543, 39.05452870607762], [-91.34397218738451, 39.33404317941272], [-92.2520931650278, 39.57156907602207], [-93.2827116482047, 39.584651634047226], [-94.7151521946442, 39.32773328107844], [-96.30806526132605, 38.7919094439543], [-96.53403215264804, 38.65661917256023], [-96.70075118994662, 38.4332158147044], [-96.68595319047157, 37.49924867028638], [-96.40057652213197, 37.189209610557604], [-96.11970510099026, 37.10202840487347], [-94.16121951897156, 37.14828026408536]]]}}, {"type": "Feature", "properties": {"dn": 1, "PRODUCT": "Day 1 Excessive Rainfall Potential Forecast", "VALID_TIME": "16Z 09/09/26 - 12Z 09/10/26", "OUTLOOK": "Marginal (At Least 5%)", "ISSUE_TIME": "2026-09-09 15:42:00", "START_TIME": "2026-09-09 16:00:00", "END_TIME": "2026-09-10 12:00:00", "Snippet": "16Z 09/09/26 - 12Z 09/10/26"}, "geometry": {"type": "Polygon", "coordinates": [[[-116.33011094098839, 32.41664500571785], [-116.51567845446466, 32.53020688317413], [-117.08693369950609, 33.50642316684156], [-117.24656401471744, 34.0335419415741], [-118.07105519548482, 34.28426476707786], [-118.11734011663809, 34.506298756195925], [-117.96641463842575, 34.84734710707941], [-118.04060028474413, 35.201945587998296], [-118.87470494143608, 36.722181434640824], [-118.9728088336819, 37.16189309984657], [-118.84575719218205, 37.36206433749904], [-118.51431997081818, 37.408536204325486], [-118.25357675711386, 37.26268013454933], [-118.0027227530247, 36.88946766559688], [-117.8216079022772, 35.232498744121436], [-117.60411593280367, 34.98900859101069], [-116.70561789883321, 34.380799631131076], [-116.26276851997359, 33.80000444478629], [-115.85215221350309, 32.48081996812803], [-116.33011094098839, 32.41664500571785]]]}}, {"type": "Feature", "properties": {"dn": 2, "PRODUCT": "Day 1 Excessive Rainfall Potential Forecast", "VALID_TIME": "16Z 09/09/26 - 12Z 09/10/26", "OUTLOOK": "Slight (At Least 15%)", "ISSUE_TIME": "2026-09-09 15:42:00", "START_TIME": "2026-09-09 16:00:00", "END_TIME": "2026-09-10 12:00:00", "Snippet": "16Z 09/09/26 - 12Z 09/10/26"}, "geometry": {"type": "Polygon", "coordinates": [[[-109.50939311679888, 31.12840814362826], [-110.9566209730521, 31.171493167955166], [-112.4667277714026, 31.606799099558067], [-111.65950556662102, 32.33332113110009], [-111.43886878299992, 32.67554623838055], [-111.20195466328262, 33.29193182531535], [-110.86356724022824, 33.59892727769262], [-109.95371396496921, 33.73081491347376], [-109.28902162558947, 33.654448171411715], [-108.92029309956992, 33.322732014562995], [-108.64533031353243, 32.84619035636101], [-108.54876582281304, 32.49037402259926], [-108.70277289525475, 31.97621853046493], [-109.50939311679888, 31.12840814362826]]]}}, {"type": "Feature", "properties": {"dn": 2, "PRODUCT": "Day 1 Excessive Rainfall Potential Forecast", "VALID_TIME": "16Z 09/09/26 - 12Z 09/10/26", "OUTLOOK": "Slight (At Least 15%)", "ISSUE_TIME": "2026-09-09 15:42:00", "START_TIME": "2026-09-09 16:00:00", "END_TIME": "2026-09-10 12:00:00", "Snippet": "16Z 09/09/26 - 12Z 09/10/26"}, "geometry": {"type": "Polygon", "coordinates": [[[-104.26981392228451, 36.80756376629338], [-104.83437974317391, 36.865263763263144], [-105.0143562354627, 36.989523034940724], [-105.10756798450187, 37.38670434332965], [-105.01639688141705, 37.61552360620353], [-104.75575323340617, 37.85423180955083], [-103.99865205610072, 38.25208342071457], [-102.25414979923745, 38.423178185437614], [-101.7365758289591, 38.3107534597792], [-101.38090144609524, 38.056909333835506], [-101.36500116945142, 37.79028379404289], [-101.51748025374856, 37.517018882151234], [-101.94370737273672, 37.14252269107704], [-102.16135083148961, 37.044085856285975], [-102.7658129487458, 36.88328318913899], [-104.26981392228451, 36.80756376629338]]]}}, {"type": "Feature", "properties": {"dn": 2, "PRODUCT": "Day 1 Excessive Rainfall Potential Forecast", "VALID_TIME": "16Z 09/09/26 - 12Z 09/10/26", "OUTLOOK": "Slight (At Least 15%)", "ISSUE_TIME": "2026-09-09 15:42:00", "START_TIME": "2026-09-09 16:00:00", "END_TIME": "2026-09-10 12:00:00", "Snippet": "16Z 09/09/26 - 12Z 09/10/26"}, "geometry": {"type": "Polygon", "coordinates": [[[-96.11970510099026, 37.10202840487347], [-96.40057652213197, 37.189209610557604], [-96.68595319047157, 37.49924867028638], [-96.70075118994662, 38.4332158147044], [-96.53403215264804, 38.65661917256023], [-96.30806526132605, 38.7919094439543], [-94.7151521946442, 39.32773328107844], [-93.2827116482047, 39.584651634047226], [-92.2520931650278, 39.57156907602207], [-91.34397218738451, 39.33404317941272], [-90.7266498860543, 39.05452870607762], [-90.44901671664647, 38.869834757128295], [-90.23762660404239, 38.509256165099785], [-90.26927994952473, 37.79861209715539], [-90.44814872325472, 37.58023070712696], [-90.96204860652475, 37.37019319397047], [-91.57879075276685, 37.383679107547884], [-92.47297820448519, 37.53300481566655], [-94.16121951897156, 37.14828026408536], [-96.11970510099026, 37.10202840487347]]]}}]}