{
  "type": "FeatureCollection",
  "features": [
    {
      "type": "Feature",
      "properties": {
        "dn": 1,
        "PRODUCT": "Day 2 Excessive Rainfall Potential Forecast",
        "VALID_TIME": "12Z 09/10/26 - 12Z 09/11/26",
        "OUTLOOK": "Marginal (At Least 5%)",
        "ISSUE_TIME": "2026-09-09 07:53:00",
        "START_TIME": "2026-09-10 12:00:00",
        "END_TIME": "2026-09-11 12:00:00",
        "Snippet": "12Z 09/10/26 - 12Z 09/11/26",
        "risk_norm": "MARGINAL"
      },
      "geometry": {
        "type": "Polygon",
        "coordinates": [
          [
            [
              -100.42233951197382,
              31.335720100285542
            ],
            [
              -101.24059719380767,
              31.714563079145204
            ],
            [
              -101.52079300119166,
              31.93130270440682
            ],
            [
              -101.81437061403484,
              32.37287451505358
            ],
            [
              -101.86869916731413,
              33.276783931109144
            ],
            [
              -101.80960357277038,
              34.09302217595208
            ],
            [
              -101.39725955375668,
              35.46128263622841
            ],
            [
              -101.37329810458226,
              36.00116832734002
            ],
            [
              -101.49986882286501,
              36.26541834365382
            ],
            [
              -102.33907979771767,
              37.17104491602326
            ],
            [
              -102.41027538312365,
              37.39131576170879
            ],
            [
              -102.25016599099912,
              37.5329994653413
            ],
            [
              -100.78864932661011,
              37.54416117138965
            ],
            [
              -98.53056579502687,
              37.24894704390872
            ],
            [
              -97.46427341989835,
              37.17846822575515
            ],
            [
              -96.50945246534415,
              36.96639816287317
            ],
            [
              -95.50368409862202,
              36.97236439594588
            ],
            [
              -94.94482459987876,
              37.10704625083178
            ],
            [
              -93.76483964254776,
              37.54855551324088
            ],
            [
              -90.03916447922589,
              39.12535569450843
            ],
            [
              -86.56762827538792,
              39.700691236690204
            ],
            [
              -85.40763514314585,
              39.81817275841094
            ],
            [
              -84.72085719007077,
              39.77943350157556
            ],
            [
              -84.6152283901913,
              39.684734199643906
            ],
            [
              -84.2152377337613,
              39.66064821209896
            ],
            [
              -81.09962672482186,
              40.150741156543134
            ],
            [
              -79.10482137944294,
              39.93792911781914
            ],
            [
              -78.06422608532957,
              39.929643132622736
            ],
            [
              -77.30406360796157,
              39.63226314616459
            ],
            [
              -76.56611364518383,
              39.55603994583098
            ],
            [
              -75.74021736030241,
              39.64531552987544
            ],
            [
              -75.05162767618361,
              39.61269559976556
            ],
            [
              -74.5591413937128,
              39.46638797443052
            ],
            [
              -74.35034278700479,
              39.3523487844523
            ],
            [
              -74.26256877478527,
              39.20679248208989
            ],
            [
              -74.28862848422649,
              39.075604477141106
            ],
            [
              -74.50058741790416,
              38.876864609998854
            ],
            [
              -75.2515875507632,
              38.56016632394026
            ],
            [
              -76.74040284657576,
              38.231611362318255
            ],
            [
              -78.2619187253569,
              37.98357641901412
            ],
            [
              -79.15827743705788,
              38.06882780438761
            ],
            [
              -81.16117665166433,
              37.077950210240544
            ],
            [
              -82.1607059134664,
              36.70794878959255
            ],
            [
              -83.89132800561683,
              36.20228015195468
            ],
            [
              -85.69697698260858,
              35.90790730798145
            ],
            [
              -87.91039268236162,
              35.97146861896904
            ],
            [
              -92.0243096472597,
              35.46688917506721
            ],
            [
              -93.90045564125333,
              35.2652536148735
            ],
            [
              -94.56134261510492,
              35.08852105796283
            ],
            [
              -95.4383986565174,
              34.6385821642776
            ],
            [
              -96.35794667260193,
              33.86810602774818
            ],
            [
              -98.82877390184744,
              31.382166526995974
            ],
            [
              -99.24552185453472,
              31.144399676813823
            ],
            [
              -99.61485933098018,
              31.088615258261676
            ],
            [
              -100.42233951197382,
              31.335720100285542
            ]
          ],
          [
            [
              -82.8981856976209,
              37.12166257271633
            ],
            [
              -82.26437717657178,
              37.25451909275852
            ],
            [
              -81.6179607979366,
              37.47366494206676
            ],
            [
              -80.71556964267509,
              37.892953928504774
            ],
            [
              -80.2677316229154,
              38.2579526387819
            ],
            [
              -80.12433308322761,
              38.46896693920551
            ],
            [
              -79.97397012516345,
              39.12478758023246
            ],
            [
              -80.12576137106936,
              39.27176841031955
            ],
            [
              -80.92673885476997,
              39.29374102135016
            ],
            [
              -82.03958497239165,
              39.11328436884471
            ],
            [
              -82.84474932843248,
              39.08244025478905
            ],
            [
              -83.96578454310165,
              38.75713306710397
            ],
            [
              -84.45490426903034,
              38.431197328152464
            ],
            [
              -84.48125668501132,
              38.16551202405511
            ],
            [
              -84.18834511774624,
              37.70107193763374
            ],
            [
              -83.72533223335432,
              37.268183060608315
            ],
            [
              -83.5114964882259,
              37.16430464095518
            ],
            [
              -82.8981856976209,
              37.12166257271633
            ]
          ]
        ]
      }
    },
    {
      "type": "Feature",
      "properties": {
        "dn": 1,
        "PRODUCT": "Day 2 Excessive Rainfall Potential Forecast",
        "VALID_TIME": "12Z 09/10/26 - 12Z 09/11/26",
        "OUTLOOK": "Marginal (At Least 5%)",
        "ISSUE_TIME": "2026-09-09 07:53:00",
        "START_TIME": "2026-09-10 12:00:00",
        "END_TIME": "2026-09-11 12:00:00",
        "Snippet": "12Z 09/10/26 - 12Z 09/11/26",
        "risk_norm": "MARGINAL"
      },
      "geometry": {
        "type": "Polygon",
        "coordinates": [
          [
            [
              -108.97623571561925,
              31.13024758539512
            ],
            [
              -110.73956450880605,
              31.14696319042524
            ],
            [
              -111.28534598770817,
              31.228769081486856
            ],
            [
              -113.5424721697708,
              31.94229505193122
            ],
            [
              -113.83964517988866,
              33.415760558694835
            ],
            [
              -113.75349882316975,
              33.88170173516567
            ],
            [
              -113.3397154929117,
              34.70222114425996
            ],
            [
              -113.06418865174295,
              35.05146377493299
            ],
            [
              -112.51476162094615,
              35.42798808664053
            ],
            [
              -111.53710653792977,
              35.57372870458546
            ],
            [
              -110.96330712003888,
              35.44909156893736
            ],
            [
              -110.71763257271427,
              35.29078839281138
            ],
            [
              -110.32128883910701,
              34.8302114522525
            ],
            [
              -109.9594817213854,
              34.59268544921094
            ],
            [
              -109.50115912423166,
              34.45264078006118
            ],
            [
              -108.44153448737886,
              34.31657360977119
            ],
            [
              -107.20180377464118,
              34.50411214338271
            ],
            [
              -106.39887451446097,
              34.697390453294716
            ],
            [
              -105.92549628679653,
              34.91008702899688
            ],
            [
              -105.62855609511658,
              35.24428098644756
            ],
            [
              -105.17079045590901,
              36.262672173594495
            ],
            [
              -104.69520600682883,
              36.56091448497782
            ],
            [
              -104.25469957786633,
              36.63050559357801
            ],
            [
              -104.30731791556371,
              35.95350582735102
            ],
            [
              -104.9104042147643,
              34.02479083133847
            ],
            [
              -105.28254260388753,
              33.32251153360687
            ],
            [
              -105.99885699964177,
              32.321912929628176
            ],
            [
              -106.44251084292726,
              31.3804276965352
            ],
            [
              -106.57207952163469,
              31.597888069269302
            ],
            [
              -107.96578444528456,
              31.62688053767055
            ],
            [
              -108.06062585381395,
              31.52882876890281
            ],
            [
              -108.07866176117668,
              31.20713454245347
            ],
            [
              -108.97623571561925,
              31.13024758539512
            ]
          ]
        ]
      }
    },
    {
      "type": "Feature",
      "properties": {
        "dn": 1,
        "PRODUCT": "Day 2 Excessive Rainfall Potential Forecast",
        "VALID_TIME": "12Z 09/10/26 - 12Z 09/11/26",
        "OUTLOOK": "Marginal (At Least 5%)",
        "ISSUE_TIME": "2026-09-09 07:53:00",
        "START_TIME": "2026-09-10 12:00:00",
        "END_TIME": "2026-09-11 12:00:00",
        "Snippet": "12Z 09/10/26 - 12Z 09/11/26",
        "risk_norm": "MARGINAL"
      },
      "geometry": {
        "type": "Polygon",
        "coordinates": [
          [
            [
              -117.03684355752539,
              32.41308641858792
            ],
            [
              -117.0518403799441,
              33.32807470058935
            ],
            [
              -117.43459287206039,
              34.41899516430982
            ],
            [
              -117.35287383639867,
              34.56813745324767
            ],
            [
              -117.15489968075784,
              34.68640196853507
            ],
            [
              -116.30124173787516,
              34.571895173091825
            ],
            [
              -115.98773331738336,
              34.383613840274286
            ],
            [
              -115.79585583757864,
              33.35798316207889
            ],
            [
              -115.41959475589316,
              32.49097021631434
            ],
            [
              -117.03684355752539,
              32.41308641858792
            ]
          ]
        ]
      }
    },
    {
      "type": "Feature",
      "properties": {
        "dn": 2,
        "PRODUCT": "Day 2 Excessive Rainfall Potential Forecast",
        "VALID_TIME": "12Z 09/10/26 - 12Z 09/11/26",
        "OUTLOOK": "Slight (At Least 15%)",
        "ISSUE_TIME": "2026-09-09 07:53:00",
        "START_TIME": "2026-09-10 12:00:00",
        "END_TIME": "2026-09-11 12:00:00",
        "Snippet": "12Z 09/10/26 - 12Z 09/11/26",
        "risk_norm": "SLIGHT"
      },
      "geometry": {
        "type": "Polygon",
        "coordinates": [
          [
            [
              -83.5114964882259,
              37.16430464095518
            ],
            [
              -83.72533223335432,
              37.268183060608315
            ],
            [
              -84.18834511774624,
              37.70107193763374
            ],
            [
              -84.48125668501132,
              38.16551202405511
            ],
            [
              -84.45490426903034,
              38.431197328152464
            ],
            [
              -83.96578454310165,
              38.75713306710397
            ],
            [
              -82.84474932843248,
              39.08244025478905
            ],
            [
              -82.03958497239165,
              39.11328436884471
            ],
            [
              -80.92673885476997,
              39.29374102135016
            ],
            [
              -80.12576137106936,
              39.27176841031955
            ],
            [
              -79.97397012516345,
              39.12478758023246
            ],
            [
              -80.12433308322761,
              38.46896693920551
            ],
            [
              -80.2677316229154,
              38.2579526387819
            ],
            [
              -80.71556964267509,
              37.892953928504774
            ],
            [
              -81.6179607979366,
              37.47366494206676
            ],
            [
              -82.26437717657178,
              37.25451909275852
            ],
            [
              -82.8981856976209,
              37.12166257271633
            ],
            [
              -83.5114964882259,
              37.16430464095518
            ]
          ]
        ]
      }
    }
  ]
}
