{
  "type": "FeatureCollection",
  "features": [
    {
      "type": "Feature",
      "properties": {
        "dn": 1,
        "PRODUCT": "Day 1 Excessive Rainfall Potential Forecast",
        "VALID_TIME": "16Z 08/19/26 - 12Z 08/20/26",
        "OUTLOOK": "Marginal (At Least 5%)",
        "ISSUE_TIME": "2026-08-19 15:56:00",
        "START_TIME": "2026-08-19 16:00:00",
        "END_TIME": "2026-08-20 12:00:00",
        "Snippet": "16Z 08/19/26 - 12Z 08/20/26",
        "risk_norm": "MARGINAL"
      },
      "geometry": {
        "type": "Polygon",
        "coordinates": [
          [
            [
              -81.64406511580862,
              28.07269622761752
            ],
            [
              -82.04086360050024,
              28.24425782752007
            ],
            [
              -82.18171927380604,
              28.394452054577393
            ],
            [
              -82.49908931852187,
              29.336129384467995
            ],
            [
              -83.07302179442036,
              29.88417062250657
            ],
            [
              -83.20706654804403,
              30.122784716088198
            ],
            [
              -83.10396777581788,
              30.617242227080965
            ],
            [
              -82.98004844189089,
              30.790364199276784
            ],
            [
              -82.64361393640955,
              30.947762956795867
            ],
            [
              -81.06312246851297,
              30.81581457612332
            ],
            [
              -81.13101592915555,
              30.68382020482289
            ],
            [
              -80.91979709382122,
              29.79593975750715
            ],
            [
              -80.22831009726261,
              28.585879083976433
            ],
            [
              -80.68619151707377,
              28.261364823294276
            ],
            [
              -81.11933864305226,
              28.117746440466224
            ],
            [
              -81.64406511580862,
              28.07269622761752
            ]
          ]
        ]
      }
    },
    {
      "type": "Feature",
      "properties": {
        "dn": 1,
        "PRODUCT": "Day 1 Excessive Rainfall Potential Forecast",
        "VALID_TIME": "16Z 08/19/26 - 12Z 08/20/26",
        "OUTLOOK": "Marginal (At Least 5%)",
        "ISSUE_TIME": "2026-08-19 15:56:00",
        "START_TIME": "2026-08-19 16:00:00",
        "END_TIME": "2026-08-20 12:00:00",
        "Snippet": "16Z 08/19/26 - 12Z 08/20/26",
        "risk_norm": "MARGINAL"
      },
      "geometry": {
        "type": "Polygon",
        "coordinates": [
          [
            [
              -110.95246701233582,
              31.141421864001877
            ],
            [
              -111.28118954581055,
              31.199311046051452
            ],
            [
              -114.22237702252988,
              32.136183607974125
            ],
            [
              -113.70416957880944,
              34.57009816945936
            ],
            [
              -113.47577456846527,
              35.1863842193359
            ],
            [
              -113.00272891026611,
              35.692641870680276
            ],
            [
              -112.47633626565765,
              35.88456201820898
            ],
            [
              -110.99945220158985,
              36.07803519553676
            ],
            [
              -109.66510259460763,
              36.11030580275732
            ],
            [
              -109.18626226143408,
              36.28671258801936
            ],
            [
              -108.88991950538345,
              36.58054294234252
            ],
            [
              -108.52995400511732,
              37.28317618512794
            ],
            [
              -108.21470013572068,
              38.38110799720339
            ],
            [
              -107.89547805080876,
              39.02873801598817
            ],
            [
              -107.59112564856869,
              39.362873009019374
            ],
            [
              -106.56284600040433,
              39.921062807705425
            ],
            [
              -105.73101201070249,
              40.23867011095639
            ],
            [
              -104.54405870042359,
              40.526899365618675
            ],
            [
              -103.5635764268275,
              40.57672525424462
            ],
            [
              -102.49566309494222,
              40.22851079780892
            ],
            [
              -102.00727650330258,
              39.85060734440918
            ],
            [
              -101.50715691181512,
              39.206574070686095
            ],
            [
              -101.30431599576144,
              38.68201139710033
            ],
            [
              -101.27540600135576,
              38.19427598648341
            ],
            [
              -101.691399582847,
              36.705876930900956
            ],
            [
              -102.2323302271362,
              35.606902228931
            ],
            [
              -102.90452061073691,
              34.945283961743804
            ],
            [
              -103.69052442455644,
              34.45466995764519
            ],
            [
              -104.09614345486577,
              34.07216067388132
            ],
            [
              -104.24051002020812,
              33.837947255891784
            ],
            [
              -104.40078107797412,
              33.14951596345565
            ],
            [
              -104.59808416052432,
              32.910292295529466
            ],
            [
              -105.0696043679226,
              32.74538400057191
            ],
            [
              -106.51229030883592,
              32.60310480545437
            ],
            [
              -107.56235140732005,
              32.34235482127373
            ],
            [
              -108.00566232161961,
              31.98908735474988
            ],
            [
              -108.39558800441405,
              31.18057992011447
            ],
            [
              -108.97623571561925,
              31.13024758539512
            ],
            [
              -110.95246701233582,
              31.141421864001877
            ]
          ],
          [
            [
              -110.81037851068001,
              31.277972642808514
            ],
            [
              -110.4729546791164,
              31.950823263164306
            ],
            [
              -110.58118180321122,
              32.350905325538115
            ],
            [
              -110.88560300581646,
              32.595015700553
            ],
            [
              -112.0514643009228,
              32.4293738613116
            ],
            [
              -112.40328716929724,
              32.25437504772583
            ],
            [
              -112.54235602142396,
              32.10155662960564
            ],
            [
              -112.60685996270918,
              31.820049982595414
            ],
            [
              -112.51897330694743,
              31.600720628067737
            ],
            [
              -110.9566209730521,
              31.171493167955166
            ],
            [
              -110.81037851068001,
              31.277972642808514
            ]
          ]
        ]
      }
    },
    {
      "type": "Feature",
      "properties": {
        "dn": 1,
        "PRODUCT": "Day 1 Excessive Rainfall Potential Forecast",
        "VALID_TIME": "16Z 08/19/26 - 12Z 08/20/26",
        "OUTLOOK": "Marginal (At Least 5%)",
        "ISSUE_TIME": "2026-08-19 15:56:00",
        "START_TIME": "2026-08-19 16:00:00",
        "END_TIME": "2026-08-20 12:00:00",
        "Snippet": "16Z 08/19/26 - 12Z 08/20/26",
        "risk_norm": "MARGINAL"
      },
      "geometry": {
        "type": "Polygon",
        "coordinates": [
          [
            [
              -89.10814018821492,
              35.34418404975017
            ],
            [
              -89.98229157075454,
              35.50770320064287
            ],
            [
              -91.51568504708517,
              35.86103070138527
            ],
            [
              -92.00849520015169,
              36.049927950956324
            ],
            [
              -92.49999388991694,
              36.41720236092827
            ],
            [
              -92.60723920669994,
              36.59774342593169
            ],
            [
              -92.68723718924667,
              38.070670878090965
            ],
            [
              -92.85030600335487,
              38.383821851762036
            ],
            [
              -93.12834757566526,
              38.60806679720557
            ],
            [
              -94.31757475663224,
              38.97135564363453
            ],
            [
              -97.18709258822304,
              40.063280269151676
            ],
            [
              -97.76581326596914,
              40.18731869371991
            ],
            [
              -98.29364445485648,
              40.44321358387641
            ],
            [
              -98.95381903310758,
              41.088388980615086
            ],
            [
              -99.33386894178958,
              41.823310463250756
            ],
            [
              -99.36009107925442,
              43.77570976389464
            ],
            [
              -99.21451623483537,
              44.55347220810018
            ],
            [
              -98.98693700885701,
              44.90210092981515
            ],
            [
              -98.51025939949402,
              45.08253619682389
            ],
            [
              -97.96588339557498,
              45.09171778429233
            ],
            [
              -97.5390120441074,
              44.96956669858242
            ],
            [
              -97.10731357737617,
              44.63135875279266
            ],
            [
              -96.06798369799164,
              43.21867095867766
            ],
            [
              -95.00081345911057,
              42.39842679146606
            ],
            [
              -94.12204967703197,
              41.91728985302558
            ],
            [
              -93.19104402472678,
              41.561161717735374
            ],
            [
              -92.03142735519594,
              41.283409807455854
            ],
            [
              -90.52046704948889,
              41.20840407666316
            ],
            [
              -89.0067756259976,
              41.20821369381735
            ],
            [
              -87.07659943745357,
              41.308992665258955
            ],
            [
              -85.54182550070695,
              41.49805285752634
            ],
            [
              -84.48578227817573,
              41.52735571008322
            ],
            [
              -80.19228660847389,
              41.225578312909775
            ],
            [
              -79.73628900773174,
              41.14330189850274
            ],
            [
              -79.4664278994704,
              40.98690661841619
            ],
            [
              -79.18807102971316,
              40.520571606327835
            ],
            [
              -79.26456271498574,
              39.64056056821203
            ],
            [
              -79.48768789060252,
              39.30473382222851
            ],
            [
              -79.93697040674782,
              38.98708475951693
            ],
            [
              -82.21997339310954,
              38.100628921864235
            ],
            [
              -83.01481331884163,
              37.57805859710727
            ],
            [
              -84.37057787419079,
              36.41387288330273
            ],
            [
              -85.1962517097881,
              35.92423093178896
            ],
            [
              -86.51173481913014,
              35.411737549381726
            ],
            [
              -87.2942415688364,
              35.26988764296589
            ],
            [
              -88.1761728999324,
              35.26351041095182
            ],
            [
              -89.10814018821492,
              35.34418404975017
            ]
          ],
          [
            [
              -87.7681200897798,
              35.6064724473367
            ],
            [
              -87.207667610459,
              35.71604852862345
            ],
            [
              -86.17171133526753,
              36.20398895214419
            ],
            [
              -85.6793015018015,
              36.76041567262326
            ],
            [
              -85.38562585869903,
              37.549295043368986
            ],
            [
              -85.12469742653862,
              37.93616144877205
            ],
            [
              -84.81394829780986,
              38.230080010398474
            ],
            [
              -83.78191205080499,
              38.87784419770289
            ],
            [
              -83.19047760961804,
              39.060903200639096
            ],
            [
              -82.3341438112783,
              39.045157387708244
            ],
            [
              -81.34756487359964,
              39.148461360131904
            ],
            [
              -80.80729591517989,
              39.32763416989732
            ],
            [
              -80.35364831022711,
              39.690480813528
            ],
            [
              -80.19593198463004,
              39.987780701105756
            ],
            [
              -80.40757873143197,
              40.536508024886885
            ],
            [
              -80.67106034959232,
              40.73503213192011
            ],
            [
              -81.22364147695365,
              40.954939591927236
            ],
            [
              -84.17404961692137,
              41.15736913755088
            ],
            [
              -86.34344867285739,
              41.01150214019549
            ],
            [
              -88.03406347971146,
              40.953387438717996
            ],
            [
              -90.82377229529921,
              40.90838320589457
            ],
            [
              -92.50567930719613,
              40.93965351528733
            ],
            [
              -93.77901210262793,
              41.2157176248244
            ],
            [
              -95.0008074930964,
              41.65712319385045
            ],
            [
              -95.88164376615025,
              42.22139914477381
            ],
            [
              -96.83827530454172,
              43.083211448390394
            ],
            [
              -97.25706354037743,
              43.251747575433555
            ],
            [
              -97.61552166096627,
              43.333569457307654
            ],
            [
              -98.44715651626105,
              43.32004029804287
            ],
            [
              -98.7397691940653,
              43.184133003629036
            ],
            [
              -98.96311543990808,
              42.832749760133126
            ],
            [
              -98.9441910885569,
              42.35516736584173
            ],
            [
              -98.81331593325211,
              42.009467734901406
            ],
            [
              -98.43780894321017,
              41.3179767024268
            ],
            [
              -97.84152761143237,
              40.845878107068124
            ],
            [
              -96.78896965198318,
              40.33231150746299
            ],
            [
              -95.86350755474378,
              40.0310668731828
            ],
            [
              -95.23065865139833,
              39.9448948553589
            ],
            [
              -93.62165317641723,
              39.93967323338444
            ],
            [
              -92.42059647539489,
              39.70568163303356
            ],
            [
              -91.741053218665,
              39.42940654965957
            ],
            [
              -91.51882878708868,
              39.24870528978079
            ],
            [
              -91.35990190102181,
              38.89126210955463
            ],
            [
              -91.20255950552193,
              36.92971147000124
            ],
            [
              -90.99737309851824,
              36.43296734656649
            ],
            [
              -90.35097521389214,
              35.92288727295017
            ],
            [
              -89.80430594161902,
              35.772163835666305
            ],
            [
              -88.48734963890713,
              35.591199580635205
            ],
            [
              -87.7681200897798,
              35.6064724473367
            ]
          ]
        ]
      }
    },
    {
      "type": "Feature",
      "properties": {
        "dn": 2,
        "PRODUCT": "Day 1 Excessive Rainfall Potential Forecast",
        "VALID_TIME": "16Z 08/19/26 - 12Z 08/20/26",
        "OUTLOOK": "Slight (At Least 15%)",
        "ISSUE_TIME": "2026-08-19 15:56:00",
        "START_TIME": "2026-08-19 16:00:00",
        "END_TIME": "2026-08-20 12:00:00",
        "Snippet": "16Z 08/19/26 - 12Z 08/20/26",
        "risk_norm": "SLIGHT"
      },
      "geometry": {
        "type": "Polygon",
        "coordinates": [
          [
            [
              -110.9566209730521,
              31.171493167955166
            ],
            [
              -112.51897330694743,
              31.600720628067737
            ],
            [
              -112.60685996270918,
              31.820049982595414
            ],
            [
              -112.54235602142396,
              32.10155662960564
            ],
            [
              -112.40328716929724,
              32.25437504772583
            ],
            [
              -112.0514643009228,
              32.4293738613116
            ],
            [
              -110.88560300581646,
              32.595015700553
            ],
            [
              -110.58118180321122,
              32.350905325538115
            ],
            [
              -110.4729546791164,
              31.950823263164306
            ],
            [
              -110.81037851068001,
              31.277972642808514
            ],
            [
              -110.9566209730521,
              31.171493167955166
            ]
          ]
        ]
      }
    },
    {
      "type": "Feature",
      "properties": {
        "dn": 2,
        "PRODUCT": "Day 1 Excessive Rainfall Potential Forecast",
        "VALID_TIME": "16Z 08/19/26 - 12Z 08/20/26",
        "OUTLOOK": "Slight (At Least 15%)",
        "ISSUE_TIME": "2026-08-19 15:56:00",
        "START_TIME": "2026-08-19 16:00:00",
        "END_TIME": "2026-08-20 12:00:00",
        "Snippet": "16Z 08/19/26 - 12Z 08/20/26",
        "risk_norm": "SLIGHT"
      },
      "geometry": {
        "type": "Polygon",
        "coordinates": [
          [
            [
              -88.48734963890713,
              35.591199580635205
            ],
            [
              -89.80430594161902,
              35.772163835666305
            ],
            [
              -90.35097521389214,
              35.92288727295017
            ],
            [
              -90.99737309851824,
              36.43296734656649
            ],
            [
              -91.20255950552193,
              36.92971147000124
            ],
            [
              -91.35990190102181,
              38.89126210955463
            ],
            [
              -91.51882878708868,
              39.24870528978079
            ],
            [
              -91.741053218665,
              39.42940654965957
            ],
            [
              -92.42059647539489,
              39.70568163303356
            ],
            [
              -93.62165317641723,
              39.93967323338444
            ],
            [
              -95.23065865139833,
              39.9448948553589
            ],
            [
              -95.86350755474378,
              40.0310668731828
            ],
            [
              -96.78896965198318,
              40.33231150746299
            ],
            [
              -97.84152761143237,
              40.845878107068124
            ],
            [
              -98.43780894321017,
              41.3179767024268
            ],
            [
              -98.81331593325211,
              42.009467734901406
            ],
            [
              -98.9441910885569,
              42.35516736584173
            ],
            [
              -98.96311543990808,
              42.832749760133126
            ],
            [
              -98.7397691940653,
              43.184133003629036
            ],
            [
              -98.44715651626105,
              43.32004029804287
            ],
            [
              -97.61552166096627,
              43.333569457307654
            ],
            [
              -97.25706354037743,
              43.251747575433555
            ],
            [
              -96.83827530454172,
              43.083211448390394
            ],
            [
              -95.88164376615025,
              42.22139914477381
            ],
            [
              -95.0008074930964,
              41.65712319385045
            ],
            [
              -93.77901210262793,
              41.2157176248244
            ],
            [
              -92.50567930719613,
              40.93965351528733
            ],
            [
              -90.82377229529921,
              40.90838320589457
            ],
            [
              -88.03406347971146,
              40.953387438717996
            ],
            [
              -86.34344867285739,
              41.01150214019549
            ],
            [
              -84.17404961692137,
              41.15736913755088
            ],
            [
              -81.22364147695365,
              40.954939591927236
            ],
            [
              -80.67106034959232,
              40.73503213192011
            ],
            [
              -80.40757873143197,
              40.536508024886885
            ],
            [
              -80.19593198463004,
              39.987780701105756
            ],
            [
              -80.35364831022711,
              39.690480813528
            ],
            [
              -80.80729591517989,
              39.32763416989732
            ],
            [
              -81.34756487359964,
              39.148461360131904
            ],
            [
              -82.3341438112783,
              39.045157387708244
            ],
            [
              -83.19047760961804,
              39.060903200639096
            ],
            [
              -83.78191205080499,
              38.87784419770289
            ],
            [
              -84.81394829780986,
              38.230080010398474
            ],
            [
              -85.12469742653862,
              37.93616144877205
            ],
            [
              -85.38562585869903,
              37.549295043368986
            ],
            [
              -85.6793015018015,
              36.76041567262326
            ],
            [
              -86.17171133526753,
              36.20398895214419
            ],
            [
              -87.207667610459,
              35.71604852862345
            ],
            [
              -87.7681200897798,
              35.6064724473367
            ],
            [
              -88.48734963890713,
              35.591199580635205
            ]
          ]
        ]
      }
    }
  ]
}
