{"type": "FeatureCollection", "features": [{"type": "Feature", "properties": {"dn": 1, "PRODUCT": "Day 2 Excessive Rainfall Potential Forecast", "VALID_TIME": "12Z 08/20/26 - 12Z 08/21/26", "OUTLOOK": "Marginal (At Least 5%)", "ISSUE_TIME": "2026-08-19 08:25:00", "START_TIME": "2026-08-20 12:00:00", "END_TIME": "2026-08-21 12:00:00", "Snippet": "12Z 08/20/26 - 12Z 08/21/26"}, "geometry": {"type": "Polygon", "coordinates": [[[-108.97623571561925, 31.13024758539512], [-110.73956450880605, 31.14696319042524], [-111.28534598770817, 31.228769081486856], [-113.65563015505889, 31.974816228965377], [-113.89227890645962, 33.72886271337303], [-114.06540798680705, 36.02592589528478], [-114.0874974609523, 37.107608352544986], [-113.99092636438475, 37.838652916643795], [-113.78200952392598, 38.265794656222035], [-113.2404349185512, 38.77279077408713], [-112.48802497845266, 39.073760851656296], [-111.97201391579955, 39.08032784165494], [-111.41336075556947, 38.820843336266876], [-111.20333116132716, 38.572704669071776], [-110.34626522006067, 36.99373231149586], [-109.87245990784247, 36.81227947939774], [-109.08972840373652, 36.83451944556232], [-108.87907593862826, 36.94178623169141], [-108.58571274834101, 37.27872458946335], [-108.0001160147891, 38.486603181357474], [-107.21876532831772, 39.12287460070646], [-106.27652866229843, 39.408176183204795], [-105.70208454530086, 39.39989834280666], [-105.05802234516234, 39.26077328825711], [-104.46062502309813, 38.98364430389345], [-103.97098523857548, 38.608969507933104], [-103.52821006672559, 38.052903327847645], [-103.37718473870062, 37.56981373858783], [-103.37427941699707, 36.809951347201284], [-103.60919938154133, 35.54139816805685], [-104.20105851913183, 34.021077333191144], [-105.25065659334378, 32.371551715975905], [-105.83733375370252, 31.740746362255848], [-106.33309387881499, 31.34182027941373], [-106.50210402882288, 31.421674705201944], [-106.57207952163469, 31.597888069269302], [-107.96578444528456, 31.62688053767055], [-108.06062585381395, 31.52882876890281], [-108.07866176117668, 31.20713454245347], [-108.97623571561925, 31.13024758539512]]]}}, {"type": "Feature", "properties": {"dn": 1, "PRODUCT": "Day 2 Excessive Rainfall Potential Forecast", "VALID_TIME": "12Z 08/20/26 - 12Z 08/21/26", "OUTLOOK": "Marginal (At Least 5%)", "ISSUE_TIME": "2026-08-19 08:25:00", "START_TIME": "2026-08-20 12:00:00", "END_TIME": "2026-08-21 12:00:00", "Snippet": "12Z 08/20/26 - 12Z 08/21/26"}, "geometry": {"type": "MultiPolygon", "coordinates": [[[[-75.66894187990977, 36.89943813864794], [-75.23969148751151, 35.85421893036425], [-75.70249016219661, 35.77178677387528], [-76.58888395199656, 35.14734323680609], [-77.27856304537025, 34.996179383572056], [-78.27919361197763, 34.964858202332074], [-78.81741330000308, 35.06391921334606], [-79.02263059205528, 35.17447237411364], [-79.20362618415207, 35.46418740112943], [-79.05482683984086, 36.48811048900417], [-78.87833013764354, 36.92149860650235], [-78.78713560280686, 37.900616103333654], [-78.98344661679735, 38.097349371724015], [-79.41275857692774, 38.27108223659649], [-80.6944794328793, 38.47166160575244], [-81.10645657097503, 38.37145484451264], [-81.98102930230424, 37.72600551205933], [-82.83018923028816, 36.219400989427015], [-83.14538230328367, 35.88211598738389], [-83.56510163177407, 35.59534464027791], [-85.1273350578322, 34.839290012940936], [-86.34236149065168, 34.04987653598874], [-87.13450571576959, 33.63786358065241], [-87.80149736646125, 33.39733643579314], [-88.89954196373134, 33.125600395564064], [-89.38936755659172, 33.05280506255107], [-90.14404931442614, 33.07723105750933], [-90.46216030315293, 33.22219243129322], [-90.72465598442398, 33.45631584054303], [-90.98075295598942, 33.86941659649162], [-91.01107665821735, 34.5467098261866], [-90.77550600837519, 34.9911245987521], [-90.02834057422122, 35.73454077894097], [-88.58209282516283, 36.806872674492936], [-86.28866459935455, 38.22276782802075], [-85.03822298482947, 38.866861680588855], [-83.84370277882805, 39.371536517336445], [-80.59270454007738, 40.46410289157301], [-78.88670914286544, 41.33346391826873], [-77.90352007206069, 41.5951792436112], [-77.3093071653503, 41.62595917124902], [-74.25812208226223, 41.25538240234383], [-73.53848337811364, 41.03734641646542], [-73.2013298513817, 40.684421202042174], [-73.18131130808973, 40.503948084048055], [-73.03821466925841, 40.35257219532434], [-73.71015709341064, 40.21221992322814], [-73.81647979138202, 39.510902480819595], [-74.12171379232029, 39.14513458047651], [-74.66658562418245, 38.71720153763917], [-74.77636072974249, 38.146593999733696], [-75.01455630187509, 37.81377607744823], [-74.8136051929531, 38.150993755762], [-74.70402617828958, 38.72161382099384], [-74.15928346740964, 39.149655283597085], [-73.8541674756455, 39.51548077910362], [-73.76486018387675, 39.95129684513544], [-73.84247092122078, 40.1390428138995], [-74.14017874240255, 40.39764831527187], [-74.6538014086961, 40.45752752986024], [-75.30950522321392, 40.086649825864285], [-75.85440742585227, 39.65696083022806], [-76.44157361133671, 38.961650862424804], [-77.13654888062311, 37.915456383699016], [-77.3726332343685, 37.176098125350066], [-77.38496491042581, 36.41119339653407], [-77.13086725001847, 36.24833449011092], [-76.34585673495286, 36.25292392867948], [-76.15722393254588, 36.36783018788794], [-75.52318569446331, 37.10309545421526], [-75.66894187990977, 36.89943813864794]]], [[[-75.517775145433, 37.110655324747555], [-75.33561969684352, 37.49218457901779], [-75.09086610586468, 37.70715247321227], [-75.517775145433, 37.110655324747555]]]]}}, {"type": "Feature", "properties": {"dn": 2, "PRODUCT": "Day 2 Excessive Rainfall Potential Forecast", "VALID_TIME": "12Z 08/20/26 - 12Z 08/21/26", "OUTLOOK": "Slight (At Least 15%)", "ISSUE_TIME": "2026-08-19 08:25:00", "START_TIME": "2026-08-20 12:00:00", "END_TIME": "2026-08-21 12:00:00", "Snippet": "12Z 08/20/26 - 12Z 08/21/26"}, "geometry": {"type": "Polygon", "coordinates": [[[-77.13086725001847, 36.24833449011092], [-77.38496491042581, 36.41119339653407], [-77.3726332343685, 37.176098125350066], [-77.13654888062311, 37.915456383699016], [-76.44157361133671, 38.961650862424804], [-75.85440742585227, 39.65696083022806], [-75.30950522321392, 40.086649825864285], [-74.6538014086961, 40.45752752986024], [-74.14017874240255, 40.39764831527187], [-73.84247092122078, 40.1390428138995], [-73.76486018387675, 39.95129684513544], [-73.8541674756455, 39.51548077910362], [-74.15928346740964, 39.149655283597085], [-74.70402617828958, 38.72161382099384], [-74.8136051929531, 38.150993755762], [-75.06406894801307, 37.73068850621067], [-75.33561969684352, 37.49218457901779], [-75.51915020468996, 37.10777522790198], [-76.15722393254588, 36.36783018788794], [-76.34585673495286, 36.25292392867948], [-77.13086725001847, 36.24833449011092]]]}}]}