{
  "type": "FeatureCollection",
  "features": [
    {
      "type": "Feature",
      "properties": {
        "dn": 1,
        "PRODUCT": "Day 1 Excessive Rainfall Potential Forecast",
        "VALID_TIME": "16Z 09/27/26 - 12Z 09/28/26",
        "OUTLOOK": "Marginal (At Least 5%)",
        "ISSUE_TIME": "2026-09-27 15:34:00",
        "START_TIME": "2026-09-27 16:00:00",
        "END_TIME": "2026-09-28 12:00:00",
        "Snippet": "16Z 09/27/26 - 12Z 09/28/26",
        "risk_norm": "MARGINAL"
      },
      "geometry": {
        "type": "Polygon",
        "coordinates": [
          [
            [
              -100.9658510900255,
              29.49523819582855
            ],
            [
              -101.17963778535014,
              29.578079568768693
            ],
            [
              -101.34740022279668,
              29.754586510501206
            ],
            [
              -101.3170174427395,
              30.16589846996593
            ],
            [
              -100.91390809640502,
              30.546768747457545
            ],
            [
              -100.14481636082527,
              31.074089670907483
            ],
            [
              -99.62397595833865,
              31.317380587000745
            ],
            [
              -99.21172246814962,
              31.645839256341322
            ],
            [
              -98.9090689390973,
              32.1526226647084
            ],
            [
              -98.57266932812496,
              33.382889405234216
            ],
            [
              -98.26119533047377,
              33.841177229411656
            ],
            [
              -97.99327315510992,
              33.9817116224789
            ],
            [
              -97.89032626785873,
              34.209109644937286
            ],
            [
              -97.67562156758706,
              34.39397724245706
            ],
            [
              -97.1324083503832,
              34.53708942673814
            ],
            [
              -96.80450398093548,
              34.54101153375054
            ],
            [
              -96.52582099362807,
              34.227488141859794
            ],
            [
              -96.559004445758,
              32.691026215826064
            ],
            [
              -96.66191901087097,
              32.372972629997335
            ],
            [
              -97.34495694244137,
              31.684268116587972
            ],
            [
              -97.70521204672815,
              31.13367440839907
            ],
            [
              -98.22040160299413,
              30.578524872333013
            ],
            [
              -98.73752087122423,
              30.202178860303654
            ],
            [
              -100.28839185344575,
              29.565301615850668
            ],
            [
              -100.9658510900255,
              29.49523819582855
            ]
          ]
        ]
      }
    },
    {
      "type": "Feature",
      "properties": {
        "dn": 1,
        "PRODUCT": "Day 1 Excessive Rainfall Potential Forecast",
        "VALID_TIME": "16Z 09/27/26 - 12Z 09/28/26",
        "OUTLOOK": "Marginal (At Least 5%)",
        "ISSUE_TIME": "2026-09-27 15:34:00",
        "START_TIME": "2026-09-27 16:00:00",
        "END_TIME": "2026-09-28 12:00:00",
        "Snippet": "16Z 09/27/26 - 12Z 09/28/26",
        "risk_norm": "MARGINAL"
      },
      "geometry": {
        "type": "Polygon",
        "coordinates": [
          [
            [
              -112.50381334070171,
              33.61061709008224
            ],
            [
              -112.91689549809307,
              33.79406478585617
            ],
            [
              -113.2048343962578,
              34.217215487017775
            ],
            [
              -113.31022410022713,
              34.523747604689596
            ],
            [
              -113.34457209985656,
              35.06492553092437
            ],
            [
              -112.93340962560283,
              35.60960335040238
            ],
            [
              -112.47633626565765,
              35.88456201820898
            ],
            [
              -112.14005993346038,
              35.874328220328756
            ],
            [
              -111.61209784106278,
              35.701889556465865
            ],
            [
              -110.27106309314797,
              36.05601760603296
            ],
            [
              -109.7692925215699,
              36.0560550448505
            ],
            [
              -109.41983102469403,
              35.950457471671676
            ],
            [
              -109.21988373070991,
              35.697037484426886
            ],
            [
              -109.30645158220662,
              35.50906975492208
            ],
            [
              -109.74683147059775,
              35.06277817976464
            ],
            [
              -110.54427741042744,
              34.44577908452715
            ],
            [
              -111.64967952954584,
              33.74613635470413
            ],
            [
              -112.50381334070171,
              33.61061709008224
            ]
          ]
        ]
      }
    },
    {
      "type": "Feature",
      "properties": {
        "dn": 1,
        "PRODUCT": "Day 1 Excessive Rainfall Potential Forecast",
        "VALID_TIME": "16Z 09/27/26 - 12Z 09/28/26",
        "OUTLOOK": "Marginal (At Least 5%)",
        "ISSUE_TIME": "2026-09-27 15:34:00",
        "START_TIME": "2026-09-27 16:00:00",
        "END_TIME": "2026-09-28 12:00:00",
        "Snippet": "16Z 09/27/26 - 12Z 09/28/26",
        "risk_norm": "MARGINAL"
      },
      "geometry": {
        "type": "Polygon",
        "coordinates": [
          [
            [
              -74.39396262230755,
              39.13203381845968
            ],
            [
              -74.76418289912574,
              39.31066514980349
            ],
            [
              -74.94805905767272,
              39.55530477476462
            ],
            [
              -75.00239751315655,
              39.87378918010644
            ],
            [
              -74.76065484538397,
              40.513788078018294
            ],
            [
              -74.51822061683946,
              42.299715981700324
            ],
            [
              -74.34840938497156,
              42.54446298299397
            ],
            [
              -73.74012271841369,
              42.87105743375236
            ],
            [
              -72.91424947863625,
              43.080889007796515
            ],
            [
              -72.30019672243353,
              43.13785091051187
            ],
            [
              -71.6473388273701,
              43.100053292672875
            ],
            [
              -70.28327109998115,
              43.49335584426993
            ],
            [
              -69.7237828446818,
              43.549487060629836
            ],
            [
              -69.31437882337042,
              43.493024737042624
            ],
            [
              -69.53470756616218,
              43.3458411065369
            ],
            [
              -69.85825503310913,
              43.25915466357398
            ],
            [
              -70.13090977604622,
              42.89982771004321
            ],
            [
              -69.85485072207551,
              42.33177992011856
            ],
            [
              -69.480651749618,
              41.92469703007804
            ],
            [
              -69.58985992783097,
              41.49577382473789
            ],
            [
              -69.51885318512674,
              41.30758668441631
            ],
            [
              -69.64106716384632,
              41.057617687804694
            ],
            [
              -69.97060606645945,
              40.92507989268513
            ],
            [
              -70.37002540716928,
              40.980953857927666
            ],
            [
              -71.02922283131235,
              40.937482386212295
            ],
            [
              -72.80244941169983,
              40.366731580764885
            ],
            [
              -73.57954567388487,
              40.28460982894157
            ],
            [
              -73.71015709341064,
              40.21221992322814
            ],
            [
              -73.85341372196022,
              39.51538921313792
            ],
            [
              -74.15853207390785,
              39.14956486953465
            ],
            [
              -74.39396262230755,
              39.13203381845968
            ]
          ]
        ]
      }
    }
  ]
}
