{"type": "FeatureCollection", "features": [{"type": "Feature", "properties": {"dn": 1, "PRODUCT": "Day 2 Excessive Rainfall Potential Forecast", "VALID_TIME": "12Z 09/28/26 - 12Z 09/29/26", "OUTLOOK": "Marginal (At Least 5%)", "ISSUE_TIME": "2026-09-27 08:07:00", "START_TIME": "2026-09-28 12:00:00", "END_TIME": "2026-09-29 12:00:00", "Snippet": "12Z 09/28/26 - 12Z 09/29/26"}, "geometry": {"type": "Polygon", "coordinates": [[[-106.0524527273449, 31.19520214001641], [-106.53672111250663, 31.419156804310024], [-106.56911306512949, 31.56834619771564], [-107.96246091385268, 31.597367977657036], [-108.07532152085008, 31.177599435261552], [-108.97266938754481, 31.100727661809906], [-110.95246701233582, 31.141421864001877], [-112.17728432569791, 31.47040305005916], [-114.6757015466769, 32.26302203800554], [-115.0206933748008, 32.67884021378665], [-115.52983317056211, 33.98586157438886], [-115.78743154725176, 35.3652844429651], [-115.67421731739, 36.830067921756765], [-115.40019060900629, 37.76570642194985], [-114.9506953750691, 38.40313555523566], [-114.10798904167672, 39.1263481758358], [-111.4350694825741, 40.774551839862255], [-110.34277786074635, 41.26874975771853], [-109.82837304965548, 41.355951721175494], [-109.41048807865428, 41.30190338539831], [-108.07554420100116, 40.47877755249585], [-107.00920058273807, 40.28915138037906], [-106.57630789732617, 40.05197118165372], [-106.11372372054282, 39.50635294691175], [-105.433138802947, 38.437995870015556], [-104.00149086373578, 36.95682659175213], [-103.54428703130168, 36.128924075946095], [-103.3958422199681, 35.64224235437184], [-103.32803963099302, 34.74504301821641], [-103.4034125194784, 34.28992530177026], [-104.07366537625302, 32.44249141682169], [-104.43592458977166, 30.966228707946883], [-104.88796867358081, 30.025701174061282], [-104.90828457938767, 30.253446935923108], [-105.028860756658, 30.4282232571379], [-105.36593491483877, 30.680793391226793], [-105.02144539773579, 30.975694271740654], [-104.84471006901535, 31.396650869638588], [-104.65524231530702, 32.31769131990534], [-104.0460089577807, 34.120142754135465], [-103.93682903872802, 34.803355238704036], [-104.01328999518331, 35.744890787073516], [-104.16086768280066, 36.18615618025884], [-105.26074481289486, 37.82429111452598], [-106.02132120553446, 38.624055454179405], [-108.27255221783038, 39.755752899405834], [-108.90126556302738, 40.14978577406486], [-109.50944649693683, 40.76457365271962], [-109.81629827383146, 40.871758565259825], [-110.32828279382682, 40.784365128428355], [-111.07881975535794, 40.36421068822552], [-112.28358937971936, 39.22758655936682], [-113.01505497472714, 38.7959758756849], [-113.8122696272864, 38.44226877657638], [-114.51587395871434, 37.91470325645489], [-114.9910846103668, 37.40892411062355], [-115.31757888868037, 36.73795793609101], [-115.42923041629442, 36.135967813822454], [-115.19591471478206, 34.57466832379181], [-114.21410372882816, 33.37159337910998], [-113.84130672918855, 32.77629008456436], [-112.35586296228071, 31.939151611000153], [-112.22280821548019, 31.770735245457203], [-112.18176829486549, 31.500421410696195], [-110.9566209730521, 31.171493167955166], [-108.97630849782487, 31.130850032815246], [-108.07872992934661, 31.207737299743084], [-108.06133229003933, 31.528770695221137], [-107.96585227245663, 31.627482834813662], [-106.57214006156336, 31.59849096460713], [-106.50139755772729, 31.421726090934403], [-106.05533553879603, 31.22537912424851], [-105.42038245111766, 30.721591005653803], [-106.0524527273449, 31.19520214001641]]]}}, {"type": "Feature", "properties": {"dn": 1, "PRODUCT": "Day 2 Excessive Rainfall Potential Forecast", "VALID_TIME": "12Z 09/28/26 - 12Z 09/29/26", "OUTLOOK": "Marginal (At Least 5%)", "ISSUE_TIME": "2026-09-27 08:07:00", "START_TIME": "2026-09-28 12:00:00", "END_TIME": "2026-09-29 12:00:00", "Snippet": "12Z 09/28/26 - 12Z 09/29/26"}, "geometry": {"type": "Polygon", "coordinates": [[[-93.61563975877733, 48.77541400180068], [-93.11109855296515, 48.81290701903468], [-92.67239385498338, 48.725376907788096], [-91.73810280900396, 48.42066070688028], [-94.25600113555743, 47.4831676781632], [-95.98140654169657, 46.30161021700735], [-97.73975900310774, 45.64788708840401], [-98.81257465521627, 45.07505944684044], [-99.41327488016239, 44.97663268191669], [-100.27753407737804, 45.2967979916219], [-101.10450427294619, 45.870004229075334], [-101.44106018506623, 46.32631443083939], [-101.53776212180775, 46.830890208813386], [-101.33179660486266, 47.42737024977645], [-100.98735642669489, 47.857443313701395], [-99.2991819363468, 49.10841763402931], [-96.96243079810161, 49.212128899544155], [-95.50687889399403, 49.17943356199422], [-95.44550005896185, 49.551209439651444], [-94.61977255331519, 49.551338399228996], [-94.36984016981907, 48.972094486489055], [-94.2764231475614, 48.94773318285306], [-94.43243559463252, 48.98581320974678], [-94.61989133789145, 49.52385458659415], [-95.44536088323227, 49.523725635056174], [-95.50672120867786, 49.15185759415107], [-96.96182009869527, 49.18456367382117], [-99.35503729167394, 47.64791105676311], [-99.5867934338575, 47.30683754954643], [-99.57842326627183, 47.138726861024864], [-99.3206993202696, 46.93338773484064], [-98.7673123247687, 46.986815579215865], [-96.4912157255208, 47.5213845657876], [-94.87580307874184, 48.154488775293544], [-93.75096197141426, 48.81070334662319], [-93.61563975877733, 48.77541400180068]]]}}, {"type": "Feature", "properties": {"dn": 2, "PRODUCT": "Day 2 Excessive Rainfall Potential Forecast", "VALID_TIME": "12Z 09/28/26 - 12Z 09/29/26", "OUTLOOK": "Slight (At Least 15%)", "ISSUE_TIME": "2026-09-27 08:07:00", "START_TIME": "2026-09-28 12:00:00", "END_TIME": "2026-09-29 12:00:00", "Snippet": "12Z 09/28/26 - 12Z 09/29/26"}, "geometry": {"type": "Polygon", "coordinates": [[[-106.05533553879603, 31.22537912424851], [-106.50139755772729, 31.421726090934403], [-106.57214006156336, 31.59849096460713], [-107.96585227245663, 31.627482834813662], [-108.06133229003933, 31.528770695221137], [-108.07872992934661, 31.207737299743084], [-108.97630849782487, 31.130850032815246], [-110.9566209730521, 31.171493167955166], [-112.18176829486549, 31.500421410696195], [-112.22280821548019, 31.770735245457203], [-112.35586296228071, 31.939151611000153], [-113.84130672918855, 32.77629008456436], [-114.21410372882816, 33.37159337910998], [-115.19591471478206, 34.57466832379181], [-115.42923041629442, 36.135967813822454], [-115.31757888868037, 36.73795793609101], [-114.9910846103668, 37.40892411062355], [-114.51587395871434, 37.91470325645489], [-113.8122696272864, 38.44226877657638], [-113.01505497472714, 38.7959758756849], [-112.28358937971936, 39.22758655936682], [-111.07881975535794, 40.36421068822552], [-110.32828279382682, 40.784365128428355], [-109.81629827383146, 40.871758565259825], [-109.50944649693683, 40.76457365271962], [-108.90126556302738, 40.14978577406486], [-108.27255221783038, 39.755752899405834], [-106.02132120553446, 38.624055454179405], [-105.26074481289486, 37.82429111452598], [-104.16086768280066, 36.18615618025884], [-104.01328999518331, 35.744890787073516], [-103.93682903872802, 34.803355238704036], [-104.0460089577807, 34.120142754135465], [-104.65524231530702, 32.31769131990534], [-104.84471006901535, 31.396650869638588], [-105.02144539773579, 30.975694271740654], [-105.36739141353782, 30.679546552854394], [-106.05533553879603, 31.22537912424851]], [[-105.15149311478736, 33.058569651349984], [-104.85986037400423, 33.43940724950882], [-104.94476547317528, 35.01628423817627], [-105.10741338071733, 35.592132425746264], [-105.75809284142221, 36.58521721447046], [-106.76633464303487, 37.638001923080296], [-107.1888647974084, 37.87674434051205], [-108.12439620524492, 38.120390158149725], [-108.7434662218912, 38.51840117173458], [-109.25681825097469, 38.52138606512311], [-110.93568726537546, 37.92684493697367], [-112.43086310228617, 37.69104445986463], [-113.29519167592319, 37.10533351097667], [-113.67723503736889, 36.70251670584372], [-113.9385421167013, 36.26659058426424], [-114.11969645408793, 35.70264536504435], [-114.05776439174367, 35.34703020427742], [-113.53336481884321, 34.54407421428477], [-113.08844233486886, 34.18450432708728], [-112.22941734641961, 33.9593025856846], [-111.1842110503058, 33.930307002160845], [-109.34286572935652, 33.649061902209816], [-108.28656778981305, 33.01241449374979], [-107.90570215011557, 32.99791946899345], [-107.49090936457966, 33.16701936130032], [-107.51081903722186, 33.34706593099237], [-107.76687828798588, 33.69005937351281], [-107.80269587894047, 34.0045726993163], [-107.08200332668491, 34.918819271760306], [-106.97619779279218, 35.46799096592801], [-106.87623706028818, 35.56513022361076], [-106.70660196280839, 35.532101727498514], [-106.30816081233802, 34.883390668251565], [-106.19987323232777, 33.261633452740995], [-105.90425609272692, 33.00946487715328], [-105.73873638713556, 32.97519072149137], [-105.15149311478736, 33.058569651349984]]]}}, {"type": "Feature", "properties": {"dn": 2, "PRODUCT": "Day 2 Excessive Rainfall Potential Forecast", "VALID_TIME": "12Z 09/28/26 - 12Z 09/29/26", "OUTLOOK": "Slight (At Least 15%)", "ISSUE_TIME": "2026-09-27 08:07:00", "START_TIME": "2026-09-28 12:00:00", "END_TIME": "2026-09-29 12:00:00", "Snippet": "12Z 09/28/26 - 12Z 09/29/26"}, "geometry": {"type": "Polygon", "coordinates": [[[-99.3206993202696, 46.93338773484064], [-99.57842326627183, 47.138726861024864], [-99.5867934338575, 47.30683754954643], [-99.35503729167394, 47.64791105676311], [-96.96182009869527, 49.18456367382117], [-95.50672120867786, 49.15185759415107], [-95.44536088323227, 49.523725635056174], [-94.61989133789145, 49.52385458659415], [-94.43243559463252, 48.98581320974678], [-93.74035906718665, 48.81688891381775], [-94.87580307874184, 48.154488775293544], [-96.4912157255208, 47.5213845657876], [-98.7673123247687, 46.986815579215865], [-99.3206993202696, 46.93338773484064]]]}}, {"type": "Feature", "properties": {"dn": 3, "PRODUCT": "Day 2 Excessive Rainfall Potential Forecast", "VALID_TIME": "12Z 09/28/26 - 12Z 09/29/26", "OUTLOOK": "Moderate (At Least 40%)", "ISSUE_TIME": "2026-09-27 08:07:00", "START_TIME": "2026-09-28 12:00:00", "END_TIME": "2026-09-29 12:00:00", "Snippet": "12Z 09/28/26 - 12Z 09/29/26"}, "geometry": {"type": "Polygon", "coordinates": [[[-105.73873638713556, 32.97519072149137], [-105.90425609272692, 33.00946487715328], [-106.19987323232777, 33.261633452740995], [-106.30816081233802, 34.883390668251565], [-106.70660196280839, 35.532101727498514], [-106.87623706028818, 35.56513022361076], [-106.97619779279218, 35.46799096592801], [-107.08200332668491, 34.918819271760306], [-107.80269587894047, 34.0045726993163], [-107.76687828798588, 33.69005937351281], [-107.51081903722186, 33.34706593099237], [-107.49090936457966, 33.16701936130032], [-107.90570215011557, 32.99791946899345], [-108.28656778981305, 33.01241449374979], [-109.34286572935652, 33.649061902209816], [-111.1842110503058, 33.930307002160845], [-112.22941734641961, 33.9593025856846], [-113.08844233486886, 34.18450432708728], [-113.53336481884321, 34.54407421428477], [-114.05776439174367, 35.34703020427742], [-114.11969645408793, 35.70264536504435], [-113.9385421167013, 36.26659058426424], [-113.67723503736889, 36.70251670584372], [-113.29519167592319, 37.10533351097667], [-112.43086310228617, 37.69104445986463], [-110.93568726537546, 37.92684493697367], [-109.25681825097469, 38.52138606512311], [-108.7434662218912, 38.51840117173458], [-108.12439620524492, 38.120390158149725], [-107.1888647974084, 37.87674434051205], [-106.76633464303487, 37.638001923080296], [-105.75809284142221, 36.58521721447046], [-105.10741338071733, 35.592132425746264], [-104.94476547317528, 35.01628423817627], [-104.85986037400423, 33.43940724950882], [-105.15149311478736, 33.058569651349984], [-105.73873638713556, 32.97519072149137]]]}}]}