{"type": "FeatureCollection", "features": [{"type": "Feature", "properties": {"dn": 1, "PRODUCT": "Day 1 Excessive Rainfall Potential Forecast", "VALID_TIME": "16Z 09/25/26 - 12Z 09/26/26", "OUTLOOK": "Marginal (At Least 5%)", "ISSUE_TIME": "2026-09-25 16:06:00", "START_TIME": "2026-09-25 16:00:00", "END_TIME": "2026-09-26 12:00:00", "Snippet": "16Z 09/25/26 - 12Z 09/26/26"}, "geometry": {"type": "Polygon", "coordinates": [[[-104.64208958358151, 29.585567873281928], [-104.87761417462117, 29.890359737728467], [-104.90828457938767, 30.253446935923108], [-105.028860756658, 30.4282232571379], [-105.82356847958788, 31.01386799018486], [-105.8891489389438, 31.146080132615314], [-106.57207952163469, 31.597888069269302], [-106.73126005251748, 31.586206199137052], [-107.28572232988316, 31.772058288389676], [-107.63532983654729, 32.01887398894633], [-108.14377688416927, 32.706066638597804], [-108.23399775505584, 33.01692149822666], [-108.58711522325103, 33.259307679985575], [-110.38009878386615, 34.052964457250276], [-111.04000233577348, 34.4442094692905], [-111.49903069959804, 34.94282575284056], [-111.50455737047065, 35.34986391672273], [-111.23580363322782, 35.783361385710215], [-110.3106821851976, 36.7271683420082], [-109.58393115439657, 38.40459057982803], [-109.29272107640233, 38.786685693813666], [-108.76186825088513, 39.09670633306729], [-108.26801994124632, 39.26836597215621], [-106.8710603854549, 39.59057395004778], [-104.9179302240145, 40.19776158299652], [-104.28574396862864, 40.23200955000516], [-104.04806652320877, 40.15606645045376], [-103.67259135660969, 39.82074717112807], [-103.64332585013445, 39.46835742848758], [-104.90258834467343, 37.622157797564775], [-105.03749739035027, 37.256688538764976], [-104.96926974968964, 37.12647794223781], [-104.61572218582634, 36.92396114386219], [-103.82088462403216, 36.78813788544392], [-102.81843052151656, 36.83745043393375], [-102.37868926045964, 36.946670334896595], [-101.83482175438596, 37.19295904055512], [-101.40696523168917, 37.521200112742214], [-100.98536768657725, 38.02661544198762], [-99.74850617051905, 40.67415153607255], [-98.70629199453496, 42.27308178890697], [-97.96793484036152, 43.15476619017942], [-97.26600759191696, 43.640981390933895], [-96.43470162472819, 43.864804338391984], [-95.53854639395448, 43.869506245295916], [-94.64313074562367, 43.654345159929], [-94.2266843126709, 43.39311055725423], [-93.93268489979977, 43.088812152499884], [-93.70127857445675, 42.65369669677212], [-93.59000818760234, 42.17455159632223], [-93.65804392485633, 41.476929971972865], [-93.84001496604765, 40.86508799921785], [-94.42571450827042, 39.81228833993483], [-96.23865987491222, 37.81484257057264], [-98.15684189874213, 36.00296247331509], [-98.6313801139073, 35.275024867055315], [-98.93262436519028, 34.45793843542034], [-99.24306797033027, 33.99917890085028], [-99.82464639526312, 33.57563020316061], [-101.25125636419511, 32.89343807975598], [-101.70777332856362, 32.422723412118366], [-101.89207261598038, 31.91570160176969], [-101.9630885853367, 31.32192284262744], [-101.86356814731363, 29.641549183176107], [-102.33806625490003, 29.664618481651512], [-102.49208393197327, 29.611684267347027], [-102.67353584704607, 29.193135991427127], [-102.96863089913445, 28.90342939769026], [-103.43615605750442, 28.87863360121877], [-104.64208958358151, 29.585567873281928]], [[-102.74909049990347, 30.32898881930204], [-102.54699170346372, 30.47595279220371], [-102.5587534819821, 30.657549227497377], [-102.85305442681809, 31.098354244642948], [-102.88079251521268, 31.506332808743828], [-102.74425464621251, 32.64820615927237], [-102.50567435625473, 33.112675494350675], [-102.00855420897368, 33.81354831861232], [-100.33409373423946, 35.18405273024807], [-98.62698858148235, 36.799361156307036], [-97.37826562689943, 38.38082958508471], [-96.60376401511623, 39.58528169804822], [-95.98045770146241, 40.29505483947423], [-95.52430678402168, 41.30619316204225], [-95.52770794638677, 41.96137222477036], [-95.76445532283947, 42.265452637646746], [-96.00149117571404, 42.39526023329055], [-96.4147383327257, 42.479497995363396], [-97.00205978461084, 42.38707402853877], [-97.81611593997425, 42.028020818730546], [-98.44521066686379, 41.53655533483107], [-98.77574659710774, 41.00454015832441], [-99.03823981259227, 40.29588602211792], [-99.06132077031133, 39.41311053055197], [-99.26650817872228, 38.83271337642838], [-99.79851603722638, 38.019316461459375], [-100.60220823504581, 37.19246775552462], [-101.3480139913479, 36.540502680249496], [-102.94640745513229, 35.52984205854854], [-103.96672286134316, 34.48631962698231], [-105.40391870181027, 34.03977874838568], [-105.70840579569041, 33.79331529049209], [-105.94395602758418, 33.415168437495], [-106.02105414282477, 33.092464992704485], [-105.95569472440422, 32.415775610180425], [-105.8316272825212, 32.24240124083304], [-104.53129385491124, 31.461306328094757], [-104.29349179170879, 31.156819178683804], [-103.66979113532359, 30.645363373316904], [-103.17295070892496, 30.353049319077957], [-102.74909049990347, 30.32898881930204]]]}}, {"type": "Feature", "properties": {"dn": 1, "PRODUCT": "Day 1 Excessive Rainfall Potential Forecast", "VALID_TIME": "16Z 09/25/26 - 12Z 09/26/26", "OUTLOOK": "Marginal (At Least 5%)", "ISSUE_TIME": "2026-09-25 16:06:00", "START_TIME": "2026-09-25 16:00:00", "END_TIME": "2026-09-26 12:00:00", "Snippet": "16Z 09/25/26 - 12Z 09/26/26"}, "geometry": {"type": "Polygon", "coordinates": [[[-74.76371835133732, 38.41371081103359], [-74.8460597421889, 39.18602613524772], [-74.67885707266795, 39.747368449925474], [-73.70906003732382, 40.79053217547569], [-72.7560007722047, 41.38520408912121], [-71.40239869304536, 41.61125724967571], [-70.47188584434673, 42.018827543852105], [-69.70420725232295, 42.223125742914924], [-69.51630353280504, 42.01849821459206], [-69.45603368199457, 41.78797503447341], [-69.64106716384632, 41.057617687804694], [-69.97060606645945, 40.92507989268513], [-70.37002540716928, 40.980953857927666], [-71.02922283131235, 40.937482386212295], [-72.80244941169983, 40.366731580764885], [-73.57954567388487, 40.28460982894157], [-73.71015709341064, 40.21221992322814], [-73.85341372196022, 39.51538921313792], [-74.15853207390785, 39.14956486953465], [-74.70327736720743, 38.72152557532674], [-74.76371835133732, 38.41371081103359]]]}}, {"type": "Feature", "properties": {"dn": 2, "PRODUCT": "Day 1 Excessive Rainfall Potential Forecast", "VALID_TIME": "16Z 09/25/26 - 12Z 09/26/26", "OUTLOOK": "Slight (At Least 15%)", "ISSUE_TIME": "2026-09-25 16:06:00", "START_TIME": "2026-09-25 16:00:00", "END_TIME": "2026-09-26 12:00:00", "Snippet": "16Z 09/25/26 - 12Z 09/26/26"}, "geometry": {"type": "Polygon", "coordinates": [[[-103.17295070892496, 30.353049319077957], [-103.66979113532359, 30.645363373316904], [-104.29349179170879, 31.156819178683804], [-104.53129385491124, 31.461306328094757], [-105.8316272825212, 32.24240124083304], [-105.95569472440422, 32.415775610180425], [-106.02105414282477, 33.092464992704485], [-105.94395602758418, 33.415168437495], [-105.70840579569041, 33.79331529049209], [-105.40391870181027, 34.03977874838568], [-103.96672286134316, 34.48631962698231], [-102.94640745513229, 35.52984205854854], [-101.3480139913479, 36.540502680249496], [-100.60220823504581, 37.19246775552462], [-99.79851603722638, 38.019316461459375], [-99.26650817872228, 38.83271337642838], [-99.06132077031133, 39.41311053055197], [-99.03823981259227, 40.29588602211792], [-98.77574659710774, 41.00454015832441], [-98.44521066686379, 41.53655533483107], [-97.81611593997425, 42.028020818730546], [-97.00205978461084, 42.38707402853877], [-96.4147383327257, 42.479497995363396], [-96.00149117571404, 42.39526023329055], [-95.76445532283947, 42.265452637646746], [-95.52770794638677, 41.96137222477036], [-95.52430678402168, 41.30619316204225], [-95.98045770146241, 40.29505483947423], [-96.60376401511623, 39.58528169804822], [-97.37826562689943, 38.38082958508471], [-98.62698858148235, 36.799361156307036], [-100.33409373423946, 35.18405273024807], [-102.00855420897368, 33.81354831861232], [-102.50567435625473, 33.112675494350675], [-102.74425464621251, 32.64820615927237], [-102.88079251521268, 31.506332808743828], [-102.85305442681809, 31.098354244642948], [-102.5587534819821, 30.657549227497377], [-102.54699170346372, 30.47595279220371], [-102.74909049990347, 30.32898881930204], [-103.17295070892496, 30.353049319077957]]]}}]}