{
  "type": "FeatureCollection",
  "features": [
    {
      "type": "Feature",
      "properties": {
        "dn": 1,
        "PRODUCT": "Day 2 Excessive Rainfall Potential Forecast",
        "VALID_TIME": "12Z 09/26/26 - 12Z 09/27/26",
        "OUTLOOK": "Marginal (At Least 5%)",
        "ISSUE_TIME": "2026-09-25 09:06:00",
        "START_TIME": "2026-09-26 12:00:00",
        "END_TIME": "2026-09-27 12:00:00",
        "Snippet": "12Z 09/26/26 - 12Z 09/27/26",
        "risk_norm": "MARGINAL"
      },
      "geometry": {
        "type": "Polygon",
        "coordinates": [
          [
            [
              -103.44579599389522,
              29.745376465266887
            ],
            [
              -103.98273434641654,
              29.897868293675643
            ],
            [
              -104.38307102655733,
              30.285774488301534
            ],
            [
              -104.49458617656718,
              31.00825799935663
            ],
            [
              -104.3579336675813,
              31.289588982192722
            ],
            [
              -104.15212751587343,
              31.39353734243225
            ],
            [
              -103.3594353043942,
              31.482767971026686
            ],
            [
              -102.92518150783742,
              31.36861479120543
            ],
            [
              -102.47895311988664,
              31.07099007158408
            ],
            [
              -102.24169998761492,
              30.672450170791322
            ],
            [
              -102.21919429360204,
              30.30916293216635
            ],
            [
              -102.41615822916935,
              30.071229594198446
            ],
            [
              -102.97483159553983,
              29.770167279106534
            ],
            [
              -103.44579599389522,
              29.745376465266887
            ]
          ]
        ]
      }
    },
    {
      "type": "Feature",
      "properties": {
        "dn": 1,
        "PRODUCT": "Day 2 Excessive Rainfall Potential Forecast",
        "VALID_TIME": "12Z 09/26/26 - 12Z 09/27/26",
        "OUTLOOK": "Marginal (At Least 5%)",
        "ISSUE_TIME": "2026-09-25 09:06:00",
        "START_TIME": "2026-09-26 12:00:00",
        "END_TIME": "2026-09-27 12:00:00",
        "Snippet": "12Z 09/26/26 - 12Z 09/27/26",
        "risk_norm": "MARGINAL"
      },
      "geometry": {
        "type": "Polygon",
        "coordinates": [
          [
            [
              -97.78855101072675,
              36.72494545483251
            ],
            [
              -98.23843433796394,
              36.8510435209458
            ],
            [
              -98.52582737421488,
              37.06958500297062
            ],
            [
              -98.64516604355406,
              37.2902631442501
            ],
            [
              -98.60853935982293,
              37.8704038241922
            ],
            [
              -97.90274252975375,
              38.86080347481105
            ],
            [
              -96.44529105360236,
              40.42383357949466
            ],
            [
              -95.93206290571068,
              41.12942109367847
            ],
            [
              -95.76061004770122,
              41.52401969054045
            ],
            [
              -95.64836564060997,
              42.22237386705434
            ],
            [
              -95.71676038909533,
              43.56612730823652
            ],
            [
              -95.30262053632632,
              44.4712096631664
            ],
            [
              -94.88022264497336,
              44.77237156254738
            ],
            [
              -94.45760515514017,
              44.857268962931684
            ],
            [
              -93.97520545501865,
              44.81248229200819
            ],
            [
              -93.43574736307109,
              44.59457314880951
            ],
            [
              -92.60685240372206,
              43.98342909548133
            ],
            [
              -92.09045767801867,
              43.24225754238659
            ],
            [
              -91.78366713628647,
              41.715536710576174
            ],
            [
              -91.82340592980303,
              40.445339651832015
            ],
            [
              -92.07427440287792,
              39.74484453264103
            ],
            [
              -92.60559663017071,
              39.08996502409534
            ],
            [
              -94.04056933265876,
              38.12709218078346
            ],
            [
              -95.33757316348469,
              37.46177207794737
            ],
            [
              -96.50942757254208,
              36.96461184083265
            ],
            [
              -97.12048228004615,
              36.77934271745603
            ],
            [
              -97.78855101072675,
              36.72494545483251
            ]
          ]
        ]
      }
    },
    {
      "type": "Feature",
      "properties": {
        "dn": 1,
        "PRODUCT": "Day 2 Excessive Rainfall Potential Forecast",
        "VALID_TIME": "12Z 09/26/26 - 12Z 09/27/26",
        "OUTLOOK": "Marginal (At Least 5%)",
        "ISSUE_TIME": "2026-09-25 09:06:00",
        "START_TIME": "2026-09-26 12:00:00",
        "END_TIME": "2026-09-27 12:00:00",
        "Snippet": "12Z 09/26/26 - 12Z 09/27/26",
        "risk_norm": "MARGINAL"
      },
      "geometry": {
        "type": "Polygon",
        "coordinates": [
          [
            [
              -69.44305336651598,
              41.91936207217273
            ],
            [
              -69.55241479439489,
              41.49044848315646
            ],
            [
              -69.48148100216909,
              41.30224108066546
            ],
            [
              -69.60378002774304,
              41.052290131318514
            ],
            [
              -69.9775637217937,
              40.89691470263725
            ],
            [
              -70.3768770012669,
              40.95278175752549
            ],
            [
              -71.03589015795623,
              40.909278873620366
            ],
            [
              -72.80859393724711,
              40.338379645752106
            ],
            [
              -73.58547220549744,
              40.25621955589821
            ],
            [
              -73.67298123944643,
              40.20771864327401
            ],
            [
              -73.80756726783363,
              39.55452703131107
            ],
            [
              -74.15853207390785,
              39.14956486953465
            ],
            [
              -74.70457000196964,
              38.720781147318704
            ],
            [
              -74.8460597421889,
              39.18602613524772
            ],
            [
              -74.87181166647072,
              39.94799297199645
            ],
            [
              -74.60307547843361,
              40.717826020205436
            ],
            [
              -74.2108242673676,
              41.2047088679162
            ],
            [
              -73.81035457671133,
              41.424372001175165
            ],
            [
              -72.8716676209045,
              41.66528928619493
            ],
            [
              -72.33420572787145,
              41.95151988112744
            ],
            [
              -71.71194187731771,
              42.57916399372367
            ],
            [
              -71.07414567953445,
              42.98227416503675
            ],
            [
              -70.75120123091111,
              43.07192210609062
            ],
            [
              -70.01947884476687,
              43.10590366933599
            ],
            [
              -70.13090977604622,
              42.89982771004321
            ],
            [
              -70.02148461269356,
              42.620077911372434
            ],
            [
              -69.98062059910261,
              42.57057494664556
            ],
            [
              -70.32332548248438,
              42.61748974125769
            ],
            [
              -70.8192015572314,
              42.5515407702311
            ],
            [
              -71.24017852879376,
              42.297446278869835
            ],
            [
              -72.01829605384074,
              41.51292480327569
            ],
            [
              -73.47048429190245,
              40.80620368342114
            ],
            [
              -73.71469925356774,
              40.47995744749633
            ],
            [
              -73.84573628978201,
              39.558715810369634
            ],
            [
              -73.71091578430789,
              40.212311786084356
            ],
            [
              -73.57942472426011,
              40.285189222268976
            ],
            [
              -72.80232401321926,
              40.367310191683515
            ],
            [
              -71.02908676342167,
              40.93805796810194
            ],
            [
              -70.36988557871831,
              40.9815287987522
            ],
            [
              -69.97046407349346,
              40.925654692482
            ],
            [
              -69.6418281258076,
              41.05772641344726
            ],
            [
              -69.51961588273812,
              41.307695778370416
            ],
            [
              -69.59062411422764,
              41.49588250517834
            ],
            [
              -69.48141906355886,
              41.92480590676998
            ],
            [
              -69.91610652926516,
              42.49242213093053
            ],
            [
              -69.44305336651598,
              41.91936207217273
            ]
          ]
        ]
      }
    },
    {
      "type": "Feature",
      "properties": {
        "dn": 2,
        "PRODUCT": "Day 2 Excessive Rainfall Potential Forecast",
        "VALID_TIME": "12Z 09/26/26 - 12Z 09/27/26",
        "OUTLOOK": "Slight (At Least 15%)",
        "ISSUE_TIME": "2026-09-25 09:06:00",
        "START_TIME": "2026-09-26 12:00:00",
        "END_TIME": "2026-09-27 12:00:00",
        "Snippet": "12Z 09/26/26 - 12Z 09/27/26",
        "risk_norm": "SLIGHT"
      },
      "geometry": {
        "type": "Polygon",
        "coordinates": [
          [
            [
              -73.84573628978201,
              39.558715810369634
            ],
            [
              -73.71469925356774,
              40.47995744749633
            ],
            [
              -73.47048429190245,
              40.80620368342114
            ],
            [
              -72.01829605384074,
              41.51292480327569
            ],
            [
              -71.24017852879376,
              42.297446278869835
            ],
            [
              -70.8192015572314,
              42.5515407702311
            ],
            [
              -70.32332548248438,
              42.61748974125769
            ],
            [
              -69.97541073045375,
              42.56986173849047
            ],
            [
              -69.48141906355886,
              41.92480590676998
            ],
            [
              -69.59062411422764,
              41.49588250517834
            ],
            [
              -69.51961588273812,
              41.307695778370416
            ],
            [
              -69.6418281258076,
              41.05772641344726
            ],
            [
              -69.97046407349346,
              40.925654692482
            ],
            [
              -70.36988557871831,
              40.9815287987522
            ],
            [
              -71.02908676342167,
              40.93805796810194
            ],
            [
              -72.80232401321926,
              40.367310191683515
            ],
            [
              -73.57942472426011,
              40.285189222268976
            ],
            [
              -73.71091578430789,
              40.212311786084356
            ],
            [
              -73.84573628978201,
              39.558715810369634
            ]
          ]
        ]
      }
    }
  ]
}
