{"type": "FeatureCollection", "features": [{"type": "Feature", "properties": {"dn": 1, "PRODUCT": "Day 1 Excessive Rainfall Potential Forecast", "VALID_TIME": "16Z 09/28/26 - 12Z 09/29/26", "OUTLOOK": "Marginal (At Least 5%)", "ISSUE_TIME": "2026-09-28 15:33:00", "START_TIME": "2026-09-28 16:00:00", "END_TIME": "2026-09-29 12:00:00", "Snippet": "16Z 09/28/26 - 12Z 09/29/26"}, "geometry": {"type": "MultiPolygon", "coordinates": [[[[-115.09679924033458, 32.50111869649095], [-116.06636748564527, 32.45265422961638], [-116.2618877883265, 33.20556343621615], [-116.70941987140172, 34.10631140590567], [-116.81413096073899, 34.64010170443446], [-116.74983409728051, 34.87664231915711], [-115.87664993483456, 36.12581384202495], [-115.81405372268192, 36.677112297185616], [-115.56778172742862, 37.15933927658746], [-115.64422626450394, 37.55603316887716], [-115.56712690637505, 37.74561183058164], [-115.60975732239473, 37.965548960066684], [-115.93047920155745, 38.150596145144746], [-117.24902315219431, 38.43424418279314], [-117.45531091747267, 38.5882191572396], [-117.34319624926404, 39.14173631173508], [-116.84205102111609, 39.78825343815663], [-115.85264021911239, 40.35443903086286], [-114.10500331723567, 41.61385761861727], [-113.12533919787985, 42.06704719577944], [-111.72022816448523, 42.50850982169709], [-110.41875357522906, 42.535218203089364], [-110.14370049836013, 42.29477213491312], [-109.91024563875588, 41.919581689216876], [-109.5888340496497, 41.727162224237986], [-109.22154696711912, 41.62467169049118], [-108.16936857222264, 41.66047299895903], [-107.49803046371683, 41.92717465014363], [-106.97278012113895, 41.962528904293094], [-106.65940032007244, 41.80690673213434], [-105.90487364350912, 40.80031606635159], [-105.49942115297522, 39.67703932281628], [-105.28450436719326, 39.246704049192246], [-105.10097748053835, 39.124334968035505], [-105.00842601154228, 38.15137820806634], [-104.67428424857394, 37.590576889393304], [-104.20403235767998, 37.349422903526936], [-102.80124344013055, 37.374762388115876], [-102.57411033659001, 37.34034778282146], [-102.45171482921762, 37.21083308711799], [-102.47675148161659, 36.76248329028848], [-102.95821986585428, 35.70866482947417], [-103.30456639293307, 34.43040800130532], [-103.90177794613479, 32.99647019196073], [-104.61348273114439, 30.545390452748897], [-104.88413978946535, 29.98031011246922], [-104.90828457938767, 30.253446935923108], [-105.028860756658, 30.4282232571379], [-105.36591378525662, 30.68077755880159], [-105.07034076411915, 30.927018207740538], [-104.84471006901535, 31.396650869638588], [-104.44389794075984, 33.01099950201809], [-104.21521853425871, 33.522583975576524], [-103.91881459403395, 34.57875211609129], [-103.44804988015333, 35.59463395086191], [-103.44451796352038, 36.26860949157094], [-103.76458820746261, 36.79017027435404], [-104.18500689411678, 37.126426993341774], [-104.70335873608944, 37.27653029364985], [-105.0629938089733, 37.52343318678452], [-105.35991652473437, 38.264266288643746], [-105.81767852782775, 38.85923233195513], [-106.24331791679758, 39.09925025676739], [-108.45516217247075, 39.83052065101943], [-108.90126556302738, 40.14978577406486], [-109.44505122341147, 40.72521814595537], [-109.69473509254134, 40.837677858451116], [-109.98918941051063, 40.85732780885308], [-110.37928503512208, 40.735799592951544], [-111.83036476397271, 39.98372808411684], [-112.27922608652875, 39.895779286735966], [-113.12876562505981, 39.45381333638337], [-113.80852828911743, 39.38182935928097], [-114.12394732616093, 39.21351077385875], [-114.90240160111405, 38.45360994028882], [-115.02880502777133, 38.21443238288949], [-114.9767887694349, 37.63585692189682], [-115.294748977912, 36.01645621254319], [-116.35308190735657, 34.8376978900307], [-116.24760844449725, 34.5779704906058], [-115.69056111880698, 33.96544138635782], [-116.02792056137328, 33.41931807837261], [-115.53907528096707, 32.842000727465326], [-115.10267123119826, 32.531211407828], [-115.066383017283, 32.53576887512537], [-115.09679924033458, 32.50111869649095]]], [[[-106.0524527273449, 31.19520214001641], [-106.53672111250663, 31.419156804310024], [-106.56911306512949, 31.56834619771564], [-107.96246091385268, 31.597367977657036], [-108.07532152085008, 31.177599435261552], [-108.97266938754481, 31.100727661809906], [-110.73554955973741, 31.117486416569804], [-111.28118954581055, 31.199311046051452], [-114.38269920928128, 32.13168065041209], [-114.84521402523944, 32.303658939715184], [-115.0079849110899, 32.40573549409972], [-115.04733236750798, 32.53816146224872], [-114.99627245016146, 32.54457412020032], [-114.97261622419799, 32.41017252498343], [-114.67580484025994, 32.263619909431625], [-111.28543081305303, 31.22937026588354], [-110.73964644654218, 31.1475647572386], [-108.97630849782487, 31.130850032815246], [-108.07872992934661, 31.207737299743084], [-108.06133229003933, 31.528770695221137], [-107.96585227245663, 31.627482834813662], [-106.789001217664, 31.628087796750695], [-106.57214006156336, 31.59849096460713], [-106.50139755772729, 31.421726090934403], [-106.05533553879603, 31.22537912424851], [-105.42038245111766, 30.721591005653803], [-106.0524527273449, 31.19520214001641]]]]}}, {"type": "Feature", "properties": {"dn": 1, "PRODUCT": "Day 1 Excessive Rainfall Potential Forecast", "VALID_TIME": "16Z 09/28/26 - 12Z 09/29/26", "OUTLOOK": "Marginal (At Least 5%)", "ISSUE_TIME": "2026-09-28 15:33:00", "START_TIME": "2026-09-28 16:00:00", "END_TIME": "2026-09-29 12:00:00", "Snippet": "16Z 09/28/26 - 12Z 09/29/26"}, "geometry": {"type": "Polygon", "coordinates": [[[-95.50687889399403, 49.17943356199422], [-95.44550005896185, 49.551209439651444], [-94.61977255331519, 49.551338399228996], [-94.36984016981907, 48.972094486489055], [-93.61563975877733, 48.77541400180068], [-93.11109855296515, 48.81290701903468], [-92.67239385498338, 48.725376907788096], [-91.73810280900396, 48.42066070688028], [-94.00635808123913, 47.60791711406464], [-95.79827831504713, 46.38712375071619], [-96.16420024118734, 46.21587046500558], [-98.81768647300117, 45.203160723714596], [-99.71946882917503, 45.054897048119884], [-100.75961207487013, 45.240266322415984], [-101.44852542712829, 45.559921725536384], [-101.7198422255201, 45.93479528816316], [-101.7441350547451, 46.27371893115277], [-101.55564344398843, 47.0834382456005], [-101.05797554459078, 47.98090345457292], [-100.46335879414038, 48.499435699586364], [-99.23798900381549, 49.15107920292415], [-96.6131611867045, 49.17102643263136], [-99.17371862990589, 47.777885427219175], [-99.65083454037601, 47.34739904251399], [-99.87851566000086, 46.96305288035533], [-99.86080937616084, 46.62571649115662], [-99.60596690502022, 46.462207153361184], [-99.29528110913955, 46.384563656353045], [-98.49813774677574, 46.40037069288032], [-98.07158384647246, 46.49213443758137], [-96.85188414133728, 46.92961245048507], [-96.0541342401993, 47.31422272857393], [-93.80334978503532, 48.817264661865316], [-94.43243559463252, 48.98581320974678], [-94.61946921192664, 49.52357891369088], [-95.44536088323227, 49.523725635056174], [-95.50672120867786, 49.15185759415107], [-96.17898772574517, 49.17432590915399], [-95.50687889399403, 49.17943356199422]]]}}, {"type": "Feature", "properties": {"dn": 2, "PRODUCT": "Day 1 Excessive Rainfall Potential Forecast", "VALID_TIME": "16Z 09/28/26 - 12Z 09/29/26", "OUTLOOK": "Slight (At Least 15%)", "ISSUE_TIME": "2026-09-28 15:33:00", "START_TIME": "2026-09-28 16:00:00", "END_TIME": "2026-09-29 12:00:00", "Snippet": "16Z 09/28/26 - 12Z 09/29/26"}, "geometry": {"type": "Polygon", "coordinates": [[[-106.05533553879603, 31.22537912424851], [-106.50139755772729, 31.421726090934403], [-106.57214006156336, 31.59849096460713], [-106.789001217664, 31.628087796750695], [-107.96585227245663, 31.627482834813662], [-108.06133229003933, 31.528770695221137], [-108.07872992934661, 31.207737299743084], [-108.97630849782487, 31.130850032815246], [-110.73964644654218, 31.1475647572386], [-111.28543081305303, 31.22937026588354], [-114.67580484025994, 32.263619909431625], [-114.97261622419799, 32.41017252498343], [-114.99627245016146, 32.54457412020032], [-115.10267123119826, 32.531211407828], [-115.53907528096707, 32.842000727465326], [-116.02792056137328, 33.41931807837261], [-115.69056111880698, 33.96544138635782], [-116.24760844449725, 34.5779704906058], [-116.35308190735657, 34.8376978900307], [-115.294748977912, 36.01645621254319], [-114.9767887694349, 37.63585692189682], [-115.02880502777133, 38.21443238288949], [-114.90240160111405, 38.45360994028882], [-114.12394732616093, 39.21351077385875], [-113.80852828911743, 39.38182935928097], [-113.12876562505981, 39.45381333638337], [-112.27922608652875, 39.895779286735966], [-111.83036476397271, 39.98372808411684], [-110.37928503512208, 40.735799592951544], [-109.98918941051063, 40.85732780885308], [-109.69473509254134, 40.837677858451116], [-109.44505122341147, 40.72521814595537], [-108.90126556302738, 40.14978577406486], [-108.45516217247075, 39.83052065101943], [-106.24331791679758, 39.09925025676739], [-105.81767852782775, 38.85923233195513], [-105.35991652473437, 38.264266288643746], [-105.0629938089733, 37.52343318678452], [-104.70335873608944, 37.27653029364985], [-104.18500689411678, 37.126426993341774], [-103.76458820746261, 36.79017027435404], [-103.44451796352038, 36.26860949157094], [-103.44804988015333, 35.59463395086191], [-103.91881459403395, 34.57875211609129], [-104.21521853425871, 33.522583975576524], [-104.44389794075984, 33.01099950201809], [-104.84471006901535, 31.396650869638588], [-105.07034076411915, 30.927018207740538], [-105.36739141353782, 30.679546552854394], [-106.05533553879603, 31.22537912424851]], [[-107.98418335047586, 32.26387862065578], [-107.62577782820384, 32.42908818894068], [-107.43155768907936, 32.62636755396001], [-107.35387757861919, 32.905054648453095], [-107.40805569385061, 33.400356269258], [-107.77709147958248, 33.77994955341639], [-107.8078290413416, 34.049479556229635], [-107.48357720540558, 34.57247112447985], [-107.08220231246015, 34.91862405581354], [-106.69500153715035, 34.90137903093351], [-106.38981150587144, 34.606748565291355], [-106.09299417703548, 32.724368555916676], [-105.8075540936176, 32.56195524840337], [-105.53982351935403, 32.57975538986716], [-105.38717459691955, 32.68069935789348], [-105.02579018839322, 33.474537746307455], [-104.91524936156705, 34.06972303584763], [-104.62426207689195, 34.49380288569625], [-104.49134596393944, 34.86257803762469], [-104.59254429032288, 35.397543742702524], [-105.25419454788953, 36.57177639291858], [-106.03441831778876, 37.10532081143461], [-106.65454335632339, 37.645846045142825], [-108.12439620524492, 38.120390158149725], [-108.7434662218912, 38.51840117173458], [-108.91845497498839, 38.54898843376257], [-109.47625187651595, 38.45848937681117], [-110.6621832380609, 37.99687160594302], [-111.21555722151342, 37.90054017246766], [-112.07555739185338, 37.95130083485849], [-113.1373975421145, 37.84186640840458], [-113.78355802644886, 37.63704220156751], [-113.93512015376997, 37.53007628954001], [-114.01493386540822, 37.34107838848851], [-113.73869608160415, 37.05652469956915], [-113.68489575021704, 36.74679537021911], [-113.80430286109208, 36.46253547629544], [-114.915012082499, 35.472818454428946], [-115.16037914804913, 34.988621199336954], [-115.17936852391833, 34.48562415785185], [-114.88332886876252, 34.06631876302435], [-114.52864377916926, 33.92681163474358], [-113.28973537489767, 34.07100637761566], [-111.01585708071437, 33.901534347192104], [-109.86998218652214, 33.51070869339001], [-109.3226661099158, 33.06024200681537], [-109.02445943694596, 32.40388046173128], [-108.73572192653252, 32.246580465327156], [-108.40534948925259, 32.18355808926717], [-107.98418335047586, 32.26387862065578]]]}}, {"type": "Feature", "properties": {"dn": 2, "PRODUCT": "Day 1 Excessive Rainfall Potential Forecast", "VALID_TIME": "16Z 09/28/26 - 12Z 09/29/26", "OUTLOOK": "Slight (At Least 15%)", "ISSUE_TIME": "2026-09-28 15:33:00", "START_TIME": "2026-09-28 16:00:00", "END_TIME": "2026-09-29 12:00:00", "Snippet": "16Z 09/28/26 - 12Z 09/29/26"}, "geometry": {"type": "Polygon", "coordinates": [[[-99.29528110913955, 46.384563656353045], [-99.60596690502022, 46.462207153361184], [-99.86080937616084, 46.62571649115662], [-99.87851566000086, 46.96305288035533], [-99.65083454037601, 47.34739904251399], [-99.17371862990589, 47.777885427219175], [-96.58232077161016, 49.18780600030165], [-95.50672120867786, 49.15185759415107], [-95.44536088323227, 49.523725635056174], [-94.61946921192664, 49.52357891369088], [-94.43243559463252, 48.98581320974678], [-93.80334978503532, 48.817264661865316], [-96.0541342401993, 47.31422272857393], [-96.85188414133728, 46.92961245048507], [-98.07158384647246, 46.49213443758137], [-98.49813774677574, 46.40037069288032], [-99.29528110913955, 46.384563656353045]]]}}, {"type": "Feature", "properties": {"dn": 3, "PRODUCT": "Day 1 Excessive Rainfall Potential Forecast", "VALID_TIME": "16Z 09/28/26 - 12Z 09/29/26", "OUTLOOK": "Moderate (At Least 40%)", "ISSUE_TIME": "2026-09-28 15:33:00", "START_TIME": "2026-09-28 16:00:00", "END_TIME": "2026-09-29 12:00:00", "Snippet": "16Z 09/28/26 - 12Z 09/29/26"}, "geometry": {"type": "Polygon", "coordinates": [[[-108.40534948925259, 32.18355808926717], [-108.73572192653252, 32.246580465327156], [-109.02445943694596, 32.40388046173128], [-109.3226661099158, 33.06024200681537], [-109.86998218652214, 33.51070869339001], [-111.01585708071437, 33.901534347192104], [-113.28973537489767, 34.07100637761566], [-114.52864377916926, 33.92681163474358], [-114.88332886876252, 34.06631876302435], [-115.17936852391833, 34.48562415785185], [-115.16037914804913, 34.988621199336954], [-114.915012082499, 35.472818454428946], [-113.80430286109208, 36.46253547629544], [-113.68489575021704, 36.74679537021911], [-113.73869608160415, 37.05652469956915], [-114.01493386540822, 37.34107838848851], [-113.93512015376997, 37.53007628954001], [-113.78355802644886, 37.63704220156751], [-113.1373975421145, 37.84186640840458], [-112.07555739185338, 37.95130083485849], [-111.21555722151342, 37.90054017246766], [-110.6621832380609, 37.99687160594302], [-109.47625187651595, 38.45848937681117], [-108.91845497498839, 38.54898843376257], [-108.7434662218912, 38.51840117173458], [-108.12439620524492, 38.120390158149725], [-106.65454335632339, 37.645846045142825], [-106.03441831778876, 37.10532081143461], [-105.25419454788953, 36.57177639291858], [-104.59254429032288, 35.397543742702524], [-104.49134596393944, 34.86257803762469], [-104.62426207689195, 34.49380288569625], [-104.91524936156705, 34.06972303584763], [-105.02579018839322, 33.474537746307455], [-105.38717459691955, 32.68069935789348], [-105.53982351935403, 32.57975538986716], [-105.8075540936176, 32.56195524840337], [-106.09299417703548, 32.724368555916676], [-106.38981150587144, 34.606748565291355], [-106.69500153715035, 34.90137903093351], [-107.08220231246015, 34.91862405581354], [-107.48357720540558, 34.57247112447985], [-107.8078290413416, 34.049479556229635], [-107.77709147958248, 33.77994955341639], [-107.40805569385061, 33.400356269258], [-107.35387757861919, 32.905054648453095], [-107.43155768907936, 32.62636755396001], [-107.62577782820384, 32.42908818894068], [-107.98418335047586, 32.26387862065578], [-108.40534948925259, 32.18355808926717]]]}}]}