{
  "type": "FeatureCollection",
  "features": [
    {
      "type": "Feature",
      "properties": {
        "dn": 1,
        "PRODUCT": "Day 2 Excessive Rainfall Potential Forecast",
        "VALID_TIME": "12Z 09/29/26 - 12Z 09/30/26",
        "OUTLOOK": "Marginal (At Least 5%)",
        "ISSUE_TIME": "2026-09-28 08:12:00",
        "START_TIME": "2026-09-29 12:00:00",
        "END_TIME": "2026-09-30 12:00:00",
        "Snippet": "12Z 09/29/26 - 12Z 09/30/26",
        "risk_norm": "MARGINAL"
      },
      "geometry": {
        "type": "Polygon",
        "coordinates": [
          [
            [
              -104.87761417462117,
              29.890359737728467
            ],
            [
              -104.94258803789049,
              30.25127190067938
            ],
            [
              -105.06321323105779,
              30.42602250255805
            ],
            [
              -106.03376172506592,
              31.18162013085149
            ],
            [
              -106.5475389511578,
              31.418369960281332
            ],
            [
              -106.56818604747161,
              31.55911436285512
            ],
            [
              -107.96142231028024,
              31.588145302652837
            ],
            [
              -108.07427769574804,
              31.168369714264063
            ],
            [
              -108.97155491002155,
              31.09150268568954
            ],
            [
              -110.73429488815346,
              31.10827492474001
            ],
            [
              -111.27989065771753,
              31.190105409977882
            ],
            [
              -113.70735072265343,
              31.96781640913995
            ],
            [
              -113.89323365717462,
              33.409495178907726
            ],
            [
              -114.168361793849,
              34.06106730868856
            ],
            [
              -114.59343351032362,
              34.60245773764475
            ],
            [
              -115.64515342178952,
              35.201321460040454
            ],
            [
              -115.72051750485743,
              35.60086082955543
            ],
            [
              -115.6533169820112,
              35.83622039848833
            ],
            [
              -115.33576944512538,
              36.238906511355296
            ],
            [
              -113.71402871871844,
              37.24039022354167
            ],
            [
              -113.33895425098211,
              37.68535288632076
            ],
            [
              -113.1093790058591,
              38.33805896870931
            ],
            [
              -112.44413329351559,
              38.810245040019154
            ],
            [
              -111.79530005831634,
              39.05289713446579
            ],
            [
              -111.07326365222303,
              39.21027437522371
            ],
            [
              -109.13763586665378,
              39.33343434908488
            ],
            [
              -107.1511382924808,
              39.52706218842499
            ],
            [
              -106.76688214539789,
              39.68620240031045
            ],
            [
              -106.44939756604109,
              39.927579686972045
            ],
            [
              -106.00389178426711,
              40.618061203485155
            ],
            [
              -105.79059992013393,
              40.80813246932126
            ],
            [
              -104.12946528198935,
              41.076344325496166
            ],
            [
              -102.03076149827677,
              41.87092897129978
            ],
            [
              -100.83495945668975,
              42.47971409024413
            ],
            [
              -100.04256428399927,
              43.11002371000367
            ],
            [
              -99.01803688508045,
              44.17103386329546
            ],
            [
              -98.3727351730116,
              44.61401087769228
            ],
            [
              -96.8204165672272,
              45.31948648848472
            ],
            [
              -95.54919961135326,
              45.753246761091596
            ],
            [
              -93.77734867256058,
              46.13241564295552
            ],
            [
              -92.18713037513426,
              46.116010379622864
            ],
            [
              -91.03267174655024,
              45.92612884447673
            ],
            [
              -90.31328790370003,
              45.65488194634279
            ],
            [
              -90.07986109930569,
              45.43513511655601
            ],
            [
              -90.10180387127234,
              45.00849373798577
            ],
            [
              -90.30191400881074,
              44.627956796804305
            ],
            [
              -90.99953839149855,
              43.78371850328572
            ],
            [
              -92.21648086371732,
              42.98434953277026
            ],
            [
              -94.99964420392071,
              40.12170087236961
            ],
            [
              -96.59242503275415,
              38.877718180078546
            ],
            [
              -97.4764320674488,
              37.75692136313959
            ],
            [
              -97.73509361745056,
              36.860811421719916
            ],
            [
              -97.69294628316969,
              35.15804529616857
            ],
            [
              -97.82684345846307,
              33.93954816247638
            ],
            [
              -98.17419052773674,
              32.7578485923793
            ],
            [
              -98.48031009463583,
              32.20785455881431
            ],
            [
              -99.14655567306396,
              31.37509251839465
            ],
            [
              -100.5200186292956,
              30.059372183867602
            ],
            [
              -101.16535459239317,
              29.30506540373612
            ],
            [
              -101.60045505822336,
              29.60641002220556
            ],
            [
              -102.33806625490003,
              29.664618481651512
            ],
            [
              -102.540464226531,
              29.564651167053935
            ],
            [
              -102.67353584704607,
              29.193135991427127
            ],
            [
              -102.96863089913445,
              28.90342939769026
            ],
            [
              -103.43615605750442,
              28.87863360121877
            ],
            [
              -104.64208958358151,
              29.585567873281928
            ],
            [
              -104.87761417462117,
              29.890359737728467
            ]
          ],
          [
            [
              -102.01526238319309,
              30.409051038726133
            ],
            [
              -101.85731264563469,
              30.41602630917236
            ],
            [
              -101.1919218628924,
              30.807758088437062
            ],
            [
              -100.84657044204762,
              31.321559766076682
            ],
            [
              -99.40800497623003,
              32.638234967769066
            ],
            [
              -99.20313082197111,
              32.91539794568612
            ],
            [
              -98.70582487450346,
              34.19269856048354
            ],
            [
              -98.84057383933892,
              36.5262624562052
            ],
            [
              -98.76019372871949,
              37.42159011505925
            ],
            [
              -98.50147138606232,
              38.09507151763773
            ],
            [
              -97.51247225569409,
              39.26528839436939
            ],
            [
              -95.98129270691342,
              40.38302327347842
            ],
            [
              -94.7664923968506,
              41.65653617505068
            ],
            [
              -93.23192302743892,
              42.56248641775184
            ],
            [
              -92.69070005158305,
              42.99086590188813
            ],
            [
              -92.38553770522704,
              43.33315183265275
            ],
            [
              -92.37748921056212,
              43.63546610770222
            ],
            [
              -92.54980667232685,
              43.89654464994941
            ],
            [
              -93.02147086744957,
              44.24680466164301
            ],
            [
              -93.97748593432861,
              44.59782467606884
            ],
            [
              -94.76004028973237,
              44.60041909016294
            ],
            [
              -96.02100322983473,
              44.29736606147544
            ],
            [
              -97.38834449122055,
              43.76845489152393
            ],
            [
              -99.31333071917193,
              42.73852604059078
            ],
            [
              -101.77047994120352,
              41.48687325098552
            ],
            [
              -103.2348271903871,
              40.81168948827034
            ],
            [
              -103.79807561550795,
              40.60888542274234
            ],
            [
              -105.0455824885073,
              40.322503344338074
            ],
            [
              -105.5980524730886,
              40.069584917725564
            ],
            [
              -106.24794402325064,
              39.67545009537342
            ],
            [
              -107.14152173866373,
              38.95005030641511
            ],
            [
              -107.84050541448558,
              38.588123626007
            ],
            [
              -109.10285956667805,
              38.22181327099984
            ],
            [
              -109.93949364945864,
              38.10638875141125
            ],
            [
              -110.11414165398008,
              38.13582074540778
            ],
            [
              -111.11206780533523,
              38.715677414108086
            ],
            [
              -111.5274206414807,
              38.81043971089751
            ],
            [
              -112.02789380633246,
              38.71723442723867
            ],
            [
              -112.3863676170546,
              38.457442919109816
            ],
            [
              -113.98538422890861,
              36.53247286930792
            ],
            [
              -114.08040650343544,
              36.11472498933595
            ],
            [
              -114.01958526050981,
              35.12450588392651
            ],
            [
              -113.80435979799384,
              34.51313512594473
            ],
            [
              -113.13884063274976,
              33.81493415098091
            ],
            [
              -113.04511816594251,
              33.23292856229884
            ],
            [
              -113.10416641219483,
              31.901351010316986
            ],
            [
              -113.0294121966234,
              31.772270402539615
            ],
            [
              -111.28148113293346,
              31.20137761741491
            ],
            [
              -110.73583122070524,
              31.119554302490776
            ],
            [
              -108.97291957637657,
              31.10279857481652
            ],
            [
              -108.07555584893423,
              31.17967141344465
            ],
            [
              -107.96269406975671,
              31.599438374086553
            ],
            [
              -106.5693211711343,
              31.570418650439432
            ],
            [
              -106.53429261811556,
              31.419333442765456
            ],
            [
              -106.25778884909684,
              31.29792682314987
            ],
            [
              -106.10826378076864,
              31.22186103563778
            ],
            [
              -106.09396013631033,
              31.225993300196567
            ],
            [
              -105.99849963390686,
              31.184078729032706
            ],
            [
              -105.02815968575189,
              30.42826817049666
            ],
            [
              -104.89951149200203,
              30.162308108575782
            ],
            [
              -104.11573108078282,
              30.255496823976273
            ],
            [
              -103.04586701689347,
              30.04057118242146
            ],
            [
              -102.62907454145842,
              30.107028685572665
            ],
            [
              -102.01526238319309,
              30.409051038726133
            ]
          ]
        ]
      }
    },
    {
      "type": "Feature",
      "properties": {
        "dn": 2,
        "PRODUCT": "Day 2 Excessive Rainfall Potential Forecast",
        "VALID_TIME": "12Z 09/29/26 - 12Z 09/30/26",
        "OUTLOOK": "Slight (At Least 15%)",
        "ISSUE_TIME": "2026-09-28 08:12:00",
        "START_TIME": "2026-09-29 12:00:00",
        "END_TIME": "2026-09-30 12:00:00",
        "Snippet": "12Z 09/29/26 - 12Z 09/30/26",
        "risk_norm": "SLIGHT"
      },
      "geometry": {
        "type": "Polygon",
        "coordinates": [
          [
            [
              -106.53429261811556,
              31.419333442765456
            ],
            [
              -106.5693211711343,
              31.570418650439432
            ],
            [
              -107.96269406975671,
              31.599438374086553
            ],
            [
              -108.07555584893423,
              31.17967141344465
            ],
            [
              -108.97291957637657,
              31.10279857481652
            ],
            [
              -110.73583122070524,
              31.119554302490776
            ],
            [
              -111.28148113293346,
              31.20137761741491
            ],
            [
              -113.0294121966234,
              31.772270402539615
            ],
            [
              -113.10416641219483,
              31.901351010316986
            ],
            [
              -113.04511816594251,
              33.23292856229884
            ],
            [
              -113.13884063274976,
              33.81493415098091
            ],
            [
              -113.80435979799384,
              34.51313512594473
            ],
            [
              -114.01958526050981,
              35.12450588392651
            ],
            [
              -114.08040650343544,
              36.11472498933595
            ],
            [
              -113.98538422890861,
              36.53247286930792
            ],
            [
              -112.3863676170546,
              38.457442919109816
            ],
            [
              -112.02789380633246,
              38.71723442723867
            ],
            [
              -111.5274206414807,
              38.81043971089751
            ],
            [
              -111.11206780533523,
              38.715677414108086
            ],
            [
              -110.11414165398008,
              38.13582074540778
            ],
            [
              -109.93949364945864,
              38.10638875141125
            ],
            [
              -109.10285956667805,
              38.22181327099984
            ],
            [
              -107.84050541448558,
              38.588123626007
            ],
            [
              -107.14152173866373,
              38.95005030641511
            ],
            [
              -106.24794402325064,
              39.67545009537342
            ],
            [
              -105.5980524730886,
              40.069584917725564
            ],
            [
              -105.0455824885073,
              40.322503344338074
            ],
            [
              -103.79807561550795,
              40.60888542274234
            ],
            [
              -103.2348271903871,
              40.81168948827034
            ],
            [
              -101.77047994120352,
              41.48687325098552
            ],
            [
              -99.31333071917193,
              42.73852604059078
            ],
            [
              -97.38834449122055,
              43.76845489152393
            ],
            [
              -96.02100322983473,
              44.29736606147544
            ],
            [
              -94.76004028973237,
              44.60041909016294
            ],
            [
              -93.97748593432861,
              44.59782467606884
            ],
            [
              -93.02147086744957,
              44.24680466164301
            ],
            [
              -92.54980667232685,
              43.89654464994941
            ],
            [
              -92.37748921056212,
              43.63546610770222
            ],
            [
              -92.38553770522704,
              43.33315183265275
            ],
            [
              -92.69070005158305,
              42.99086590188813
            ],
            [
              -93.23192302743892,
              42.56248641775184
            ],
            [
              -94.7664923968506,
              41.65653617505068
            ],
            [
              -95.98129270691342,
              40.38302327347842
            ],
            [
              -97.51247225569409,
              39.26528839436939
            ],
            [
              -98.50147138606232,
              38.09507151763773
            ],
            [
              -98.76019372871949,
              37.42159011505925
            ],
            [
              -98.84057383933892,
              36.5262624562052
            ],
            [
              -98.70582487450346,
              34.19269856048354
            ],
            [
              -99.20313082197111,
              32.91539794568612
            ],
            [
              -99.40800497623003,
              32.638234967769066
            ],
            [
              -100.84657044204762,
              31.321559766076682
            ],
            [
              -101.1919218628924,
              30.807758088437062
            ],
            [
              -101.85731264563469,
              30.41602630917236
            ],
            [
              -102.01526238319309,
              30.409051038726133
            ],
            [
              -102.62907454145842,
              30.107028685572665
            ],
            [
              -103.04586701689347,
              30.04057118242146
            ],
            [
              -104.11573108078282,
              30.255496823976273
            ],
            [
              -104.89951149200203,
              30.162308108575782
            ],
            [
              -105.02815968575189,
              30.42826817049666
            ],
            [
              -105.99849963390686,
              31.184078729032706
            ],
            [
              -106.09396013631033,
              31.225993300196567
            ],
            [
              -105.90086227950502,
              31.281778483642704
            ],
            [
              -105.19529120869458,
              31.73841056709164
            ],
            [
              -104.14634266788127,
              32.6651169115248
            ],
            [
              -103.72063336719421,
              32.73412314724146
            ],
            [
              -103.23089021526864,
              32.66920945721335
            ],
            [
              -102.69416663019797,
              32.695772173759956
            ],
            [
              -102.06379166086401,
              32.95123763198795
            ],
            [
              -101.44579615585734,
              33.475115775386485
            ],
            [
              -100.99009690090121,
              34.07993459885462
            ],
            [
              -100.64566767166477,
              34.81362180655298
            ],
            [
              -100.69864236470504,
              35.84599311404725
            ],
            [
              -101.12536455459549,
              36.548289381727265
            ],
            [
              -101.19623158363059,
              36.81424049436908
            ],
            [
              -101.32110732407897,
              38.94756371058455
            ],
            [
              -101.56254049787698,
              39.16039258642938
            ],
            [
              -102.47374397745438,
              39.12377571621569
            ],
            [
              -103.73103446189516,
              38.443561024261584
            ],
            [
              -104.44204991732298,
              38.139004559239545
            ],
            [
              -106.00939255507211,
              37.95654893502828
            ],
            [
              -106.3371409279012,
              37.845901558824295
            ],
            [
              -106.87367753930698,
              37.586033580905905
            ],
            [
              -107.51305650365815,
              36.77843627560107
            ],
            [
              -108.09149115388206,
              36.464946210255306
            ],
            [
              -110.06273464623584,
              35.75842026991746
            ],
            [
              -111.04395785721678,
              35.62142194574719
            ],
            [
              -111.55162252897475,
              35.29989689730697
            ],
            [
              -111.72308829695976,
              34.60273592269393
            ],
            [
              -111.62272380026697,
              33.931703336389845
            ],
            [
              -111.34798355628737,
              33.55029893072942
            ],
            [
              -111.2895166397087,
              33.14650770578071
            ],
            [
              -112.14358156314512,
              31.962193980528358
            ],
            [
              -112.10323261812266,
              31.692212462243802
            ],
            [
              -111.96418601839783,
              31.478463385773757
            ],
            [
              -110.95664693530657,
              31.171681113604873
            ],
            [
              -108.97633124226411,
              31.131038297634017
            ],
            [
              -108.0787512318997,
              31.207925661396093
            ],
            [
              -108.06155305135975,
              31.52875254719563
            ],
            [
              -107.96587346844791,
              31.6276710526709
            ],
            [
              -106.78902049498184,
              31.628276163960095
            ],
            [
              -106.57215898029106,
              31.59867936940023
            ],
            [
              -106.50117678550993,
              31.421742148975824
            ],
            [
              -106.25778884909684,
              31.29792682314987
            ],
            [
              -106.53429261811556,
              31.419333442765456
            ]
          ]
        ]
      }
    },
    {
      "type": "Feature",
      "properties": {
        "dn": 3,
        "PRODUCT": "Day 2 Excessive Rainfall Potential Forecast",
        "VALID_TIME": "12Z 09/29/26 - 12Z 09/30/26",
        "OUTLOOK": "Moderate (At Least 40%)",
        "ISSUE_TIME": "2026-09-28 08:12:00",
        "START_TIME": "2026-09-29 12:00:00",
        "END_TIME": "2026-09-30 12:00:00",
        "Snippet": "12Z 09/29/26 - 12Z 09/30/26",
        "risk_norm": "MODERATE"
      },
      "geometry": {
        "type": "Polygon",
        "coordinates": [
          [
            [
              -106.10826378076864,
              31.22186103563778
            ],
            [
              -106.50117678550993,
              31.421742148975824
            ],
            [
              -106.57215898029106,
              31.59867936940023
            ],
            [
              -106.78902049498184,
              31.628276163960095
            ],
            [
              -107.96587346844791,
              31.6276710526709
            ],
            [
              -108.06155305135975,
              31.52875254719563
            ],
            [
              -108.0787512318997,
              31.207925661396093
            ],
            [
              -108.97633124226411,
              31.131038297634017
            ],
            [
              -110.95664693530657,
              31.171681113604873
            ],
            [
              -111.96418601839783,
              31.478463385773757
            ],
            [
              -112.10323261812266,
              31.692212462243802
            ],
            [
              -112.14358156314512,
              31.962193980528358
            ],
            [
              -111.2895166397087,
              33.14650770578071
            ],
            [
              -111.34798355628737,
              33.55029893072942
            ],
            [
              -111.62272380026697,
              33.931703336389845
            ],
            [
              -111.72308829695976,
              34.60273592269393
            ],
            [
              -111.55162252897475,
              35.29989689730697
            ],
            [
              -111.04395785721678,
              35.62142194574719
            ],
            [
              -110.06273464623584,
              35.75842026991746
            ],
            [
              -108.09149115388206,
              36.464946210255306
            ],
            [
              -107.51305650365815,
              36.77843627560107
            ],
            [
              -106.87367753930698,
              37.586033580905905
            ],
            [
              -106.3371409279012,
              37.845901558824295
            ],
            [
              -106.00939255507211,
              37.95654893502828
            ],
            [
              -104.44204991732298,
              38.139004559239545
            ],
            [
              -103.73103446189516,
              38.443561024261584
            ],
            [
              -102.47374397745438,
              39.12377571621569
            ],
            [
              -101.56254049787698,
              39.16039258642938
            ],
            [
              -101.32110732407897,
              38.94756371058455
            ],
            [
              -101.19623158363059,
              36.81424049436908
            ],
            [
              -101.12536455459549,
              36.548289381727265
            ],
            [
              -100.69864236470504,
              35.84599311404725
            ],
            [
              -100.64566767166477,
              34.81362180655298
            ],
            [
              -100.99009690090121,
              34.07993459885462
            ],
            [
              -101.44579615585734,
              33.475115775386485
            ],
            [
              -102.06379166086401,
              32.95123763198795
            ],
            [
              -102.69416663019797,
              32.695772173759956
            ],
            [
              -103.23089021526864,
              32.66920945721335
            ],
            [
              -103.72063336719421,
              32.73412314724146
            ],
            [
              -104.14634266788127,
              32.6651169115248
            ],
            [
              -105.19529120869458,
              31.73841056709164
            ],
            [
              -105.90086227950502,
              31.281778483642704
            ],
            [
              -106.10826378076864,
              31.22186103563778
            ]
          ]
        ]
      }
    }
  ]
}
